Key2,Var.2,ID,FullDate,Date,Date2,Start.ET.,Hour,Favorite,Underdog.ATS,Underdog,Total,Covered.O.U,O.U,Season,Week,Attendance,Home.Neutral,Home.Line,Away.Line,Visitor.Neutral,Home.Pts,Visitor.Pts,Home.Covered,Capacity,New.Stadium.Season,Years.in.Stadium,Temperature.x,Dome,City.Played,Weather.Station,Key,Weather Station Code.x,Data Type.x,Data Date,Time Zone.x,Latitude.x,Longitude.x,Elevation.x,Daily High Temperature,Daily Low Temperature,Daily Average Temperature,Daily Warmest Heat Index,Daily Coldest Wind Chill Temperature,Daily High Dew Point,Daily Low Dew Point,Daily AVG Dew Point,Daily High Relative Humidity,Daily Low Relative Humidity,Daily AVG Humidity,Daily High Wet Bulb Temp,Daily Low Wet Bulb Temp,Daily AVG Wet Bulb Temp,Daily High Wind Speed,Daily AVG Wind Speed,Daily Wind Direction.x,Daily High Wind Gust,Daily Cloud Cover percent.x,Daily AVG Visability Miles,Daily Total Solar Irradiance Beam,Daily Total Solar Irradiance Diffuse,Daily Total Solar Irradiance Global,Daily Total Minutes of Sunshine,Daily Total Minutes of Sunshine of a cloud free day,Daily Observed Daily Water Equivalent,Daily Snowfall.x,Daily High Pressure Inches,Daily Low Pressure Inches,Daily AVG Pressure Inches,Daily Highest Pressure Millibars,Daily Low Pressure Millibars,Daily AVG Daily Pressure Millibars,Daily Two Digit Predominate Weather,Daily Weather Code,Daily Weather Text.x,Weather Station Code.y,Data Type.y,Time Zone.y,Latitude.y,Longitude.y,Elevation.y,Hour Temperature.y,Hour Feels Like,Hour Dew Point,Hour Relative Humidity,Hour Wet Bulb Temp,Hour Wind Direction.y,Hour Wind Speed,Hour Cloud Cover percent.y,Hour Cloud Ceiling,Hour Cloud Cover Type,Hour Visibility,Hour Solar Irradiance Beam,Hour Solar Irradiance Diffuse,Hour Solar Irradiance Global,Hour Solar Irradiance Possible Beam,Hour Solar Irradiance Possible Global,Hour Solar Irradiance ET,Hour Probability of Precipitation,Hour Water EQ,Hour Snowfall.y,Hour Pressure Inches,Hour Pressure Millibars,Hour Weather Code Digit Numeric,Hour Weather Code Alpha Numeric,Hour Weather Text.y,Data Date_1,Data Date_2
CYQG 01/Jan/2017 20,1,DET2016,1-Jan-17,1-Jan-17,1-Jan-17,8:25,20,GB,-3.5,DET,55,O,50.5,2016,Week 17,66345,DET,3.5,-3.5,GB,24,31,Y,65000,0,14,58,0,Detroit,CYQG,CYQG4273620,CYQG,O,1-Jan-17,EST,42.276,-82.956,623,43,24,30,37,18,27,19,23,93,60,75,33,24,28,15,8,212,21,16,14.8,1659,166,1825,546,550,0,0,30.23,29.93,30.13,1024.8,1014.2,1021.2,46,CLR,Fair,CYQG,O,EST,42.276,-82.956,623,27,21,23,86,25,80,5,5,250,FEW,15,0,0,0,0,0,0,0,0,0,30.22,1024.6,45,CLR,Mostly Clear,1-Jan-17,20
CYQG 02/Dec/2018 13,2,DET2018,2-Dec-18,2-Dec-18,2-Dec-18,1:00,13,LAR,-10,DET,46,U,54,2018,Week 13,60974,DET,10,-10,LAR,16,30,Y,65000,0,16,54,0,Detroit,CYQG,CYQG4343613,CYQG,O,2-Dec-18,EST,42.267,-82.967,623,57,39,49,57,30,52,34,44,100,59,85,53,38,47,24,13,214,32,88,7.8,1180,175,1356,126,557,0.07,0,29.55,29.35,29.44,1001.1,994.3,997.4,40,MC,Overcast,CYQG,O,EST,42.267,-82.967,623,57,54,48,72,53,190,16,70,110,BKN,9,250,33,283,331,364,473,0,0,0,29.38,995.3,42,MC,Mostly Cloudy,2-Dec-18,13
CYQG 03/Dec/2015 20,3,DET2015,3-Dec-15,3-Dec-15,3-Dec-15,8:25,20,GB,-2.5,DET,50,O,46.5,2015,Week 13,63207,DET,2.5,-2.5,GB,23,27,Y,65000,0,13,72,1,Detroit,CYQG,CYQG4234120,CYQG,O,3-Dec-15,EST,42.276,-82.956,623,47,32,39,43,24,34,30,33,100,61,80,38,32,36,15,12,275,23,77,10.8,1238,175,1413,219,556,0.01,0,30.33,29.89,30.16,1027.5,1012.6,1021.8,42,MC,Mostly Cloudy,CYQG,O,EST,42.276,-82.956,623,41,35,32,70,37,250,10,100,34,OVC,15,0,0,0,0,0,0,0,0,0,30.3,1026.8,40,MC,Overcast,3-Dec-15,20
CYQG 05/Oct/2014 13,4,DET2014,5-Oct-14,5-Oct-14,5-Oct-14,1:00,13,DET,-5,BUF,31,U,43.5,2014,Week 5,62775,DET,-5,5,BUF,14,17,N,65000,0,12,72,1,Detroit,CYQG,CYQG4191713,CYQG,O,5-Oct-14,EST,42.276,-82.956,623,54,43,49,54,35,41,32,36,87,44,66,45,40,43,21,13,229,26,90,15,2016,406,2422,47,691,0.01,0,29.75,29.69,29.72,1007.8,1005.7,1006.6,42,MC,Mostly Cloudy,CYQG,O,EST,42.276,-82.956,623,54,50,32,44,44,230,12,100,280,BKN,15,269,61,330,611,672,874,0,0,0,29.73,1006.9,42,MC,Mostly Cloudy,5-Oct-14,13
CYQG 07/Dec/2014 13,5,DET2014,7-Dec-14,7-Dec-14,7-Dec-14,1:00,13,DET,-10.5,TB,51,O,42,2014,Week 14,61489,DET,-10.5,10.5,TB,34,17,Y,65000,0,12,72,1,Detroit,CYQG,CYQG4198013,CYQG,O,7-Dec-14,EST,42.276,-82.956,623,37,25,29,34,17,27,18,21,86,55,70,30,23,26,16,9,62,16,59,15,1234,169,1403,78,551,0,0,30.7,30.45,30.61,1040.3,1031.8,1037.4,50,PC,High Overcast,CYQG,O,EST,42.276,-82.956,623,34,26,21,60,29,80,9,100,270,OVC,15,225,32,257,322,354,460,0,0,0,30.66,1039,50,PC,High Overcast,7-Dec-14,13
CYQG 07/Oct/2018 13,6,DET2018,7-Oct-18,7-Oct-18,7-Oct-18,1:00,13,DET,-1,GB,54,O,50.5,2018,Week 5,63405,DET,-1,1,GB,31,23,Y,65000,0,16,28,0,Detroit,CYQG,CYQG4338013,CYQG,O,7-Oct-18,EST,42.267,-82.967,623,61,57,58,61,54,57,54,55,100,88,91,60,55,56,15,11,36,21,100,8.1,1970,396,2365,0,686,0.07,0,30.27,30.13,30.22,1025.3,1020.5,1023.7,40,MC,Overcast,CYQG,O,EST,42.267,-82.967,623,59,56,55,88,57,40,13,100,13,OVC,9,300,60,360,599,659,856,0,0,0,30.24,1024.4,40,MC,Overcast,7-Oct-18,13
CYQG 08/Oct/2017 13,7,DET2017,8-Oct-17,8-Oct-17,8-Oct-17,1:00,13,DET,-2,CAR,51,O,42,2017,Week 5,64288,DET,-2,2,CAR,24,27,Y,65000,0,15,46,0,Detroit,CYQG,CYQG4301613,CYQG,O,8-Oct-17,EST,42.276,-82.956,623,76,63,65,72,60,63,55,58,88,60,78,64,59,61,18,9,224,30,69,13.6,3413,389,3802,281,683,0.02,0,29.89,29.65,29.82,1012.2,1003.9,1009.7,42,MC,Mostly Cloudy,CYQG,O,EST,42.276,-82.956,623,72,72,59,65,64,190,9,26,270,FEW,15,569,59,628,593,652,847,0,0,0,29.89,1012,45,CLR,Mostly Clear,8-Oct-17,13
CYQG 08/Sep/2013 13,8,DET2013,8-Sep-13,8-Sep-13,8-Sep-13,1:00,13,DET,-4,MIN,58,O,46.5,2013,Week 1,62461,DET,-4,4,MIN,34,24,Y,65000,0,11,72,1,Detroit,CYQG,CYQG4152513,CYQG,O,8-Sep-13,EST,42.276,-82.956,623,73,58,67,77,60,67,51,57,87,52,71,68,56,62,21,11,30,22,78,12.9,4062,561,4621,205,768,0,0,30.1,29.93,30.05,1019.1,1013.2,1017.3,52,PC,High Clouds,CYQG,O,EST,42.276,-82.956,623,71,71,54,56,61,30,15,25,280,SCT,15,705,77,782,771,848,1102,0,0,0,30.1,1019.1,54,CLR,Few High Clouds,8-Sep-13,13
CYQG 08/Sep/2014 19,9,DET2014,8-Sep-14,8-Sep-14,8-Sep-14,7:10,19,DET,-6.5,NYG,49,O,46,2014,Week 1,64401,DET,-6.5,6.5,NYG,35,14,Y,65000,0,12,72,1,Detroit,CYQG,CYQG4189019,CYQG,O,8-Sep-14,EST,42.276,-82.956,623,75,52,64,77,52,61,50,56,94,53,77,65,51,59,9,4,112,9,18,15,4817,561,5378,604,768,0,0,30.21,30.05,30.14,1023,1017.6,1020.8,45,CLR,Mostly Clear,CYQG,O,EST,42.276,-82.956,623,64,64,59,83,61,90,6,5,280,FEW,15,0,0,0,0,0,0,0,0,0,30.08,1018.8,45,CLR,Mostly Clear,8-Sep-14,19
CYQG 09/Nov/2014 13,10,DET2014,9-Nov-14,9-Nov-14,9-Nov-14,1:00,13,DET,-3,MIA,36,U,43,2014,Week 10,63179,DET,-3,3,MIA,20,16,Y,65000,0,12,72,1,Detroit,CYQG,CYQG4195213,CYQG,O,9-Nov-14,EST,42.276,-82.956,623,45,32,40,45,27,34,27,31,87,61,72,39,31,36,17,10,219,24,96,15,1257,236,1492,37,599,0,0,29.93,29.81,29.88,1014.1,1010.1,1012.3,40,MC,Overcast,CYQG,O,EST,42.276,-82.956,623,43,36,34,71,39,200,14,100,250,OVC,15,177,41,218,411,452,587,0,0,0,29.85,1011.3,50,PC,High Overcast,9-Nov-14,13
CYQG 09/Oct/2016 13,11,DET2016,9-Oct-16,9-Oct-16,9-Oct-16,1:00,13,PHI,-3.5,DET,47,O,46,2016,Week 5,58047,DET,3.5,-3.5,PHI,24,23,N,65000,0,14,72,1,Detroit,CYQG,CYQG4265213,CYQG,O,9-Oct-16,EST,42.276,-82.956,623,62,42,50,59,38,45,36,39,82,48,68,50,40,45,12,7,358,20,18,15,2920,377,3295,432,681,0,0,30.4,30.28,30.35,1029.9,1025.6,1028,46,CLR,Fair,CYQG,O,EST,42.276,-82.956,623,57,56,39,51,49,340,8,70,42,BKN,15,378,58,436,581,639,829,0,0,0,30.35,1028.3,42,MC,Mostly Cloudy,9-Oct-16,13
CYQG 10/Sep/2017 13,12,DET2017,10-Sep-17,10-Sep-17,10-Sep-17,1:00,13,ARI,-2,DET,58,O,48.5,2017,Week 1,60957,DET,2,-2,ARI,35,23,Y,65000,0,15,50,0,Detroit,CYQG,CYQG4298813,CYQG,O,10-Sep-17,EST,42.276,-82.956,623,70,45,56,66,43,54,44,51,100,56,83,58,45,53,10,4,40,10,21,13.7,4165,550,4715,466,762,0,0,30.5,30.38,30.44,1033.1,1029.1,1031.1,46,CLR,Fair,CYQG,O,EST,42.276,-82.956,623,64,64,54,68,58,20,5,70,26,BKN,15,494,76,570,760,836,1086,0,0,0,30.46,1031.9,42,MC,Mostly Cloudy,10-Sep-17,13
CYQG 10/Sep/2018 19,13,DET2018,10-Sep-18,10-Sep-18,10-Sep-18,7:10,19,DET,-7,NYJ,65,O,44,2018,Week 1,61352,DET,-7,7,NYJ,17,48,Y,65000,0,16,56,0,Detroit,CYQG,CYQG4335319,CYQG,O,10-Sep-18,EST,42.267,-82.967,623,63,57,60,63,53,61,57,59,100,88,96,62,56,59,20,11,33,26,94,7.1,2755,550,3307,18,762,0.09,0,30.06,29.87,29.93,1017.9,1011.8,1013.6,18,RAIN,Light Rain,CYQG,O,EST,42.267,-82.967,623,61,60,57,88,59,350,8,100,50,OVC,12,0,0,0,0,0,0,0,0,0,29.96,1014.5,40,MC,Overcast,10-Sep-18,19
CYQG 11/Dec/2016 13,14,DET2016,11-Dec-16,11-Dec-16,11-Dec-16,1:00,13,DET,-7.5,CHI,37,U,42,2016,Week 14,61726,DET,-7.5,7.5,NO,20,17,N,65000,0,14,72,1,Detroit,CYQG,CYQG4271513,CYQG,O,11-Dec-16,EST,42.276,-82.956,623,32,23,28,32,15,32,18,26,100,74,93,31,22,27,17,11,182,22,100,2.1,818,164,984,0,549,0.19,3.5,30.38,29.73,30.1,1029.9,1007.6,1020.3,9,SNOW,Light Snow,CYQG,O,EST,42.276,-82.956,623,28,17,27,93,28,170,14,100,7,OVC,1,158,32,190,315,347,451,0,0,0,30.1,1020.5,9,SNOW,Light Snow,11-Dec-16,13
CYQG 11/Oct/2015 16,15,DET2015,11-Oct-15,11-Oct-15,11-Oct-15,4:05,16,ARI,-4.5,DET,59,O,46,2015,Week 5,60816,DET,4.5,-4.5,ARI,17,42,Y,65000,0,13,72,1,Detroit,CYQG,CYQG4228816,CYQG,O,11-Oct-15,EST,42.276,-82.956,623,75,50,61,76,46,50,43,46,94,36,61,59,47,53,20,12,223,25,11,15,3674,370,4044,639,674,0,0,29.95,29.74,29.83,1014.4,1007,1010.2,46,CLR,Fair,CYQG,O,EST,42.276,-82.956,623,73,75,45,36,58,220,20,0,243,SKC,15,223,22,245,223,245,319,0,0,0,29.75,1007.2,46,CLR,Fair,11-Oct-15,16
CYQG 12/Nov/2017 13,16,DET2017,12-Nov-17,12-Nov-17,12-Nov-17,1:00,13,DET,-10.5,CLE,62,O,42.5,2017,Week 10,64646,DET,-10.5,10.5,LAC,38,24,Y,65000,0,15,30,0,Detroit,CYQG,CYQG4305113,CYQG,O,12-Nov-17,EST,42.276,-82.956,623,41,32,36,39,29,36,23,30,93,60,79,37,29,33,8,3,321,8,100,8.1,1136,228,1362,0,593,0.08,0,30.34,30.29,30.32,1028.2,1026.5,1027.5,18,RAIN,Light Rain,CYQG,O,EST,42.276,-82.956,623,39,36,30,70,36,200,5,100,75,OVC,8,198,40,238,397,437,567,0,0,0,30.31,1027.2,18,RAIN,Light Rain,12-Nov-17,13
CYQG 14/Dec/2014 16,17,DET2014,14-Dec-14,14-Dec-14,14-Dec-14,4:25,16,DET,-8,MIN,30,U,42,2014,Week 15,62490,DET,-8,8,BUF,16,14,N,65000,0,12,72,1,Detroit,CYQG,CYQG4198716,CYQG,O,14-Dec-14,EST,42.276,-82.956,623,51,45,47,50,35,46,39,43,93,81,86,48,42,45,13,7,278,21,99,8.3,822,163,986,18,547,0,0,30.07,29.99,30.04,1018.6,1016.1,1017.7,40,MC,Overcast,CYQG,O,EST,42.276,-82.956,623,50,50,46,85,48,260,3,100,13,OVC,4,27,5,32,54,59,77,0,0,0,30.04,1017.6,35,HAZY,Haze,14-Dec-14,16
CYQG 15/Dec/2019 13,18,DET2019,15-Dec-19,15-Dec-19,15-Dec-19,1:00,13,DET,-2.5,TB,55,O,42,2019,Week 15,56515,DET,-2.5,2.5,LAC,17,38,Y,65000,0,17,71,0,Detroit,CYQG,CYQG4381413,CYQG,O,15-Dec-19,EST,42.267,-82.967,623,34,25,30,34,18,27,19,23,86,60,76,31,23,28,21,12,272,35,91,8.4,915,162,1078,81,546,0.12,0.3,30.15,29.69,30,1022.1,1006.3,1016.6,9,SNOW,Light Snow,CYQG,O,EST,42.267,-82.967,623,30,20,25,80,28,270,13,100,50,BKN,6,156,31,188,313,344,448,99,0.01,0,30.06,1018.9,9,SNOW,Light Snow,15-Dec-19,13
CYQG 15/Sep/2019 13,19,DET2019,15-Sep-19,15-Sep-19,15-Sep-19,1:00,13,LAC,-1,DET,23,U,46.5,2019,Week 2,60158,DET,1,-1,CLE,13,10,Y,65000,0,17,71,0,Detroit,CYQG,CYQG4372313,CYQG,O,15-Sep-19,EST,42.267,-82.967,623,73,55,65,77,54,64,55,62,100,73,89,68,55,63,13,6,205,20,72,8.9,2568,520,3090,66,748,0.16,0,30.18,30.05,30.12,1022.2,1017.6,1019.9,40,MC,Overcast,CYQG,O,EST,42.267,-82.967,623,72,72,64,78,67,210,13,100,80,OVC,9,366,73,440,733,806,1047,0,0,0,30.14,1020.7,40,MC,Overcast,15-Sep-19,13
CYQG 16/Dec/2013 20,20,DET2013,16-Dec-13,16-Dec-13,16-Dec-13,8:40,20,DET,-5,BAL,34,U,49.5,2013,Week 15,64742,DET,-5,5,BAL,16,18,N,65000,0,11,72,1,Detroit,CYQG,CYQG4162420,CYQG,O,16-Dec-13,EST,42.276,-82.956,623,19,7,13,18,-4,14,6,10,95,72,86,16,8,12,12,6,223,12,53,11,1384,161,1545,361,546,0.08,0,30.16,29.98,30.09,1022.4,1016.8,1020.1,45,CLR,Mostly Clear,CYQG,O,EST,42.276,-82.956,623,8,8,7,95,8,0,0,70,240,BKN,12,0,0,0,0,0,0,0,0,0,30.1,1020.7,52,PC,High Clouds,16-Dec-13,20
CYQG 16/Dec/2017 16,21,DET2017,16-Dec-17,16-Dec-17,16-Dec-17,4:30,16,DET,-5,CHI,30,U,44,2017,Week 15,65872,DET,-5,5,CHI,20,10,Y,65000,0,15,65,0,Detroit,CYQG,CYQG4308516,CYQG,O,16-Dec-17,EST,42.276,-82.956,623,34,21,28,34,14,27,19,23,93,70,83,31,22,26,17,11,48,24,92,10,809,161,968,0,546,0.18,0.8,30.17,29.88,30,1022.7,1013,1017,9,SNOW,Light Snow,CYQG,O,EST,42.276,-82.956,623,28,18,23,80,27,50,12,100,85,OVC,10,28,6,34,55,61,79,0,0,0,30.03,1018,40,MC,Overcast,16-Dec-17,16
CYQG 16/Oct/2016 13,22,DET2016,16-Oct-16,16-Oct-16,16-Oct-16,1:00,13,DET,-3,LAR,59,O,44.5,2016,Week 6,56018,DET,-3,3,LAR,31,28,N,65000,0,14,72,1,Detroit,CYQG,CYQG4265913,CYQG,O,16-Oct-16,EST,42.276,-82.956,623,72,63,65,70,61,63,59,61,94,69,85,65,60,63,20,11,221,25,99,11.9,1622,339,1962,1,661,0,0,30,29.93,29.96,1015.8,1013.5,1014.5,40,MC,Overcast,CYQG,O,EST,42.276,-82.956,623,64,64,63,94,63,250,7,100,240,BKN,15,279,54,333,537,591,767,0,0,0,29.96,1014.8,42,MC,Mostly Cloudy,16-Oct-16,13
CYQG 17/Nov/2019 13,23,DET2019,17-Nov-19,17-Nov-19,17-Nov-19,1:00,13,DAL,-2.5,DET,62,O,58,2019,Week 11,61801,DET,2.5,-2.5,HOU,27,35,Y,65000,0,17,39,0,Detroit,CYQG,CYQG4378613,CYQG,O,17-Nov-19,EST,42.267,-82.967,623,37,19,31,37,14,28,19,24,100,56,79,33,19,28,8,3,88,8,42,8.2,1949,212,2161,382,582,0,0,30.25,29.88,30.07,1025.4,1012.4,1019.2,46,CLR,Fair,CYQG,O,EST,42.267,-82.967,623,37,37,23,56,32,130,3,0,273,CLR,9,377,38,415,377,415,539,0,0,0,30.04,1018.2,46,CLR,Fair,17-Nov-19,13
CYQG 18/Nov/2018 13,24,DET2018,18-Nov-18,18-Nov-18,18-Nov-18,1:00,13,CAR,-4,DET,39,U,48.5,2018,Week 11,61999,DET,4,-4,CAR,20,19,N,65000,0,16,69,0,Detroit,CYQG,CYQG4342213,CYQG,O,18-Nov-18,EST,42.267,-82.967,623,36,28,33,36,22,34,27,31,100,75,91,35,28,32,7,4,318,7,87,5.4,1220,207,1429,0,580,0.17,1,30.31,30.15,30.22,1027.3,1022.1,1024.4,18,SHWR,Light Rain,CYQG,O,EST,42.267,-82.967,623,36,36,34,93,35,370,2,100,22,OVC,9,366,37,403,373,410,533,99,0.01,0,30.2,1023.4,18,RAIN,Light Rain,18-Nov-18,13
CYQG 18/Oct/2015 13,25,DET2015,18-Oct-15,18-Oct-15,18-Oct-15,1:00,13,DET,-3.5,CHI,71,O,45.5,2015,Week 6,57648,DET,-3.5,3.5,CHI,37,34,N,65000,0,13,72,1,Detroit,CYQG,CYQG4229513,CYQG,O,18-Oct-15,EST,42.276,-82.956,623,51,32,39,50,26,28,23,26,87,35,61,39,29,34,14,7,321,21,43,15,1942,336,2278,235,655,0,0,30.45,30.35,30.4,1031.5,1028.4,1030.1,42,MC,Mostly Cloudy,CYQG,O,EST,42.276,-82.956,623,48,45,25,40,39,350,7,100,280,BKN,15,234,53,287,531,584,759,0,0,0,30.43,1031.1,42,MC,Mostly Cloudy,18-Oct-15,13
CYQG 18/Sep/2016 13,26,DET2016,18-Sep-16,18-Sep-16,18-Sep-16,1:00,13,DET,-6,TEN,31,U,48,2016,Week 2,58466,DET,-6,6,TEN,15,16,N,65000,0,14,72,1,Detroit,CYQG,CYQG4263113,CYQG,O,18-Sep-16,EST,42.276,-82.956,623,82,63,69,80,63,66,59,63,100,51,83,67,63,66,10,5,226,17,57,11.3,3748,496,4244,147,740,0.31,0,30,29.93,29.96,1015.7,1013.5,1014.6,52,PC,High Clouds,CYQG,O,EST,42.276,-82.956,623,79,80,59,51,67,210,10,75,280,BKN,15,543,71,614,710,781,1014,0,0,0,29.97,1014.9,52,PC,High Clouds,18-Sep-16,13
CYQG 19/Oct/2014 13,27,DET2014,19-Oct-14,19-Oct-14,19-Oct-14,1:00,13,DET,-1.5,NO,47,O,46.5,2014,Week 7,63271,DET,-1.5,1.5,NO,24,23,N,65000,0,12,72,1,Detroit,CYQG,CYQG4193113,CYQG,O,19-Oct-14,EST,42.276,-82.956,623,52,32,44,52,29,39,30,33,93,44,68,43,31,39,13,7,250,17,60,15,2598,329,2927,196,653,0,0,30.2,29.97,30.1,1023.2,1015.2,1019.8,50,PC,High Overcast,CYQG,O,EST,42.276,-82.956,623,48,43,32,54,41,250,13,75,260,BKN,15,402,53,455,525,578,750,0,0,0,30.14,1021.1,52,PC,High Clouds,19-Oct-14,13
CYQG 20/Nov/2016 13,28,DET2016,20-Nov-16,20-Nov-16,20-Nov-16,1:00,13,DET,-5.5,JAX,45,U,47,2016,Week 11,61486,DET,-5.5,5.5,JAX,26,19,Y,65000,0,14,72,1,Detroit,CYQG,CYQG4269413,CYQG,O,20-Nov-16,EST,42.276,-82.956,623,36,27,32,34,16,23,16,18,65,48,58,30,24,28,26,20,314,37,78,15,1248,199,1446,101,577,0.05,0.5,30.14,29.99,30.09,1021.5,1016.4,1019.7,42,MC,Mostly Cloudy,CYQG,O,EST,42.276,-82.956,623,34,22,18,51,28,310,21,70,44,BKN,15,235,36,271,362,398,517,0,0,0,30.09,1020,42,MC,Mostly Cloudy,20-Nov-16,13
CYQG 20/Oct/2013 13,29,DET2013,20-Oct-13,20-Oct-13,20-Oct-13,1:00,13,DET,-3,CIN,51,O,46.5,2013,Week 7,63207,DET,-3,3,CIN,24,27,N,65000,0,11,72,1,Detroit,CYQG,CYQG4156713,CYQG,O,20-Oct-13,EST,42.276,-82.956,623,59,41,51,59,37,45,36,40,83,49,69,51,40,45,20,10,229,24,66,14.9,2248,326,2573,291,650,0,0,29.92,29.85,29.88,1013.6,1011.1,1012.2,42,MC,Mostly Cloudy,CYQG,O,EST,42.276,-82.956,623,54,52,40,57,47,240,10,100,280,BKN,15,215,52,267,519,571,741,0,0,0,29.9,1012.9,42,MC,Mostly Cloudy,20-Oct-13,13
CYQG 20/Oct/2019 13,30,DET2019,20-Oct-19,20-Oct-19,20-Oct-19,1:00,13,MIN,-1.5,DET,72,O,59,2019,Week 7,60314,DET,1.5,-1.5,OAK,30,42,Y,65000,0,17,31,0,Detroit,CYQG,CYQG4375813,CYQG,O,20-Oct-19,EST,42.267,-82.967,623,68,43,53,68,43,50,43,46,100,43,78,56,43,49,7,2,360,7,55,7.9,1702,326,2029,176,650,0,0,29.99,29.81,29.89,1015.8,1009.6,1012.5,46,CLR,Fair,CYQG,O,EST,42.267,-82.967,623,63,62,46,56,54,320,7,100,75,OVC,9,260,52,312,519,571,742,0,0,0,29.89,1012.4,40,MC,Overcast,20-Oct-19,13
CYQG 21/Sep/2014 13,31,DET2014,21-Sep-14,21-Sep-14,21-Sep-14,1:00,13,DET,-1.5,GB,26,U,52,2014,Week 3,62418,DET,-1.5,1.5,GB,19,7,Y,65000,0,12,72,1,Detroit,CYQG,CYQG4190313,CYQG,O,21-Sep-14,EST,42.276,-82.956,623,70,50,62,70,47,66,43,55,100,43,80,67,48,59,23,16,276,35,88,12.8,2867,486,3354,153,731,0.08,0,30.01,29.61,29.75,1016.4,1002.3,1007.5,40,MC,Overcast,CYQG,O,EST,42.276,-82.956,623,61,58,54,77,57,260,21,100,70,BKN,15,349,70,419,698,768,997,99,0.02,0,29.69,1005.2,18,RAIN,Light Rain,21-Sep-14,13
CYQG 22/Dec/2013 16,32,DET2013,22-Dec-13,22-Dec-13,22-Dec-13,4:05,16,DET,-9,NYG,43,U,47.5,2013,Week 16,63996,DET,-9,9,TEN,20,23,N,65000,0,11,72,1,Detroit,CYQG,CYQG4163016,CYQG,O,22-Dec-13,EST,42.276,-82.956,623,40,33,36,40,22,39,33,34,100,79,94,39,33,35,28,12,271,36,99,8.9,810,160,971,18,545,0.28,0,29.95,29.55,29.73,1014.9,1001.3,1007.3,40,MC,Overcast,CYQG,O,EST,42.276,-82.956,623,39,30,35,85,37,260,17,70,21,BKN,15,38,6,44,59,65,84,0,0,0,29.79,1009.4,42,MC,Mostly Cloudy,22-Dec-13,16
CYQG 22/Nov/2015 13,33,DET2015,22-Nov-15,22-Nov-15,22-Nov-15,1:00,13,OAK,-1.5,DET,31,U,50,2015,Week 11,60202,DET,1.5,-1.5,OAK,18,13,Y,65000,0,13,72,1,Detroit,CYQG,CYQG4233013,CYQG,O,22-Nov-15,EST,42.276,-82.956,623,34,19,27,30,10,27,16,21,93,59,80,29,19,25,18,12,273,24,36,14.2,1654,199,1853,423,572,0.01,2.6,30.17,29.93,30.1,1022.6,1014.1,1020.1,45,CLR,Mostly Clear,CYQG,O,EST,42.276,-82.956,623,30,20,18,59,26,280,13,70,35,BKN,15,233,36,269,359,395,512,0,0,0,30.13,1021.1,42,MC,Mostly Cloudy,22-Nov-15,13
CYQG 22/Nov/2018 12,34,DET2018,22-Nov-18,22-Nov-18,22-Nov-18,12:35,12,CHI,-3,DET,39,U,42.5,2018,Week 12,65684,DET,3,-3,CHI,16,23,Y,65000,0,16,48,0,Detroit,CYQG,CYQG4342612,CYQG,O,22-Nov-18,EST,42.267,-82.967,623,30,21,24,30,10,19,9,13,80,54,63,27,18,21,13,9,78,18,100,9.1,987,199,1184,0,572,0,0,30.56,30.41,30.49,1036,1030.9,1033.7,40,MC,Overcast,CYQG,O,EST,42.267,-82.967,623,23,11,9,54,19,80,12,100,75,OVC,9,185,37,222,370,407,528,0,0,0,30.55,1035.6,40,MC,Overcast,22-Nov-18,12
CYQG 23/Dec/2018 13,35,DET2018,23-Dec-18,23-Dec-18,23-Dec-18,1:00,13,MIN,-6.5,DET,36,U,42,2018,Week 16,61641,DET,6.5,-6.5,MIN,9,27,Y,65000,0,16,76,0,Detroit,CYQG,CYQG4345713,CYQG,O,23-Dec-18,EST,42.267,-82.967,623,37,32,34,37,25,30,25,28,93,65,81,35,30,32,12,7,242,12,100,7.9,802,160,963,0,545,0,0,30.06,30,30.04,1018.9,1016.6,1018,40,MC,Overcast,CYQG,O,EST,42.267,-82.967,623,36,29,30,81,33,300,8,100,21,OVC,6,156,31,188,313,344,448,0,0,0,30,1016.8,35,HAZY,Haze,23-Dec-18,13
CYQG 23/Nov/2017 12,36,DET2017,23-Nov-17,23-Nov-17,23-Nov-17,12:30,12,MIN,-2.5,DET,53,O,46,2017,Week 12,66613,DET,2.5,-2.5,MIN,23,30,Y,65000,0,15,36,0,Detroit,CYQG,CYQG4306212,CYQG,O,23-Nov-17,EST,42.276,-82.956,623,42,26,34,39,21,28,21,25,80,56,70,34,25,30,15,10,220,21,85,12.6,1089,195,1284,109,571,0,0,30.18,29.94,30.04,1022.9,1014.6,1018.2,40,MC,Overcast,CYQG,O,EST,42.276,-82.956,623,34,25,25,70,31,220,13,100,68,OVC,10,183,37,220,366,403,523,0,0,0,30.04,1018.1,40,MC,Overcast,23-Nov-17,12
CYQG 23/Oct/2016 13,37,DET2016,23-Oct-16,23-Oct-16,23-Oct-16,1:00,13,WAS,-1,DET,37,U,50,2016,Week 7,60461,DET,1,-1,WAS,20,17,Y,65000,0,14,72,1,Detroit,CYQG,CYQG4266613,CYQG,O,23-Oct-16,EST,42.276,-82.956,623,66,43,54,64,38,52,41,46,93,55,75,56,42,49,15,9,248,23,35,14.1,2997,307,3304,527,642,0,0,29.99,29.78,29.91,1016.2,1008.9,1013.2,46,CLR,Fair,CYQG,O,EST,42.276,-82.956,623,61,59,45,55,53,220,13,5,36,FEW,15,484,50,534,496,546,708,0,0,0,29.92,1013.3,46,CLR,Fair,23-Oct-16,13
CYQG 23/Sep/2018 20,38,DET2018,23-Sep-18,23-Sep-18,23-Sep-18,8:20,20,NE,-7,DET,36,U,55.5,2018,Week 3,61769,DET,7,-7,NE,26,10,Y,65000,0,16,86,0,Detroit,CYQG,CYQG4336620,CYQG,O,23-Sep-18,EST,42.267,-82.967,623,68,45,57,68,45,54,45,49,100,49,77,58,45,53,12,5,46,17,2,9.1,4612,474,5086,692,725,0,0,30.25,30.18,30.22,1024.7,1022.1,1023.6,46,CLR,Fair,CYQG,O,EST,42.267,-82.967,623,57,57,52,82,54,70,5,0,372,CLR,9,0,0,0,0,0,0,0,0,0,30.22,1023.4,46,CLR,Fair,23-Sep-18,20
CYQG 24/Nov/2013 13,39,DET2013,24-Nov-13,24-Nov-13,24-Nov-13,1:00,13,DET,-7,TB,45,U,49,2013,Week 12,62098,DET,-7,7,TB,21,24,N,65000,0,11,72,1,Detroit,CYQG,CYQG4160213,CYQG,O,24-Nov-13,EST,42.276,-82.956,623,25,16,20,25,2,14,5,8,71,44,58,20,14,17,17,11,297,20,32,15,1345,192,1538,298,569,0,0,30.57,30.42,30.51,1036.5,1031.4,1034.3,42,MC,Mostly Cloudy,CYQG,O,EST,42.276,-82.956,623,23,13,6,46,19,310,10,70,43,BKN,15,229,35,264,352,387,503,0,0,0,30.53,1035.1,42,MC,Mostly Cloudy,24-Nov-13,13
CYQG 24/Nov/2016 12,40,DET2016,24-Nov-16,24-Nov-16,24-Nov-16,12:30,12,DET,-1.5,MIN,29,U,42,2016,Week 12,63793,DET,-1.5,1.5,CLE,16,13,Y,65000,0,14,72,1,Detroit,CYQG,CYQG4269812,CYQG,O,24-Nov-16,EST,42.276,-82.956,623,47,36,42,46,34,43,37,40,100,82,91,45,38,41,15,10,249,21,100,7.4,950,191,1140,0,569,0.43,0,30.19,29.95,30.08,1023.1,1015,1019.2,40,MC,Overcast,CYQG,O,EST,42.276,-82.956,623,46,40,43,87,45,260,15,100,44,OVC,8,180,36,216,359,395,513,0,0,0,30.07,1018.9,40,MC,Overcast,24-Nov-16,12
CYQG 24/Sep/2017 13,41,DET2017,24-Sep-17,24-Sep-17,24-Sep-17,1:00,13,ATL,-3,DET,56,O,51,2017,Week 3,63240,DET,3,-3,ATL,26,30,Y,65000,0,15,57,0,Detroit,CYQG,CYQG4300213,CYQG,O,24-Sep-17,EST,42.276,-82.956,623,88,63,75,91,63,68,61,64,100,46,72,73,62,68,8,4,130,8,2,12.2,4642,469,5111,703,723,0,0,30.17,30.07,30.12,1021.5,1017.9,1019.6,46,CLR,Fair,CYQG,O,EST,42.276,-82.956,623,88,90,64,46,72,150,8,5,52,FEW,15,663,68,731,680,748,971,0,0,0,30.13,1020,46,CLR,Fair,24-Sep-17,13
CYQG 25/Oct/2015 13,42,DET2015,25-Oct-15,25-Oct-15,25-Oct-15,1:00,13,DET,-1,MIN,47,O,45,2015,Week 7,60231,DET,-1,1,MIN,19,28,Y,65000,0,13,72,1,Detroit,CYQG,CYQG4230213,CYQG,O,25-Oct-15,EST,42.276,-82.956,623,64,43,51,61,42,48,32,39,87,36,64,54,41,46,15,9,327,24,25,15,2906,301,3207,568,637,0,0,30.37,30,30.25,1028.7,1015.9,1024.7,45,CLR,Mostly Clear,CYQG,O,EST,42.276,-82.956,623,59,58,39,48,49,310,7,10,280,FEW,15,470,49,519,490,539,700,0,0,0,30.3,1026,45,CLR,Mostly Clear,25-Oct-15,13
CYQG 26/Nov/2015 12,43,DET2015,26-Nov-15,26-Nov-15,26-Nov-15,12:30,12,DET,-3,PHI,59,O,47,2015,Week 12,64445,DET,-3,3,PHI,45,14,Y,65000,0,13,72,1,Detroit,CYQG,CYQG4233412,CYQG,O,26-Nov-15,EST,42.276,-82.956,623,60,43,52,57,38,46,34,42,76,62,68,52,40,47,24,17,199,36,91,16.4,798,187,985,18,566,0,0,30.42,30.28,30.36,1030.6,1025.4,1028.4,42,MC,Mostly Cloudy,CYQG,O,EST,42.276,-82.956,623,55,50,43,63,49,210,24,100,260,BKN,15,151,36,187,356,392,508,0,0,0,30.39,1029.4,42,MC,Mostly Cloudy,26-Nov-15,12
CYQG 27/Dec/2015 13,44,DET2015,27-Dec-15,27-Dec-15,27-Dec-15,1:00,13,DET,-9,SF,49,O,42.5,2015,Week 16,61313,DET,-9,9,SF,32,17,Y,65000,0,13,72,1,Detroit,CYQG,CYQG4236513,CYQG,O,27-Dec-15,EST,42.276,-82.956,623,43,34,38,43,24,43,25,34,100,70,87,43,31,37,20,13,1,28,92,10.5,808,163,975,2,547,0.71,0,30.37,29.92,30.13,1029.4,1013.9,1021.1,18,RAIN,Light Rain,CYQG,O,EST,42.276,-82.956,623,37,29,34,87,36,360,15,100,19,OVC,15,158,32,190,316,348,452,0,0,0,30.15,1021.6,40,MC,Overcast,27-Dec-15,13
CYQG 27/Nov/2014 12,45,DET2014,27-Nov-14,27-Nov-14,27-Nov-14,12:30,12,DET,-7,CHI,51,O,46,2014,Week 13,64175,DET,-7,7,CHI,34,17,Y,65000,0,12,72,1,Detroit,CYQG,CYQG4197012,CYQG,O,27-Nov-14,EST,42.276,-82.956,623,36,25,30,34,14,23,10,20,80,60,68,30,23,27,18,11,309,23,76,14.5,1063,184,1247,87,565,0.06,0.6,30.29,30.07,30.16,1026.7,1019,1022.2,42,MC,Mostly Cloudy,CYQG,O,EST,42.276,-82.956,623,34,26,23,65,30,300,10,70,31,BKN,15,229,35,264,353,388,504,0,0,0,30.14,1021.5,42,MC,Mostly Cloudy,27-Nov-14,12
CYQG 27/Oct/2013 13,46,DET2013,27-Oct-13,27-Oct-13,27-Oct-13,1:00,13,DET,-3,DAL,61,O,52,2013,Week 8,64379,DET,-3,3,DAL,31,30,N,65000,0,11,72,1,Detroit,CYQG,CYQG4157413,CYQG,O,27-Oct-13,EST,42.276,-82.956,623,51,35,43,51,29,35,29,32,88,50,69,43,34,38,12,7,234,12,51,15,1678,291,1969,113,631,0,0,30.07,29.99,30.02,1018.8,1016,1017.2,42,MC,Mostly Cloudy,CYQG,O,EST,42.276,-82.956,623,47,43,30,52,40,240,9,75,61,BKN,15,299,48,347,478,526,684,0,0,0,30.04,1017.6,42,MC,Mostly Cloudy,27-Oct-13,13
CYQG 27/Oct/2019 13,47,DET2019,27-Oct-19,27-Oct-19,27-Oct-19,1:00,13,DET,-3,NYG,57,O,32,2019,Week 8,58509,DET,-3,3,BAL,31,26,Y,65000,0,17,77,0,Detroit,CYQG,CYQG4376513,CYQG,O,27-Oct-19,EST,42.267,-82.967,623,59,45,52,59,41,57,41,48,94,67,85,58,43,51,30,16,232,40,64,8,1529,291,1823,127,631,0.11,0,30.03,29.42,29.75,1017.2,996.6,1007.8,40,MC,Overcast,CYQG,O,EST,42.267,-82.967,623,55,51,48,77,52,280,20,100,20,OVC,9,240,48,288,479,527,684,0,0,0,29.82,1010.1,40,MC,Overcast,27-Oct-19,13
CYQG 27/Sep/2015 20,48,DET2015,27-Sep-15,27-Sep-15,27-Sep-15,8:30,20,DEN,-3,DET,36,U,45,2015,Week 3,62920,DET,3,-3,DEN,12,24,Y,65000,0,13,72,1,Detroit,CYQG,CYQG4227420,CYQG,O,27-Sep-15,EST,42.276,-82.956,623,78,54,66,78,53,63,52,58,94,57,77,65,53,61,14,7,162,21,45,15,3459,451,3911,300,714,0,0,30.25,30.1,30.18,1024.2,1019.2,1021.8,42,MC,Mostly Cloudy,CYQG,O,EST,42.276,-82.956,623,68,68,63,83,65,160,9,5,50,FEW,15,0,0,0,0,0,0,0,0,0,30.11,1019.5,46,CLR,Fair,27-Sep-15,20
CYQG 28/Nov/2013 12,49,DET2013,28-Nov-13,28-Nov-13,28-Nov-13,12:30,12,DET,-6.5,GB,50,O,49,2013,Week 13,64934,DET,-6.5,6.5,GB,40,10,Y,65000,0,11,72,1,Detroit,CYQG,CYQG4160612,CYQG,O,28-Nov-13,EST,42.276,-82.956,623,29,17,24,29,9,21,8,15,87,56,68,25,17,21,14,7,237,14,75,12.4,862,184,1045,0,563,0.03,0.4,30.41,30.18,30.3,1031,1023,1027,40,MC,Overcast,CYQG,O,EST,42.276,-82.956,623,26,17,21,84,24,180,8,100,90,OVC,10,175,35,210,350,385,500,0,0,0,30.29,1026.8,40,MC,Overcast,28-Nov-13,12
CYQG 28/Nov/2019 13,50,DET2019,28-Nov-19,28-Nov-19,28-Nov-19,1:00,13,CHI,-3.5,DET,44,O,43,2019,Week 13,65412,DET,3.5,-3.5,BAL,20,24,Y,65000,0,17,54,0,Detroit,CYQG,CYQG4379713,CYQG,O,28-Nov-19,EST,42.267,-82.967,623,39,32,36,39,24,28,25,28,80,65,71,36,29,33,25,13,326,39,100,9,918,184,1101,0,563,0,0,30.48,29.97,30.33,1032.9,1015.6,1027.9,40,MC,Overcast,CYQG,O,EST,42.267,-82.967,623,39,33,28,65,35,340,9,100,37,OVC,9,170,34,204,341,375,487,0,0,0,30.39,1029.8,40,MC,Overcast,28-Nov-19,13
CYQG 28/Oct/2018 13,51,DET2018,28-Oct-18,28-Oct-18,28-Oct-18,1:00,13,DET,-3,SEA,42,U,48,2018,Week 8,65237,DET,-3,3,SEA,14,28,Y,65000,0,16,47,0,Detroit,CYQG,CYQG4340113,CYQG,O,28-Oct-18,EST,42.267,-82.967,623,46,41,43,46,35,45,36,40,93,81,90,46,39,42,15,8,264,25,100,7.8,1320,287,1607,0,629,0.28,0,29.82,29.54,29.71,1010.5,1000.6,1006.7,19,RAIN,Moderate Rain,CYQG,O,EST,42.267,-82.967,623,45,38,43,93,44,160,15,100,110,OVC,9,121,47,168,473,520,676,99,0.01,0,29.62,1003.6,42,MC,Mostly Cloudy,28-Oct-18,13
CYQG 29/Oct/2017 20,52,DET2017,29-Oct-17,29-Oct-17,29-Oct-17,8:30,20,PIT,-3,DET,35,U,45,2017,Week 8,64983,DET,3,-3,PIT,15,20,Y,65000,0,15,79,0,Detroit,CYQG,CYQG4303720,CYQG,O,29-Oct-17,EST,42.276,-82.956,623,46,39,42,45,34,36,32,34,87,61,74,41,37,39,13,7,307,13,91,14.1,1460,282,1741,27,626,0,0,29.85,29.67,29.78,1011.3,1005.3,1008.9,40,MC,Overcast,CYQG,O,EST,42.276,-82.956,623,43,38,36,76,40,330,7,100,56,OVC,12,0,0,0,0,0,0,0,0,0,29.73,1007.3,40,MC,Overcast,29-Oct-17,20
CYQG 29/Sep/2013 13,53,DET2013,29-Sep-13,29-Sep-13,29-Sep-13,1:00,13,DET,-3,CHI,72,O,48.5,2013,Week 4,64552,DET,-3,3,IND,40,32,Y,65000,0,11,72,1,Detroit,CYQG,CYQG4154613,CYQG,O,29-Sep-13,EST,42.276,-82.956,623,67,60,63,66,60,62,56,59,97,74,86,62,59,61,9,6,209,9,87,8.2,2124,439,2563,20,709,0.23,0,30.04,29.97,29.99,1017,1014.9,1015.6,18,RAIN,Light Rain,CYQG,O,EST,42.276,-82.956,623,63,63,61,92,62,210,8,100,25,OVC,4,324,65,390,649,714,927,99,0.02,0,29.99,1015.6,18,RAIN,Light Rain,29-Sep-13,13
CYQG 29/Sep/2019 13,54,DET2019,29-Sep-19,29-Sep-19,29-Sep-19,1:00,13,KC,-7,DET,64,O,54.5,2019,Week 4,65188,DET,7,-7,DET,30,34,N,65000,0,17,77,0,Detroit,CYQG,CYQG4373713,CYQG,O,29-Sep-19,EST,42.267,-82.967,623,64,54,60,64,52,59,52,56,100,78,90,61,53,58,16,11,66,25,84,9,2397,440,2838,0,709,0.09,0,30.34,30.21,30.28,1027.7,1023,1025.4,40,MC,Overcast,CYQG,O,EST,42.267,-82.967,623,64,63,59,83,61,60,13,100,44,OVC,9,97,65,162,649,714,927,99,0.01,0,30.31,1026.4,40,MC,Overcast,29-Sep-19,13
CYQG 31/Dec/2017 13,55,DET2017,31-Dec-17,31-Dec-17,31-Dec-17,1:00,13,DET,-7,GB,46,O,45,2017,Week 17,62501,DET,-7,7,GB,35,11,Y,65000,0,15,60,0,Detroit,CYQG,CYQG4310013,CYQG,O,31-Dec-17,EST,42.276,-82.956,623,18,5,9,16,-9,1,-8,-3,78,38,59,12,3,7,12,7,326,12,37,13.8,1440,165,1605,314,549,0,0,30.47,30.33,30.42,1033.7,1028.6,1031.8,45,CLR,Mostly Clear,CYQG,O,EST,42.276,-82.956,623,14,3,-2,48,11,310,8,10,150,FEW,15,307,32,339,321,353,459,0,0,0,30.43,1032,45,CLR,Mostly Clear,31-Dec-17,13
KAGC 01/Dec/2019 13,56,PIT2019,1-Dec-19,1-Dec-19,1-Dec-19,1:00,13,PIT,-3.5,CLE,33,O,48,2019,Week 13,62157,PIT,-3.5,3.5,MIN,20,13,Y,68400,0,18,30,0,Pittsburgh,KAGC,KAGC4380013,KAGC,O,1-Dec-19,EST,40.35,-79.917,1276,47,36,41,46,29,44,32,38,100,79,91,45,36,40,16,10,142,30,95,7,1006,201,1206,9,571,0.43,0,29.72,29.37,29.5,1007.7,995.6,1000,18,RAIN,Light Rain,KAGC,O,EST,40.35,-79.917,1276,46,40,44,93,45,140,13,100,13,OVC,10,179,36,215,358,394,512,0,0,0,29.39,996.2,40,MC,Overcast,1-Dec-19,13
KAGC 01/Jan/2017 13,57,PIT2016,1-Jan-17,1-Jan-17,1-Jan-17,1:00,13,PIT,-3.5,CLE,51,O,41.5,2016,Week 17,55921,PIT,-3.5,3.5,ARI,27,24,N,68400,0,15,65,0,Pittsburgh,KAGC,KAGC4273613,KAGC,O,1-Jan-17,EST,40.354,-79.93,1253,44,32,37,44,28,32,25,28,89,51,70,37,30,34,13,6,213,22,67,9.6,1739,187,1925,438,562,0.03,0,30.29,29.95,30.17,1025.6,1014.1,1021.9,46,CLR,Fair,KAGC,O,EST,40.354,-79.93,1253,41,37,26,55,35,260,6,0,201,CLR,10,352,35,387,352,387,502,0,0,0,30.21,1023,46,CLR,Fair,1-Jan-17,13
KAGC 01/Nov/2015 13,58,PIT2015,1-Nov-15,1-Nov-15,1-Nov-15,1:00,13,PIT, PK,CIN,26,U,49.5,2015,Week 8,64750,PIT, PK,PK,ARI,10,16,PK,68400,0,14,63,0,Pittsburgh,KAGC,KAGC4230913,KAGC,O,1-Nov-15,EST,40.354,-79.93,1253,65,54,58,65,50,50,37,44,80,39,62,54,47,51,16,12,220,25,80,9,1937,293,2228,177,626,0.02,0,30.07,29.85,29.95,1018.3,1010.7,1014.3,46,CLR,Fair,KAGC,O,EST,40.354,-79.93,1253,64,62,44,48,54,240,16,12,29,FEW,10,461,47,508,473,520,676,0,0,0,29.94,1014,45,CLR,Mostly Clear,1-Nov-15,13
KAGC 01/Oct/2015 20,59,PIT2015,1-Oct-15,1-Oct-15,1-Oct-15,8:25,20,BAL,-3,PIT,43,U,44,2015,Week 4,63929,PIT,3,-3,SF,20,23,N,68400,0,14,54,0,Pittsburgh,KAGC,KAGC4227820,KAGC,O,1-Oct-15,EST,40.354,-79.93,1253,63,51,55,61,49,46,43,44,77,56,67,53,47,50,13,8,31,20,94,10,2248,450,2697,2,707,0,0,30.19,30.07,30.12,1022.2,1018.4,1020.1,40,MC,Overcast,KAGC,O,EST,40.354,-79.93,1253,56,53,44,65,50,70,13,38,39,SCT,10,0,0,0,0,0,0,0,0,0,30.16,1021.5,44,PC,Partly Cloudy,1-Oct-15,20
KAGC 02/Dec/2018 20,60,PIT2018,2-Dec-18,2-Dec-18,2-Dec-18,8:20,20,PIT,-3,LAC,63,O,53.5,2018,Week 13,61069,PIT,-3,3,LAC,30,33,N,68400,0,17,79,0,Pittsburgh,KAGC,KAGC4343620,KAGC,O,2-Dec-18,EST,40.35,-79.917,1276,64,45,54,63,39,54,35,44,97,44,72,57,44,49,16,11,190,41,56,10,1549,199,1748,317,569,0.11,0,29.65,29.51,29.57,1005.1,999.7,1001.7,46,CLR,Fair,KAGC,O,EST,40.35,-79.917,1276,57,55,41,55,49,190,10,70,95,BKN,10,0,0,0,0,0,0,0,0,0,29.51,999.8,42,MC,Mostly Cloudy,2-Dec-18,20
KAGC 02/Nov/2014 20,61,PIT2014,2-Nov-14,2-Nov-14,2-Nov-14,8:30,20,PIT,-2,BAL,66,O,48,2014,Week 9,63971,PIT,-2,2,IND,43,23,Y,65500,0,13,37,0,Pittsburgh,KAGC,KAGC4194520,KAGC,O,2-Nov-14,EST,40.354,-79.93,1253,46,34,38,45,24,23,16,20,67,31,50,35,29,32,17,12,324,25,39,10,2654,288,2942,477,624,0,0,30.36,30.18,30.29,1028.1,1022,1025.8,46,CLR,Fair,KAGC,O,EST,40.354,-79.93,1253,39,34,21,48,33,300,7,0,201,CLR,10,0,0,0,0,0,0,0,0,0,30.34,1027.4,46,CLR,Fair,2-Nov-14,20
KAGC 02/Oct/2016 20,62,PIT2016,2-Oct-16,2-Oct-16,2-Oct-16,8:30,20,PIT,-3.5,KC,57,O,48.5,2016,Week 4,61278,PIT,-3.5,3.5,SF,43,14,Y,68400,0,15,60,0,Pittsburgh,KAGC,KAGC4264520,KAGC,O,2-Oct-16,EST,40.354,-79.93,1253,67,58,61,67,58,58,52,55,93,59,82,59,56,58,12,6,207,18,90,7.2,2215,440,2653,6,701,0.11,0,30.07,30.01,30.05,1018.3,1016.4,1017.5,45,CLR,Mostly Clear,KAGC,O,EST,40.354,-79.93,1253,60,60,57,90,58,0,0,100,37,OVC,5,0,0,0,0,0,0,0,0,0,30.05,1017.6,45,CLR,Mostly Clear,2-Oct-16,20
KAGC 03/Nov/2019 13,63,PIT2019,3-Nov-19,3-Nov-19,3-Nov-19,1:00,13,PIT,-2.5,IND,50,O,53,2019,Week 9,61115,PIT,-2.5,2.5,PIT,26,24,N,68400,0,18,41,0,Pittsburgh,KAGC,KAGC4377213,KAGC,O,3-Nov-19,EST,40.35,-79.917,1276,47,36,41,47,30,30,23,26,73,42,57,38,33,35,14,9,246,24,34,9.9,2596,284,2880,511,622,0,0,30.22,30.11,30.17,1024.6,1020.8,1022.9,46,CLR,Fair,KAGC,O,EST,40.35,-79.917,1276,45,39,25,46,37,230,13,20,45,SCT,10,417,46,463,463,509,662,0,0,0,30.18,1023.2,44,PC,Partly Cloudy,3-Nov-19,13
KAGC 04/Dec/2016 16,64,PIT2016,4-Dec-16,4-Dec-16,4-Dec-16,4:25,16,PIT,-6.5,NYG,38,U,49.5,2016,Week 13,65825,PIT,-6.5,6.5,DET,24,14,Y,68400,0,15,40,0,Pittsburgh,KAGC,KAGC4270816,KAGC,O,4-Dec-16,EST,40.354,-79.93,1253,40,32,37,40,28,34,24,26,82,55,65,35,29,32,10,5,118,10,93,9.6,1215,195,1411,98,566,0.12,0,30.31,29.87,30.15,1026.2,1011.4,1020.9,46,CLR,Fair,KAGC,O,EST,40.354,-79.93,1253,40,35,25,55,34,110,8,100,120,BKN,10,35,5,40,47,52,67,0,0,0,30.1,1019.2,42,MC,Mostly Cloudy,4-Dec-16,16
KAGC 06/Dec/2015 20,65,PIT2015,6-Dec-15,6-Dec-15,6-Dec-15,8:30,20,PIT,-9.5,IND,55,O,50.5,2015,Week 13,58701,PIT,-9.5,9.5,GB,45,10,Y,68400,0,14,35,0,Pittsburgh,KAGC,KAGC4234420,KAGC,O,6-Dec-15,EST,40.354,-79.93,1253,50,26,38,50,26,35,23,30,92,54,77,43,25,35,7,3,163,7,94,4.8,962,192,1155,0,564,0,0,30.57,30.28,30.43,1035.8,1025.4,1030.6,46,CLR,Fair,KAGC,O,EST,40.354,-79.93,1253,45,42,32,61,40,220,6,100,149,CLR,10,0,0,0,0,0,0,0,0,0,30.33,1027,46,CLR,Fair,6-Dec-15,20
KAGC 06/Oct/2019 13,66,PIT2019,6-Oct-19,6-Oct-19,6-Oct-19,1:00,13,PIT,-3,BAL,49,O,47.5,2019,Week 5,64037,PIT,-3,3,KC,23,26,N,68400,0,18,62,0,Pittsburgh,KAGC,KAGC4374413,KAGC,O,6-Oct-19,EST,40.35,-79.917,1276,69,55,63,69,53,64,47,57,100,69,81,65,51,59,15,7,182,23,82,9,2418,421,2842,36,691,0.26,0,30.15,30.07,30.11,1021.1,1018.3,1019.8,40,MC,Overcast,KAGC,O,EST,40.35,-79.917,1276,69,69,61,76,64,200,9,100,90,OVC,10,312,63,376,625,688,894,0,0,0,30.14,1020.8,40,MC,Overcast,6-Oct-19,13
KAGC 07/Oct/2018 13,67,PIT2018,7-Oct-18,7-Oct-18,7-Oct-18,1:00,13,PIT,-3.5,ATL,58,O,57.5,2018,Week 5,64781,PIT,-3.5,3.5,ATL,41,17,Y,68400,0,17,54,0,Pittsburgh,KAGC,KAGC4338013,KAGC,O,7-Oct-18,EST,40.35,-79.917,1276,83,65,74,87,65,71,64,68,100,61,83,74,65,70,9,4,187,17,27,8.1,3486,417,3903,445,688,0,0,30.25,30.14,30.21,1023.8,1020.3,1022.5,64,HAZY,Mist,KAGC,O,EST,40.35,-79.917,1276,82,87,71,69,74,170,7,25,42,SCT,10,542,62,604,619,681,884,0,0,0,30.21,1022.6,44,PC,Partly Cloudy,7-Oct-18,13
KAGC 07/Sep/2014 13,68,PIT2014,7-Sep-14,7-Sep-14,7-Sep-14,1:00,13,PIT,-6,CLE,57,O,41.5,2014,Week 1,64598,PIT,-6,6,MIA,30,27,N,65500,0,13,72,0,Pittsburgh,KAGC,KAGC4188913,KAGC,O,7-Sep-14,EST,40.354,-79.93,1253,73,53,63,72,52,53,48,50,89,44,65,60,51,56,9,5,14,9,5,10,5399,585,5984,699,768,0,0,30.23,30.11,30.18,1023.7,1019.6,1022,46,CLR,Fair,KAGC,O,EST,40.354,-79.93,1253,69,69,50,51,58,370,5,70,45,BKN,10,515,79,594,793,872,1133,0,0,0,30.21,1022.9,42,MC,Mostly Cloudy,7-Sep-14,13
KAGC 08/Dec/2013 13,69,PIT2013,8-Dec-13,8-Dec-13,8-Dec-13,1:00,13,PIT,-3,MIA,62,O,40.5,2013,Week 14,52489,PIT,-3,3,CAR,28,34,Y,65500,0,12,26,0,Pittsburgh,KAGC,KAGC4161613,KAGC,O,8-Dec-13,EST,40.354,-79.93,1253,31,19,25,30,10,29,11,18,92,68,76,29,17,22,13,7,80,17,87,7.1,951,191,1140,0,563,0.09,1.1,30.58,30.1,30.37,1035.5,1019.3,1028.7,40,MC,Overcast,KAGC,O,EST,40.354,-79.93,1253,24,18,21,88,23,60,5,100,18,VV,0.5,173,35,208,346,381,494,99,0.01,0.1,30.39,1029.2,10,SNOW,Moderate Snow,8-Dec-13,13
KAGC 08/Nov/2015 13,70,PIT2015,8-Nov-15,8-Nov-15,8-Nov-15,1:00,13,PIT,-6,OAK,73,O,48,2015,Week 9,65520,PIT,-6,6,CIN,38,35,N,68400,0,14,51,0,Pittsburgh,KAGC,KAGC4231613,KAGC,O,8-Nov-15,EST,40.354,-79.93,1253,54,39,46,53,35,28,22,25,63,30,46,41,34,38,7,4,324,7,4,10,2650,265,2915,610,610,0,0,30.48,30.34,30.41,1032.2,1027.5,1029.9,46,CLR,Fair,KAGC,O,EST,40.354,-79.93,1253,50,50,24,36,40,0,0,0,201,CLR,10,439,44,483,439,483,626,0,0,0,30.44,1030.9,46,CLR,Fair,8-Nov-15,13
KAGC 08/Nov/2018 20,71,PIT2018,8-Nov-18,8-Nov-18,8-Nov-18,8:20,20,PIT,-3.5,CAR,73,O,51,2018,Week 10,62881,PIT,-3.5,3.5,CAR,52,21,Y,68400,0,17,80,0,Pittsburgh,KAGC,KAGC4341220,KAGC,O,8-Nov-18,EST,40.35,-79.917,1276,46,32,38,45,26,31,29,30,88,58,73,39,31,35,7,4,358,7,14,10,2439,265,2704,493,610,0,0,30.32,30.21,30.27,1028,1024.1,1026.5,46,CLR,Fair,KAGC,O,EST,40.35,-79.917,1276,39,35,30,70,35,40,5,0,156,CLR,10,0,0,0,0,0,0,0,0,0,30.29,1027.4,46,CLR,Fair,8-Nov-18,20
KAGC 08/Oct/2017 13,72,PIT2017,8-Oct-17,8-Oct-17,8-Oct-17,1:00,13,PIT,-7.5,JAX,39,U,41.5,2017,Week 5,66237,PIT,-7.5,7.5,LAC,9,30,Y,68400,0,16,75,0,Pittsburgh,KAGC,KAGC4301613,KAGC,O,8-Oct-17,EST,40.354,-79.93,1253,73,67,69,77,67,66,60,63,93,64,80,67,64,65,15,8,206,29,99,8.6,2458,411,2869,17,686,0.54,0,29.96,29.8,29.9,1014.7,1009.2,1012.4,18,RAIN,Light Rain,KAGC,O,EST,40.354,-79.93,1253,72,72,60,66,65,230,9,71,27,OVC,10,398,61,459,613,674,876,0,0,0,29.96,1014.2,45,CLR,Mostly Clear,8-Oct-17,13
KAGC 08/Sep/2013 13,73,PIT2013,8-Sep-13,8-Sep-13,8-Sep-13,1:00,13,PIT,-6,TEN,25,U,42,2013,Week 1,61585,PIT,-6,6,KC,9,16,Y,65500,0,12,74,0,Pittsburgh,KAGC,KAGC4152513,KAGC,O,8-Sep-13,EST,40.354,-79.93,1253,79,62,69,82,63,66,55,60,84,60,73,71,59,64,9,5,58,16,65,9.8,3441,577,4019,268,765,0,0,30.07,29.93,29.99,1018.2,1013.5,1015.4,46,CLR,Fair,KAGC,O,EST,40.354,-79.93,1253,74,77,65,74,68,370,5,100,25,OVC,8,394,79,473,788,867,1125,0,0,0,29.99,1015.6,44,PC,Partly Cloudy,8-Sep-13,13
KAGC 09/Oct/2016 13,74,PIT2016,9-Oct-16,9-Oct-16,9-Oct-16,1:00,13,PIT,-9.5,NYJ,44,U,50,2016,Week 5,66385,PIT,-9.5,9.5,OAK,31,13,Y,68400,0,15,57,0,Pittsburgh,KAGC,KAGC4265213,KAGC,O,9-Oct-16,EST,40.354,-79.93,1253,59,44,51,59,41,43,38,40,80,48,66,49,41,46,15,8,340,25,40,10,2922,401,3323,321,683,0,0,30.33,30.17,30.27,1027.1,1021.7,1025.1,46,CLR,Fair,KAGC,O,EST,40.354,-79.93,1253,58,55,39,50,49,330,14,75,40,BKN,10,376,60,436,601,661,858,0,0,0,30.26,1024.8,45,CLR,Mostly Clear,9-Oct-16,13
KAGC 10/Dec/2017 20,75,PIT2017,10-Dec-17,10-Dec-17,10-Dec-17,8:30,20,PIT,-6,BAL,77,O,43,2017,Week 14,60069,PIT,-6,6,OAK,39,38,N,68400,0,16,70,0,Pittsburgh,KAGC,KAGC4307920,KAGC,O,10-Dec-17,EST,40.354,-79.93,1253,32,26,29,30,15,21,15,17,81,54,64,26,23,25,17,13,242,28,100,9.2,981,189,1169,0,561,0,0.1,30,29.85,29.95,1018,1012.5,1016,40,MC,Overcast,KAGC,O,EST,40.354,-79.93,1253,30,22,16,56,26,230,9,100,60,OVC,10,0,0,0,0,0,0,0,0,0,29.97,1016.7,40,MC,Overcast,10-Dec-17,20
KAGC 10/Nov/2013 13,76,PIT2013,10-Nov-13,10-Nov-13,10-Nov-13,1:00,13,PIT,-3,BUF,33,U,43,2013,Week 10,60406,PIT,-3,3,BUF,23,10,Y,65500,0,12,46,0,Pittsburgh,KAGC,KAGC4158813,KAGC,O,10-Nov-13,EST,40.354,-79.93,1253,54,37,45,54,31,35,25,30,66,35,54,44,34,39,21,14,261,33,58,10,1307,258,1566,36,606,0,0,30.29,29.98,30.13,1025.9,1015.2,1020.3,40,MC,Overcast,KAGC,O,EST,40.354,-79.93,1253,45,38,27,49,38,280,14,100,46,OVC,10,214,43,258,429,472,613,0,0,0,30.13,1020.4,42,MC,Mostly Cloudy,10-Nov-13,13
KAGC 10/Nov/2019 13,77,PIT2019,10-Nov-19,10-Nov-19,10-Nov-19,1:00,13,PIT,PK,LAR,29,O,45,2019,Week 10,63627,PIT,PK,PK,PHI,17,12,PK,68400,0,18,83,0,Pittsburgh,KAGC,KAGC4377913,KAGC,O,10-Nov-19,EST,40.35,-79.917,1276,54,36,46,54,30,36,20,30,63,45,53,45,31,39,16,8,215,23,51,9.5,2390,258,2648,501,606,0,0,30.02,29.96,29.99,1017.8,1015.4,1016.6,40,MC,Overcast,KAGC,O,EST,40.35,-79.917,1276,53,49,34,49,44,230,13,5,80,FEW,10,418,43,461,429,472,613,0,0,0,29.98,1016.3,45,CLR,Mostly Clear,10-Nov-19,13
KAGC 13/Nov/2016 16,78,PIT2016,13-Nov-16,13-Nov-16,13-Nov-16,4:25,16,PIT,-3,DAL,65,O,51,2016,Week 10,67737,PIT,-3,3,LAC,30,35,Y,68400,0,15,54,0,Pittsburgh,KAGC,KAGC4268716,KAGC,O,13-Nov-16,EST,40.354,-79.93,1253,54,27,41,54,20,26,20,23,79,28,51,41,26,34,10,8,207,10,38,9.9,2440,243,2683,600,600,0,0,30.33,30.16,30.24,1027,1021.3,1024.2,46,CLR,Fair,KAGC,O,EST,40.354,-79.93,1253,54,51,21,28,41,230,9,0,201,CLR,10,73,7,80,73,80,104,0,0,0,30.18,1022.1,46,CLR,Fair,13-Nov-16,16
KAGC 15/Dec/2013 20,79,PIT2013,15-Dec-13,15-Dec-13,15-Dec-13,8:30,20,CIN,-2,PIT,50,O,44.5,2013,Week 15,45873,PIT,2,-2,CIN,30,20,Y,65500,0,12,27,0,Pittsburgh,KAGC,KAGC4162320,KAGC,O,15-Dec-13,EST,40.354,-79.93,1253,39,22,30,39,10,37,8,23,93,55,78,38,18,29,26,15,262,36,100,8.3,920,184,1103,0,558,0.02,0,30.05,29.64,29.85,1017.7,1003.8,1010.9,40,MC,Overcast,KAGC,O,EST,40.354,-79.93,1253,27,15,16,63,24,260,15,100,32,OVC,10,0,0,0,0,0,0,0,0,0,29.95,1014.3,42,MC,Mostly Cloudy,15-Dec-13,20
KAGC 15/Dec/2019 13,80,PIT2019,15-Dec-19,15-Dec-19,15-Dec-19,1:00,13,PIT,-7,BUF,27,O,35,2019,Week 15,64694,PIT,-7,7,IND,10,17,N,68400,0,18,56,0,Pittsburgh,KAGC,KAGC4381413,KAGC,O,15-Dec-19,EST,40.35,-79.917,1276,38,29,32,37,20,36,19,26,93,61,78,37,26,30,16,9,273,28,97,6.4,920,184,1103,0,558,0.02,0,30.15,29.67,29.97,1023.1,1006,1016.6,40,MC,Overcast,KAGC,O,EST,40.35,-79.917,1276,30,22,23,75,28,280,10,100,33,OVC,5,170,34,204,340,374,486,0,0,0,30.04,1018.9,35,HAZY,Haze,15-Dec-19,13
KAGC 15/Nov/2015 13,81,PIT2015,15-Nov-15,15-Nov-15,15-Nov-15,1:00,13,PIT,-7,CLE,39,U,43,2015,Week 10,64402,PIT,-7,7,CIN,30,9,Y,68400,0,14,60,0,Pittsburgh,KAGC,KAGC4232313,KAGC,O,15-Nov-15,EST,40.354,-79.93,1253,62,36,49,62,29,28,21,25,57,25,40,47,31,39,13,10,208,20,4,10,2362,241,2603,579,596,0,0,30.39,30.3,30.34,1029,1026.1,1027.5,46,CLR,Fair,KAGC,O,EST,40.354,-79.93,1253,60,58,26,27,45,240,12,5,252,CLR,10,398,41,439,408,449,583,0,0,0,30.33,1027.1,46,CLR,Fair,15-Nov-15,13
KAGC 15/Sep/2019 13,82,PIT2019,15-Sep-19,15-Sep-19,15-Sep-19,1:00,13,PIT,-4,SEA,54,O,47,2019,Week 2,65063,PIT,-4,4,SEA,26,28,N,68400,0,18,50,0,Pittsburgh,KAGC,KAGC4372313,KAGC,O,15-Sep-19,EST,40.35,-79.917,1276,82,54,69,80,53,58,53,56,99,39,67,65,54,61,7,4,164,7,28,10,5372,539,5911,718,747,0,0,30.25,30.09,30.18,1024.2,1018.7,1021.8,46,CLR,Fair,KAGC,O,EST,40.35,-79.917,1276,79,80,56,45,65,40,5,0,362,CLR,10,750,75,825,750,825,1072,0,0,0,30.2,1022.5,46,CLR,Fair,15-Sep-19,13
KAGC 16/Dec/2018 16,83,PIT2018,16-Dec-18,16-Dec-18,16-Dec-18,4:25,16,NE,-2.5,PIT,27,U,54.5,2018,Week 15,65280,PIT,2.5,-2.5,NE,17,10,Y,68400,0,17,24,0,Pittsburgh,KAGC,KAGC4345016,KAGC,O,16-Dec-18,EST,40.35,-79.917,1276,41,38,40,42,32,40,36,38,100,93,96,42,38,39,12,7,345,24,100,7.3,916,182,1099,0,558,0.59,0,29.98,29.89,29.93,1016.6,1013.2,1014.5,18,RAIN,Light Rain,KAGC,O,EST,40.35,-79.917,1276,39,35,38,96,38,360,5,100,9,OVC,10,25,5,30,50,55,71,0,0,0,29.92,1014.5,40,MC,Overcast,16-Dec-18,16
KAGC 16/Nov/2017 20,84,PIT2017,16-Nov-17,16-Nov-17,16-Nov-17,8:25,20,PIT,-7,TEN,57,O,44,2017,Week 11,60703,PIT,-7,7,TEN,40,17,Y,68400,0,16,39,0,Pittsburgh,KAGC,KAGC4305520,KAGC,O,16-Nov-17,EST,40.354,-79.93,1253,47,37,41,47,30,43,28,32,86,58,72,45,34,38,21,12,262,32,94,10,1211,238,1448,15,594,0.02,0,30.18,29.86,30,1023.2,1011.9,1017,40,MC,Overcast,KAGC,O,EST,40.354,-79.93,1253,37,31,30,76,34,280,8,100,26,OVC,10,0,0,0,0,0,0,0,0,0,30.14,1022,40,MC,Overcast,16-Nov-17,20
KAGC 16/Sep/2018 13,85,PIT2018,16-Sep-18,16-Sep-18,16-Sep-18,1:00,13,PIT,-4.5,KC,79,O,52.5,2018,Week 2,63956,PIT,-4.5,4.5,KC,37,42,Y,68400,0,17,25,0,Pittsburgh,KAGC,KAGC4335913,KAGC,O,16-Sep-18,EST,40.35,-79.917,1276,82,64,72,83,64,66,64,65,100,58,80,71,64,67,14,7,83,18,21,10,4565,532,5097,493,744,0,0,30.2,30.09,30.16,1022.3,1018.7,1020.8,46,CLR,Fair,KAGC,O,EST,40.35,-79.917,1276,80,83,66,62,71,100,14,20,35,SCT,10,670,74,744,745,819,1064,0,0,0,30.17,1021.3,44,PC,Partly Cloudy,16-Sep-18,13
KAGC 17/Dec/2017 16,86,PIT2017,17-Dec-17,17-Dec-17,17-Dec-17,4:25,16,NE,-2.5,PIT,51,U,53,2017,Week 15,68574,PIT,2.5,-2.5,GB,24,27,Y,68400,0,16,50,0,Pittsburgh,KAGC,KAGC4308616,KAGC,O,17-Dec-17,EST,40.354,-79.93,1253,39,30,35,39,24,33,23,27,93,62,72,35,28,32,10,7,183,10,76,9.3,1130,182,1311,86,558,0.09,0,30.2,30.08,30.14,1024.3,1020,1022.1,46,CLR,Fair,KAGC,O,EST,40.354,-79.93,1253,39,35,28,65,35,180,6,100,85,OVC,10,25,5,30,50,55,71,99,0.02,0,30.13,1021.6,19,RAIN,Moderate Rain,17-Dec-17,16
KAGC 17/Nov/2013 13,87,PIT2013,17-Nov-13,17-Nov-13,17-Nov-13,1:00,13,DET,-3,PIT,64,O,45.5,2013,Week 11,57905,PIT,3,-3,NE,37,27,Y,65500,0,12,60,0,Pittsburgh,KAGC,KAGC4159513,KAGC,O,17-Nov-13,EST,40.354,-79.93,1253,62,52,58,62,50,57,45,52,90,67,81,59,50,54,18,11,178,32,99,9.1,1173,234,1406,0,592,0.67,0,30.03,29.55,29.84,1016.8,1000.8,1010.4,18,RAIN,Light Rain,KAGC,O,EST,40.354,-79.93,1253,60,58,55,84,57,180,10,100,70,OVC,10,200,40,240,401,441,573,0,0.05,0,29.91,1012.8,18,RAIN,Light Rain,17-Nov-13,13
KAGC 17/Sep/2017 13,88,PIT2017,17-Sep-17,17-Sep-17,17-Sep-17,1:00,13,PIT,-8.5,MIN,35,U,43,2017,Week 2,65971,PIT,-8.5,8.5,LAC,26,9,Y,68400,0,16,43,0,Pittsburgh,KAGC,KAGC4299513,KAGC,O,17-Sep-17,EST,40.354,-79.93,1253,81,62,71,81,63,64,59,62,94,50,75,69,62,66,5,2,135,5,38,7,3523,530,4053,375,741,0,0,30.17,30.09,30.13,1021.4,1018.5,1020,46,CLR,Fair,KAGC,O,EST,40.354,-79.93,1253,78,80,61,56,67,0,0,70,80,BKN,10,480,74,554,739,813,1056,0,0,0,30.13,1020,42,MC,Mostly Cloudy,17-Sep-17,13
KAGC 18/Oct/2015 13,89,PIT2015,18-Oct-15,18-Oct-15,18-Oct-15,1:00,13,ARI,-5.5,PIT,38,U,45,2015,Week 6,63846,PIT,5.5,-5.5,MIN,25,13,Y,68400,0,14,42,0,Pittsburgh,KAGC,KAGC4229513,KAGC,O,18-Oct-15,EST,40.354,-79.93,1253,44,32,38,42,27,29,23,25,73,49,61,36,30,33,12,7,303,18,49,10,2270,357,2628,301,661,0,0,30.46,30.34,30.41,1031.4,1027.3,1029.9,46,CLR,Fair,KAGC,O,EST,40.354,-79.93,1253,41,34,29,62,36,290,12,100,26,OVC,10,276,55,331,552,607,789,0,0,0,30.43,1030.4,45,CLR,Mostly Clear,18-Oct-15,13
KAGC 18/Sep/2016 13,90,PIT2016,18-Sep-16,18-Sep-16,18-Sep-16,1:00,13,PIT,-3,CIN,40,U,48,2016,Week 2,65072,PIT,-3,3,NYG,24,16,Y,68400,0,15,71,0,Pittsburgh,KAGC,KAGC4263113,KAGC,O,18-Sep-16,EST,40.354,-79.93,1253,74,67,70,77,68,67,64,65,90,74,84,69,65,67,10,6,200,10,98,6.8,2588,519,3106,6,739,0.46,0,30.06,29.99,30.03,1017.5,1015.3,1016.5,40,MC,Overcast,KAGC,O,EST,40.354,-79.93,1253,71,71,66,84,68,190,5,100,42,OVC,4,364,73,437,728,801,1040,0,0.01,0,30.03,1016.6,35,HAZY,Haze,18-Sep-16,13
KAGC 20/Dec/2015 16,91,PIT2015,20-Dec-15,20-Dec-15,20-Dec-15,4:25,16,PIT,-7.5,DEN,61,O,45.5,2015,Week 15,67234,PIT,-7.5,7.5,ARI,34,27,N,68400,0,14,36,0,Pittsburgh,KAGC,KAGC4235816,KAGC,O,20-Dec-15,EST,40.354,-79.93,1253,41,23,33,41,15,19,11,14,60,36,48,32,20,26,10,8,178,10,86,10,1040,182,1222,130,557,0,0,30.55,30.26,30.44,1034.7,1024.7,1030.9,46,CLR,Fair,KAGC,O,EST,40.354,-79.93,1253,41,36,16,36,32,160,8,75,189,CLR,10,32,5,38,52,57,74,0,0,0,30.4,1029.5,46,CLR,Fair,20-Dec-15,16
KAGC 20/Oct/2013 16,92,PIT2013,20-Oct-13,20-Oct-13,20-Oct-13,4:25,16,PIT,-2,BAL,35,U,41,2013,Week 7,62295,PIT,-2,2,SEA,19,16,Y,65500,0,12,57,0,Pittsburgh,KAGC,KAGC4156716,KAGC,O,20-Oct-13,EST,40.354,-79.93,1253,57,38,47,56,32,38,35,36,93,46,69,46,38,42,20,10,219,24,5,10,3265,349,3614,576,655,0,0,30.07,29.96,30.03,1018.3,1014.7,1016.9,46,CLR,Fair,KAGC,O,EST,40.354,-79.93,1253,56,53,35,46,46,210,14,6,201,SCT,10,156,16,172,161,177,230,0,0,0,30.03,1016.8,46,CLR,Fair,20-Oct-13,16
KAGC 20/Oct/2014 20,93,PIT2014,20-Oct-14,20-Oct-14,20-Oct-14,8:30,20,PIT,-3,HOU,53,O,44.5,2014,Week 7,56375,PIT,-3,3,SEA,30,23,Y,65500,0,13,51,0,Pittsburgh,KAGC,KAGC4193220,KAGC,O,20-Oct-14,EST,40.354,-79.93,1253,57,41,49,56,36,45,32,37,80,51,63,48,37,43,15,9,186,21,84,9.7,2731,349,3080,123,655,0.03,0,30.08,29.88,29.97,1018.7,1011.7,1014.9,46,CLR,Fair,KAGC,O,EST,40.354,-79.93,1253,53,51,39,59,46,190,8,100,55,OVC,10,0,0,0,0,0,0,0,0,0,29.91,1012.7,42,MC,Mostly Cloudy,20-Oct-14,20
KAGC 20/Sep/2015 13,94,PIT2015,20-Sep-15,20-Sep-15,20-Sep-15,1:00,13,PIT,-6,SF,61,O,46,2015,Week 2,66472,PIT,-6,6,TB,43,18,Y,68400,0,14,69,0,Pittsburgh,KAGC,KAGC4226713,KAGC,O,20-Sep-15,EST,40.354,-79.93,1253,69,51,60,69,49,52,43,46,87,41,64,56,49,53,9,6,31,17,14,9.6,4975,510,5485,699,733,0,0,30.17,30.03,30.11,1021.6,1016.9,1019.6,46,CLR,Fair,KAGC,O,EST,40.354,-79.93,1253,66,66,44,45,54,100,8,0,201,CLR,10,722,72,794,722,794,1031,0,0,0,30.14,1020.6,46,CLR,Fair,20-Sep-15,13
KAGC 21/Dec/2014 13,95,PIT2014,21-Dec-14,21-Dec-14,21-Dec-14,1:00,13,PIT,-2.5,KC,32,U,49.5,2014,Week 16,60865,PIT,-2.5,2.5,NYJ,20,12,Y,65500,0,13,34,0,Pittsburgh,KAGC,KAGC4199413,KAGC,O,21-Dec-14,EST,40.354,-79.93,1253,34,25,29,34,20,20,17,19,75,56,64,29,24,26,7,2,62,7,64,8.4,938,182,1120,115,558,0,0,30.37,30.22,30.3,1028.3,1023.4,1026.1,40,MC,Overcast,KAGC,O,EST,40.354,-79.93,1253,31,31,19,61,27,0,0,100,23,OVC,7,170,34,204,340,374,485,0,0,0,30.32,1026.6,40,MC,Overcast,21-Dec-14,13
KAGC 22/Oct/2017 16,96,PIT2017,22-Oct-17,22-Oct-17,22-Oct-17,4:25,16,PIT,-4,CIN,43,O,40,2017,Week 7,65363,PIT,-4,4,BUF,29,14,Y,68400,0,16,80,0,Pittsburgh,KAGC,KAGC4303016,KAGC,O,22-Oct-17,EST,40.354,-79.93,1253,77,51,65,76,49,50,45,49,86,33,59,60,49,56,10,6,152,16,38,8.9,2926,337,3263,381,650,0,0,30.31,30.17,30.24,1026.6,1021.3,1024,46,CLR,Fair,KAGC,O,EST,40.354,-79.93,1253,74,76,46,37,59,160,5,100,201,OVC,10,76,15,90,151,166,216,0,0,0,30.19,1022.2,40,MC,Overcast,22-Oct-17,16
KAGC 22/Sep/2013 20,97,PIT2013,22-Sep-13,22-Sep-13,22-Sep-13,8:30,20,CHI,-2.5,PIT,63,O,40.5,2013,Week 3,61575,PIT,2.5,-2.5,SF,23,40,Y,65500,0,12,56,0,Pittsburgh,KAGC,KAGC4153920,KAGC,O,22-Sep-13,EST,40.354,-79.93,1253,62,51,55,60,51,54,43,49,100,56,80,55,49,52,12,6,323,18,90,8.2,2617,499,3117,34,728,0,0,30.04,29.82,29.93,1017.3,1009.9,1013.7,40,MC,Overcast,KAGC,O,EST,40.354,-79.93,1253,54,52,46,75,50,350,7,100,44,OVC,10,0,0,0,0,0,0,0,0,0,30.01,1016.4,40,MC,Overcast,22-Sep-13,20
KAGC 23/Oct/2016 16,98,PIT2016,23-Oct-16,23-Oct-16,23-Oct-16,4:25,16,NE,-7.5,PIT,43,U,49.5,2016,Week 7,66009,PIT,7.5,-7.5,ATL,16,27,Y,68400,0,15,63,0,Pittsburgh,KAGC,KAGC4266616,KAGC,O,23-Oct-16,EST,40.354,-79.93,1253,64,42,54,64,35,44,34,40,74,45,61,53,38,47,21,12,240,29,60,10,2834,327,3161,427,648,0,0,30.07,29.87,29.99,1018.2,1011.6,1015.4,40,MC,Overcast,KAGC,O,EST,40.354,-79.93,1253,63,61,43,48,53,260,14,20,50,SCT,10,129,14,143,143,157,204,0,0,0,29.96,1014.7,44,PC,Partly Cloudy,23-Oct-16,16
KAGC 25/Dec/2016 16,99,PIT2016,25-Dec-16,25-Dec-16,25-Dec-16,4:30,16,PIT,-5.5,BAL,58,O,46.5,2016,Week 16,66276,PIT,-5.5,5.5,CLE,31,27,N,68400,0,15,39,0,Pittsburgh,KAGC,KAGC4272916,KAGC,O,25-Dec-16,EST,40.354,-79.93,1253,41,32,36,40,27,33,27,30,86,70,81,36,30,34,9,5,34,9,92,8.9,1035,184,1218,120,558,0,0,30.54,30.38,30.47,1034.3,1029.6,1032,40,MC,Overcast,KAGC,O,EST,40.354,-79.93,1253,38,32,30,73,35,50,8,0,201,CLR,10,57,6,63,57,63,82,0,0,0,30.47,1031.7,46,CLR,Fair,25-Dec-16,16
KAGC 26/Nov/2017 20,100,PIT2017,26-Nov-17,26-Nov-17,26-Nov-17,8:30,20,PIT,-14,GB,59,O,43,2017,Week 12,62147,PIT,-14,14,GB,31,28,N,68400,0,16,88,0,Pittsburgh,KAGC,KAGC4306520,KAGC,O,26-Nov-17,EST,40.354,-79.93,1253,45,35,39,45,29,29,18,24,76,40,55,38,31,33,13,9,276,22,38,10,1873,210,2082,413,577,0,0,30.14,29.97,30.07,1021.7,1015.6,1019.4,46,CLR,Fair,KAGC,O,EST,40.354,-79.93,1253,37,30,21,52,31,240,10,0,201,CLR,10,0,0,0,0,0,0,0,0,0,30.08,1020.1,46,CLR,Fair,26-Nov-17,20
KAGC 26/Oct/2014 16,101,PIT2014,26-Oct-14,26-Oct-14,26-Oct-14,4:25,16,IND,-4.5,PIT,85,O,48.5,2014,Week 8,62479,PIT,4.5,-4.5,NE,51,34,Y,65500,0,13,56,0,Pittsburgh,KAGC,KAGC4193816,KAGC,O,26-Oct-14,EST,40.354,-79.93,1253,62,46,53,61,42,32,22,26,54,23,36,45,39,42,16,10,279,25,0,10,3188,319,3507,641,641,0,0,29.98,29.79,29.9,1015.4,1008.8,1012.4,46,CLR,Fair,KAGC,O,EST,40.354,-79.93,1253,60,58,23,24,44,290,13,0,201,CLR,10,134,13,147,134,147,191,0,0,0,29.9,1012.6,46,CLR,Fair,26-Oct-14,16
KAGC 28/Dec/2014 20,102,PIT2014,28-Dec-14,28-Dec-14,28-Dec-14,8:30,20,PIT,-3,CIN,44,U,48.5,2014,Week 17,64697,PIT,-3,3,BAL,27,17,Y,65500,0,13,35,0,Pittsburgh,KAGC,KAGC4200120,KAGC,O,28-Dec-14,EST,40.354,-79.93,1253,52,34,39,52,28,42,27,33,90,31,79,44,31,37,15,7,303,26,95,7.2,877,184,1061,0,559,0.37,0,30.19,29.94,30.06,1022.2,1013.9,1018,40,MC,Overcast,KAGC,O,EST,40.354,-79.93,1253,36,31,27,70,33,310,6,100,35,OVC,10,0,0,0,0,0,0,0,0,0,30.15,1020.9,40,MC,Overcast,28-Dec-14,20
KAGC 28/Oct/2018 13,103,PIT2018,28-Oct-18,28-Oct-18,28-Oct-18,1:00,13,PIT,-8.5,CLE,51,O,47.5,2018,Week 8,63780,PIT,-8.5,8.5,CLE,33,18,Y,68400,0,17,80,0,Pittsburgh,KAGC,KAGC4340113,KAGC,O,28-Oct-18,EST,40.35,-79.917,1276,50,41,45,49,34,44,38,42,97,71,89,45,40,43,16,11,241,41,99,8.5,1609,308,1919,15,636,0.38,0,29.85,29.61,29.73,1011.7,1003.6,1007.5,18,RAIN,Light Rain,KAGC,O,EST,40.35,-79.917,1276,48,42,40,74,44,210,14,75,42,BKN,10,309,49,358,495,544,707,0,0,0,29.74,1007.8,42,MC,Mostly Cloudy,28-Oct-18,13
KAGC 28/Oct/2019 13,104,PIT2019,28-Oct-19,28-Oct-19,28-Oct-19,1:00,13,PIT,-10,MIA,41,U,50,2019,Week 8,59244,PIT,-10,10,BAL,27,14,Y,68400,0,18,87,0,Pittsburgh,KAGC,KAGC4376613,KAGC,O,28-Oct-19,EST,40.35,-79.917,1276,69,41,55,68,39,50,38,44,100,33,71,55,42,49,7,5,153,7,6,8.6,3014,308,3323,561,636,0,0,30.16,30.07,30.11,1022.1,1018.6,1020,46,CLR,Fair,KAGC,O,EST,40.35,-79.917,1276,63,63,45,52,54,190,7,0,400,CLR,10,495,49,544,495,544,707,0,0,0,30.11,1020.1,46,CLR,Fair,28-Oct-19,13
KAGC 28/Sep/2014 13,105,PIT2014,28-Sep-14,28-Sep-14,28-Sep-14,1:00,13,PIT,-7.5,TB,51,O,45,2014,Week 4,62910,PIT,-7.5,7.5,JAX,24,27,N,65500,0,13,73,0,Pittsburgh,KAGC,KAGC4191013,KAGC,O,28-Sep-14,EST,40.354,-79.93,1253,74,55,65,76,55,56,49,52,84,48,63,62,53,58,8,5,185,8,38,9.5,3361,466,3827,382,712,0,0,30.2,30.05,30.14,1022.8,1017.5,1020.6,46,CLR,Fair,KAGC,O,EST,40.354,-79.93,1253,73,76,52,48,61,220,8,82,301,OVC,10,398,67,465,674,741,963,0,0,0,30.14,1020.8,46,CLR,Fair,28-Sep-14,13
KAGC 29/Dec/2013 13,106,PIT2013,29-Dec-13,29-Dec-13,29-Dec-13,1:00,13,PIT,-9,CLE,27,U,44.5,2013,Week 17,56361,PIT,-9,9,CLE,20,7,Y,65500,0,12,41,0,Pittsburgh,KAGC,KAGC4163713,KAGC,O,29-Dec-13,EST,40.354,-79.93,1253,45,39,42,44,34,40,22,35,93,43,77,42,35,39,15,8,228,21,98,6.7,928,184,1109,0,560,0.66,0,30.03,29.68,29.84,1016.9,1005.2,1010.4,18,RAIN,Light Rain,KAGC,O,EST,40.354,-79.93,1253,40,35,38,93,39,350,8,100,2,OVC,1,173,35,208,346,381,495,99,0.06,0,29.68,1005.2,18,RAIN,Light Rain,29-Dec-13,13
KAGC 30/Dec/2018 16,107,PIT2018,30-Dec-18,30-Dec-18,30-Dec-18,4:25,16,PIT,-13.5,CIN,29,U,45.5,2018,Week 17,63874,PIT,-13.5,13.5,CIN,16,13,N,68400,0,17,39,0,Pittsburgh,KAGC,KAGC4346416,KAGC,O,30-Dec-18,EST,40.35,-79.917,1276,41,31,35,41,23,28,26,27,85,58,75,36,29,32,14,8,213,14,54,10,1244,185,1428,246,561,0,0,30.19,30.11,30.15,1024.2,1021,1022.7,40,MC,Overcast,KAGC,O,EST,40.35,-79.917,1276,40,34,26,58,35,220,9,0,400,CLR,10,64,6,70,64,70,92,0,0,0,30.11,1021.3,46,CLR,Fair,30-Dec-18,16
KAGC 30/Nov/2014 13,108,PIT2014,30-Nov-14,30-Nov-14,30-Nov-14,1:00,13,PIT,-3.5,NO,67,O,54.5,2014,Week 13,61916,PIT,-3.5,3.5,PHI,32,35,N,65500,0,13,61,0,Pittsburgh,KAGC,KAGC4197313,KAGC,O,30-Nov-14,EST,40.354,-79.93,1253,62,50,58,62,46,46,37,43,64,54,58,53,43,50,18,13,204,28,100,10,1009,203,1214,0,571,0,0,30.03,29.93,29.98,1017.1,1013.6,1015.2,40,MC,Overcast,KAGC,O,EST,40.354,-79.93,1253,60,58,45,58,52,210,15,100,32,OVC,10,180,36,216,361,397,516,0,0,0,29.94,1013.9,40,MC,Overcast,30-Nov-14,13
KAGC 30/Sep/2018 20,109,PIT2018,30-Sep-18,30-Sep-18,30-Sep-18,8:20,20,PIT,-3,BAL,40,U,51.5,2018,Week 4,62030,PIT,-3,3,BAL,14,26,Y,68400,0,17,56,0,Pittsburgh,KAGC,KAGC4337320,KAGC,O,30-Sep-18,EST,40.35,-79.917,1276,75,47,62,77,45,59,46,53,100,50,77,64,47,56,7,4,152,7,12,9.3,4365,454,4819,615,707,0,0,30.32,30.21,30.27,1027.1,1023.4,1025.3,46,CLR,Fair,KAGC,O,EST,40.35,-79.917,1276,68,68,57,68,62,180,6,0,281,CLR,10,0,0,0,0,0,0,0,0,0,30.22,1023.7,46,CLR,Fair,30-Sep-18,20
KAGC 30/Sep/2019 20,110,PIT2019,30-Sep-19,30-Sep-19,30-Sep-19,8:15,20,PIT,-3.5,CIN,30,U,45,2019,Week 4,57959,PIT,-3.5,3.5,DAL,27,3,Y,68400,0,18,38,0,Pittsburgh,KAGC,KAGC4373820,KAGC,O,30-Sep-19,EST,40.35,-79.917,1276,79,65,71,82,65,68,63,67,100,69,86,72,65,68,9,4,175,9,55,8.2,3095,454,3550,251,707,0.79,0,30.21,30.08,30.15,1023,1018.2,1020.8,42,MC,Mostly Cloudy,KAGC,O,EST,40.35,-79.917,1276,73,77,68,84,70,130,3,0,263,CLR,10,0,0,0,0,0,0,0,0,0,30.11,1019.5,46,CLR,Fair,30-Sep-19,20
KAGC 31/Dec/2017 13,111,PIT2017,31-Dec-17,31-Dec-17,31-Dec-17,1:00,13,PIT,-5.5,CLE,52,O,38,2017,Week 17,50704,PIT,-5.5,5.5,CIN,28,24,N,68400,0,16,53,0,Pittsburgh,KAGC,KAGC4310013,KAGC,O,31-Dec-17,EST,40.354,-79.93,1253,13,1,7,13,-12,4,-2,1,83,64,75,11,1,6,9,5,268,9,60,8.9,1127,187,1314,132,561,0,0.1,30.38,30.21,30.32,1032.2,1026.2,1030,46,CLR,Fair,KAGC,O,EST,40.354,-79.93,1253,8,8,3,80,7,240,3,100,36,OVC,1.8,175,35,210,350,385,499,0,0,0.1,30.33,1030.5,9,SNOW,Light Snow,31-Dec-17,13
KATL 01/Jan/2017 16,112,ATL2016,1-Jan-17,1-Jan-17,1-Jan-17,4:25,16,ATL,-7.5,NO,70,O,58.5,2016,Week 17,70835,ATL,-7.5,7.5,PIT,38,32,N,71228,0,24,33,0,Atlanta,KATL,KATL4273616,KATL,O,1-Jan-17,EST,33.637,-84.428,1027,51,41,49,51,35,50,41,48,100,96,99,51,40,48,12,8,98,21,100,1.4,1348,268,1614,0,599,0.84,0,30.15,30.06,30.1,1021,1017.8,1019.3,18,RAIN,Light Rain,KATL,O,EST,33.637,-84.428,1027,50,47,50,100,50,70,8,100,3,OVC,0.1,90,18,108,179,197,256,99,0.06,0,30.1,1019.3,19,RAIN,Moderate Rain,1-Jan-17,16
KATL 01/Nov/2015 13,113,ATL2015,1-Nov-15,1-Nov-15,1-Nov-15,1:00,13,ATL,-8,TB,43,U,47.5,2015,Week 8,70524,ATL,-8,8,ARI,20,23,N,71228,0,23,72,1,Atlanta,KATL,KATL4230913,KATL,O,1-Nov-15,EST,33.637,-84.428,1027,65,57,62,65,54,62,55,59,93,87,91,63,55,60,13,9,66,21,100,3.8,1875,375,2249,0,648,0.86,0,30.03,29.94,29.99,1016.8,1013.9,1015.6,18,RAIN,Light Rain,KATL,O,EST,33.637,-84.428,1027,64,64,61,90,62,80,8,100,6,OVC,7,299,60,359,598,658,854,0,0,0,29.99,1015.5,18,RAIN,Light Rain,1-Nov-15,13
KATL 01/Oct/2017 13,114,ATL2017,1-Oct-17,1-Oct-17,1-Oct-17,1:00,13,ATL,-8.5,BUF,40,U,48.5,2017,Week 4,71273,ATL,-8.5,8.5,BUF,17,23,N,71000,1,0,51,0,Atlanta,KATL,KATL4300913,KATL,O,1-Oct-17,EST,33.637,-84.428,1027,74,58,65,75,54,51,43,44,65,34,48,59,51,54,24,16,83,31,47,10,4541,520,5061,384,711,0,0,30.26,30.15,30.2,1024.6,1021.1,1022.7,45,CLR,Mostly Clear,KATL,O,EST,33.637,-84.428,1027,71,71,43,36,56,100,14,25,150,SCT,10,706,76,782,765,841,1093,0,0,0,30.21,1022.9,45,CLR,Mostly Clear,1-Oct-17,13
KATL 02/Dec/2018 13,115,ATL2018,2-Dec-18,2-Dec-18,2-Dec-18,1:00,13,ATL,-2.5,BAL,42,U,46.5,2018,Week 13,72262,ATL,-2.5,2.5,BAL,16,26,Y,71000,0,1,63,0,Atlanta,KATL,KATL4343613,KATL,O,2-Dec-18,EST,33.633,-84.45,971,74,54,65,75,53,65,44,54,96,37,71,66,51,60,13,8,226,21,51,7.2,2093,280,2373,334,604,0.03,0,29.87,29.72,29.78,1011.1,1005.7,1008.1,45,CLR,Mostly Clear,KATL,O,EST,33.633,-84.45,971,71,71,48,44,58,270,12,10,250,FEW,10,466,48,514,485,533,692,0,0,0,29.79,1008,45,CLR,Mostly Clear,2-Dec-18,13
KATL 02/Oct/2016 13,116,ATL2016,2-Oct-16,2-Oct-16,2-Oct-16,1:00,13,CAR,-3,ATL,81,O,48.5,2016,Week 4,70508,ATL,3,-3,LAC,48,33,Y,71228,0,24,72,1,Atlanta,KATL,KATL4264513,KATL,O,2-Oct-16,EST,33.637,-84.428,1027,81,58,71,80,58,58,51,54,83,37,57,64,56,61,9,3,321,21,77,10,3504,507,4011,28,707,0,0,30.09,30.01,30.04,1018.9,1016.2,1017.3,45,CLR,Mostly Clear,KATL,O,EST,33.637,-84.428,1027,80,80,53,39,64,270,7,95,55,BKN,10,524,75,599,754,829,1077,0,0,0,30.04,1017.3,45,CLR,Mostly Clear,2-Oct-16,13
KATL 03/Dec/2017 13,117,ATL2017,3-Dec-17,3-Dec-17,3-Dec-17,1:00,13,ATL,-2,MIN,23,U,48.5,2017,Week 13,71185,ATL,-2,2,PIT,9,14,Y,71000,1,0,55,0,Atlanta,KATL,KATL4307213,KATL,O,3-Dec-17,EST,33.637,-84.428,1027,69,50,58,68,49,56,42,49,100,39,74,58,51,53,12,4,0,12,60,8.3,2175,278,2453,187,603,0,0,30.22,30.15,30.18,1023.3,1020.5,1021.8,52,PC,High Clouds,KATL,O,EST,33.637,-84.428,1027,66,66,44,45,54,360,5,90,300,BKN,10,353,48,401,483,531,689,0,0,0,30.18,1021.6,52,PC,High Clouds,3-Dec-17,13
KATL 03/Jan/2016 13,118,ATL2015,3-Jan-16,3-Jan-16,3-Jan-16,1:00,13,ATL,-6,NO,37,U,53.5,2015,Week 17,69699,ATL,-6,6,NE,17,20,N,71228,0,23,25,0,Atlanta,KATL,KATL4237213,KATL,O,3-Jan-16,EST,33.637,-84.428,1027,53,35,42,52,26,29,25,27,70,35,56,41,32,36,15,10,311,21,68,10,2062,271,2333,155,599,0,0,30.15,30.01,30.07,1021,1016.3,1018.4,42,MC,Mostly Cloudy,KATL,O,EST,33.637,-84.428,1027,50,46,27,41,40,320,10,70,200,BKN,10,362,48,410,480,528,686,0,0,0,30.06,1018.1,42,MC,Mostly Cloudy,3-Jan-16,13
KATL 04/Dec/2016 13,119,ATL2016,4-Dec-16,4-Dec-16,4-Dec-16,1:00,13,ATL,-5,KC,57,O,50,2016,Week 13,69879,ATL,-5,5,CIN,28,29,N,71228,0,24,72,1,Atlanta,KATL,KATL4270813,KATL,O,4-Dec-16,EST,33.637,-84.428,1027,47,44,45,47,38,45,42,44,100,86,95,46,44,45,16,13,88,22,100,5.5,1376,275,1651,0,602,0.8,0,30.17,30.04,30.1,1021.8,1017.3,1019.4,18,RAIN,Light Rain,KATL,O,EST,33.637,-84.428,1027,45,40,45,100,45,90,10,100,6,OVC,2,240,48,288,479,527,684,99,0.02,0,30.1,1019.3,18,RAIN,Light Rain,4-Dec-16,13
KATL 04/Oct/2015 13,120,ATL2015,4-Oct-15,4-Oct-15,4-Oct-15,1:00,13,ATL,-4.5,HOU,69,O,47.5,2015,Week 4,69904,ATL,-4.5,4.5,NYG,48,21,Y,71228,0,23,72,1,Atlanta,KATL,KATL4228113,KATL,O,4-Oct-15,EST,33.637,-84.428,1027,70,62,66,70,62,63,59,61,90,71,84,64,60,63,18,12,31,23,100,8.1,2522,503,3027,0,702,0.15,0,29.87,29.67,29.77,1011.5,1004.6,1008.1,18,RAIN,Light Rain,KATL,O,EST,33.637,-84.428,1027,70,70,60,71,64,50,12,100,21,OVC,10,374,75,449,748,823,1069,0,0,0,29.76,1007.9,42,MC,Mostly Cloudy,4-Oct-15,13
KATL 07/Dec/2017 20,121,ATL2017,7-Dec-17,7-Dec-17,7-Dec-17,8:25,20,ATL,-2.5,NO,37,U,51.5,2017,Week 14,72866,ATL,-2.5,2.5,NO,20,17,Y,71000,1,0,23,0,Atlanta,KATL,KATL4307620,KATL,O,7-Dec-17,EST,33.637,-84.428,1027,48,41,44,47,34,35,28,31,74,48,61,41,36,38,14,7,306,14,100,10,937,273,1209,0,600,0,0,30.19,30.07,30.13,1022.7,1018.9,1020.8,40,MC,Overcast,KATL,O,EST,33.637,-84.428,1027,44,41,35,71,40,230,5,100,150,BKN,10,0,0,0,0,0,0,0,0,0,30.11,1020,50,PC,High Overcast,7-Dec-17,20
KATL 07/Oct/2013 20,122,ATL2013,7-Oct-13,7-Oct-13,7-Oct-13,8:40,20,ATL,-10,NYJ,58,O,45,2013,Week 5,70246,ATL,-10,10,CHI,28,30,N,71228,0,21,72,1,Atlanta,KATL,KATL4155420,KATL,O,7-Oct-13,EST,33.637,-84.428,1027,74,56,64,72,55,67,50,56,100,52,77,67,54,60,17,10,331,25,73,8.2,3223,490,3713,210,696,0.15,0,29.96,29.82,29.89,1014.5,1010.1,1012.3,45,CLR,Mostly Clear,KATL,O,EST,33.637,-84.428,1027,62,62,51,67,56,310,8,30,150,SCT,10,0,0,0,0,0,0,0,0,0,29.94,1013.6,45,CLR,Mostly Clear,7-Oct-13,20
KATL 07/Sep/2014 13,123,ATL2014,7-Sep-14,7-Sep-14,7-Sep-14,1:00,13,NO,-3,ATL,71,O,51.5,2014,Week 1,70706,ATL,3,-3,CIN,37,34,N,71228,0,22,72,1,Atlanta,KATL,KATL4188913,KATL,O,7-Sep-14,EST,33.637,-84.428,1027,90,73,78,96,73,74,68,70,91,55,77,77,70,73,9,3,29,21,77,9.9,3618,637,4255,153,758,0.1,0,30.01,29.92,29.97,1016.3,1013.3,1014.9,45,CLR,Mostly Clear,KATL,O,EST,33.637,-84.428,1027,89,96,71,55,76,0,0,100,35,BKN,10,441,88,529,882,970,1259,0,0,0,29.96,1014.7,44,PC,Partly Cloudy,7-Sep-14,13
KATL 08/Dec/2019 13,124,ATL2019,8-Dec-19,8-Dec-19,8-Dec-19,1:00,13,ATL,-4.5,CAR,60,O,41,2019,Week 14,70592,ATL,-4.5,4.5,CAR,40,20,Y,71000,0,2,60,0,Atlanta,KATL,KATL4380713,KATL,O,8-Dec-19,EST,33.633,-84.45,971,57,47,52,55,42,41,34,37,76,48,58,47,43,45,15,12,103,22,73,10,1873,270,2144,342,599,0,0,30.35,30.17,30.26,1028,1021.7,1024.7,40,MC,Overcast,KATL,O,EST,33.633,-84.45,971,55,52,36,48,46,100,13,25,70,CLR,10,386,47,433,474,521,677,0,0,0,30.28,1025,44,PC,Partly Cloudy,8-Dec-19,13
KATL 10/Nov/2013 13,125,ATL2013,10-Nov-13,10-Nov-13,10-Nov-13,1:00,13,SEA,-3.5,ATL,43,U,46.5,2013,Week 10,70309,ATL,3.5,-3.5,ATL,10,33,Y,71228,0,21,72,1,Atlanta,KATL,KATL4158813,KATL,O,10-Nov-13,EST,33.637,-84.428,1027,70,49,58,70,48,42,34,39,74,28,52,54,45,49,14,8,318,21,50,10,2605,340,2945,337,633,0,0,30.29,30.19,30.24,1025.9,1022.5,1024.1,45,CLR,Mostly Clear,KATL,O,EST,33.637,-84.428,1027,67,67,40,37,53,320,10,70,150,BKN,10,420,56,476,556,612,795,0,0,0,30.23,1023.6,42,MC,Mostly Cloudy,10-Nov-13,13
KATL 11/Oct/2015 13,126,ATL2015,11-Oct-15,11-Oct-15,11-Oct-15,1:00,13,ATL,-7,WAS,44,U,48.5,2015,Week 5,70178,ATL,-7,7,GB,25,19,N,71228,0,23,72,1,Atlanta,KATL,KATL4228813,KATL,O,11-Oct-15,EST,33.637,-84.428,1027,73,58,64,72,56,58,53,56,90,59,76,63,56,59,14,6,77,21,60,10,3127,471,3598,276,688,0,0,30.03,29.9,29.97,1017.1,1012.6,1014.8,45,CLR,Mostly Clear,KATL,O,EST,33.637,-84.428,1027,70,70,56,61,62,370,3,70,30,BKN,10,461,71,532,710,781,1014,0,0,0,29.98,1015.3,42,MC,Mostly Cloudy,11-Oct-15,13
KATL 11/Sep/2016 13,127,ATL2016,11-Sep-16,11-Sep-16,11-Sep-16,1:00,13,ATL,-2.5,TB,55,O,47,2016,Week 1,69382,ATL,-2.5,2.5,NE,24,31,Y,71228,0,24,72,1,Atlanta,KATL,KATL4262413,KATL,O,11-Sep-16,EST,33.637,-84.428,1027,91,72,81,94,73,70,66,68,88,50,65,75,69,72,12,6,307,21,79,10,4454,614,5068,197,750,0,0,30.1,30.01,30.06,1019.4,1016.4,1017.9,45,CLR,Mostly Clear,KATL,O,EST,33.637,-84.428,1027,88,93,69,54,75,370,6,45,45,SCT,10,727,86,813,860,946,1229,0,0,0,30.07,1018.4,45,CLR,Mostly Clear,11-Sep-16,13
KATL 12/Nov/2017 16,128,ATL2017,12-Nov-17,12-Nov-17,12-Nov-17,4:25,16,ATL,-3.5,DAL,34,U,49,2017,Week 10,73761,ATL,-3.5,3.5,MIA,27,7,Y,71000,1,0,84,0,Atlanta,KATL,KATL4305116,KATL,O,12-Nov-17,EST,33.637,-84.428,1027,49,44,47,49,38,47,36,42,93,66,82,47,41,44,14,8,83,18,99,9.2,1659,333,1989,0,629,0,0,30.38,30.3,30.34,1029.3,1026.5,1027.7,40,MC,Overcast,KATL,O,EST,33.637,-84.428,1027,48,45,45,89,47,100,6,100,13,OVC,10,92,18,110,184,202,263,0,0,0,30.3,1026.5,40,MC,Overcast,12-Nov-17,16
KATL 12/Oct/2014 16,129,ATL2014,12-Oct-14,12-Oct-14,12-Oct-14,4:25,16,ATL,-3.5,CHI,40,U,56,2014,Week 6,70712,ATL,-3.5,3.5,NYJ,13,27,Y,71228,0,22,72,1,Atlanta,KATL,KATL4192416,KATL,O,12-Oct-14,EST,33.637,-84.428,1027,85,65,74,86,65,68,60,64,90,45,74,71,64,68,16,7,116,22,76,9.6,2488,464,2952,87,686,0.05,0,30.12,29.99,30.04,1020,1015.5,1017.3,44,PC,Partly Cloudy,KATL,O,EST,33.637,-84.428,1027,85,86,61,45,70,170,13,60,55,SCT,10,228,31,259,312,343,446,0,0,0,29.99,1015.5,44,PC,Partly Cloudy,12-Oct-14,16
KATL 14/Dec/2014 13,130,ATL2014,14-Dec-14,14-Dec-14,14-Dec-14,1:00,13,PIT,-3,ATL,47,U,55.5,2014,Week 15,71161,ATL,3,-3,LAR,20,27,Y,71228,0,22,72,1,Atlanta,KATL,KATL4198713,KATL,O,14-Dec-14,EST,33.637,-84.428,1027,57,34,43,56,25,34,29,31,85,40,66,46,32,38,14,10,312,21,1,9.9,2653,266,2919,597,597,0,0,30.14,30.06,30.09,1020.5,1017.8,1018.9,46,CLR,Fair,KATL,O,EST,33.637,-84.428,1027,53,49,31,43,43,320,13,0,201,CLR,10,468,47,515,468,515,669,0,0,0,30.09,1018.9,46,CLR,Fair,14-Dec-14,13
KATL 14/Oct/2018 13,131,ATL2018,14-Oct-18,14-Oct-18,14-Oct-18,1:00,13,ATL,-3,TB,63,O,57.5,2018,Week 6,72665,ATL,-3,3,TB,34,29,Y,71000,0,1,24,0,Atlanta,KATL,KATL4338713,KATL,O,14-Oct-18,EST,33.633,-84.45,971,81,59,69,82,57,60,51,56,81,45,65,67,55,61,10,8,104,21,69,10,3230,455,3685,231,682,0,0,30.15,30.04,30.1,1020.4,1016.6,1018.6,44,PC,Partly Cloudy,KATL,O,EST,33.633,-84.45,971,77,79,58,52,65,140,7,95,250,BKN,10,482,69,551,693,762,990,0,0,0,30.1,1018.8,52,PC,High Clouds,14-Oct-18,13
KATL 14/Sep/2015 19,132,ATL2015,14-Sep-15,14-Sep-15,14-Sep-15,7:10,19,PHI,-3,ATL,50,U,56,2015,Week 1,70516,ATL,3,-3,SEA,26,24,N,71228,0,23,72,1,Atlanta,KATL,KATL4226119,KATL,O,14-Sep-15,EST,33.637,-84.428,1027,77,54,66,77,55,53,46,49,72,37,55,62,51,57,12,6,98,14,6,10,5902,604,6506,682,744,0,0,30.26,30.12,30.2,1024.7,1020.1,1022.9,45,CLR,Mostly Clear,KATL,O,EST,33.637,-84.428,1027,73,76,50,44,60,130,6,20,250,SCT,10,0,0,0,0,0,0,0,0,0,30.2,1022.8,54,CLR,Few High Clouds,14-Sep-15,19
KATL 15/Dec/2013 13,133,ATL2013,15-Dec-13,15-Dec-13,15-Dec-13,1:00,13,ATL,-5.5,WAS,53,O,49.5,2013,Week 15,70069,ATL,-5.5,5.5,LAC,27,26,N,71228,0,21,72,1,Atlanta,KATL,KATL4162313,KATL,O,15-Dec-13,EST,33.637,-84.428,1027,54,32,40,54,25,51,27,34,97,68,80,53,31,38,17,14,312,29,69,10,1431,265,1698,79,596,0.01,0,30.21,29.84,30.06,1023,1010.6,1018,42,MC,Mostly Cloudy,KATL,O,EST,33.637,-84.428,1027,40,31,32,73,37,300,17,100,20,OVC,10,234,47,281,468,515,668,0,0,0,30.09,1018.8,40,MC,Overcast,15-Dec-13,13
KATL 15/Oct/2017 13,134,ATL2017,15-Oct-17,15-Oct-17,15-Oct-17,1:00,13,ATL,-13.5,MIA,37,U,46,2017,Week 6,70593,ATL,-13.5,13.5,NE,17,20,N,71000,1,0,77,0,Atlanta,KATL,KATL4302313,KATL,O,15-Oct-17,EST,33.637,-84.428,1027,83,65,73,85,65,70,64,67,97,63,83,73,64,69,12,5,192,12,78,9.3,2875,451,3325,167,680,0.01,0,30.19,30.02,30.11,1022.3,1016.6,1019.6,45,CLR,Mostly Clear,KATL,O,EST,33.637,-84.428,1027,80,84,69,69,73,220,6,90,26,BKN,10,378,69,447,688,757,982,0,0,0,30.12,1020.1,44,PC,Partly Cloudy,15-Oct-17,13
KATL 15/Sep/2013 13,135,ATL2013,15-Sep-13,15-Sep-13,15-Sep-13,1:00,13,ATL,-5,LAR,55,O,47,2013,Week 2,70056,ATL,-5,5,NYG,31,24,Y,71228,0,21,72,1,Atlanta,KATL,KATL4153213,KATL,O,15-Sep-13,EST,33.637,-84.428,1027,84,64,73,84,64,68,59,64,87,56,73,72,61,67,9,6,97,21,56,9.8,3458,599,4058,129,742,0,0,30.16,30.07,30.11,1021.2,1018.2,1019.6,45,CLR,Mostly Clear,KATL,O,EST,33.637,-84.428,1027,81,84,68,65,72,120,6,70,25,BKN,10,550,85,635,846,931,1208,0,0,0,30.12,1020.1,42,MC,Mostly Cloudy,15-Sep-13,13
KATL 15/Sep/2019 20,136,ATL2019,15-Sep-19,15-Sep-19,15-Sep-19,8:20,20,PHI,-1,ATL,44,U,53,2019,Week 2,72443,ATL,1,-1,PHI,24,20,Y,71000,0,2,42,0,Atlanta,KATL,KATL4372320,KATL,O,15-Sep-19,EST,33.633,-84.45,971,92,73,81,95,73,68,64,66,79,41,62,75,69,71,15,8,67,21,62,10,3361,599,3960,32,742,0,0,30.19,30.07,30.13,1021.2,1016.9,1019.2,52,PC,High Clouds,KATL,O,EST,33.633,-84.45,971,84,86,64,51,71,100,7,100,250,BKN,10,0,0,0,0,0,0,0,0,0,30.08,1017.5,42,MC,Mostly Cloudy,15-Sep-19,20
KATL 16/Dec/2018 13,137,ATL2018,16-Dec-18,16-Dec-18,16-Dec-18,1:00,13,ATL,-9,ARI,54,O,43.5,2018,Week 15,72084,ATL,-9,9,ARI,40,14,Y,71000,0,1,38,0,Atlanta,KATL,KATL4345013,KATL,O,16-Dec-18,EST,33.633,-84.45,971,54,46,50,53,43,46,43,44,90,72,81,49,45,47,18,11,304,25,88,9.6,1322,265,1585,0,596,0,0,30.16,30.02,30.1,1021.3,1016.7,1019.3,40,MC,Overcast,KATL,O,EST,33.633,-84.45,971,52,49,43,72,48,320,9,100,32,OVC,10,234,47,280,467,514,668,0,0,0,30.09,1019.1,40,MC,Overcast,16-Dec-18,13
KATL 16/Sep/2018 13,138,ATL2018,16-Sep-18,16-Sep-18,16-Sep-18,1:00,13,ATL,-5.5,CAR,55,O,43.5,2018,Week 2,72528,ATL,-5.5,5.5,CAR,31,24,Y,71000,0,1,27,0,Atlanta,KATL,KATL4335913,KATL,O,16-Sep-18,EST,33.633,-84.45,971,85,72,77,87,73,70,67,68,84,60,74,73,70,71,18,10,315,26,81,9.9,2871,595,3468,15,740,0,0,29.9,29.82,29.85,1011.3,1008.7,1009.9,42,MC,Mostly Cloudy,KATL,O,EST,33.633,-84.45,971,83,87,68,61,73,330,18,100,80,OVC,10,420,84,504,841,925,1202,0,0,0,29.84,1009.5,40,MC,Overcast,16-Sep-18,13
KATL 17/Sep/2017 20,139,ATL2017,17-Sep-17,17-Sep-17,17-Sep-17,8:30,20,ATL,-3,GB,57,O,55.5,2017,Week 2,70826,ATL,-3,3,BAL,34,23,Y,71000,1,0,73,0,Atlanta,KATL,KATL4299520,KATL,O,17-Sep-17,EST,33.637,-84.428,1027,88,68,78,90,68,67,62,65,90,46,66,73,66,69,9,4,347,9,19,10,4914,590,5504,499,738,0,0,30.16,30.05,30.1,1020.3,1016.6,1018.2,46,CLR,Fair,KATL,O,EST,33.637,-84.428,1027,81,82,62,53,69,10,6,10,250,FEW,10,0,0,0,0,0,0,0,0,0,30.07,1017.3,45,CLR,Mostly Clear,17-Sep-17,20
KATL 18/Dec/2016 16,140,ATL2016,18-Dec-16,18-Dec-16,18-Dec-16,4:05,16,ATL,-13.5,SF,54,O,51.5,2016,Week 15,70164,ATL,-13.5,13.5,NYJ,41,13,Y,71228,0,24,72,1,Atlanta,KATL,KATL4272216,KATL,O,18-Dec-16,EST,33.637,-84.428,1027,72,33,54,70,26,65,32,50,97,81,89,67,34,53,33,14,289,35,100,8.9,1266,264,1530,0,595,0.14,0,30.35,29.97,30.14,1028,1014.8,1020.8,18,RAIN,Light Rain,KATL,O,EST,33.637,-84.428,1027,45,38,43,93,44,310,16,100,7,OVC,10,78,16,94,156,172,222,0,0,0,30.22,1023.4,40,MC,Overcast,18-Dec-16,16
KATL 18/Nov/2018 13,141,ATL2018,18-Nov-18,18-Nov-18,18-Nov-18,1:00,13,ATL,-3.5,DAL,41,U,50,2018,Week 11,74447,ATL,-3.5,3.5,DAL,19,22,N,71000,0,1,48,0,Atlanta,KATL,KATL4342213,KATL,O,18-Nov-18,EST,33.633,-84.45,971,66,42,53,65,40,45,39,42,86,45,68,54,41,48,6,2,82,21,28,10,2702,312,3014,333,620,0,0,30.29,30.17,30.22,1025.8,1021.6,1023.3,54,CLR,Few High Clouds,KATL,O,EST,33.633,-84.45,971,63,63,44,50,53,0,0,45,300,SCT,10,453,52,505,525,577,750,0,0,0,30.23,1023.7,54,CLR,Few High Clouds,18-Nov-18,13
KATL 18/Sep/2014 20,142,ATL2014,18-Sep-14,18-Sep-14,18-Sep-14,8:25,20,ATL,-6.5,TB,70,O,47,2014,Week 3,70318,ATL,-6.5,6.5,CHI,56,14,Y,71228,0,22,72,1,Atlanta,KATL,KATL4190020,KATL,O,18-Sep-14,EST,33.637,-84.428,1027,85,63,74,84,63,67,57,62,93,48,68,70,60,66,9,4,52,21,75,9.4,3108,585,3693,187,736,0,0,29.99,29.91,29.95,1015.6,1012.7,1014.2,45,CLR,Mostly Clear,KATL,O,EST,33.637,-84.428,1027,77,80,64,64,69,180,8,40,43,SCT,10,0,0,0,0,0,0,0,0,0,29.96,1014.4,44,PC,Partly Cloudy,18-Sep-14,20
KATL 20/Oct/2013 13,143,ATL2013,20-Oct-13,20-Oct-13,20-Oct-13,1:00,13,ATL,-6.5,TB,54,O,43,2013,Week 7,69522,ATL,-6.5,6.5,BAL,31,23,Y,71228,0,21,72,1,Atlanta,KATL,KATL4156713,KATL,O,20-Oct-13,EST,33.637,-84.428,1027,70,45,57,69,40,50,34,42,93,28,62,53,44,50,12,6,323,21,9,10,4191,427,4618,599,670,0,0,30.07,30,30.03,1018.2,1015.8,1017,45,CLR,Mostly Clear,KATL,O,EST,33.637,-84.428,1027,66,66,35,32,51,0,0,5,250,FEW,10,650,66,716,660,726,943,0,0,0,30.03,1017.1,45,CLR,Mostly Clear,20-Oct-13,13
KATL 20/Oct/2019 13,144,ATL2019,20-Oct-19,20-Oct-19,20-Oct-19,1:00,13,LAR,-2,ATL,47,U,56,2019,Week 7,71856,ATL,2,-2,CLE,10,37,Y,71000,0,2,38,0,Atlanta,KATL,KATL4375813,KATL,O,20-Oct-19,EST,33.633,-84.45,971,73,57,64,72,54,60,54,57,93,64,81,65,55,60,14,8,316,22,68,8.1,2874,427,3302,253,670,0,0,29.99,29.75,29.9,1015,1007.3,1012.2,40,MC,Overcast,KATL,O,EST,33.633,-84.45,971,69,69,59,70,63,320,12,70,16,SCT,10,429,66,495,660,726,943,0,0,0,29.94,1013.3,42,MC,Mostly Cloudy,20-Oct-19,13
KATL 21/Nov/2013 20,145,ATL2013,21-Nov-13,21-Nov-13,21-Nov-13,8:25,20,NO,-8,ATL,30,U,53,2013,Week 12,70422,ATL,8,-8,OAK,13,17,N,71228,0,21,72,1,Atlanta,KATL,KATL4159920,KATL,O,21-Nov-13,EST,33.637,-84.428,1027,59,49,52,58,43,48,36,42,86,50,68,51,43,47,16,12,84,21,96,9.9,1749,304,2052,54,616,0,0,30.4,30.31,30.35,1029.3,1026.5,1027.6,40,MC,Overcast,KATL,O,EST,33.637,-84.428,1027,53,49,47,80,50,80,12,100,13,OVC,10,0,0,0,0,0,0,0,0,0,30.35,1027.7,40,MC,Overcast,21-Nov-13,20
KATL 22/Dec/2019 13,146,ATL2019,22-Dec-19,22-Dec-19,22-Dec-19,1:00,13,ATL,-5,JAX,36,O,33,2019,Week 16,70873,ATL,-5,5,TEN,24,12,Y,71000,0,2,76,0,Atlanta,KATL,KATL4382113,KATL,O,22-Dec-19,EST,33.633,-84.45,971,47,42,44,46,33,43,30,38,93,50,79,44,39,41,25,18,70,39,100,5.4,1315,263,1579,0,595,1.65,0,30.32,29.97,30.17,1027.3,1015.6,1022.1,18,RAIN,Light Rain,KATL,O,EST,33.633,-84.45,971,43,34,39,87,41,70,21,100,7,OVC,5,234,47,280,467,514,667,99,0.1,0,30.18,1022.1,19,RAIN,Moderate Rain,22-Dec-19,13
KATL 22/Nov/2015 13,147,ATL2015,22-Nov-15,22-Nov-15,22-Nov-15,1:00,13,ATL,-3.5,IND,45,U,47.5,2015,Week 11,70433,ATL,-3.5,3.5,BUF,21,24,N,71228,0,23,72,1,Atlanta,KATL,KATL4233013,KATL,O,22-Nov-15,EST,33.637,-84.428,1027,52,35,43,52,26,45,21,29,80,36,58,49,32,38,21,14,326,40,22,10,2994,302,3296,599,615,0,0,30.16,29.99,30.07,1021.3,1015.5,1018.3,46,CLR,Fair,KATL,O,EST,33.637,-84.428,1027,49,42,27,43,40,340,21,2,177,CLR,10,506,51,557,511,562,730,0,0,0,30.05,1017.5,46,CLR,Fair,22-Nov-15,13
KATL 22/Oct/2018 20,148,ATL2018,22-Oct-18,22-Oct-18,22-Oct-18,8:15,20,ATL,-4,NYG,43,U,52.5,2018,Week 7,72756,ATL,-4,4,NYG,23,20,N,71000,0,1,35,0,Atlanta,KATL,KATL4339520,KATL,O,22-Oct-18,EST,33.633,-84.45,971,67,44,55,66,41,43,35,38,73,33,54,52,40,47,9,5,92,21,63,10,3087,418,3505,121,666,0,0,30.34,30.22,30.26,1027.5,1023.4,1024.8,52,PC,High Clouds,KATL,O,EST,33.633,-84.45,971,59,58,40,49,50,100,6,95,250,BKN,10,0,0,0,0,0,0,0,0,0,30.23,1023.9,52,PC,High Clouds,22-Oct-18,20
KATL 23/Nov/2014 13,149,ATL2014,23-Nov-14,23-Nov-14,23-Nov-14,1:00,13,ATL,-2.5,CLE,50,O,48.5,2014,Week 12,70046,ATL,-2.5,2.5,NE,24,26,N,71228,0,22,72,1,Atlanta,KATL,KATL4196613,KATL,O,23-Nov-14,EST,33.637,-84.428,1027,62,46,54,62,40,59,31,49,97,40,85,60,43,51,18,13,107,28,100,5.1,1498,300,1798,0,614,2.18,0,30.18,29.69,29.9,1021.9,1005.5,1012.4,18,RAIN,Light Rain,KATL,O,EST,33.637,-84.428,1027,52,47,50,93,51,80,18,100,4,OVC,0.8,254,51,305,508,559,726,99,0.55,0,29.85,1010.8,17,RAIN,Heavy Rain,23-Nov-14,13
KATL 23/Oct/2016 16,150,ATL2016,23-Oct-16,23-Oct-16,23-Oct-16,4:05,16,ATL,-5,LAC,63,O,53,2016,Week 7,69832,ATL,-5,5,NO,30,33,N,71228,0,24,72,1,Atlanta,KATL,KATL4266616,KATL,O,23-Oct-16,EST,33.637,-84.428,1027,76,44,60,75,41,40,29,35,71,20,44,54,41,48,9,6,316,21,2,10,4086,409,4495,656,665,0,0,30.29,30.15,30.23,1025.8,1021,1023.6,46,CLR,Fair,KATL,O,EST,33.637,-84.428,1027,75,75,31,20,54,310,7,5,250,FEW,10,249,25,274,253,278,361,0,0,0,30.2,1022.8,45,CLR,Mostly Clear,23-Oct-16,16
KATL 23/Sep/2018 13,151,ATL2018,23-Sep-18,23-Sep-18,23-Sep-18,1:00,13,ATL,-1.5,NO,80,O,54,2018,Week 3,74457,ATL,-1.5,1.5,NO,37,43,Y,71000,0,1,34,0,Atlanta,KATL,KATL4336613,KATL,O,23-Sep-18,EST,33.633,-84.45,971,90,69,79,91,69,70,61,64,84,42,61,73,65,69,10,5,134,27,49,10,4152,562,4714,290,725,0,0,30.11,30.02,30.06,1018.5,1015.3,1017,52,PC,High Clouds,KATL,O,EST,33.633,-84.45,971,85,87,64,50,71,210,6,90,250,BKN,10,557,81,638,807,888,1152,0,0,0,30.08,1017.5,52,PC,High Clouds,23-Sep-18,13
KATL 24/Nov/2019 13,152,ATL2019,24-Nov-19,24-Nov-19,24-Nov-19,1:00,13,ATL,-7,TB,57,O,38,2019,Week 12,71463,ATL,-7,7,TB,22,35,Y,71000,0,2,86,0,Atlanta,KATL,KATL4379313,KATL,O,24-Nov-19,EST,33.633,-84.45,971,54,42,47,54,36,38,35,36,79,53,66,46,39,42,18,12,306,36,33,10,2607,298,2905,426,613,0,0,29.94,29.86,29.89,1014.2,1010.9,1012.3,46,CLR,Fair,KATL,O,EST,33.633,-84.45,971,52,48,36,55,45,310,13,5,30,FEW,10,492,51,543,505,556,722,0,0,0,29.9,1012.5,45,CLR,Mostly Clear,24-Nov-19,13
KATL 26/Nov/2017 13,153,ATL2017,26-Nov-17,26-Nov-17,26-Nov-17,1:00,13,ATL,-10,TB,54,O,47,2017,Week 12,71036,ATL,-10,10,TB,34,20,Y,71000,1,0,28,0,Atlanta,KATL,KATL4306513,KATL,O,26-Nov-17,EST,33.637,-84.428,1027,63,41,51,62,37,42,25,31,80,25,51,46,39,43,16,11,326,24,3,10,2879,291,3170,575,610,0,0,30.19,30.06,30.13,1022.5,1017.7,1020.4,45,CLR,Mostly Clear,KATL,O,EST,33.637,-84.428,1027,61,59,25,25,46,340,15,5,250,FEW,10,492,50,542,499,549,713,0,0,0,30.15,1020.9,45,CLR,Mostly Clear,26-Nov-17,13
KATL 27/Dec/2015 13,154,ATL2015,27-Dec-15,27-Dec-15,27-Dec-15,1:00,13,CAR,-7,ATL,33,U,46,2015,Week 16,70981,ATL,7,-7,JAX,20,13,N,71228,0,23,72,1,Atlanta,KATL,KATL4236513,KATL,O,27-Dec-15,EST,33.637,-84.428,1027,75,65,69,77,65,66,63,65,96,71,87,69,64,66,14,7,151,14,96,6.4,1291,264,1555,0,596,0.01,0,30.14,30,30.07,1020.8,1016,1018.4,45,CLR,Mostly Clear,KATL,O,EST,33.637,-84.428,1027,73,77,66,79,69,190,10,100,14,BKN,10,235,47,282,470,517,672,0,0,0,30.06,1017.8,45,CLR,Mostly Clear,27-Dec-15,13
KATL 27/Nov/2016 13,155,ATL2016,27-Nov-16,27-Nov-16,27-Nov-16,1:00,13,ATL,-4,ARI,57,O,49,2016,Week 12,69233,ATL,-4,4,ATL,38,19,Y,71228,0,24,72,1,Atlanta,KATL,KATL4270113,KATL,O,27-Nov-16,EST,33.637,-84.428,1027,61,35,49,60,32,31,26,29,76,28,51,46,33,40,10,6,104,21,66,10,2140,288,2428,62,609,0,0,30.29,30.13,30.21,1025.7,1020.2,1022.9,45,CLR,Mostly Clear,KATL,O,EST,33.637,-84.428,1027,57,56,30,36,45,370,5,100,20,BKN,10,378,49,427,494,543,705,0,0,0,30.23,1023.6,45,CLR,Mostly Clear,27-Nov-16,13
KATL 27/Oct/2019 13,156,ATL2019,27-Oct-19,27-Oct-19,27-Oct-19,1:00,13,SEA,-1.5,ATL,47,O,44,2019,Week 8,71483,ATL,1.5,-1.5,CAR,20,27,Y,71000,0,2,43,0,Atlanta,KATL,KATL4376513,KATL,O,27-Oct-19,EST,33.633,-84.45,971,73,54,64,77,54,66,51,55,90,55,75,71,53,59,13,9,294,21,30,9.9,3743,395,4138,591,657,0.03,0,30.04,29.84,29.97,1016.9,1009.8,1014.3,46,CLR,Fair,KATL,O,EST,33.633,-84.45,971,69,69,53,57,60,290,5,5,38,FEW,10,607,62,669,623,685,891,0,0,0,29.99,1014.8,45,CLR,Mostly Clear,27-Oct-19,13
KATL 28/Dec/2014 16,157,ATL2014,28-Dec-14,28-Dec-14,28-Dec-14,4:25,16,ATL,-3,CAR,37,U,48,2014,Week 17,71015,ATL,-3,3,CLE,3,34,Y,71228,0,22,72,1,Atlanta,KATL,KATL4200116,KATL,O,28-Dec-14,EST,33.637,-84.428,1027,61,53,58,61,51,58,51,55,93,87,92,59,52,56,12,5,211,21,100,5.1,1327,264,1591,0,597,2.01,0,30.16,30.04,30.08,1021.5,1017.2,1018.6,18,RAIN,Light Rain,KATL,O,EST,33.637,-84.428,1027,61,61,58,90,59,280,3,100,7,OVC,7,85,17,102,170,187,244,0,0,0,30.04,1017.2,42,MC,Mostly Cloudy,28-Dec-14,16
KATL 28/Nov/2019 13,158,ATL2019,28-Nov-19,28-Nov-19,28-Nov-19,1:00,13,NO,-2.5,ATL,44,U,57,2019,Week 13,71993,ATL,2.5,-2.5,NO,18,26,Y,71000,0,2,58,0,Atlanta,KATL,KATL4379713,KATL,O,28-Nov-19,EST,33.633,-84.45,971,63,44,53,63,37,32,29,30,58,30,43,48,38,43,21,13,317,25,41,10,2556,289,2845,378,608,0,0,30.29,30.21,30.25,1026,1022.7,1024.4,45,CLR,Mostly Clear,KATL,O,EST,33.633,-84.45,971,60,58,32,35,47,290,12,5,200,FEW,10,485,49,534,494,543,706,0,0,0,30.25,1024.4,45,CLR,Mostly Clear,28-Nov-19,13
KATL 29/Dec/2013 13,159,ATL2013,29-Dec-13,29-Dec-13,29-Dec-13,1:00,13,CAR,-6,ATL,41,U,46,2013,Week 17,70427,ATL,6,-6,SF,20,21,N,71228,0,21,72,1,Atlanta,KATL,KATL4163713,KATL,O,29-Dec-13,EST,33.637,-84.428,1027,50,41,45,50,33,44,40,42,97,80,89,47,40,44,15,9,308,21,99,6.9,1332,265,1595,0,597,0.2,0,30.06,29.87,29.97,1018.1,1011.6,1014.8,40,MC,Overcast,KATL,O,EST,33.637,-84.428,1027,50,46,44,80,47,280,12,100,13,OVC,10,236,47,283,472,519,675,0,0,0,29.97,1014.8,40,MC,Overcast,29-Dec-13,13
KATL 29/Nov/2015 13,160,ATL2015,29-Nov-15,29-Nov-15,29-Nov-15,1:00,13,ATL,-2,MIN,30,U,45,2015,Week 12,70610,ATL,-2,2,KC,10,20,Y,71228,0,23,72,1,Atlanta,KATL,KATL4233713,KATL,O,29-Nov-15,EST,33.637,-84.428,1027,73,55,65,72,56,55,51,53,84,52,67,62,53,58,8,4,193,21,98,10,994,287,1281,0,607,0,0,30.21,30.07,30.14,1023,1018.4,1020.6,45,CLR,Mostly Clear,KATL,O,EST,33.637,-84.428,1027,71,71,54,55,61,200,6,100,40,BKN,10,207,49,256,492,541,702,0,0,0,30.13,1020.3,45,CLR,Mostly Clear,29-Nov-15,13
KATL 29/Sep/2013 20,161,ATL2013,29-Sep-13,29-Sep-13,29-Sep-13,8:30,20,ATL,-3,NE,53,O,49.5,2013,Week 4,70744,ATL,-3,3,DET,23,30,Y,71228,0,21,72,1,Atlanta,KATL,KATL4154620,KATL,O,29-Sep-13,EST,33.637,-84.428,1027,76,56,65,77,56,56,51,53,83,45,66,62,54,58,14,7,79,21,53,10,4111,530,4641,254,713,0,0,30.15,30.02,30.09,1020.9,1016.7,1018.9,45,CLR,Mostly Clear,KATL,O,EST,33.637,-84.428,1027,66,66,55,68,60,90,6,100,180,BKN,10,0,0,0,0,0,0,0,0,0,30.05,1017.7,42,MC,Mostly Cloudy,29-Sep-13,20
KATL 29/Sep/2019 13,162,ATL2019,29-Sep-19,29-Sep-19,29-Sep-19,1:00,13,ATL,-3.5,TEN,34,U,46,2019,Week 4,72108,ATL,-3.5,3.5,TEN,10,24,Y,71000,0,2,87,0,Atlanta,KATL,KATL4373713,KATL,O,29-Sep-19,EST,33.633,-84.45,971,93,73,82,96,73,70,65,68,87,43,65,75,70,72,8,4,136,21,21,10,4870,530,5400,491,713,0,0,30.26,30.16,30.2,1023.8,1020,1021.4,45,CLR,Mostly Clear,KATL,O,EST,33.633,-84.45,971,89,93,67,48,74,130,8,25,250,SCT,10,709,78,787,775,853,1107,0,0,0,30.21,1021.7,54,CLR,Few High Clouds,29-Sep-19,13
KATL 30/Nov/2014 16,163,ATL2014,30-Nov-14,30-Nov-14,30-Nov-14,4:05,16,ARI,-1.5,ATL,47,O,45,2014,Week 13,69557,ATL,1.5,-1.5,CHI,29,18,Y,71228,0,22,72,1,Atlanta,KATL,KATL4197316,KATL,O,30-Nov-14,EST,33.637,-84.428,1027,69,41,55,69,42,47,34,38,73,31,56,56,40,47,13,4,212,21,20,10,2412,283,2695,428,605,0,0,30.36,30.24,30.29,1028.1,1023.9,1025.8,46,CLR,Fair,KATL,O,EST,33.637,-84.428,1027,69,69,37,31,53,220,10,5,40,FEW,10,150,15,165,154,169,220,0,0,0,30.25,1024.5,45,CLR,Mostly Clear,30-Nov-14,16
KATL 30/Oct/2016 16,164,ATL2016,30-Oct-16,30-Oct-16,30-Oct-16,4:25,16,ATL,-3,GB,65,O,51,2016,Week 8,70165,ATL,-3,3,LAC,33,32,N,71228,0,24,72,1,Atlanta,KATL,KATL4267316,KATL,O,30-Oct-16,EST,33.637,-84.428,1027,86,57,72,85,58,55,49,52,84,30,54,65,55,60,12,5,288,21,8,10,3547,378,3925,542,652,0,0,30.19,30.06,30.13,1022.5,1017.8,1020.2,45,CLR,Mostly Clear,KATL,O,EST,33.637,-84.428,1027,84,84,49,30,64,300,12,45,75,SCT,10,189,22,211,224,246,320,0,0,0,30.06,1017.9,45,CLR,Mostly Clear,30-Oct-16,16
KATL 30/Sep/2018 13,165,ATL2018,30-Sep-18,30-Sep-18,30-Sep-18,1:00,13,ATL,-3.5,CIN,73,O,52.5,2018,Week 4,71985,ATL,-3.5,3.5,CIN,36,37,N,71000,0,1,81,0,Atlanta,KATL,KATL4337313,KATL,O,30-Sep-18,EST,33.633,-84.45,971,85,72,76,88,72,70,67,69,94,60,80,74,70,71,13,7,98,21,91,9.2,2245,524,2768,0,711,0,0,30.27,30.19,30.23,1024.3,1021.1,1022.8,42,MC,Mostly Cloudy,KATL,O,EST,33.633,-84.45,971,77,80,69,77,72,110,13,100,25,BKN,10,385,77,462,770,847,1100,0,0,0,30.25,1023.5,42,MC,Mostly Cloudy,30-Sep-18,13
KATL 31/Dec/2017 16,166,ATL2017,31-Dec-17,31-Dec-17,31-Dec-17,4:25,16,ATL,-5,CAR,32,U,44.5,2017,Week 17,74141,ATL,-5,5,WAS,22,10,Y,71000,1,0,74,0,Atlanta,KATL,KATL4310016,KATL,O,31-Dec-17,EST,33.637,-84.428,1027,36,28,33,36,19,27,13,23,75,51,68,32,24,30,16,11,327,23,82,9.8,1350,266,1614,9,598,0,0,30.28,30.1,30.19,1026.5,1019.8,1023,40,MC,Overcast,KATL,O,EST,33.637,-84.428,1027,36,29,25,64,32,340,10,90,55,BKN,10,97,18,115,177,195,252,0,0,0,30.16,1022,42,MC,Mostly Cloudy,31-Dec-17,16
KBFI 01/Oct/2017 20,167,SEA2017,1-Oct-17,1-Oct-17,1-Oct-17,8:30,20,SEA,-12.5,IND,64,O,41.5,2017,Week 4,68872,SEA,-12.5,12.5,IND,46,18,Y,68740,0,15,59,0,Seattle,KBFI,KBFI4300920,KBFI,O,1-Oct-17,PST,47.53,-122.302,20,62,48,56,62,52,51,42,47,90,52,73,53,49,52,10,4,335,10,72,10,2078,368,2446,104,701,0,0,30.14,30.1,30.13,1020.7,1019.2,1020.2,42,MC,Mostly Cloudy,KBFI,O,PST,47.53,-122.302,20,56,54,46,70,51,360,7,20,70,SCT,10,0,0,0,0,0,0,0,0,0,30.14,1020.6,44,PC,Partly Cloudy,1-Oct-17,20
KBFI 02/Dec/2013 20,168,SEA2013,2-Dec-13,2-Dec-13,2-Dec-13,8:40,20,SEA,-6.5,NO,41,U,48.5,2013,Week 13,68387,SEA,-6.5,6.5,PHI,34,7,Y,68740,0,11,42,0,Seattle,KBFI,KBFI4161020,KBFI,O,2-Dec-13,PST,47.53,-122.302,20,47,36,42,47,32,34,29,32,86,56,69,42,35,38,9,5,148,9,51,9.8,962,117,1078,347,521,0.07,0,30.06,29.83,29.93,1018.1,1010,1013.4,44,PC,Partly Cloudy,KBFI,O,PST,47.53,-122.302,20,37,33,33,86,35,160,5,100,22,BKN,10,0,0,0,0,0,0,0,0,0,30.01,1016.2,44,PC,Partly Cloudy,2-Dec-13,20
KBFI 02/Dec/2018 20,169,SEA2018,2-Dec-18,2-Dec-18,2-Dec-18,8:20,20,SEA,-9.5,SF,59,O,45,2018,Week 13,69009,SEA,-9.5,9.5,SF,43,16,Y,68740,0,16,74,0,Seattle,KBFI,KBFI4343620,KBFI,O,2-Dec-18,PST,47.55,-122.317,13,47,38,43,47,39,41,35,38,93,69,83,43,38,41,7,1,139,7,91,8.2,587,116,702,2,521,0.04,0,30.29,30.01,30.16,1026.3,1016.8,1021.2,40,MC,Overcast,KBFI,O,PST,47.55,-122.317,13,43,43,37,80,40,360,0,65,70,SCT,9,0,0,0,0,0,0,0,0,0,30.25,1024.3,43,PC,Partly Cloudy,2-Dec-18,20
KBFI 02/Dec/2019 13,170,SEA2019,2-Dec-19,2-Dec-19,2-Dec-19,1:00,13,SEA,-3,MIN,67,O,44,2019,Week 13,69080,SEA,-3,3,KC,37,30,Y,68740,0,17,68,0,Seattle,KBFI,KBFI4380113,KBFI,O,2-Dec-19,PST,47.55,-122.317,13,52,36,45,52,34,40,34,37,86,61,75,46,36,41,5,1,146,5,74,9.9,1004,116,1119,275,521,0.05,0,30.16,30.06,30.13,1021.2,1017.8,1020.2,42,MC,Mostly Cloudy,KBFI,O,PST,47.55,-122.317,13,50,50,38,63,44,0,0,70,80,BKN,10,146,22,168,225,247,321,0,0,0,30.14,1020.5,42,MC,Mostly Cloudy,2-Dec-19,13
KBFI 02/Nov/2014 16,171,SEA2014,2-Nov-14,2-Nov-14,2-Nov-14,4:25,16,SEA,-13.5,OAK,54,O,44,2014,Week 9,68337,SEA,-13.5,13.5,CHI,30,24,N,68740,0,12,56,0,Seattle,KBFI,KBFI4194516,KBFI,O,2-Nov-14,PST,47.53,-122.302,20,58,44,53,58,42,51,42,47,90,62,81,53,44,49,8,6,140,8,92,9.3,1065,202,1270,39,593,0.12,0,30.15,30.07,30.1,1020.9,1018.3,1019.4,40,MC,Overcast,KBFI,O,PST,47.53,-122.302,20,55,53,50,83,52,140,7,100,16,OVC,4,17,3,20,34,37,49,99,0.03,0,30.08,1018.7,18,RAIN,Light Rain,2-Nov-14,16
KBFI 03/Dec/2017 20,172,SEA2017,3-Dec-17,3-Dec-17,3-Dec-17,8:30,20,PHI,-4,SEA,34,U,46.5,2017,Week 13,69075,SEA,4,-4,WAS,24,10,Y,68740,0,15,69,0,Seattle,KBFI,KBFI4307220,KBFI,O,3-Dec-17,PST,47.53,-122.302,20,46,39,43,46,39,41,37,39,100,73,86,43,39,41,7,2,358,7,97,9.9,587,115,702,6,520,0.04,0,30.46,29.91,30.19,1031.5,1012.7,1022.3,40,MC,Overcast,KBFI,O,PST,47.53,-122.302,20,42,39,38,85,40,150,5,100,50,OVC,10,0,0,0,0,0,0,0,0,0,30.36,1027.9,40,MC,Overcast,3-Dec-17,20
KBFI 03/Nov/2013 16,173,SEA2013,3-Nov-13,3-Nov-13,3-Nov-13,4:05,16,SEA,-16,TB,51,O,40.5,2013,Week 9,67873,SEA,-16,16,ARI,27,24,N,68740,0,11,52,0,Seattle,KBFI,KBFI4158116,KBFI,O,3-Nov-13,PST,47.53,-122.302,20,53,38,46,53,36,40,33,37,89,47,72,45,38,42,7,3,131,7,64,10,1181,196,1377,73,591,0.01,0,30.11,29.93,30.04,1019.8,1013.5,1017.3,44,PC,Partly Cloudy,KBFI,O,PST,47.53,-122.302,20,50,47,34,54,43,100,7,90,48,BKN,10,18,3,21,32,35,45,0,0,0,30.06,1017.8,44,PC,Partly Cloudy,3-Nov-13,16
KBFI 03/Nov/2019 13,174,SEA2019,3-Nov-19,3-Nov-19,3-Nov-19,1:00,13,SEA,-7.5,TB,74,O,58,2019,Week 9,68948,SEA,-7.5,7.5,ARI,40,34,N,68740,0,17,34,0,Seattle,KBFI,KBFI4377213,KBFI,O,3-Nov-19,PST,47.55,-122.317,13,56,35,46,56,31,44,34,40,96,65,80,50,35,43,8,2,291,8,8,9.6,1796,196,1992,486,591,0,0,30.26,30.19,30.22,1024.5,1022.2,1023.2,54,CLR,Few High Clouds,KBFI,O,PST,47.55,-122.317,13,55,54,44,67,50,300,5,22,301,SCT,10,295,33,328,332,365,474,0,0,0,30.22,1023.2,54,CLR,Few High Clouds,3-Nov-19,13
KBFI 03/Oct/2019 13,175,SEA2019,3-Oct-19,3-Oct-19,3-Oct-19,1:00,13,LAR,-1,SEA,59,O,52.5,2019,Week 5,68988,SEA,1,-1,LAR,30,29,N,68740,0,17,78,0,Seattle,KBFI,KBFI4374113,KBFI,O,3-Oct-19,PST,47.55,-122.317,13,63,50,56,62,49,48,42,45,83,48,68,53,49,50,13,8,171,23,91,10,1922,356,2276,101,691,0.02,0,30.03,29.96,29.99,1016.8,1014.6,1015.5,40,MC,Overcast,KBFI,O,PST,47.55,-122.317,13,62,62,43,50,52,220,8,100,100,BKN,10,261,52,313,522,574,746,99,0,0,29.96,1014.6,50,PC,High Overcast,3-Oct-19,13
KBFI 04/Dec/2016 20,176,SEA2016,4-Dec-16,4-Dec-16,4-Dec-16,8:30,20,SEA,-8.5,CAR,47,O,44,2016,Week 13,69104,SEA,-8.5,8.5,DET,40,7,Y,68740,0,14,41,0,Seattle,KBFI,KBFI4270820,KBFI,O,4-Dec-16,PST,47.53,-122.302,20,46,35,41,46,26,43,32,37,100,71,87,45,34,40,13,6,154,13,65,9.1,780,114,895,224,519,0.17,0,30.16,30,30.07,1021.2,1015.7,1018.2,42,MC,Mostly Cloudy,KBFI,O,PST,47.53,-122.302,20,37,32,33,86,35,130,7,55,50,SCT,10,0,0,0,0,0,0,0,0,0,30.12,1019.9,42,MC,Mostly Cloudy,4-Dec-16,20
KBFI 04/Nov/2018 16,177,SEA2018,4-Nov-18,4-Nov-18,4-Nov-18,4:05,16,SEA,-1,LAC,42,U,48.5,2018,Week 9,68989,SEA,-1,1,LAC,17,25,Y,68740,0,16,60,0,Seattle,KBFI,KBFI4340816,KBFI,O,4-Nov-18,PST,47.55,-122.317,13,62,53,56,60,49,53,45,49,90,58,78,55,50,52,21,8,173,32,90,9.3,1133,194,1327,108,587,0.12,0,30.05,29.78,29.94,1017.5,1008.5,1013.9,40,MC,Overcast,KBFI,O,PST,47.55,-122.317,13,60,59,45,58,52,200,8,20,90,SCT,10,26,3,29,29,32,41,0,0,0,30,1015.7,44,PC,Partly Cloudy,4-Nov-18,16
KBFI 04/Sep/2014 20,178,SEA2014,4-Sep-14,4-Sep-14,4-Sep-14,8:35,20,SEA,-5,GB,52,O,47,2014,Week 1,68424,SEA,-5,5,BUF,36,16,Y,68740,0,12,70,0,Seattle,KBFI,KBFI4188620,KBFI,O,4-Sep-14,PST,47.53,-122.302,20,74,53,65,77,55,54,49,51,90,48,65,62,52,57,12,4,312,17,5,10,5288,536,5824,742,789,0,0,30.15,30.05,30.1,1020.9,1017.7,1019.4,46,CLR,Fair,KBFI,O,PST,47.53,-122.302,20,67,67,52,59,58,0,0,0,201,CLR,10,0,0,0,0,0,0,0,0,0,30.07,1018.4,46,CLR,Fair,4-Sep-14,20
KBFI 05/Nov/2017 16,179,SEA2017,5-Nov-17,5-Nov-17,5-Nov-17,4:05,16,SEA,-8.5,WAS,31,U,44.5,2017,Week 9,68927,SEA,-8.5,8.5,PIT,14,17,N,68740,0,15,72,0,Seattle,KBFI,KBFI4304416,KBFI,O,5-Nov-17,PST,47.53,-122.302,20,41,36,38,41,27,41,24,34,100,53,89,41,34,36,14,6,353,21,100,7.4,950,191,1142,0,585,0.27,0.4,30.13,29.74,29.91,1020.2,1007.1,1012.9,40,MC,Overcast,KBFI,O,PST,47.53,-122.302,20,40,35,29,65,36,340,7,100,50,OVC,10,14,3,16,27,30,38,0,0,0,29.97,1015,40,MC,Overcast,5-Nov-17,16
KBFI 05/Oct/2015 20,180,SEA2015,5-Oct-15,5-Oct-15,5-Oct-15,8:30,20,SEA,-10,DET,23,U,43,2015,Week 4,69005,SEA,-10,10,ATL,13,10,N,68740,0,13,61,0,Seattle,KBFI,KBFI4228220,KBFI,O,5-Oct-15,PST,47.53,-122.302,20,73,51,62,72,52,50,44,48,77,44,62,60,48,54,7,2,326,7,26,10,2984,343,3327,400,684,0,0,29.91,29.86,29.88,1012.9,1010.9,1011.8,46,CLR,Fair,KBFI,O,PST,47.53,-122.302,20,63,63,49,60,55,0,0,5,301,SCT,10,0,0,0,0,0,0,0,0,0,29.87,1011.5,54,CLR,Few High Clouds,5-Oct-15,20
KBFI 07/Nov/2016 20,181,SEA2016,7-Nov-16,7-Nov-16,7-Nov-16,8:30,20,SEA,-6,BUF,56,O,43.5,2016,Week 9,69084,SEA,-6,6,LAR,31,25,N,68740,0,14,60,0,Seattle,KBFI,KBFI4268120,KBFI,O,7-Nov-16,PST,47.53,-122.302,20,63,50,55,62,51,53,49,51,97,70,86,57,50,53,9,3,151,9,80,10,1019,178,1197,34,579,0.05,0,30.12,30.06,30.09,1020,1017.9,1018.9,40,MC,Overcast,KBFI,O,PST,47.53,-122.302,20,55,55,52,90,53,0,0,70,200,BKN,10,0,0,0,0,0,0,0,0,0,30.09,1018.8,42,MC,Mostly Cloudy,7-Nov-16,20
KBFI 07/Oct/2018 16,182,SEA2018,7-Oct-18,7-Oct-18,7-Oct-18,4:25,16,LAR,-7.5,SEA,64,O,50.5,2018,Week 5,68893,SEA,7.5,-7.5,LAR,31,33,N,68740,0,16,76,0,Seattle,KBFI,KBFI4338016,KBFI,O,7-Oct-18,PST,47.55,-122.317,13,57,48,52,56,44,50,42,46,87,72,79,52,45,49,9,5,155,9,90,9.7,1655,332,1989,0,678,0,0,30.23,30.08,30.17,1023.5,1018.6,1021.4,40,MC,Overcast,KBFI,O,PST,47.55,-122.317,13,56,55,48,75,52,180,6,100,70,OVC,10,72,14,86,143,157,204,0,0,0,30.14,1020.5,40,MC,Overcast,7-Oct-18,16
KBFI 08/Sep/2019 16,183,SEA2019,8-Sep-19,8-Sep-19,8-Sep-19,4:05,16,SEA,-9.5,CIN,41,U,44.5,2019,Week 1,68710,SEA,-9.5,9.5,LAR,21,20,N,68740,0,17,64,0,Seattle,KBFI,KBFI4371616,KBFI,O,8-Sep-19,PST,47.55,-122.317,13,74,59,64,72,59,59,54,56,90,53,78,62,58,60,12,7,166,12,98,8.1,2474,508,2982,23,776,0,0,29.96,29.85,29.89,1014.4,1010.7,1012.2,40,MC,Overcast,KBFI,O,PST,47.55,-122.317,13,68,68,55,63,60,230,9,100,100,BKN,10,162,32,194,323,355,461,0,0,0,29.86,1011,42,MC,Mostly Cloudy,8-Sep-19,16
KBFI 09/Nov/2014 16,184,SEA2014,9-Nov-14,9-Nov-14,9-Nov-14,4:25,16,SEA,-9.5,NYG,55,O,45,2014,Week 10,68352,SEA,-9.5,9.5,PIT,38,17,Y,68740,0,12,56,0,Seattle,KBFI,KBFI4195216,KBFI,O,9-Nov-14,PST,47.53,-122.302,20,57,48,52,57,45,50,43,46,86,72,80,53,47,49,12,5,148,16,87,9.1,908,175,1083,12,573,0.29,0,30.04,29.82,29.92,1017.4,1009.9,1013.3,18,RAIN,Light Rain,KBFI,O,PST,47.53,-122.302,20,54,54,47,77,50,300,3,100,26,OVC,10,9,2,11,18,20,26,99,0.06,0,29.89,1012.2,18,RAIN,Light Rain,9-Nov-14,16
KBFI 10/Dec/2018 20,185,SEA2018,10-Dec-18,10-Dec-18,10-Dec-18,8:15,20,SEA,-3,MIN,28,U,45.5,2018,Week 14,69007,SEA,-3,3,MIN,21,7,Y,68740,0,16,55,0,Seattle,KBFI,KBFI4344420,KBFI,O,10-Dec-18,PST,47.55,-122.317,13,50,41,45,50,35,43,38,41,93,71,84,46,40,43,13,9,151,21,82,9.9,742,108,850,166,511,0.09,0,30.26,30.16,30.22,1024.8,1021.3,1023.2,42,MC,Mostly Cloudy,KBFI,O,PST,47.55,-122.317,13,45,41,41,86,43,150,8,70,65,BKN,10,0,0,0,0,0,0,0,0,0,30.22,1023.2,42,MC,Mostly Cloudy,10-Dec-18,20
KBFI 11/Sep/2016 16,186,SEA2016,11-Sep-16,11-Sep-16,11-Sep-16,4:05,16,SEA,-10.5,MIA,22,U,44,2016,Week 1,69012,SEA,-10.5,10.5,CLE,12,10,N,68740,0,14,64,0,Seattle,KBFI,KBFI4262416,KBFI,O,11-Sep-16,PST,47.53,-122.302,20,70,57,62,69,56,51,44,48,81,42,61,57,53,55,10,4,302,10,51,10,3278,484,3760,337,766,0,0,30.18,30.08,30.14,1022,1018.6,1020.6,42,MC,Mostly Cloudy,KBFI,O,PST,47.53,-122.302,20,69,69,45,42,56,330,7,5,40,FEW,10,292,30,322,299,329,427,0,0,0,30.13,1020.3,44,PC,Partly Cloudy,11-Sep-16,16
KBFI 12/Oct/2014 16,187,SEA2014,12-Oct-14,12-Oct-14,12-Oct-14,4:25,16,SEA,-9.5,DAL,53,O,47,2014,Week 6,68432,SEA,-9.5,9.5,GB,23,30,N,68740,0,12,66,0,Seattle,KBFI,KBFI4192416,KBFI,O,12-Oct-14,PST,47.53,-122.302,20,66,55,61,66,53,54,50,52,87,56,75,58,53,56,8,3,160,8,95,10,1531,303,1833,26,661,0,0,30.25,30.03,30.18,1024.5,1016.8,1021.9,40,MC,Overcast,KBFI,O,PST,47.53,-122.302,20,65,65,50,59,57,0,0,100,80,OVC,10,59,12,71,118,130,169,0,0,0,30.16,1021.5,40,MC,Overcast,12-Oct-14,16
KBFI 13/Oct/2013 16,188,SEA2013,13-Oct-13,13-Oct-13,13-Oct-13,4:05,16,SEA,-12.5,TEN,33,U,42,2013,Week 6,68127,SEA,-12.5,12.5,SEA,20,13,N,68740,0,11,57,0,Seattle,KBFI,KBFI4156016,KBFI,O,13-Oct-13,PST,47.53,-122.302,20,59,43,50,59,44,45,41,44,93,58,79,51,43,47,6,1,29,6,36,8.4,2229,297,2524,357,658,0,0,30.37,30.24,30.31,1028.5,1023.9,1026.4,46,CLR,Fair,KBFI,O,PST,47.53,-122.302,20,58,58,44,60,51,0,0,0,201,CLR,10,113,11,124,113,124,161,0,0,0,30.31,1026.4,46,CLR,Fair,13-Oct-13,16
KBFI 14/Dec/2014 16,189,SEA2014,14-Dec-14,14-Dec-14,14-Dec-14,4:25,16,SEA,-9.5,SF,24,U,38.5,2014,Week 15,68526,SEA,-9.5,9.5,SF,17,7,Y,68740,0,12,49,0,Seattle,KBFI,KBFI4198716,KBFI,O,14-Dec-14,PST,47.53,-122.302,20,58,38,46,58,38,39,23,33,93,27,68,46,37,40,15,3,84,23,35,7.2,1013,105,1119,422,508,0,0,30.23,30,30.1,1023.6,1015.9,1019.4,46,CLR,Fair,KBFI,O,PST,47.53,-122.302,20,57,57,23,27,43,0,0,5,200,FEW,10,1,0,1,1,1,1,0,0,0,30.03,1016.8,45,CLR,Mostly Clear,14-Dec-14,16
KBFI 15/Dec/2016 20,190,SEA2016,15-Dec-16,15-Dec-16,15-Dec-16,8:25,20,SEA,-15.5,LAR,27,U,40.5,2016,Week 15,69067,SEA,-15.5,15.5,MIN,24,3,Y,68740,0,14,35,0,Seattle,KBFI,KBFI4271920,KBFI,O,15-Dec-16,PST,47.53,-122.302,20,39,34,36,38,29,27,24,26,73,62,68,34,31,32,7,3,21,7,92,10,521,104,626,0,507,0,0,29.94,29.87,29.92,1013.7,1011.5,1012.9,40,MC,Overcast,KBFI,O,PST,47.53,-122.302,20,36,31,26,67,32,360,6,100,75,OVC,10,0,0,0,0,0,0,0,0,0,29.93,1013.3,40,MC,Overcast,15-Dec-16,20
KBFI 15/Nov/2015 20,191,SEA2015,15-Nov-15,15-Nov-15,15-Nov-15,8:30,20,SEA,-3,ARI,71,O,43.5,2015,Week 10,69005,SEA,-3,3,CLE,32,39,Y,68740,0,13,42,0,Seattle,KBFI,KBFI4232320,KBFI,O,15-Nov-15,PST,47.53,-122.302,20,50,38,43,49,34,39,34,36,83,61,77,44,37,41,12,4,79,21,66,8.8,767,156,922,83,557,0.75,0,30.07,29.53,29.77,1018.1,999.9,1008.1,18,RAIN,Light Rain,KBFI,O,PST,47.53,-122.302,20,41,41,36,82,39,120,3,5,24,FEW,10,0,0,0,0,0,0,0,0,0,29.93,1013.4,46,CLR,Fair,15-Nov-15,20
KBFI 15/Nov/2018 20,192,SEA2018,15-Nov-18,15-Nov-18,15-Nov-18,8:20,20,SEA,-3,GB,51,O,49,2018,Week 11,69007,SEA,-3,3,GB,27,24,N,68740,0,16,75,0,Seattle,KBFI,KBFI4341920,KBFI,O,15-Nov-18,PST,47.55,-122.317,13,57,49,53,55,45,47,44,46,90,67,77,50,47,49,15,7,166,15,96,9.9,914,156,1071,60,557,0.01,0,30.39,30.19,30.3,1028.9,1022.4,1025.8,40,MC,Overcast,KBFI,O,PST,47.55,-122.317,13,54,50,45,72,49,160,13,100,24,OVC,10,0,0,0,0,0,0,0,0,0,30.21,1022.9,40,MC,Overcast,15-Nov-18,20
KBFI 15/Sep/2013 20,193,SEA2013,15-Sep-13,15-Sep-13,15-Sep-13,8:30,20,SEA,-3,SF,32,U,44.5,2013,Week 2,68338,SEA,-3,3,NO,29,3,Y,68740,0,11,64,0,Seattle,KBFI,KBFI4153220,KBFI,O,15-Sep-13,PST,47.53,-122.302,20,68,59,63,68,59,61,55,58,90,76,84,63,57,60,9,5,167,9,98,7.2,2219,466,2687,22,753,0.04,0,29.82,29.72,29.76,1009.8,1006.4,1007.9,40,MC,Overcast,KBFI,O,PST,47.53,-122.302,20,64,64,61,90,62,160,6,91,16,OVC,10,0,0,0,0,0,0,0,0,0,29.82,1009.8,42,MC,Mostly Cloudy,15-Sep-13,20
KBFI 16/Oct/2016 16,194,SEA2016,16-Oct-16,16-Oct-16,16-Oct-16,4:25,16,SEA,-7,ATL,50,O,45.5,2016,Week 6,69071,SEA,-7,7,LAR,26,24,N,68740,0,14,54,0,Seattle,KBFI,KBFI4265916,KBFI,O,16-Oct-16,PST,47.53,-122.302,20,60,51,54,59,48,54,48,51,100,78,90,55,50,52,15,6,157,17,96,9.3,1427,276,1703,6,648,0.52,0,29.45,29.35,29.39,997.1,993.7,995.3,18,RAIN,Light Rain,KBFI,O,PST,47.53,-122.302,20,58,58,52,81,55,370,5,100,150,OVC,10,28,9,37,93,102,133,0,0,0,29.35,993.8,40,MC,Overcast,16-Oct-16,16
KBFI 17/Dec/2017 16,195,SEA2017,17-Dec-17,17-Dec-17,17-Dec-17,4:05,16,SEA,PK,LAR,49,O,47.5,2017,Week 15,69077,SEA,PK,PK,CIN,7,42,PK,68740,0,15,79,0,Seattle,KBFI,KBFI4308616,KBFI,O,17-Dec-17,PST,47.53,-122.302,20,52,43,47,51,36,46,41,43,100,74,86,48,42,45,16,12,175,32,98,9,550,105,655,15,507,0.01,0,30.23,29.97,30.08,1023.6,1014.8,1018.4,40,MC,Overcast,KBFI,O,PST,47.53,-122.302,20,50,45,44,80,47,180,14,90,55,BKN,10,1,0,1,1,1,1,0,0,0,30.02,1016.5,50,PC,High Overcast,17-Dec-17,16
KBFI 17/Nov/2013 16,196,SEA2013,17-Nov-13,17-Nov-13,17-Nov-13,4:25,16,SEA,-13,MIN,61,O,45.5,2013,Week 11,68235,SEA,-13,13,NO,41,20,Y,68740,0,11,50,0,Seattle,KBFI,KBFI4159516,KBFI,O,17-Nov-13,PST,47.53,-122.302,20,53,44,49,53,40,46,37,42,83,69,77,49,42,46,14,9,175,23,94,9.5,772,151,922,12,552,0.02,0,29.91,29.79,29.85,1012.9,1008.9,1010.9,44,PC,Partly Cloudy,KBFI,O,PST,47.53,-122.302,20,52,49,45,77,49,190,10,100,17,OVC,10,4,1,5,8,9,11,0,0,0,29.87,1011.4,44,PC,Partly Cloudy,17-Nov-13,16
KBFI 17/Sep/2017 16,197,SEA2017,17-Sep-17,17-Sep-17,17-Sep-17,4:25,16,SEA,-13.5,SF,21,U,41,2017,Week 2,68729,SEA,-13.5,13.5,PHI,12,9,N,68740,0,15,57,0,Seattle,KBFI,KBFI4299516,KBFI,O,17-Sep-17,PST,47.53,-122.302,20,65,53,58,65,52,59,48,52,100,61,81,59,51,55,10,7,162,21,86,8.3,2736,453,3189,66,746,0.06,0,29.88,29.74,29.82,1011.7,1007.2,1009.8,40,MC,Overcast,KBFI,O,PST,47.53,-122.302,20,57,56,57,100,57,130,7,100,34,OVC,4,133,27,160,266,293,380,99,0,0,29.77,1008.1,18,RAIN,Light Rain,17-Sep-17,16
KBFI 18/Oct/2015 16,198,SEA2015,18-Oct-15,18-Oct-15,18-Oct-15,4:05,16,SEA,-7,CAR,50,O,41,2015,Week 6,69020,SEA,-7,7,NE,23,27,N,68740,0,13,59,0,Seattle,KBFI,KBFI4229516,KBFI,O,18-Oct-15,PST,47.53,-122.302,20,62,59,60,62,59,59,54,56,93,79,85,60,56,58,8,3,147,8,98,5.2,1265,271,1534,0,641,0.16,0,30.02,29.96,29.99,1016.6,1014.4,1015.4,40,MC,Overcast,KBFI,O,PST,47.53,-122.302,20,61,60,56,84,58,150,7,100,15,OVC,2.5,44,9,53,88,97,125,0,0,0,29.99,1015.5,35,HAZY,Haze,18-Oct-15,16
KBFI 20/Dec/2015 16,199,SEA2015,20-Dec-15,20-Dec-15,20-Dec-15,4:05,16,SEA,-14.5,CLE,43,U,45.5,2015,Week 15,69002,SEA,-14.5,14.5,LAC,30,13,Y,68740,0,13,44,0,Seattle,KBFI,KBFI4235816,KBFI,O,20-Dec-15,PST,47.53,-122.302,20,49,43,46,49,37,33,32,32,65,54,59,42,38,40,18,11,173,29,90,9.8,500,104,603,35,506,0.19,0,29.8,29.62,29.72,1009.1,1003.1,1006.5,18,RAIN,Light Rain,KBFI,O,PST,47.53,-122.302,20,46,40,33,61,40,190,14,90,35,BKN,10,1,0,1,1,1,2,0,0,0,29.75,1007.5,42,MC,Mostly Cloudy,20-Dec-15,16
KBFI 20/Nov/2016 16,200,SEA2016,20-Nov-16,20-Nov-16,20-Nov-16,4:25,16,SEA,-6.5,PHI,41,U,43,2016,Week 11,69190,SEA,-6.5,6.5,KC,26,15,Y,68740,0,14,51,0,Seattle,KBFI,KBFI4269416,KBFI,O,20-Nov-16,PST,47.53,-122.302,20,55,46,51,55,44,49,43,46,97,72,82,51,47,49,14,7,156,22,92,9.9,699,138,836,3,545,0.11,0,29.84,29.67,29.73,1010.4,1004.8,1006.7,40,MC,Overcast,KBFI,O,PST,47.53,-122.302,20,53,50,47,80,50,200,9,95,110,BKN,10,3,0,3,4,4,6,0,0,0,29.73,1006.8,40,MC,Overcast,20-Nov-16,16
KBFI 20/Nov/2017 20,201,SEA2017,20-Nov-17,20-Nov-17,20-Nov-17,8:30,20,ATL,-1,SEA,65,O,46,2017,Week 11,69026,SEA,1,-1,CHI,31,34,Y,68740,0,15,87,0,Seattle,KBFI,KBFI4305920,KBFI,O,20-Nov-17,PST,47.53,-122.302,20,51,38,46,50,39,48,38,44,100,80,91,49,38,45,13,3,25,13,81,8.2,638,144,783,0,545,0.49,0,30.08,29.51,29.79,1018.7,999.2,1008.6,18,RAIN,Light Rain,KBFI,O,PST,47.53,-122.302,20,43,43,38,82,41,0,0,52,301,BKN,10,0,0,0,0,0,0,0,0,0,30.03,1016.8,52,PC,High Clouds,20-Nov-17,20
KBFI 20/Oct/2019 13,202,SEA2019,20-Oct-19,20-Oct-19,20-Oct-19,1:00,13,SEA,-4.5,BAL,46,O,40,2019,Week 7,69012,SEA,-4.5,4.5,GB,16,30,Y,68740,0,17,83,0,Seattle,KBFI,KBFI4375813,KBFI,O,20-Oct-19,PST,47.55,-122.317,13,54,46,50,54,42,49,41,45,93,74,83,51,44,47,12,6,143,12,92,8,1280,259,1538,21,635,0.21,0,30.11,29.9,30.01,1019.7,1012.6,1016.2,19,RAIN,Moderate Rain,KBFI,O,PST,47.55,-122.317,13,50,47,47,89,48,130,8,100,9,OVC,1.5,206,41,247,412,453,588,99,0,0,29.92,1013.3,18,RAIN,Light Rain,20-Oct-19,13
KBFI 21/Sep/2014 16,203,SEA2014,21-Sep-14,21-Sep-14,21-Sep-14,4:25,16,SEA,-4.5,DEN,46,U,48,2014,Week 3,68447,SEA,-4.5,4.5,BAL,26,20,Y,68740,0,12,83,0,Seattle,KBFI,KBFI4190316,KBFI,O,21-Sep-14,PST,47.53,-122.302,20,84,57,69,83,58,57,53,55,84,38,63,67,55,61,10,5,152,10,10,10,4280,428,4708,730,732,0,0,29.95,29.83,29.87,1014.2,1010.2,1011.6,46,CLR,Fair,KBFI,O,PST,47.53,-122.302,20,82,82,55,40,66,200,5,2,201,SCT,10,240,24,264,242,266,346,0,0,0,29.83,1010.3,46,CLR,Fair,21-Sep-14,16
KBFI 22/Dec/2013 16,204,SEA2013,22-Dec-13,22-Dec-13,22-Dec-13,4:05,16,SEA,-9,ARI,27,U,43,2013,Week 16,68266,SEA,-9,9,NO,10,17,N,68740,0,11,50,0,Seattle,KBFI,KBFI4163016,KBFI,O,22-Dec-13,PST,47.53,-122.302,20,52,46,50,52,43,48,44,46,96,80,89,50,46,48,12,7,154,20,100,3.8,517,104,623,0,506,0.21,0,30.3,30.16,30.24,1026,1021.4,1024.2,18,RAIN,Light Rain,KBFI,O,PST,47.53,-122.302,20,51,49,48,89,49,150,7,100,8,OVC,2.5,1,0,1,2,2,2,99,0.01,0,30.28,1025.5,18,RAIN,Light Rain,22-Dec-13,16
KBFI 22/Dec/2019 13,205,SEA2019,22-Dec-19,22-Dec-19,22-Dec-19,1:00,13,SEA,-12,ARI,40,O,41,2019,Week 16,69022,SEA,-12,12,DET,13,27,Y,68740,0,17,80,0,Seattle,KBFI,KBFI4382113,KBFI,O,22-Dec-19,PST,47.55,-122.317,13,46,39,43,45,39,39,37,39,93,76,85,43,38,41,5,2,10,5,81,9.6,557,104,665,73,505,0.28,0,29.86,29.71,29.79,1011.1,1006.4,1008.9,18,RAIN,Light Rain,KBFI,O,PST,47.55,-122.317,13,45,42,39,81,42,350,5,100,95,OVC,10,105,21,126,210,231,300,0,0,0,29.75,1007.1,40,MC,Overcast,22-Dec-19,13
KBFI 22/Nov/2015 16,206,SEA2015,22-Nov-15,22-Nov-15,22-Nov-15,4:25,16,SEA,-14,SF,42,O,40,2015,Week 11,68993,SEA,-14,14,CAR,29,13,Y,68740,0,13,48,0,Seattle,KBFI,KBFI4233016,KBFI,O,22-Nov-15,PST,47.53,-122.302,20,50,33,42,50,34,34,29,32,82,50,69,43,32,38,6,1,301,6,8,10,1290,137,1427,458,540,0,0,30.23,29.97,30.09,1023.6,1014.9,1018.9,46,CLR,Fair,KBFI,O,PST,47.53,-122.302,20,49,47,34,57,42,290,5,20,200,SCT,10,4,0,4,4,4,6,0,0,0,30.03,1016.7,44,PC,Partly Cloudy,22-Nov-15,16
KBFI 22/Sep/2013 16,207,SEA2013,22-Sep-13,22-Sep-13,22-Sep-13,4:25,16,SEA,-19.5,JAX,62,O,39.5,2013,Week 3,68087,SEA,-19.5,19.5,OAK,45,17,Y,68740,0,11,61,0,Seattle,KBFI,KBFI4153916,KBFI,O,22-Sep-13,PST,47.53,-122.302,20,63,57,60,63,54,54,49,52,84,65,76,58,54,56,17,11,165,28,80,9.5,2342,423,2765,128,729,0.39,0,29.77,29.59,29.67,1008,1001.9,1004.6,18,RAIN,Light Rain,KBFI,O,PST,47.53,-122.302,20,62,62,53,73,57,180,8,70,65,BKN,10,153,24,177,235,259,336,99,0.01,0,29.62,1003.1,18,RAIN,Light Rain,22-Sep-13,16
KBFI 22/Sep/2019 16,208,SEA2019,22-Sep-19,22-Sep-19,22-Sep-19,4:25,16,SEA,-4.5,NO,60,O,44,2019,Week 3,69005,SEA,-4.5,4.5,PIT,27,33,Y,68740,0,17,42,0,Seattle,KBFI,KBFI4373016,KBFI,O,22-Sep-19,PST,47.55,-122.317,13,65,59,62,65,58,60,53,57,90,75,84,62,57,59,10,7,157,10,100,9.2,2112,422,2532,0,729,0.01,0,30.03,29.85,29.9,1016.8,1010.8,1012.5,18,RAIN,Light Rain,KBFI,O,PST,47.55,-122.317,13,64,64,60,87,62,150,9,100,35,OVC,10,118,24,142,235,259,336,0,0,0,29.85,1010.9,40,MC,Overcast,22-Sep-19,16
KBFI 23/Dec/2018 20,209,SEA2018,23-Dec-18,23-Dec-18,23-Dec-18,8:20,20,KC,-1,SEA,69,O,54.5,2018,Week 16,69067,SEA,1,-1,KC,38,31,Y,68740,0,16,88,0,Seattle,KBFI,KBFI4345720,KBFI,O,23-Dec-18,PST,47.55,-122.317,13,48,41,45,47,38,43,37,41,90,80,86,45,40,43,10,7,157,20,94,8.8,519,104,624,60,507,0.68,0,30.04,29.91,29.98,1017.4,1012.7,1015,19,RAIN,Moderate Rain,KBFI,O,PST,47.55,-122.317,13,43,39,40,89,42,150,6,70,110,BKN,10,0,0,0,0,0,0,0,0,0,30.02,1016.3,42,MC,Mostly Cloudy,23-Dec-18,20
KBFI 23/Nov/2014 16,210,SEA2014,23-Nov-14,23-Nov-14,23-Nov-14,4:05,16,SEA,-7.5,ARI,22,U,41.5,2014,Week 12,68327,SEA,-7.5,7.5,CAR,19,3,Y,68740,0,12,57,0,Seattle,KBFI,KBFI4196616,KBFI,O,23-Nov-14,PST,47.53,-122.302,20,57,44,51,57,40,47,39,42,83,58,73,51,42,47,20,8,171,28,67,9.4,856,133,986,180,538,0.43,0,30.36,30.08,30.18,1028.2,1018.5,1021.9,44,PC,Partly Cloudy,KBFI,O,PST,47.53,-122.302,20,54,54,43,67,49,160,3,20,30,SCT,10,4,0,4,4,4,6,0,0,0,30.18,1022.1,44,PC,Partly Cloudy,23-Nov-14,16
KBFI 23/Sep/2018 16,211,SEA2018,23-Sep-18,23-Sep-18,23-Sep-18,4:25,16,SEA,-1.5,DAL,37,U,40,2018,Week 3,69047,SEA,-1.5,1.5,DAL,24,13,Y,68740,0,16,56,0,Seattle,KBFI,KBFI4336616,KBFI,O,23-Sep-18,PST,47.55,-122.317,13,67,50,59,66,52,50,37,45,81,37,64,53,51,52,7,4,167,14,65,10,2586,416,3003,242,726,0,0,30.2,30.06,30.15,1022.7,1018,1020.9,40,MC,Overcast,KBFI,O,PST,47.55,-122.317,13,66,66,40,39,53,370,5,20,55,SCT,10,205,23,228,228,251,326,0,0,0,30.15,1020.8,44,PC,Partly Cloudy,23-Sep-18,16
KBFI 24/Dec/2016 16,212,SEA2016,24-Dec-16,24-Dec-16,24-Dec-16,4:25,16,SEA,-9,ARI,65,O,43.5,2016,Week 16,69050,SEA,-9,9,LAR,31,34,N,68740,0,14,39,0,Seattle,KBFI,KBFI4272816,KBFI,O,24-Dec-16,PST,47.53,-122.302,20,41,36,38,40,32,37,35,36,100,86,94,38,36,37,8,1,4,8,97,9.6,522,104,624,0,507,0,0,30.02,29.81,29.94,1016.6,1009.5,1013.8,40,MC,Overcast,KBFI,O,PST,47.53,-122.302,20,38,38,35,89,37,0,0,100,35,OVC,10,1,0,1,2,2,3,0,0,0,29.98,1015,40,MC,Overcast,24-Dec-16,16
KBFI 25/Sep/2016 16,213,SEA2016,25-Sep-16,25-Sep-16,25-Sep-16,4:05,16,SEA,-10.5,SF,55,O,41.5,2016,Week 3,69010,SEA,-10.5,10.5,BUF,37,18,Y,68740,0,14,69,0,Seattle,KBFI,KBFI4263816,KBFI,O,25-Sep-16,PST,47.53,-122.302,20,76,59,66,76,59,53,46,50,77,36,58,60,54,57,10,3,327,10,58,10,3070,398,3468,335,718,0,0,30.4,30.22,30.33,1029.4,1023.2,1027.1,40,MC,Overcast,KBFI,O,PST,47.53,-122.302,20,74,76,48,40,60,310,7,20,200,SCT,10,195,21,216,210,231,300,0,0,0,30.3,1025.9,44,PC,Partly Cloudy,25-Sep-16,16
KBFI 27/Dec/2015 16,214,SEA2015,27-Dec-15,27-Dec-15,27-Dec-15,4:25,16,SEA,-11,LAR,40,U,42,2015,Week 16,69080,SEA,-11,11,MIN,17,23,N,68740,0,13,37,0,Seattle,KBFI,KBFI4236516,KBFI,O,27-Dec-15,PST,47.53,-122.302,20,42,37,39,42,32,37,27,33,96,60,80,38,34,36,9,3,135,9,98,9.3,526,104,629,0,508,0.32,0,30.24,30.02,30.09,1023.9,1016.4,1018.8,18,RAIN,Light Rain,KBFI,O,PST,47.53,-122.302,20,39,39,36,89,38,0,0,100,30,OVC,7,2,0,2,3,3,5,99,0.03,0,30.03,1016.7,18,RAIN,Light Rain,27-Dec-15,16
KBFI 27/Sep/2015 16,215,SEA2015,27-Sep-15,27-Sep-15,27-Sep-15,4:25,16,SEA,-16.5,CHI,26,U,43.5,2015,Week 3,69002,SEA,-16.5,16.5,MIA,26,0,Y,68740,0,13,62,0,Seattle,KBFI,KBFI4227416,KBFI,O,27-Sep-15,PST,47.53,-122.302,20,65,46,56,65,47,46,39,44,83,41,65,54,45,50,10,3,337,20,7,10,3738,391,4129,655,711,0,0,30.21,30.09,30.16,1023.1,1018.7,1021.1,46,CLR,Fair,KBFI,O,PST,47.53,-122.302,20,63,62,40,43,51,320,10,0,201,CLR,10,203,20,223,203,223,290,0,0,0,30.11,1019.5,46,CLR,Fair,27-Sep-15,16
KBFI 28/Dec/2014 16,216,SEA2014,28-Dec-14,28-Dec-14,28-Dec-14,4:25,16,SEA,-11.5,LAR,26,U,41.5,2014,Week 17,68453,SEA,-11.5,11.5,LAC,20,6,Y,68740,0,12,43,0,Seattle,KBFI,KBFI4200116,KBFI,O,28-Dec-14,PST,47.53,-122.302,20,47,41,44,46,38,39,35,37,85,73,79,43,39,41,8,4,100,8,95,9.9,534,105,639,18,509,0.06,0,30.23,30.09,30.17,1023.5,1018.9,1021.6,42,MC,Mostly Cloudy,KBFI,O,PST,47.53,-122.302,20,44,44,36,73,40,50,3,100,17,OVC,10,2,0,2,4,4,5,0,0,0,30.18,1022.1,18,RAIN,Light Rain,28-Dec-14,16
KBFI 29/Dec/2013 16,217,SEA2013,29-Dec-13,29-Dec-13,29-Dec-13,4:25,16,SEA,-12,LAR,36,U,41,2013,Week 17,68264,SEA,-12,12,IND,27,9,Y,68740,0,11,44,0,Seattle,KBFI,KBFI4163716,KBFI,O,29-Dec-13,PST,47.53,-122.302,20,46,36,41,46,32,38,35,37,96,73,87,42,36,39,7,2,139,7,96,4.9,531,106,636,0,509,0,0,30.49,30.32,30.4,1032.3,1026.7,1029.4,34,FOG,Fog,KBFI,O,PST,47.53,-122.302,20,45,45,38,77,42,0,0,100,12,OVC,10,2,0,2,4,4,6,0,0,0,30.36,1028.2,45,CLR,Mostly Clear,29-Dec-13,16
KBFI 29/Nov/2015 16,218,SEA2015,29-Nov-15,29-Nov-15,29-Nov-15,4:25,16,SEA,-3,PIT,69,O,46.5,2015,Week 12,69055,SEA,-3,3,,39,30,Y,68740,0,13,37,0,Seattle,KBFI,KBFI4233716,KBFI,O,29-Nov-15,PST,47.53,-122.302,20,39,28,34,39,25,33,25,31,92,79,86,36,27,33,7,2,146,7,88,0.9,655,122,778,146,527,0,0,30.24,30.16,30.21,1024,1021.3,1022.9,34,FOG,Fog,KBFI,O,PST,47.53,-122.302,20,36,32,31,82,34,130,5,100,5,OVC,2,1,0,1,2,2,2,0,0,0,30.2,1022.6,40,MC,Overcast,29-Nov-15,16
KBFI 29/Oct/2017 16,219,SEA2017,29-Oct-17,29-Oct-17,29-Oct-17,4:05,16,SEA,-6.5,HOU,79,O,45,2017,Week 8,69025,SEA,-6.5,6.5,KC,41,38,N,68740,0,15,63,0,Seattle,KBFI,KBFI4303716,KBFI,O,29-Oct-17,PST,47.53,-122.302,20,58,44,50,57,45,50,44,48,100,77,92,53,46,49,5,1,121,5,53,5.5,1179,219,1397,146,606,0,0,30.15,29.98,30.05,1020.9,1015.3,1017.6,40,MC,Overcast,KBFI,O,PST,47.53,-122.302,20,56,56,50,81,53,0,0,20,9,SCT,8,42,5,47,47,52,67,0,0,0,30.03,1017,44,PC,Partly Cloudy,29-Oct-17,16
KBFI 30/Dec/2018 16,220,SEA2018,30-Dec-18,30-Dec-18,30-Dec-18,4:25,16,SEA,-15,ARI,51,O,40,2018,Week 17,68990,SEA,-15,15,ARI,27,24,N,68740,0,16,54,0,Seattle,KBFI,KBFI4346416,KBFI,O,30-Dec-18,PST,47.55,-122.317,13,47,38,43,46,35,41,34,37,93,68,80,44,38,41,9,4,130,9,70,9.9,667,106,771,171,510,0,0,30.35,30.04,30.19,1027.5,1017.2,1022.3,42,MC,Mostly Cloudy,KBFI,O,PST,47.55,-122.317,13,46,46,38,73,42,320,3,20,55,SCT,10,4,0,4,4,4,6,0,0,0,30.21,1023,44,PC,Partly Cloudy,30-Dec-18,16
KBFI 31/Dec/2017 16,221,SEA2017,31-Dec-17,31-Dec-17,31-Dec-17,4:25,16,SEA,-8,ARI,50,O,38,2017,Week 17,69078,SEA,-8,8,BAL,24,26,N,68740,0,15,28,0,Seattle,KBFI,KBFI4310016,KBFI,O,31-Dec-17,PST,47.53,-122.302,20,44,34,38,44,30,39,31,34,100,65,86,40,34,37,8,5,1,8,70,9.2,872,106,977,226,511,0,0,30.31,30.22,30.28,1026.4,1023.4,1025.2,40,MC,Overcast,KBFI,O,PST,47.53,-122.302,20,42,38,33,71,38,350,7,70,200,BKN,10,4,0,4,5,5,7,0,0,0,30.22,1023.4,42,MC,Mostly Cloudy,31-Dec-17,16
KBJC 01/Dec/2019 13,222,DEN2019,1-Dec-19,1-Dec-19,1-Dec-19,1:00,13,LAC,-1,DEN,43,O,44,2019,Week 13,74638,DEN,1,-1,LAC,23,20,Y,76125,0,18,44,0,Colorado,KBJC,KBJC4380013,KBJC,O,1-Dec-19,MST,39.917,-105.117,5656,32,19,26,32,13,16,-2,12,74,29,56,26,16,22,21,6,299,25,12,11.2,1991,207,2198,490,574,0,0,30.26,29.94,30.08,1025.3,1013.9,1022.1,44,PC,Partly Cloudy,KBJC,O,MST,39.917,-105.117,5656,30,23,16,55,26,320,7,20,200,SCT,10,324,35,359,348,383,497,0,0,0,30.1,1022.6,44,PC,Partly Cloudy,1-Dec-19,13
KBJC 01/Jan/2017 16,223,DEN2016,1-Jan-17,1-Jan-17,1-Jan-17,4:25,16,DEN,-1,OAK,30,U,40,2016,Week 17,76836,DEN,-1,1,OAK,24,6,Y,76125,0,15,72,0,Colorado,KBJC,KBJC4273616,KBJC,O,1-Jan-17,MST,39.909,-105.117,5673,46,27,35,46,19,21,14,17,80,29,51,36,24,29,10,4,45,10,77,28.3,1730,195,1925,314,565,0,0,29.67,29.53,29.59,1006.2,999.4,1002.6,46,CLR,Fair,KBJC,O,MST,39.909,-105.117,5673,45,41,16,31,35,70,7,100,60,BKN,30,24,4,28,36,40,52,0,0,0,29.55,1001.4,44,PC,Partly Cloudy,1-Jan-17,16
KBJC 01/Nov/2015 20,224,DEN2015,1-Nov-15,1-Nov-15,1-Nov-15,8:30,20,GB,-2.5,DEN,39,U,45.5,2015,Week 8,77075,DEN,2.5,-2.5,GB,29,10,Y,76125,0,14,52,0,Colorado,KBJC,KBJC4230920,KBJC,O,1-Nov-15,MST,39.909,-105.117,5673,73,46,60,73,51,28,16,22,38,14,24,50,41,45,23,10,252,29,52,31.2,2317,299,2616,229,627,0,0,30.05,29.93,29.98,1013.1,1009.4,1011.2,44,PC,Partly Cloudy,KBJC,O,MST,39.909,-105.117,5673,61,60,18,19,44,230,8,90,150,BKN,30,0,0,0,0,0,0,0,0,0,29.96,1010.5,44,PC,Partly Cloudy,1-Nov-15,20
KBJC 01/Oct/2017 16,225,DEN2017,1-Oct-17,1-Oct-17,1-Oct-17,4:25,16,DEN,-3.5,OAK,26,U,44,2017,Week 4,76909,DEN,-3.5,3.5,OAK,16,10,Y,76125,0,16,40,0,Colorado,KBJC,KBJC4300916,KBJC,O,1-Oct-17,MST,39.909,-105.117,5673,74,43,56,72,42,46,36,40,93,28,56,54,45,48,17,9,273,32,87,22.3,3082,454,3536,141,707,0.4,0,29.91,29.72,29.83,1007.4,998.2,1004.8,45,CLR,Mostly Clear,KBJC,O,MST,39.909,-105.117,5673,57,54,39,51,48,300,15,100,70,BKN,25,113,21,134,206,227,294,0,0,0,29.77,1003.8,44,PC,Partly Cloudy,1-Oct-17,16
KBJC 01/Oct/2018 20,226,DEN2018,1-Oct-18,1-Oct-18,1-Oct-18,8:15,20,KC,-3.5,DEN,50,U,53.5,2018,Week 4,76656,DEN,3.5,-3.5,KC,23,27,Y,76125,0,17,32,0,Colorado,KBJC,KBJC4337420,KBJC,O,1-Oct-18,MST,39.917,-105.117,5656,66,45,54,66,42,46,41,44,93,46,72,55,42,49,9,3,341,9,86,10.8,2901,454,3354,78,707,0,0,30.19,30.09,30.14,1020,1015.1,1017.2,42,MC,Mostly Cloudy,KBJC,O,MST,39.917,-105.117,5656,59,59,46,63,53,370,3,70,110,BKN,15,0,0,0,0,0,0,0,0,0,30.15,1017.2,42,MC,Mostly Cloudy,1-Oct-18,20
KBJC 03/Jan/2017 16,227,DEN2015,3-Jan-17,3-Jan-17,3-Jan-17,4:25,16,DEN,-10,LAC,47,O,42,2015,Week 17,76844,DEN,-10,10,LAR,27,20,N,76125,0,14,31,0,Colorado,KBJC,KBJC4273816,KBJC,O,3-Jan-17,MST,39.909,-105.117,5673,28,13,19,28,3,19,10,14,92,66,82,25,13,18,15,6,9,15,100,7,1022,195,1217,0,566,0.12,0.8,30.13,30,30.04,1024.5,1017.7,1021.5,40,MC,Overcast,KBJC,O,MST,39.909,-105.117,5673,28,28,18,66,25,0,0,100,30,BKN,10,28,4,32,39,43,55,0,0,0,30.03,1020.6,45,CLR,Mostly Clear,3-Jan-17,16
KBJC 03/Nov/2019 13,228,DEN2019,3-Nov-19,3-Nov-19,3-Nov-19,1:00,13,DEN,-1,CLE,43,O,41,2019,Week 9,76743,DEN,-1,1,CLE,24,19,Y,76125,0,18,87,0,Colorado,KBJC,KBJC4377213,KBJC,O,3-Nov-19,MST,39.917,-105.117,5656,59,32,44,59,24,30,9,22,65,17,44,43,28,36,14,6,343,25,45,20.6,2186,290,2476,250,623,0,0,30.08,29.96,30,1018.6,1012.8,1014.9,52,PC,High Clouds,KBJC,O,MST,39.917,-105.117,5656,50,45,28,43,41,30,13,90,250,BKN,10,310,45,355,449,494,642,0,0,0,29.97,1012.8,52,PC,High Clouds,3-Nov-19,13
KBJC 04/Nov/2018 16,229,DEN2018,4-Nov-18,4-Nov-18,4-Nov-18,4:05,16,DEN,-1,HOU,36,U,46.5,2018,Week 9,76270,DEN,-1,1,HOU,17,19,Y,76125,0,17,52,0,Colorado,KBJC,KBJC4340816,KBJC,O,4-Nov-18,MST,39.917,-105.117,5656,54,32,42,54,27,32,23,28,100,33,65,42,31,36,23,8,267,35,59,30.8,1710,286,1994,46,620,0,0,30.09,29.64,29.82,1019,1002,1008.6,42,MC,Mostly Cloudy,KBJC,O,MST,39.917,-105.117,5656,54,48,25,33,42,230,22,100,200,BKN,50,18,6,24,59,65,84,0,0,0,29.66,1003.1,42,MC,Mostly Cloudy,4-Nov-18,16
KBJC 04/Oct/2015 16,230,DEN2015,4-Oct-15,4-Oct-15,4-Oct-15,4:25,16,DEN,-7,MIN,43,U,43.5,2015,Week 4,77029,DEN,-7,7,IND,23,20,N,76125,0,14,60,0,Colorado,KBJC,KBJC4228116,KBJC,O,4-Oct-15,MST,39.909,-105.117,5673,66,48,51,57,43,48,46,47,100,72,87,52,47,49,12,5,4,12,90,5.9,2296,439,2735,66,697,0,0,30.13,30.04,30.1,1017.2,1011.9,1014.7,40,MC,Overcast,KBJC,O,MST,39.909,-105.117,5673,55,53,48,77,51,360,8,70,13,OVC,8,123,19,142,189,208,270,0,0,0,30.1,1014,42,MC,Mostly Cloudy,4-Oct-15,16
KBJC 05/Oct/2014 16,231,DEN2014,5-Oct-14,5-Oct-14,5-Oct-14,4:05,16,DEN,-8.5,ARI,61,O,47.5,2014,Week 5,76895,DEN,-8.5,8.5,ARI,41,20,Y,76125,0,13,72,0,Colorado,KBJC,KBJC4191716,KBJC,O,5-Oct-14,MST,39.909,-105.117,5673,76,52,63,73,50,36,28,31,47,20,31,53,43,48,26,11,292,33,10,33.1,4161,433,4594,613,694,0,0,30.09,30.02,30.06,1015.4,1010.9,1013,46,CLR,Fair,KBJC,O,MST,39.909,-105.117,5673,72,72,32,23,53,60,9,20,70,SCT,60,165,18,183,183,201,261,0,0,0,30.02,1011.2,44,PC,Partly Cloudy,5-Oct-14,16
KBJC 05/Sep/2013 20,232,DEN2013,5-Sep-13,5-Sep-13,5-Sep-13,8:30,20,DEN,-7.5,BAL,76,O,48.5,2013,Week 1,76977,DEN,-7.5,7.5,BAL,49,27,Y,76125,0,12,83,0,Colorado,KBJC,KBJC4152220,KBJC,O,5-Sep-13,MST,39.909,-105.117,5673,93,61,78,93,62,52,37,46,68,14,35,64,57,60,12,5,330,12,66,37.5,3850,596,4445,107,771,0,0,30.3,30.21,30.25,1018.9,1014,1016.3,42,MC,Mostly Cloudy,KBJC,O,MST,39.909,-105.117,5673,81,81,46,30,61,290,3,90,200,BKN,50,0,0,0,0,0,0,0,0,0,30.23,1015.7,50,PC,High Overcast,5-Sep-13,20
KBJC 07/Dec/2014 16,233,DEN2014,7-Dec-14,7-Dec-14,7-Dec-14,4:05,16,DEN,-9,BUF,41,U,47,2014,Week 14,76913,DEN,-9,9,BUF,24,17,N,76125,0,13,55,0,Colorado,KBJC,KBJC4198016,KBJC,O,7-Dec-14,MST,39.909,-105.117,5673,59,26,47,59,26,27,18,20,80,20,39,43,30,37,28,11,284,35,19,31.7,1678,195,1873,361,566,0,0,30.32,30.19,30.25,1026.4,1020.5,1023.4,46,CLR,Fair,KBJC,O,MST,39.909,-105.117,5673,57,56,18,21,42,300,6,5,70,FEW,50,19,2,21,19,21,26,0,0,0,30.25,1022.1,46,CLR,Fair,7-Dec-14,16
KBJC 07/Sep/2014 20,234,DEN2014,7-Sep-14,7-Sep-14,7-Sep-14,8:30,20,DEN,-8.5,IND,55,O,54,2014,Week 1,76939,DEN,-8.5,8.5,IND,31,24,N,76125,0,13,70,0,Colorado,KBJC,KBJC4188920,KBJC,O,7-Sep-14,MST,39.909,-105.117,5673,81,49,67,81,53,54,39,45,82,23,50,62,50,55,9,4,250,33,35,33.1,4581,586,5167,319,766,0,0,30.23,30.01,30.14,1018.1,1011.9,1014.4,42,MC,Mostly Cloudy,KBJC,O,MST,39.909,-105.117,5673,70,70,39,33,54,210,7,29,100,SCT,30,0,0,0,0,0,0,0,0,0,30.09,1013.2,52,PC,High Clouds,7-Sep-14,20
KBJC 08/Dec/2013 16,235,DEN2013,8-Dec-13,8-Dec-13,8-Dec-13,4:05,16,DEN,-12.5,TEN,79,O,50,2013,Week 14,76554,DEN,-12.5,12.5,GB,51,28,Y,76125,0,12,19,0,Colorado,KBJC,KBJC4161616,KBJC,O,8-Dec-13,MST,39.909,-105.117,5673,19,-3,9,19,-6,10,0,5,85,67,81,17,2,8,13,4,9,13,62,7.5,1558,195,1753,277,565,0,0,29.94,29.63,29.76,1021.2,1011.9,1016.1,40,MC,Overcast,KBJC,O,MST,39.909,-105.117,5673,18,7,9,68,15,60,8,25,45,SCT,7,17,2,19,19,21,27,0,0,0,29.78,1016.6,35,HAZY,Haze,8-Dec-13,16
KBJC 08/Sep/2016 20,236,DEN2016,8-Sep-16,8-Sep-16,8-Sep-16,8:30,20,CAR,-3,DEN,41,O,40.5,2016,Week 1,76843,DEN,3,-3,CAR,21,20,N,76125,0,15,82,0,Colorado,KBJC,KBJC4262120,KBJC,O,8-Sep-16,MST,39.909,-105.117,5673,88,52,72,88,55,41,23,31,51,11,26,58,46,53,17,7,256,17,1,31.2,5747,577,6324,758,765,0,0,30.16,29.97,30.07,1014.6,1007.7,1011,46,CLR,Fair,KBJC,O,MST,39.909,-105.117,5673,79,79,25,14,54,280,17,0,409,SKC,30,0,0,0,0,0,0,0,0,0,30.01,1009.3,46,CLR,Fair,8-Sep-16,20
KBJC 09/Oct/2016 16,237,DEN2016,9-Oct-16,9-Oct-16,9-Oct-16,4:05,16,DEN,-4,ATL,39,U,44.5,2016,Week 5,76802,DEN,-4,4,ATL,16,23,Y,76125,0,15,73,0,Colorado,KBJC,KBJC4265216,KBJC,O,9-Oct-16,MST,39.909,-105.117,5673,75,38,60,73,45,30,23,28,50,18,31,52,38,45,14,3,293,14,69,33.3,3236,403,3639,96,684,0,0,30.26,30.12,30.18,1021.1,1014,1016.9,46,CLR,Fair,KBJC,O,MST,39.909,-105.117,5673,73,73,27,18,52,0,0,100,100,BKN,50,110,16,126,158,174,225,0,0,0,30.13,1014,45,CLR,Mostly Clear,9-Oct-16,16
KBJC 09/Sep/2018 16,238,DEN2018,9-Sep-18,9-Sep-18,9-Sep-18,4:25,16,DEN,-3,SEA,51,O,42.5,2018,Week 1,76761,DEN,-3,3,SEA,27,24,N,76125,0,17,34,0,Colorado,KBJC,KBJC4335216,KBJC,O,9-Sep-18,MST,39.917,-105.117,5656,86,59,72,86,59,43,28,37,51,13,31,59,50,54,14,4,324,21,46,31.7,4950,576,5527,360,762,0,0,30.1,29.85,30.05,1019,1008.4,1011.4,42,MC,Mostly Cloudy,KBJC,O,MST,39.917,-105.117,5656,84,84,32,15,58,290,10,95,200,BKN,50,220,33,253,334,367,477,0,0,0,30.03,1009.4,42,MC,Mostly Cloudy,9-Sep-18,16
KBJC 10/Dec/2017 16,239,DEN2017,10-Dec-17,10-Dec-17,10-Dec-17,4:05,16,NYJ,-1,DEN,23,U,40.5,2017,Week 14,75518,DEN,1,-1,NYJ,23,0,Y,76125,0,16,53,0,Colorado,KBJC,KBJC4307916,KBJC,O,10-Dec-17,MST,39.909,-105.117,5673,66,28,46,59,28,5,-4,-1,32,8,15,40,24,31,18,5,257,20,55,35,1917,193,2110,551,563,0,0,30.42,30.31,30.37,1030.9,1024.5,1027.6,40,MC,Overcast,KBJC,O,MST,39.909,-105.117,5673,57,57,-2,9,38,0,0,5,200,FEW,50,19,2,21,19,21,27,0,0,0,30.35,1025.2,45,CLR,Mostly Clear,10-Dec-17,16
KBJC 11/Sep/2017 22,240,DEN2017,11-Sep-17,11-Sep-17,11-Sep-17,10:20,22,DEN,-3,LAC,45,O,42,2017,Week 1,76324,DEN,-3,3,LAC,24,21,N,76125,0,16,42,0,Colorado,KBJC,KBJC4298922,KBJC,O,11-Sep-17,MST,39.909,-105.117,5673,91,59,73,84,64,48,41,44,56,23,37,61,53,58,10,5,264,10,84,16.3,4629,566,5195,63,757,0,0,30.36,30.25,30.3,1020.3,1016.6,1018.4,50,PC,High Overcast,KBJC,O,MST,39.909,-105.117,5673,68,68,48,49,57,230,5,100,201,CLR,10,0,0,0,0,0,0,0,0,0,30.27,1017.3,40,MC,Overcast,11-Sep-17,22
KBJC 12/Dec/2013 20,241,DEN2013,12-Dec-13,12-Dec-13,12-Dec-13,8:25,20,DEN,-10,LAC,47,U,57.5,2013,Week 15,76497,DEN,-10,10,LAC,20,27,N,76125,0,12,39,0,Colorado,KBJC,KBJC4162020,KBJC,O,12-Dec-13,MST,39.909,-105.117,5673,39,27,34,39,21,19,9,14,68,30,45,32,20,27,12,3,308,12,8,47.9,1869,191,2060,519,563,0,0,30.24,29.92,30.12,1028.2,1011.3,1020.9,45,CLR,Mostly Clear,KBJC,O,MST,39.909,-105.117,5673,36,36,18,48,29,0,0,5,150,FEW,50,0,0,0,0,0,0,0,0,0,30,1018,45,CLR,Mostly Clear,12-Dec-13,20
KBJC 12/Nov/2017 20,242,DEN2017,12-Nov-17,12-Nov-17,12-Nov-17,8:30,20,NE,-7,DEN,57,O,45,2017,Week 10,76820,DEN,7,-7,NE,16,41,Y,76125,0,16,44,0,Colorado,KBJC,KBJC4305120,KBJC,O,12-Nov-17,MST,39.909,-105.117,5673,62,25,43,55,25,28,23,25,70,31,53,43,29,36,8,2,299,8,67,22.3,2412,256,2668,351,603,0,0,30.36,30.18,30.28,1029.1,1019.1,1024,50,PC,High Overcast,KBJC,O,MST,39.909,-105.117,5673,45,45,27,49,37,0,0,100,220,FEW,30,0,0,0,0,0,0,0,0,0,30.22,1022.4,50,PC,High Overcast,12-Nov-17,20
KBJC 13/Dec/2015 16,243,DEN2015,13-Dec-15,13-Dec-15,13-Dec-15,4:05,16,DEN,-6,OAK,27,U,43,2015,Week 14,76824,DEN,-6,6,OAK,12,15,N,76125,0,14,39,0,Colorado,KBJC,KBJC4235116,KBJC,O,13-Dec-15,MST,39.909,-105.117,5673,41,21,31,41,13,27,18,23,100,43,73,35,20,28,7,3,259,7,50,32.1,1442,190,1632,178,562,0,0,29.88,29.53,29.7,1013.5,999.4,1007.2,46,CLR,Fair,KBJC,O,MST,39.909,-105.117,5673,40,40,21,46,33,280,3,70,200,BKN,70,15,2,17,20,22,28,0,0,0,29.62,1004,42,MC,Mostly Cloudy,13-Dec-15,16
KBJC 13/Oct/2013 16,244,DEN2013,13-Oct-13,13-Oct-13,13-Oct-13,4:05,16,DEN,-27,JAX,54,O,53,2013,Week 6,76862,DEN,-27,27,JAX,35,19,N,76125,0,12,59,0,Colorado,KBJC,KBJC4156016,KBJC,O,13-Oct-13,MST,39.909,-105.117,5673,59,33,49,59,32,46,34,38,88,48,68,49,36,44,10,4,334,10,29,15.1,3527,389,3916,495,674,0,0,30.16,29.9,30.06,1019.6,1006.6,1014.3,44,PC,Partly Cloudy,KBJC,O,MST,39.909,-105.117,5673,59,58,39,48,49,330,7,35,120,SCT,15,129,14,143,142,156,203,0,0,0,29.99,1010.9,35,HAZY,Haze,13-Oct-13,16
KBJC 13/Oct/2019 13,245,DEN2019,13-Oct-19,13-Oct-19,13-Oct-19,1:00,13,DEN,-2.5,TEN,16,O,46,2019,Week 6,75815,DEN,-2.5,2.5,TEN,16,0,Y,76125,0,18,65,0,Colorado,KBJC,KBJC4375113,KBJC,O,13-Oct-19,MST,39.917,-105.117,5656,72,39,55,72,39,21,7,13,45,9,23,48,32,39,10,3,236,10,3,22.5,3889,389,4278,646,674,0,0,30.04,29.83,29.98,1017.3,1009.5,1012.8,46,CLR,Fair,KBJC,O,MST,39.917,-105.117,5656,70,70,9,9,46,190,8,0,400,SKC,30,567,57,624,567,624,811,0,0,0,29.98,1010.5,46,CLR,Fair,13-Oct-19,13
KBJC 13/Sep/2015 16,246,DEN2015,13-Sep-15,13-Sep-15,13-Sep-15,4:25,16,DEN,-4.5,BAL,32,U,46.5,2015,Week 1,76798,DEN,-4.5,4.5,BAL,19,13,Y,76125,0,14,86,0,Colorado,KBJC,KBJC4226016,KBJC,O,13-Sep-15,MST,39.909,-105.117,5673,91,52,74,91,59,37,19,25,39,8,19,58,46,52,22,8,284,33,30,27.9,4986,556,5542,467,751,0,0,30.07,29.91,29.98,1010.5,1004.4,1007.2,44,PC,Partly Cloudy,KBJC,O,MST,39.909,-105.117,5673,84,84,21,10,55,300,12,20,70,BKN,20,279,31,310,310,341,443,0,0,0,29.92,1004.4,44,PC,Partly Cloudy,13-Sep-15,16
KBJC 14/Oct/2018 16,247,DEN2018,14-Oct-18,14-Oct-18,14-Oct-18,4:05,16,LAR,-7,DEN,43,U,50,2018,Week 6,76109,DEN,7,-7,LAR,20,23,N,76125,0,17,33,0,Colorado,KBJC,KBJC4338716,KBJC,O,14-Oct-18,MST,39.917,-105.117,5656,27,21,24,27,9,25,16,19,100,69,82,27,20,23,14,6,360,18,85,10.7,1862,384,2247,7,672,0.27,7.1,30.31,30.13,30.24,1031.8,1018.3,1026.1,9,SNOW,Light Snow,KBJC,O,MST,39.917,-105.117,5656,27,27,18,69,24,0,0,100,120,BKN,30,56,14,70,138,152,197,0,0,0,30.24,1027.9,42,MC,Mostly Cloudy,14-Oct-18,16
KBJC 14/Sep/2014 16,248,DEN2014,14-Sep-14,14-Sep-14,14-Sep-14,4:25,16,DEN,-13,KC,41,U,49,2014,Week 2,76900,DEN,-13,13,KC,24,17,N,76125,0,13,82,0,Colorado,KBJC,KBJC4189616,KBJC,O,14-Sep-14,MST,39.909,-105.117,5673,82,52,68,82,50,48,30,38,67,16,37,59,44,53,16,7,282,22,54,30.5,4025,547,4572,193,749,0,0,30.2,30.07,30.13,1016.1,1011.1,1013.9,42,MC,Mostly Cloudy,KBJC,O,MST,39.909,-105.117,5673,82,82,37,20,59,300,16,95,200,BKN,50,201,31,232,305,336,436,0,0,0,30.07,1011.4,50,PC,High Overcast,14-Sep-14,16
KBJC 15/Dec/2018 20,249,DEN2018,15-Dec-18,15-Dec-18,15-Dec-18,8:20,20,DEN,-1.5,CLE,33,U,47,2018,Week 15,76596,DEN,-1.5,1.5,CLE,16,17,N,76125,0,17,68,0,Colorado,KBJC,KBJC4344920,KBJC,O,15-Dec-18,MST,39.917,-105.117,5656,57,34,47,57,28,19,5,13,44,13,27,42,27,35,32,9,279,41,57,32.5,1408,188,1596,142,562,0,0,30.24,30,30.1,1024,1015.4,1018,42,MC,Mostly Cloudy,KBJC,O,MST,39.917,-105.117,5656,45,45,14,29,34,0,0,0,279,SKC,30,0,0,0,0,0,0,0,0,0,30.17,1021,47,CLR,Clear,15-Dec-18,20
KBJC 15/Nov/2015 16,250,DEN2015,15-Nov-15,15-Nov-15,15-Nov-15,4:25,16,DEN,-3.5,KC,42,P,42,2015,Week 10,76973,DEN,-3.5,3.5,KC,13,29,Y,76125,0,14,59,0,Colorado,KBJC,KBJC4232316,KBJC,O,15-Nov-15,MST,39.909,-105.117,5673,66,29,49,63,32,19,9,15,49,12,28,43,29,37,10,4,224,10,13,43.1,2359,246,2605,473,598,0,0,29.99,29.59,29.8,1013.3,998.3,1006.5,46,CLR,Fair,KBJC,O,MST,39.909,-105.117,5673,59,59,12,16,42,80,5,20,120,BKN,70,33,4,37,35,39,50,0,0,0,29.72,1003.4,44,PC,Partly Cloudy,15-Nov-15,16
KBJC 15/Oct/2017 20,251,DEN2017,15-Oct-17,15-Oct-17,15-Oct-17,8:30,20,DEN,-13.5,NYG,33,U,37.5,2017,Week 6,76721,DEN,-13.5,13.5,NYG,10,23,N,76125,0,16,45,0,Colorado,KBJC,KBJC4302320,KBJC,O,15-Oct-17,MST,39.909,-105.117,5673,65,28,46,61,22,28,14,23,69,21,42,46,26,36,14,5,309,14,33,30.2,3785,378,4163,669,669,0,0,30.47,30.33,30.41,1030.4,1025.3,1027.8,46,CLR,Fair,KBJC,O,MST,39.909,-105.117,5673,50,47,27,41,40,310,8,0,395,SKC,30,0,0,0,0,0,0,0,0,0,30.42,1028.1,46,CLR,Fair,15-Oct-17,20
KBJC 15/Sep/2019 16,252,DEN2019,15-Sep-19,15-Sep-19,15-Sep-19,4:25,16,CHI,-2.5,DEN,30,U,40.5,2019,Week 2,76885,DEN,2.5,-2.5,CHI,14,16,N,76125,0,18,79,0,Colorado,KBJC,KBJC4372316,KBJC,O,15-Sep-19,MST,39.917,-105.117,5656,86,56,73,86,56,36,27,31,37,13,22,58,45,52,13,4,338,13,51,16.6,4394,543,4937,308,746,0,0,30.22,30,30.12,1023.4,1008.7,1013.4,52,PC,High Clouds,KBJC,O,MST,39.917,-105.117,5656,86,86,32,14,58,320,13,95,220,BKN,25,210,30,240,299,329,427,0,0,0,30.06,1010.5,50,PC,High Overcast,15-Sep-19,16
KBJC 16/Sep/2018 16,253,DEN2018,16-Sep-18,16-Sep-18,16-Sep-18,4:25,16,DEN,-6,OAK,39,U,44.5,2018,Week 2,76696,DEN,-6,6,OAK,20,19,N,76125,0,17,71,0,Colorado,KBJC,KBJC4335916,KBJC,O,16-Sep-18,MST,39.917,-105.117,5656,93,61,77,93,60,48,32,38,60,11,28,61,48,57,10,5,130,10,31,15.6,4643,537,5180,427,743,0,0,30.12,30.02,30.07,1018,1008.1,1012.6,46,CLR,Fair,KBJC,O,MST,39.917,-105.117,5656,93,93,32,11,61,110,7,90,150,BKN,20,201,29,230,293,322,418,0,0,0,30.04,1008.4,42,MC,Mostly Cloudy,16-Sep-18,16
KBJC 17/Nov/2013 20,254,DEN2013,17-Nov-13,17-Nov-13,17-Nov-13,8:30,20,DEN,-7.5,KC,44,U,49,2013,Week 11,77076,DEN,-7.5,7.5,KC,27,17,Y,76125,0,12,43,0,Colorado,KBJC,KBJC4159520,KBJC,O,17-Nov-13,MST,39.909,-105.117,5673,62,34,44,55,24,30,12,18,81,19,37,40,30,35,33,17,265,51,23,40.8,2336,239,2575,550,594,0.01,0,30.06,29.56,29.84,1016.5,998,1009.4,44,PC,Partly Cloudy,KBJC,O,MST,39.909,-105.117,5673,45,40,19,37,35,250,9,5,60,FEW,30,0,0,0,0,0,0,0,0,0,30.01,1016.3,46,CLR,Fair,17-Nov-13,20
KBJC 17/Oct/2019 13,255,DEN2019,17-Oct-19,17-Oct-19,17-Oct-19,1:00,13,KC,-3,DEN,36,U,53.5,2019,Week 7,76748,DEN,3,-3,KC,6,30,Y,76125,0,18,60,0,Colorado,KBJC,KBJC4375513,KBJC,O,17-Oct-19,MST,39.917,-105.117,5656,79,50,62,79,48,19,10,16,30,7,18,51,38,43,12,4,322,18,44,17.4,2584,368,2952,176,663,0,0,30,29.54,29.77,1015.9,997.2,1003.2,50,PC,High Overcast,KBJC,O,MST,39.917,-105.117,5656,73,73,12,9,48,120,3,75,127,BKN,10,340,54,394,544,598,777,0,0,0,29.54,1000.3,42,MC,Mostly Cloudy,17-Oct-19,13
KBJC 17/Sep/2017 16,256,DEN2017,17-Sep-17,17-Sep-17,17-Sep-17,4:25,16,DAL,-2.5,DEN,59,O,44,2017,Week 2,76919,DEN,2.5,-2.5,DAL,42,17,Y,76125,0,16,81,0,Colorado,KBJC,KBJC4299516,KBJC,O,17-Sep-17,MST,39.909,-105.117,5673,70,46,59,68,43,46,43,45,93,43,63,56,46,52,9,4,321,17,74,15.2,4044,532,4576,267,741,0,0,30.21,30.04,30.13,1018.2,1011.5,1014.7,44,PC,Partly Cloudy,KBJC,O,MST,39.909,-105.117,5673,68,68,45,43,56,190,8,100,200,BKN,10,109,29,138,288,317,411,0,0,0,30.05,1011.5,42,MC,Mostly Cloudy,17-Sep-17,16
KBJC 18/Dec/2016 16,257,DEN2016,18-Dec-16,18-Dec-16,18-Dec-16,4:25,16,NE,-3,DEN,19,U,44,2016,Week 15,76893,DEN,3,-3,NE,3,16,Y,76125,0,15,27,0,Colorado,KBJC,KBJC4272216,KBJC,O,18-Dec-16,MST,39.909,-105.117,5673,12,-10,7,12,-21,7,-8,-1,87,44,69,10,-5,5,10,5,322,23,68,30.8,1851,188,2040,420,561,0,0,30.29,29.99,30.14,1034,1025.1,1028.7,46,CLR,Fair,KBJC,O,MST,39.909,-105.117,5673,11,1,1,63,9,330,7,100,553,SKC,50,11,2,13,22,24,31,0,0,0,30.19,1028.9,46,CLR,Fair,18-Dec-16,16
KBJC 18/Sep/2016 16,258,DEN2016,18-Sep-16,18-Sep-16,18-Sep-16,4:25,16,DEN,-6,IND,54,O,47,2016,Week 2,76379,DEN,-6,6,IND,34,20,Y,76125,0,15,86,0,Colorado,KBJC,KBJC4263116,KBJC,O,18-Sep-16,MST,39.909,-105.117,5673,88,61,75,88,60,32,21,27,29,13,17,59,45,52,22,7,287,31,4,35,5083,522,5605,701,738,0,0,30.16,30.07,30.11,1014.7,1010.8,1012.8,46,CLR,Fair,KBJC,O,MST,39.909,-105.117,5673,88,88,32,14,59,130,5,5,90,FEW,50,270,28,298,277,305,396,0,0,0,30.07,1010.8,46,CLR,Fair,18-Sep-16,16
KBJC 19/Nov/2017 16,259,DEN2017,19-Nov-17,19-Nov-17,19-Nov-17,4:25,16,DEN,-2.5,CIN,37,U,38,2017,Week 11,75707,DEN,-2.5,2.5,CIN,17,20,Y,76125,0,16,43,0,Colorado,KBJC,KBJC4305816,KBJC,O,19-Nov-17,MST,39.909,-105.117,5673,59,21,44,59,19,19,-2,10,69,10,34,41,25,32,18,7,272,25,95,30.8,1606,234,1840,12,590,0,0,30.21,29.92,30.07,1023,1011.1,1017.6,50,PC,High Overcast,KBJC,O,MST,39.909,-105.117,5673,55,51,1,11,38,280,17,100,200,BKN,50,20,3,23,30,33,42,0,0,0,30.01,1014.9,50,PC,High Overcast,19-Nov-17,16
KBJC 19/Oct/2014 20,260,DEN2014,19-Oct-14,19-Oct-14,19-Oct-14,8:30,20,DEN,-6.5,SF,59,O,48.5,2014,Week 7,77047,DEN,-6.5,6.5,SF,42,17,Y,76125,0,13,63,0,Colorado,KBJC,KBJC4193120,KBJC,O,19-Oct-14,MST,39.909,-105.117,5673,73,50,61,73,50,39,30,32,58,20,36,53,43,48,8,3,107,8,15,25.4,3357,359,3716,516,658,0,0,30.19,30.08,30.14,1017.6,1014,1015.9,44,PC,Partly Cloudy,KBJC,O,MST,39.909,-105.117,5673,63,63,32,32,48,0,0,5,200,FEW,30,0,0,0,0,0,0,0,0,0,30.16,1017.5,45,CLR,Mostly Clear,19-Oct-14,20
KBJC 22/Dec/2019 13,261,DEN2019,22-Dec-19,22-Dec-19,22-Dec-19,1:00,13,DEN,-4.5,DET,44,O,59,2019,Week 16,74115,DEN,-4.5,4.5,DET,27,17,Y,76125,0,18,65,0,Colorado,KBJC,KBJC4382113,KBJC,O,22-Dec-19,MST,39.917,-105.117,5656,64,41,51,64,38,19,1,7,28,9,18,43,30,36,7,2,282,7,75,16.2,1276,186,1462,83,560,0,0,30.14,30.01,30.08,1020.7,1013.4,1016.4,42,MC,Mostly Cloudy,KBJC,O,MST,39.917,-105.117,5656,64,64,7,10,43,370,5,100,200,BKN,10,216,33,249,333,366,476,0,0,0,30.06,1013.7,42,MC,Mostly Cloudy,22-Dec-19,13
KBJC 23/Nov/2014 16,262,DEN2014,23-Nov-14,23-Nov-14,23-Nov-14,4:25,16,DEN,-6.5,MIA,75,O,47.5,2014,Week 12,76987,DEN,-6.5,6.5,MIA,39,36,N,76125,0,13,36,0,Colorado,KBJC,KBJC4196616,KBJC,O,23-Nov-14,MST,39.909,-105.117,5673,45,30,36,46,20,27,3,18,70,31,49,38,24,31,12,8,13,25,74,22.1,1298,223,1520,74,584,0,0,29.9,29.57,29.79,1014.4,997.6,1008,42,MC,Mostly Cloudy,KBJC,O,MST,39.909,-105.117,5673,36,29,19,52,30,20,8,90,50,BKN,20,14,3,17,25,28,36,0,0,0,29.84,1011.5,42,MC,Mostly Cloudy,23-Nov-14,16
KBJC 23/Oct/2014 20,263,DEN2014,23-Oct-14,23-Oct-14,23-Oct-14,8:25,20,DEN,-9,LAC,56,O,51,2014,Week 8,76907,DEN,-9,9,LAC,35,21,Y,76125,0,13,61,0,Colorado,KBJC,KBJC4193520,KBJC,O,23-Oct-14,MST,39.909,-105.117,5673,73,39,60,73,40,37,21,31,76,17,41,53,39,47,22,6,238,36,56,41.7,2506,340,2846,219,649,0,0,30.19,30.12,30.16,1019.4,1015,1016.9,42,MC,Mostly Cloudy,KBJC,O,MST,39.909,-105.117,5673,61,61,28,29,46,220,3,42,220,SCT,30,0,0,0,0,0,0,0,0,0,30.15,1017.2,52,PC,High Clouds,23-Oct-14,20
KBJC 23/Sep/2013 20,264,DEN2013,23-Sep-13,23-Sep-13,23-Sep-13,8:40,20,DEN,-16.5,OAK,58,O,49.5,2013,Week 3,76978,DEN,-16.5,16.5,OAK,37,21,N,76125,0,12,64,0,Colorado,KBJC,KBJC4154020,KBJC,O,23-Sep-13,MST,39.909,-105.117,5673,66,49,58,66,47,48,27,35,94,24,50,52,44,48,24,13,281,36,57,28.4,3731,499,4230,311,725,0.17,0,30.1,29.61,29.87,1014.8,994.3,1006,44,PC,Partly Cloudy,KBJC,O,MST,39.909,-105.117,5673,57,54,27,31,44,280,17,25,120,SCT,10,0,0,0,0,0,0,0,0,0,30.07,1014.3,44,PC,Partly Cloudy,23-Sep-13,20
KBJC 24/Oct/2016 20,265,DEN2016,24-Oct-16,24-Oct-16,24-Oct-16,8:30,20,DEN,-8.5,HOU,36,U,40,2016,Week 7,76865,DEN,-8.5,8.5,HOU,27,9,Y,76125,0,15,66,0,Colorado,KBJC,KBJC4266720,KBJC,O,24-Oct-16,MST,39.909,-105.117,5673,79,50,63,79,50,30,21,26,46,12,28,54,41,46,10,4,100,10,91,26.4,2328,329,2657,44,646,0,0,30.3,30.12,30.22,1021.8,1012.1,1017.3,44,PC,Partly Cloudy,KBJC,O,MST,39.909,-105.117,5673,64,64,27,25,47,300,8,100,120,BKN,30,0,0,0,0,0,0,0,0,0,30.15,1015.7,42,MC,Mostly Cloudy,24-Oct-16,20
KBJC 25/Nov/2018 16,266,DEN2018,25-Nov-18,25-Nov-18,25-Nov-18,4:25,16,PIT,-3,DEN,41,U,47.5,2018,Week 12,76536,DEN,3,-3,PIT,24,17,Y,76125,0,17,55,0,Colorado,KBJC,KBJC4342916,KBJC,O,25-Nov-18,MST,39.917,-105.117,5656,45,24,33,45,18,23,7,11,75,21,44,33,21,27,20,10,300,25,18,10,2119,218,2337,539,581,0,0,30.22,30,30.13,1025.1,1015.9,1022.1,45,CLR,Mostly Clear,KBJC,O,MST,39.917,-105.117,5656,41,35,9,26,31,270,9,5,90,FEW,10,22,2,24,23,25,33,0,0,0,30.12,1022.1,45,CLR,Mostly Clear,25-Nov-18,16
KBJC 27/Nov/2016 20,267,DEN2016,27-Nov-16,27-Nov-16,27-Nov-16,8:30,20,DEN,-3.5,KC,57,O,40,2016,Week 12,76819,DEN,-3.5,3.5,KC,27,30,N,76125,0,15,44,0,Colorado,KBJC,KBJC4270120,KBJC,O,27-Nov-16,MST,39.909,-105.117,5673,50,23,42,50,27,30,7,13,50,20,31,40,26,32,37,17,273,52,100,29.4,1161,211,1372,6,578,0,0,29.68,29.34,29.43,1000,988.8,994.2,44,PC,Partly Cloudy,KBJC,O,MST,39.909,-105.117,5673,41,32,12,30,31,250,18,100,80,BKN,50,0,0,0,0,0,0,0,0,0,29.39,994.5,44,PC,Partly Cloudy,27-Nov-16,20
KBJC 27/Oct/2013 16,268,DEN2013,27-Oct-13,27-Oct-13,27-Oct-13,4:25,16,DEN,-11,WAS,66,O,59,2013,Week 8,77031,DEN,-11,11,WAS,45,21,Y,76125,0,12,69,0,Colorado,KBJC,KBJC4157416,KBJC,O,27-Oct-13,MST,39.909,-105.117,5673,70,36,56,70,40,30,12,21,57,11,30,47,36,42,22,7,302,29,29,35,3052,320,3372,478,640,0,0,30.14,29.88,29.99,1017.2,1007.7,1011.7,46,CLR,Fair,KBJC,O,MST,39.909,-105.117,5673,66,66,14,13,46,310,12,90,120,BKN,60,54,8,62,83,91,119,0,0,0,29.88,1008.1,42,MC,Mostly Cloudy,27-Oct-13,16
KBJC 28/Dec/2014 16,269,DEN2014,28-Dec-14,28-Dec-14,28-Dec-14,4:25,16,DEN,-15.5,OAK,61,O,48.5,2014,Week 17,76929,DEN,-15.5,15.5,OAK,47,14,Y,76125,0,13,33,0,Colorado,KBJC,KBJC4200116,KBJC,O,28-Dec-14,MST,39.909,-105.117,5673,37,7,23,37,1,14,7,11,86,35,63,29,11,19,20,8,314,29,38,26.4,1694,190,1884,318,562,0,0,29.96,29.8,29.89,1018.9,1012,1016.5,44,PC,Partly Cloudy,KBJC,O,MST,39.909,-105.117,5673,36,25,12,38,28,320,20,95,200,BKN,50,20,3,23,30,33,42,0,0,0,29.84,1014,42,MC,Mostly Cloudy,28-Dec-14,16
KBJC 28/Dec/2015 20,270,DEN2015,28-Dec-15,28-Dec-15,28-Dec-15,8:30,20,DEN,-4,CIN,37,U,39,2015,Week 16,76868,DEN,-4,4,CIN,20,17,N,76125,0,14,16,0,Colorado,KBJC,KBJC4236620,KBJC,O,28-Dec-15,MST,39.909,-105.117,5673,29,1,17,28,-1,16,5,10,95,47,76,24,8,15,10,3,308,10,37,20.3,1783,190,1973,370,562,0,0,29.94,29.65,29.77,1018.3,1007.9,1013.8,45,CLR,Mostly Clear,KBJC,O,MST,39.909,-105.117,5673,14,6,10,84,13,290,5,5,60,FEW,10,0,0,0,0,0,0,0,0,0,29.75,1015,45,CLR,Mostly Clear,28-Dec-15,20
KBJC 29/Nov/2015 20,271,DEN2015,29-Nov-15,29-Nov-15,29-Nov-15,8:30,20,NE,-2.5,DEN,54,O,43,2015,Week 12,76970,DEN,2.5,-2.5,CIN,30,24,Y,76125,0,14,21,0,Colorado,KBJC,KBJC4233720,KBJC,O,29-Nov-15,MST,39.909,-105.117,5673,29,15,23,25,14,23,18,19,100,75,86,24,19,22,5,1,357,5,99,5.2,1101,208,1308,18,575,0.1,0,30.09,29.95,30.03,1023.3,1017.7,1021,40,MC,Overcast,KBJC,O,MST,39.909,-105.117,5673,25,25,19,80,23,370,3,100,13,VV,2.5,0,0,0,0,0,0,0,0.02,0,30,1020.3,9,SNOW,Light Snow,29-Nov-15,20
KBJC 29/Sep/2013 16,272,DEN2013,29-Sep-13,29-Sep-13,29-Sep-13,4:25,16,DEN,-10.5,PHI,72,O,58.5,2013,Week 4,77002,DEN,-10.5,10.5,PHI,52,20,Y,76125,0,12,76,0,Colorado,KBJC,KBJC4154616,KBJC,O,29-Sep-13,MST,39.909,-105.117,5673,75,38,61,75,43,36,14,25,57,10,30,51,38,45,16,5,273,31,60,35.2,3665,467,4132,233,710,0,0,30.13,29.95,30.03,1016.4,1009,1012.2,52,PC,High Clouds,KBJC,O,MST,39.909,-105.117,5673,72,72,18,13,49,230,8,95,220,BKN,50,152,22,174,217,239,310,0,0,0,29.95,1009.8,52,PC,High Clouds,29-Sep-13,16
KBJC 29/Sep/2019 16,273,DEN2019,29-Sep-19,29-Sep-19,29-Sep-19,4:25,16,DEN,-2.5,JAX,50,O,37,2019,Week 4,76219,DEN,-2.5,2.5,JAX,24,26,N,76125,0,18,23,0,Colorado,KBJC,KBJC4373716,KBJC,O,29-Sep-19,MST,39.917,-105.117,5656,90,46,69,90,43,53,21,34,100,8,44,57,46,53,33,15,189,45,19,16.5,4470,466,4936,638,710,0,0,29.78,29.49,29.69,1008.5,995.9,1000.6,46,CLR,Fair,KBJC,O,MST,39.917,-105.117,5656,86,86,21,9,56,190,24,5,80,FEW,30,212,22,234,217,239,310,0,0,0,29.65,997.1,46,CLR,Fair,29-Sep-19,16
KBJC 30/Dec/2018 16,274,DEN2018,30-Dec-18,30-Dec-18,30-Dec-18,4:25,16,LAC,-7,DEN,32,U,43.5,2018,Week 17,75947,DEN,7,-7,LAC,9,23,Y,76125,0,17,80,0,Colorado,KBJC,KBJC4346416,KBJC,O,30-Dec-18,MST,39.917,-105.117,5656,50,28,39,50,26,16,9,14,59,20,37,37,23,31,21,7,309,35,55,31.7,1412,192,1604,209,563,0,0,29.83,29.55,29.65,1010.8,999.1,1004.2,42,MC,Mostly Cloudy,KBJC,O,MST,39.917,-105.117,5656,48,42,12,23,36,320,17,100,220,BKN,50,17,3,20,33,36,47,0,0,0,29.55,999.6,42,MC,Mostly Cloudy,30-Dec-18,16
KBJC 30/Oct/2016 16,275,DEN2016,30-Oct-16,30-Oct-16,30-Oct-16,4:05,16,DEN,-3.5,LAC,46,O,43.5,2016,Week 8,76756,DEN,-3.5,3.5,LAC,27,19,Y,76125,0,15,75,0,Colorado,KBJC,KBJC4267316,KBJC,O,30-Oct-16,MST,39.909,-105.117,5673,80,43,56,74,39,45,30,39,100,23,63,55,43,48,9,3,310,9,99,14.6,1839,302,2140,12,632,0,0,30.28,29.89,30.13,1020.5,1004.8,1014.8,45,CLR,Mostly Clear,KBJC,O,MST,39.909,-105.117,5673,70,70,41,35,55,0,0,90,180,BKN,30,47,7,54,71,78,101,0,0,0,30.09,1013.3,46,CLR,Fair,30-Oct-16,16
KBJC 31/Dec/2017 16,276,DEN2017,31-Dec-17,31-Dec-17,31-Dec-17,4:25,16,DEN,-3,KC,51,O,37.5,2017,Week 17,75928,DEN,-3,3,KC,24,27,N,76125,0,16,62,0,Colorado,KBJC,KBJC4310016,KBJC,O,31-Dec-17,MST,39.909,-105.117,5673,28,12,18,28,1,20,9,13,93,64,79,25,11,17,13,4,6,13,98,10.2,963,193,1156,4,564,0.09,0,30.31,30.16,30.25,1033.5,1022.9,1028.9,40,MC,Overcast,KBJC,O,MST,39.909,-105.117,5673,16,16,10,79,14,0,0,100,10,OVC,7,18,3,20,35,38,49,0,0,0,30.28,1030,40,MC,Overcast,31-Dec-17,16
KBKL 01/Dec/2013 13,277,CLE2013,1-Dec-13,1-Dec-13,1-Dec-13,1:00,13,CLE,-7,JAX,60,O,39.5,2013,Week 13,69654,CLE,-7,7,TB,28,32,N,73200,0,14,44,0,Cleveland,KBKL,KBKL4160913,KBKL,O,1-Dec-13,EST,41.518,-81.683,584,43,34,39,43,30,32,26,29,87,57,66,38,32,35,14,6,194,14,44,10,1183,187,1370,174,565,0,0,30.12,29.96,30.03,1021.7,1015.8,1018.3,44,PC,Partly Cloudy,KBKL,O,EST,41.518,-81.683,584,43,38,30,61,38,220,8,100,40,OVC,10,172,34,206,343,377,490,0,0,0,30.01,1017.6,40,MC,Overcast,1-Dec-13,13
KBKL 01/Nov/2015 13,278,CLE2015,1-Nov-15,1-Nov-15,1-Nov-15,1:00,13,ARI,-7,CLE,54,O,46,2015,Week 8,67431,CLE,7,-7,LAC,20,34,Y,67431,0,16,63,0,Cleveland,KBKL,KBKL4230913,KBKL,O,1-Nov-15,EST,41.518,-81.683,584,65,53,58,65,49,51,38,44,84,39,63,54,47,51,24,15,224,30,29,9.9,2587,278,2865,522,622,0.01,0,30.03,29.75,29.88,1016.9,1007.3,1011.8,46,CLR,Fair,KBKL,O,EST,41.518,-81.683,584,65,63,40,40,52,250,20,20,200,SCT,10,428,46,474,460,506,657,0,0,0,29.87,1011.6,44,PC,Partly Cloudy,1-Nov-15,13
KBKL 01/Oct/2017 13,279,CLE2017,1-Oct-17,1-Oct-17,1-Oct-17,1:00,13,CIN,-3,CLE,38,U,41.5,2017,Week 4,67431,CLE,3,-3,CIN,7,31,Y,67895,0,18,39,0,Cleveland,KBKL,KBKL4300913,KBKL,O,1-Oct-17,EST,41.518,-81.683,584,67,44,56,67,40,51,35,41,77,32,58,57,41,49,16,9,155,22,2,10,4363,436,4799,706,706,0,0,30.4,30.24,30.32,1029.4,1024,1026.7,46,CLR,Fair,KBKL,O,EST,41.518,-81.683,584,67,67,42,41,54,360,10,0,201,CLR,10,645,64,709,645,709,921,0,0,0,30.31,1026.3,46,CLR,Fair,1-Oct-17,13
KBKL 02/Nov/2014 13,280,CLE2014,2-Nov-14,2-Nov-14,2-Nov-14,1:00,13,CLE,-7,TB,39,U,44,2014,Week 9,67431,CLE,-7,7,WAS,22,17,N,67431,0,15,42,0,Cleveland,KBKL,KBKL4194513,KBKL,O,2-Nov-14,EST,41.518,-81.683,584,45,33,39,45,26,34,22,28,76,54,64,39,31,35,23,12,326,23,28,10,1943,273,2216,242,620,0,0,30.4,30.29,30.34,1030.9,1026.2,1028.6,42,MC,Mostly Cloudy,KBKL,O,EST,41.518,-81.683,584,43,37,32,66,38,330,11,0,201,CLR,10,455,45,500,455,500,650,0,0,0,30.37,1029.4,46,CLR,Fair,2-Nov-14,13
KBKL 03/Jan/2016 13,281,CLE2015,3-Jan-16,3-Jan-16,3-Jan-16,1:00,13,PIT,-13,CLE,40,U,47,2015,Week 17,66693,CLE,13,-13,PIT,12,28,Y,67431,0,16,39,0,Cleveland,KBKL,KBKL4237213,KBKL,O,3-Jan-16,EST,41.518,-81.683,584,36,31,34,36,20,29,14,23,78,52,65,33,26,30,24,18,285,31,98,9.8,885,177,1061,0,556,0.02,0.2,30.13,29.87,29.98,1020.2,1011.4,1015.3,40,MC,Overcast,KBKL,O,EST,41.518,-81.683,584,36,25,27,70,33,300,22,100,24,OVC,10,169,34,203,338,372,482,0,0,0,29.95,1014.2,45,CLR,Mostly Clear,3-Jan-16,13
KBKL 03/Nov/2013 16,282,CLE2013,3-Nov-13,3-Nov-13,3-Nov-13,4:25,16,BAL,-1.5,CLE,42,P,42,2013,Week 9,71513,CLE,1.5,-1.5,CIN,24,18,Y,73200,0,14,46,0,Cleveland,KBKL,KBKL4158116,KBKL,O,3-Nov-13,EST,41.518,-81.683,584,46,34,41,46,25,36,24,31,81,53,68,41,30,37,20,11,55,23,12,10,2285,269,2551,470,616,0,0,30.47,30.06,30.31,1032.8,1018.9,1027.4,44,PC,Partly Cloudy,KBKL,O,EST,41.518,-81.683,584,43,35,30,61,38,50,17,5,35,FEW,10,107,11,118,110,121,158,0,0,0,30.37,1029.5,45,CLR,Mostly Clear,3-Nov-13,16
KBKL 03/Oct/2013 20,283,CLE2013,3-Oct-13,3-Oct-13,3-Oct-13,8:25,20,CLE,-3.5,BUF,61,O,40.5,2013,Week 5,71239,CLE,-3.5,3.5,CIN,37,24,Y,73200,0,14,75,0,Cleveland,KBKL,KBKL4155020,KBKL,O,3-Oct-13,EST,41.518,-81.683,584,79,63,71,83,63,70,55,63,87,68,76,73,60,66,12,7,177,12,62,8.3,2796,426,3222,193,698,0,0,30.07,30,30.03,1018.5,1015.8,1017.2,35,HAZY,Haze,KBKL,O,EST,41.518,-81.683,584,72,72,64,78,67,180,10,27,80,SCT,6,0,0,0,0,0,0,0,0,0,30.02,1016.3,35,HAZY,Haze,3-Oct-13,20
KBKL 04/Nov/2018 13,284,CLE2018,4-Nov-18,4-Nov-18,4-Nov-18,1:00,13,KC,-8.5,CLE,58,O,51.5,2018,Week 9,67431,CLE,8.5,-8.5,KC,21,37,Y,67895,0,19,32,0,Cleveland,KBKL,KBKL4340813,KBKL,O,4-Nov-18,EST,41.533,-81.667,604,57,39,49,57,33,35,32,34,82,39,60,46,37,42,17,11,137,25,69,10,1864,265,2130,222,614,0,0,30.39,30.06,30.26,1029.4,1018.1,1024.9,46,CLR,Fair,KBKL,O,EST,41.533,-81.667,604,54,49,35,49,45,140,16,69,288,CLR,10,291,44,335,444,488,635,0,0,0,30.26,1024.9,46,CLR,Fair,4-Nov-18,13
KBKL 06/Dec/2015 13,285,CLE2015,6-Dec-15,6-Dec-15,6-Dec-15,1:00,13,CIN,-7.5,CLE,40,U,44,2015,Week 13,64775,CLE,7.5,-7.5,HOU,3,37,Y,67431,0,16,46,0,Cleveland,KBKL,KBKL4234413,KBKL,O,6-Dec-15,EST,41.518,-81.683,584,50,30,40,50,22,36,26,30,89,48,71,42,29,35,15,8,166,15,33,8.3,1345,177,1522,234,558,0,0,30.57,30.24,30.39,1035.2,1024.1,1029.1,46,CLR,Fair,KBKL,O,EST,41.518,-81.683,584,48,45,34,58,42,200,6,70,200,BKN,10,252,33,285,334,367,477,0,0,0,30.38,1028.8,42,MC,Mostly Cloudy,6-Dec-15,13
KBKL 06/Nov/2016 13,286,CLE2016,6-Nov-16,6-Nov-16,6-Nov-16,1:00,13,DAL,-7.5,CLE,45,U,49.5,2016,Week 9,67431,CLE,7.5,-7.5,ATL,10,35,Y,67431,0,17,56,0,Cleveland,KBKL,KBKL4268013,KBKL,O,6-Nov-16,EST,41.518,-81.683,584,59,48,53,59,46,52,39,46,86,61,77,55,46,50,10,6,168,10,0,8.6,2544,255,2799,610,610,0,0,30.41,30.29,30.36,1029.7,1025.9,1028.1,46,CLR,Fair,KBKL,O,EST,41.518,-81.683,584,58,58,52,81,55,330,5,0,201,CLR,6,430,43,473,430,473,614,0,0,0,30.38,1028.7,35,HAZY,Haze,6-Nov-16,13
KBKL 07/Dec/2014 13,287,CLE2014,7-Dec-14,7-Dec-14,7-Dec-14,1:00,13,IND,-3,CLE,49,U,50,2014,Week 14,67431,CLE,3,-3,SF,24,25,N,67431,0,15,38,0,Cleveland,KBKL,KBKL4198013,KBKL,O,7-Dec-14,EST,41.518,-81.683,584,38,31,35,38,23,26,20,23,70,60,64,33,28,31,18,12,20,24,44,10,1395,177,1572,254,557,0,0,30.68,30.47,30.59,1038.8,1032,1036,46,CLR,Fair,KBKL,O,EST,41.518,-81.683,584,38,28,26,62,33,300,18,100,250,OVC,10,232,33,265,332,365,475,0,0,0,30.62,1036.9,50,PC,High Overcast,7-Dec-14,13
KBKL 07/Oct/2018 13,288,CLE2018,7-Oct-18,7-Oct-18,7-Oct-18,1:00,13,BAL,-3,CLE,21,U,45,2018,Week 5,67431,CLE,3,-3,BAL,12,9,N,67895,0,19,75,0,Cleveland,KBKL,KBKL4338013,KBKL,O,7-Oct-18,EST,41.533,-81.667,604,70,64,67,69,64,66,63,64,97,87,91,67,64,65,14,8,39,14,96,5.7,2014,403,2415,0,688,0.23,0,30.23,30.1,30.18,1023.6,1018.9,1021.8,64,HAZY,Mist,KBKL,O,EST,41.533,-81.667,604,66,66,64,93,65,30,12,100,3,OVC,4,304,61,364,607,668,867,0,0,0,30.21,1022.7,64,HAZY,Mist,7-Oct-18,13
KBKL 08/Dec/2019 13,289,CLE2019,8-Dec-19,8-Dec-19,8-Dec-19,1:00,13,CLE,-8,CIN,46,O,59,2019,Week 14,67431,CLE,-8,8,CIN,27,19,N,67895,0,20,62,0,Cleveland,KBKL,KBKL4380713,KBKL,O,8-Dec-19,EST,41.533,-81.667,604,53,33,44,52,23,37,18,29,62,51,56,45,28,37,23,17,167,32,55,10,1513,176,1688,367,556,0,0,30.29,29.95,30.09,1026.6,1014.6,1019.4,46,CLR,Fair,KBKL,O,EST,41.533,-81.667,604,50,43,34,54,43,180,21,47,185,CLR,10,253,33,286,331,364,472,0,0,0,30.04,1017.8,46,CLR,Fair,8-Dec-19,13
KBKL 08/Oct/2017 13,290,CLE2017,8-Oct-17,8-Oct-17,8-Oct-17,1:00,13,NYJ,-1.5,CLE,31,U,41.5,2017,Week 5,62032,CLE,1.5,-1.5,SF,14,17,Y,67895,0,18,49,0,Cleveland,KBKL,KBKL4301613,KBKL,O,8-Oct-17,EST,41.518,-81.683,584,75,65,68,79,65,66,55,58,91,59,71,69,60,63,26,11,211,40,90,9.1,2252,396,2650,31,684,1.46,0,29.93,29.67,29.84,1013.3,1004.6,1010.3,40,MC,Overcast,KBKL,O,EST,41.518,-81.683,584,67,67,56,68,61,310,6,82,29,CLR,10,391,60,451,601,661,859,0,0,0,29.92,1012.8,46,CLR,Fair,8-Oct-17,13
KBKL 08/Sep/2013 13,291,CLE2013,8-Sep-13,8-Sep-13,8-Sep-13,1:00,13,CLE,-2.5,MIA,33,U,41,2013,Week 1,71513,CLE,-2.5,2.5,KC,10,23,Y,73200,0,14,72,0,Cleveland,KBKL,KBKL4152513,KBKL,O,8-Sep-13,EST,41.518,-81.683,584,76,60,70,78,62,69,49,60,90,57,73,71,56,65,20,11,335,28,62,9.2,3743,566,4310,278,767,0,0,30.07,29.89,30,1018.2,1012.1,1016,44,PC,Partly Cloudy,KBKL,O,EST,41.518,-81.683,584,72,72,61,69,65,300,18,90,16,BKN,10,428,78,506,778,856,1111,0,0,0,30.05,1017.6,44,PC,Partly Cloudy,8-Sep-13,13
KBKL 08/Sep/2019 13,292,CLE2019,8-Sep-19,8-Sep-19,8-Sep-19,1:03,13,CLE,-5.5,TEN,56,O,44.5,2019,Week 1,67431,CLE,-5.5,5.5,TEN,13,43,Y,67895,0,20,45,0,Cleveland,KBKL,KBKL4371613,KBKL,O,8-Sep-19,EST,41.533,-81.667,604,73,64,68,72,64,60,52,55,73,53,64,64,57,61,14,10,36,14,34,10,4669,566,5235,447,767,0,0,30.19,29.99,30.1,1022.2,1015.2,1018.9,45,CLR,Mostly Clear,KBKL,O,EST,41.533,-81.667,604,70,70,55,59,61,30,14,20,25,SCT,10,700,78,778,778,856,1111,0,0,0,30.11,1019.3,44,PC,Partly Cloudy,8-Sep-19,13
KBKL 09/Dec/2018 13,293,CLE2018,9-Dec-18,9-Dec-18,9-Dec-18,1:00,13,CAR,-1,CLE,46,U,48,2018,Week 14,59392,CLE,1,-1,CAR,26,20,Y,67895,0,19,69,0,Cleveland,KBKL,KBKL4344313,KBKL,O,9-Dec-18,EST,41.533,-81.667,604,33,19,27,32,17,21,12,17,81,54,66,28,18,23,6,3,329,7,40,9.5,1509,176,1685,395,555,0,0,30.5,30.21,30.33,1034.6,1024.8,1028.4,46,CLR,Fair,KBKL,O,EST,41.533,-81.667,604,30,24,18,61,26,310,6,25,337,CLR,10,288,33,321,329,362,470,0,0,0,30.3,1026.8,46,CLR,Fair,9-Dec-18,13
KBKL 09/Oct/2016 13,294,CLE2016,9-Oct-16,9-Oct-16,9-Oct-16,1:00,13,NE,-10,CLE,46,U,48,2016,Week 5,67431,CLE,10,-10,OAK,13,33,Y,67431,0,17,57,0,Cleveland,KBKL,KBKL4265213,KBKL,O,9-Oct-16,EST,41.518,-81.683,584,60,52,56,59,48,45,39,42,67,49,59,52,46,49,17,14,349,25,71,10,2693,386,3079,239,681,0,0,30.37,30.23,30.31,1028.6,1023.7,1026.6,42,MC,Mostly Cloudy,KBKL,O,EST,41.518,-81.683,584,57,54,40,53,49,310,12,70,48,BKN,10,383,59,442,589,648,841,0,0,0,30.33,1027.2,42,MC,Mostly Cloudy,9-Oct-16,13
KBKL 09/Sep/2018 13,295,CLE2018,9-Sep-18,9-Sep-18,9-Sep-18,1:00,13,PIT,-3.5,CLE,42,O,41,2018,Week 1,67431,CLE,3.5,-3.5,PIT,21,21,N,67895,0,19,86,0,Cleveland,KBKL,KBKL4335213,KBKL,O,9-Sep-18,EST,41.533,-81.667,604,61,56,59,61,53,57,51,54,90,75,84,59,54,57,14,11,73,22,100,7.2,2810,562,3372,0,764,1.65,0,30.09,29.9,29.99,1018.9,1012.4,1015.5,18,RAIN,Light Rain,KBKL,O,EST,41.533,-81.667,604,60,59,57,90,58,60,8,100,20,OVC,6,386,77,463,772,849,1103,99,0.03,0,30,1015.6,18,RAIN,Light Rain,9-Sep-18,13
KBKL 10/Dec/2017 13,296,CLE2017,10-Dec-17,10-Dec-17,10-Dec-17,1:00,13,GB,-2.5,CLE,48,O,38.5,2017,Week 14,67431,CLE,2.5,-2.5,SEA,21,27,Y,67895,0,18,88,0,Cleveland,KBKL,KBKL4307913,KBKL,O,10-Dec-17,EST,41.518,-81.683,584,33,26,30,33,14,25,14,20,78,54,66,30,24,27,24,17,237,30,100,9.8,820,174,994,0,554,0,0,29.99,29.87,29.95,1016.2,1012.1,1014.7,40,MC,Overcast,KBKL,O,EST,41.518,-81.683,584,29,17,16,58,25,220,17,100,60,OVC,10,164,33,197,328,361,469,0,0,0,29.95,1015,40,MC,Overcast,10-Dec-17,13
KBKL 10/Nov/2019 13,297,CLE2019,10-Nov-19,10-Nov-19,10-Nov-19,1:00,13,CLE,-7,BUF,35,O,59,2019,Week 10,67431,CLE,-7,7,ATL,19,16,N,67895,0,20,46,0,Cleveland,KBKL,KBKL4377913,KBKL,O,10-Nov-19,EST,41.533,-81.667,604,50,40,45,49,29,39,21,32,80,45,60,44,32,39,15,11,246,25,83,9.9,1847,244,2092,200,601,0,0,30.03,29.92,29.97,1017.1,1013.6,1015.2,40,MC,Overcast,KBKL,O,EST,41.533,-81.667,604,49,45,36,61,43,290,10,5,110,FEW,10,408,42,450,415,457,594,0,0,0,29.96,1014.8,45,CLR,Mostly Clear,10-Nov-19,13
KBKL 10/Sep/2017 13,298,CLE2017,10-Sep-17,10-Sep-17,10-Sep-17,1:00,13,PIT,-10,CLE,39,U,47,2017,Week 1,67431,CLE,10,-10,PIT,18,21,N,67895,0,18,40,0,Cleveland,KBKL,KBKL4298813,KBKL,O,10-Sep-17,EST,41.518,-81.683,584,70,50,60,69,48,54,43,47,77,42,64,60,47,53,20,8,67,25,0,10,5567,556,6123,762,762,0,0,30.48,30.37,30.42,1032.3,1028.2,1030.2,46,CLR,Fair,KBKL,O,EST,41.518,-81.683,584,69,69,45,42,56,370,3,0,201,CLR,10,767,77,844,767,844,1096,0,0,0,30.43,1030.5,46,CLR,Fair,10-Sep-17,13
KBKL 11/Dec/2016 13,299,CLE2016,11-Dec-16,11-Dec-16,11-Dec-16,1:00,13,CIN,-5,CLE,33,U,41.5,2016,Week 14,60028,CLE,5,-5,DET,10,23,Y,67431,0,17,28,0,Cleveland,KBKL,KBKL4271513,KBKL,O,11-Dec-16,EST,41.518,-81.683,584,35,25,29,34,13,32,16,24,89,66,80,33,23,27,25,14,156,33,100,4.6,864,173,1033,0,553,0.28,2.3,30.44,29.78,30.17,1030.8,1008.4,1021.8,9,SNOW,Light Snow,KBKL,O,EST,41.518,-81.683,584,28,16,23,81,26,150,17,100,27,OVC,1.8,163,33,196,326,359,466,0,0,0,30.19,1022.3,9,SNOW,Light Snow,11-Dec-16,13
KBKL 11/Nov/2018 13,300,CLE2018,11-Nov-18,11-Nov-18,11-Nov-18,1:00,13,ATL,-5.5,CLE,44,U,49.5,2018,Week 10,62144,CLE,5.5,-5.5,ATL,28,16,Y,67895,0,19,78,0,Cleveland,KBKL,KBKL4341513,KBKL,O,11-Nov-18,EST,41.533,-81.667,604,43,27,35,42,18,22,20,21,75,41,60,35,25,30,14,9,200,22,49,10,1960,239,2199,376,599,0,0,30.39,30.26,30.33,1030,1025.3,1027.7,46,CLR,Fair,KBKL,O,EST,41.533,-81.667,604,40,35,22,49,33,200,8,44,338,CLR,10,321,41,362,411,452,587,0,0,0,30.3,1026.7,46,CLR,Fair,11-Nov-18,13
KBKL 12/Oct/2014 13,301,CLE2014,12-Oct-14,12-Oct-14,12-Oct-14,1:00,13,CLE,-2,PIT,41,U,46.5,2014,Week 6,67431,CLE,-2,2,NYG,31,10,Y,67431,0,15,64,0,Cleveland,KBKL,KBKL4192413,KBKL,O,12-Oct-14,EST,41.518,-81.683,584,66,39,55,66,34,54,34,40,82,34,60,57,37,47,16,9,128,25,30,10,3669,376,4045,549,673,0,0,30.23,30.03,30.14,1023.6,1017.1,1020.5,46,CLR,Fair,KBKL,O,EST,41.518,-81.683,584,62,62,37,40,50,120,6,0,201,CLR,10,576,58,634,576,634,823,0,0,0,30.13,1020.2,46,CLR,Fair,12-Oct-14,13
KBKL 13/Dec/2015 13,302,CLE2015,13-Dec-15,13-Dec-15,13-Dec-15,1:00,13,CLE,-2.5,SF,34,U,43,2015,Week 14,63916,CLE,-2.5,2.5,HOU,24,10,Y,67431,0,16,62,0,Cleveland,KBKL,KBKL4235113,KBKL,O,13-Dec-15,EST,41.518,-81.683,584,66,61,64,66,60,57,51,55,81,70,74,60,56,59,15,11,164,21,70,10,1297,172,1466,239,552,0,0,30.07,29.8,29.98,1018.4,1009,1015.3,46,CLR,Fair,KBKL,O,EST,41.518,-81.683,584,65,65,56,73,60,180,10,60,163,CLR,10,228,33,260,325,358,465,0,0,0,30,1015.9,46,CLR,Fair,13-Dec-15,13
KBKL 13/Oct/2013 13,303,CLE2013,13-Oct-13,13-Oct-13,13-Oct-13,1:00,13,DET,-2,CLE,48,O,43.5,2013,Week 6,71513,CLE,2,-2,TB,17,31,Y,73200,0,14,67,0,Cleveland,KBKL,KBKL4156013,KBKL,O,13-Oct-13,EST,41.518,-81.683,584,68,53,63,68,51,61,49,58,100,76,85,64,51,61,12,7,243,12,57,9.8,1951,371,2325,170,671,0,0,30.3,30.12,30.23,1026.9,1020.5,1024.5,40,MC,Overcast,KBKL,O,EST,41.518,-81.683,584,64,64,61,88,62,350,9,100,16,OVC,10,285,57,342,570,627,814,0,0,0,30.27,1025.3,40,MC,Overcast,13-Oct-13,13
KBKL 13/Oct/2019 13,304,CLE2019,13-Oct-19,13-Oct-19,13-Oct-19,1:00,13,CLE,-1,SEA,60,O,47.5,2019,Week 6,67431,CLE,-1,1,SEA,28,32,Y,67895,0,20,69,0,Cleveland,KBKL,KBKL4375113,KBKL,O,13-Oct-19,EST,41.533,-81.667,604,69,43,57,68,39,33,26,29,61,21,37,50,39,45,22,15,187,36,2,10,3654,370,4024,660,671,0,0,30,29.81,29.91,1016.1,1009.3,1012.8,46,CLR,Fair,KBKL,O,EST,41.533,-81.667,604,65,63,26,23,48,200,21,8,400,CLR,10,547,57,604,570,627,814,0,0,0,29.88,1011.7,46,CLR,Fair,13-Oct-19,13
KBKL 14/Dec/2014 13,305,CLE2014,14-Dec-14,14-Dec-14,14-Dec-14,1:00,13,CLE,-2,CIN,30,U,43.5,2014,Week 15,67431,CLE,-2,2,GB,0,30,Y,67431,0,15,45,0,Cleveland,KBKL,KBKL4198713,KBKL,O,14-Dec-14,EST,41.518,-81.683,584,48,40,43,47,32,44,38,40,97,85,90,46,39,42,15,9,255,15,100,5.5,856,171,1025,0,551,0,0,30.1,30.02,30.06,1019.4,1016.6,1018.1,40,MC,Overcast,KBKL,O,EST,41.518,-81.683,584,45,42,42,90,44,230,5,100,16,OVC,8,162,32,194,325,357,464,0,0,0,30.05,1017.7,40,MC,Overcast,14-Dec-14,13
KBKL 14/Nov/2019 13,306,CLE2019,14-Nov-19,14-Nov-19,14-Nov-19,1:00,13,CLE,-2.5,PIT,28,U,50.5,2019,Week 11,67431,CLE,-2.5,2.5,MIA,21,7,Y,67895,0,20,40,0,Cleveland,KBKL,KBKL4378313,KBKL,O,14-Nov-19,EST,41.533,-81.667,604,38,27,34,38,18,24,15,22,81,51,62,32,25,29,14,12,212,23,96,9.4,1178,230,1407,45,592,0.01,0.3,30.25,30.15,30.2,1025.1,1021.6,1023.4,40,MC,Overcast,KBKL,O,EST,41.533,-81.667,604,37,29,23,57,32,230,12,100,100,OVC,10,199,40,239,398,438,569,0,0,0,30.2,1023.2,40,MC,Overcast,14-Nov-19,13
KBKL 14/Oct/2018 13,307,CLE2018,14-Oct-18,14-Oct-18,14-Oct-18,1:00,13,CLE,-1,LAC,52,O,47,2018,Week 6,67431,CLE,-1,1,LAC,14,38,Y,67895,0,19,70,0,Cleveland,KBKL,KBKL4338713,KBKL,O,14-Oct-18,EST,41.533,-81.667,604,60,42,50,59,35,47,35,38,79,42,64,50,39,44,13,8,155,13,56,10,2994,365,3359,424,668,0,0,30.17,29.98,30.09,1022,1015.2,1019,46,CLR,Fair,KBKL,O,EST,41.533,-81.667,604,55,54,35,47,46,370,5,37,365,CLR,10,459,56,515,563,619,805,0,0,0,30.1,1019.5,46,CLR,Fair,14-Oct-18,13
KBKL 14/Sep/2014 13,308,CLE2014,14-Sep-14,14-Sep-14,14-Sep-14,1:00,13,NO,-6,CLE,50,O,49.5,2014,Week 2,67407,CLE,6,-6,MIN,26,24,N,67431,0,15,62,0,Cleveland,KBKL,KBKL4189613,KBKL,O,14-Sep-14,EST,41.518,-81.683,584,64,48,56,63,48,48,44,46,86,56,68,54,47,51,8,5,184,8,45,10,3424,534,3958,280,750,0,0,30.34,30.22,30.28,1027.4,1023.2,1025.3,46,CLR,Fair,KBKL,O,EST,41.518,-81.683,584,61,61,45,56,53,320,6,70,55,BKN,10,485,75,560,746,821,1065,0,0,0,30.28,1025.5,42,MC,Mostly Cloudy,14-Sep-14,13
KBKL 15/Dec/2013 13,309,CLE2013,15-Dec-13,15-Dec-13,15-Dec-13,1:00,13,CHI,-1,CLE,69,O,44,2013,Week 15,71513,CLE,1,-1,CHI,31,38,Y,73200,0,14,25,0,Cleveland,KBKL,KBKL4162313,KBKL,O,15-Dec-13,EST,41.518,-81.683,584,31,14,24,34,1,28,6,18,89,68,79,33,15,23,22,14,255,29,60,7.1,866,171,1035,33,551,0.01,0.1,30.03,29.67,29.86,1019.2,1006.7,1013.3,9,SNOW,Light Snow,KBKL,O,EST,41.518,-81.683,584,28,19,23,80,27,240,10,100,15,OVC,8,162,32,194,324,356,463,0,0,0,29.82,1011.6,9,SNOW,Light Snow,15-Dec-13,13
KBKL 16/Nov/2014 13,310,CLE2014,16-Nov-14,16-Nov-14,16-Nov-14,1:00,13,CLE,-4,HOU,30,U,42,2014,Week 11,67431,CLE,-4,4,MIN,7,23,Y,67431,0,15,34,0,Cleveland,KBKL,KBKL4195913,KBKL,O,16-Nov-14,EST,41.518,-81.683,584,35,30,33,35,23,31,17,23,92,56,66,33,26,29,13,7,185,13,99,8.3,1160,224,1385,21,589,0.07,0.7,30.26,29.92,30.11,1024.7,1013.1,1019.7,40,MC,Overcast,KBKL,O,EST,41.518,-81.683,584,34,25,21,59,29,220,13,100,50,OVC,10,195,39,234,390,429,558,0,0,0,30.13,1020.2,40,MC,Overcast,16-Nov-14,13
KBKL 17/Dec/2017 13,311,CLE2017,17-Dec-17,17-Dec-17,17-Dec-17,1:00,13,BAL,-7,CLE,37,U,42.5,2017,Week 15,56434,CLE,7,-7,CLE,10,27,Y,67895,0,18,75,0,Cleveland,KBKL,KBKL4308613,KBKL,O,17-Dec-17,EST,41.518,-81.683,584,39,28,34,39,29,34,25,29,89,70,81,36,28,31,15,4,162,20,89,7.2,988,169,1157,72,550,0,0,30.2,30.06,30.13,1023.3,1018.5,1020.7,46,CLR,Fair,KBKL,O,EST,41.518,-81.683,584,36,36,28,73,33,130,3,100,113,CLR,8,162,32,194,323,355,462,0,0,0,30.12,1020.7,46,CLR,Fair,17-Dec-17,13
KBKL 18/Oct/2015 13,312,CLE2015,18-Oct-15,18-Oct-15,18-Oct-15,1:00,13,DEN,-3.5,CLE,49,O,42,2015,Week 6,67431,CLE,3.5,-3.5,BAL,23,26,N,67431,0,16,46,0,Cleveland,KBKL,KBKL4229513,KBKL,O,18-Oct-15,EST,41.518,-81.683,584,49,38,45,48,34,31,25,28,65,44,50,40,35,38,23,15,298,31,63,10,1966,345,2311,119,657,0,0,30.43,30.32,30.4,1030.6,1026.7,1029.4,45,CLR,Mostly Clear,KBKL,O,EST,41.518,-81.683,584,47,42,26,44,38,340,12,70,50,BKN,10,351,54,405,540,594,771,0,0,0,30.43,1030.6,42,MC,Mostly Cloudy,18-Oct-15,13
KBKL 18/Sep/2016 13,313,CLE2016,18-Sep-16,18-Sep-16,18-Sep-16,1:00,13,BAL,-4.5,CLE,45,O,42,2016,Week 2,67431,CLE,4.5,-4.5,HOU,20,25,Y,67431,0,17,75,0,Cleveland,KBKL,KBKL4263113,KBKL,O,18-Sep-16,EST,41.518,-81.683,584,77,70,73,79,70,69,60,66,87,62,81,71,65,69,10,7,205,10,60,9.9,3201,504,3704,199,739,0,0,30,29.95,29.98,1015.6,1013.8,1014.7,40,MC,Overcast,KBKL,O,EST,41.518,-81.683,584,74,78,68,82,70,320,8,100,90,BKN,10,376,72,448,717,789,1025,0,0,0,29.99,1015,40,MC,Overcast,18-Sep-16,13
KBKL 19/Nov/2017 13,314,CLE2017,19-Nov-17,19-Nov-17,19-Nov-17,1:00,13,JAX,-7,CLE,26,U,37,2017,Week 11,57003,CLE,7,-7,GB,7,19,Y,67895,0,18,46,0,Cleveland,KBKL,KBKL4305813,KBKL,O,19-Nov-17,EST,41.518,-81.683,584,42,33,39,42,21,37,22,29,86,54,69,40,29,35,33,27,284,44,100,9.8,1072,216,1290,0,582,0.14,0.6,30.03,29.43,29.8,1017.3,996.9,1009.4,40,MC,Overcast,KBKL,O,EST,41.518,-81.683,584,40,29,28,63,35,280,25,100,60,OVC,10,190,38,228,379,417,541,0,0,0,29.81,1009.8,40,MC,Overcast,19-Nov-17,13
KBKL 20/Nov/2016 13,315,CLE2016,20-Nov-16,20-Nov-16,20-Nov-16,1:00,13,PIT,-8.5,CLE,33,U,45.5,2016,Week 11,67431,CLE,8.5,-8.5,DEN,9,24,Y,67431,0,17,35,0,Cleveland,KBKL,KBKL4269413,KBKL,O,20-Nov-16,EST,41.518,-81.683,584,39,33,36,38,21,27,20,24,70,52,63,34,30,32,38,28,294,48,100,9.2,1044,208,1254,0,581,0.03,0.3,30.1,29.95,30.05,1019.3,1014.2,1017.5,9,SNOW,Light Snow,KBKL,O,EST,41.518,-81.683,584,37,25,27,67,33,300,25,100,29,OVC,9,186,37,223,372,409,531,0,0,0,30.06,1017.9,9,SNOW,Light Snow,20-Nov-16,13
KBKL 20/Sep/2015 13,316,CLE2015,20-Sep-15,20-Sep-15,20-Sep-15,1:00,13,TEN,-1,CLE,42,O,41,2015,Week 2,67431,CLE,1,-1,TB,28,14,Y,67431,0,16,66,0,Cleveland,KBKL,KBKL4226713,KBKL,O,20-Sep-15,EST,41.518,-81.683,584,69,58,64,68,58,53,46,50,68,53,60,60,53,56,16,11,346,23,32,10,3750,499,4250,361,733,0,0,30.19,30.05,30.13,1022.3,1017.6,1020.4,46,CLR,Fair,KBKL,O,EST,41.518,-81.683,584,68,68,50,53,58,100,12,90,35,BKN,10,491,71,562,711,782,1016,0,0,0,30.17,1021.7,44,PC,Partly Cloudy,20-Sep-15,13
KBKL 20/Sep/2018 20,317,CLE2018,20-Sep-18,20-Sep-18,20-Sep-18,8:20,20,CLE,-3,NYJ,38,U,41,2018,Week 3,67431,CLE,-3,3,NYJ,21,17,Y,67895,0,19,33,0,Cleveland,KBKL,KBKL4336320,KBKL,O,20-Sep-18,EST,41.533,-81.667,604,85,62,74,90,62,70,57,65,87,60,73,75,59,68,17,9,143,17,41,9.8,3874,499,4373,417,733,0,0,30.1,29.97,30.04,1019,1014.4,1016.8,46,CLR,Fair,KBKL,O,EST,41.533,-81.667,604,79,83,69,72,72,160,10,26,348,CLR,10,0,0,0,0,0,0,0,0,0,29.98,1014.9,46,CLR,Fair,20-Sep-18,20
KBKL 21/Sep/2014 13,318,CLE2014,21-Sep-14,21-Sep-14,21-Sep-14,1:00,13,BAL,-1.5,CLE,44,O,43,2014,Week 3,67407,CLE,1.5,-1.5,MIA,21,23,Y,67431,0,15,69,0,Cleveland,KBKL,KBKL4190313,KBKL,O,21-Sep-14,EST,41.518,-81.683,584,73,57,66,72,52,66,49,58,84,61,74,68,53,62,31,21,268,39,78,10,3874,494,4370,269,731,0.16,0,29.93,29.65,29.74,1013.4,1003.7,1006.8,40,MC,Overcast,KBKL,O,EST,41.518,-81.683,584,70,70,57,64,62,280,21,20,30,SCT,10,634,71,706,705,776,1008,0,0,0,29.67,1004.4,44,PC,Partly Cloudy,21-Sep-14,13
KBKL 22/Dec/2019 13,319,CLE2019,22-Dec-19,22-Dec-19,22-Dec-19,1:00,13,CLE,-3,BAL,46,O,33,2019,Week 16,67431,CLE,-3,3,BAL,15,31,Y,67895,0,20,38,0,Cleveland,KBKL,KBKL4382113,KBKL,O,22-Dec-19,EST,41.533,-81.667,604,54,36,44,54,29,30,21,27,65,37,51,43,32,37,15,9,197,15,2,10,1662,169,1831,535,551,0,0,30.32,30.15,30.26,1027.4,1021.6,1025.2,46,CLR,Fair,KBKL,O,EST,41.533,-81.667,604,52,49,27,38,41,220,9,1,396,CLR,10,321,32,353,323,355,462,0,0,0,30.27,1025.2,46,CLR,Fair,22-Dec-19,13
KBKL 22/Oct/2017 13,320,CLE2017,22-Oct-17,22-Oct-17,22-Oct-17,1:00,13,TEN,-6,CLE,21,U,42.5,2017,Week 7,59061,CLE,6,-6,TEN,9,12,N,67895,0,18,79,0,Cleveland,KBKL,KBKL4303013,KBKL,O,22-Oct-17,EST,41.518,-81.683,584,79,56,67,79,53,52,45,49,77,30,54,60,52,57,16,11,161,23,50,10,2638,324,2963,298,647,0,0,30.23,30.05,30.16,1023.3,1017.3,1021,46,CLR,Fair,KBKL,O,EST,41.518,-81.683,584,77,77,47,35,60,190,16,100,201,OVC,10,258,52,310,516,568,737,0,0,0,30.16,1021.2,40,MC,Overcast,22-Oct-17,13
KBKL 22/Sep/2019 20,321,CLE2019,22-Sep-19,22-Sep-19,22-Sep-19,8:20,20,LAR,-4.5,CLE,33,U,48,2019,Week 3,67431,CLE,4.5,-4.5,LAR,13,20,Y,67895,0,20,71,0,Cleveland,KBKL,KBKL4373020,KBKL,O,22-Sep-19,EST,41.533,-81.667,604,90,73,82,90,73,65,53,58,76,29,50,69,65,67,20,13,194,38,39,10,4340,488,4828,539,728,0,0,30.11,29.87,30.01,1019.2,1011,1015.6,46,CLR,Fair,KBKL,O,EST,41.533,-81.667,604,83,83,54,37,65,190,13,72,309,CLR,10,0,0,0,0,0,0,0,0,0,29.92,1012.6,46,CLR,Fair,22-Sep-19,20
KBKL 23/Dec/2018 13,322,CLE2018,23-Dec-18,23-Dec-18,23-Dec-18,1:00,13,CLE,-9.5,CIN,44,P,44,2018,Week 16,67431,CLE,-9.5,9.5,CIN,26,18,N,67895,0,19,27,0,Cleveland,KBKL,KBKL4345713,KBKL,O,23-Dec-18,EST,41.533,-81.667,604,40,32,35,39,23,33,25,29,86,70,77,36,30,33,18,11,222,18,99,9.2,844,169,1013,0,550,0,0,30.09,30,30.05,1019.5,1016.3,1018.2,40,MC,Overcast,KBKL,O,EST,41.533,-81.667,604,39,32,32,76,36,240,10,100,32,OVC,9,162,32,194,324,356,463,0,0,0,30.01,1016.7,40,MC,Overcast,23-Dec-18,13
KBKL 24/Dec/2016 13,323,CLE2016,24-Dec-16,24-Dec-16,24-Dec-16,1:00,13,LAC,-4.5,CLE,37,U,45.5,2016,Week 16,57272,CLE,4.5,-4.5,DAL,20,17,N,67431,0,17,37,0,Cleveland,KBKL,KBKL4272813,KBKL,O,24-Dec-16,EST,41.518,-81.683,584,45,36,39,44,29,40,30,34,97,60,84,42,34,37,20,11,234,24,100,8.6,850,170,1018,0,551,0.06,0,30.42,29.97,30.19,1030,1015,1022.4,40,MC,Overcast,KBKL,O,EST,41.518,-81.683,584,37,30,35,93,36,260,10,100,17,OVC,7,162,33,196,325,358,465,0,0,0,30.21,1023.1,40,MC,Overcast,24-Dec-16,13
KBKL 24/Nov/2013 13,324,CLE2013,24-Nov-13,24-Nov-13,24-Nov-13,1:00,13,CLE,-2.5,PIT,38,U,40,2013,Week 12,71513,CLE,-2.5,2.5,NYJ,11,27,Y,73200,0,14,33,0,Cleveland,KBKL,KBKL4160213,KBKL,O,24-Nov-13,EST,41.518,-81.683,584,25,21,23,25,3,14,3,9,68,44,56,21,17,19,28,18,293,37,49,9.8,1558,202,1762,240,573,0,0,30.54,30.41,30.48,1036.2,1031.9,1034.3,10,SNOW,Moderate Snow,KBKL,O,EST,41.518,-81.683,584,23,8,10,58,20,290,22,17,201,SCT,10,331,36,367,362,398,517,0,0,0,30.51,1035.4,10,SNOW,Moderate Snow,24-Nov-13,13
KBKL 24/Nov/2019 13,325,CLE2019,24-Nov-19,24-Nov-19,24-Nov-19,1:00,13,CLE,-8,MIA,65,O,47,2019,Week 12,67431,CLE,-8,8,CAR,41,24,Y,67895,0,20,59,0,Cleveland,KBKL,KBKL4379313,KBKL,O,24-Nov-19,EST,41.533,-81.667,604,45,35,40,44,25,35,29,32,79,60,73,39,33,36,24,15,235,32,66,9.4,1332,202,1535,240,573,0,0,29.71,29.62,29.66,1006.4,1003.2,1004.7,40,MC,Overcast,KBKL,O,EST,41.533,-81.667,604,42,35,31,65,38,240,15,20,20,SCT,10,326,36,362,362,398,517,0,0,0,29.64,1004.1,44,PC,Partly Cloudy,24-Nov-19,13
KBKL 26/Oct/2014 16,326,CLE2014,26-Oct-14,26-Oct-14,26-Oct-14,4:25,16,CLE,-6.5,OAK,36,U,44.5,2014,Week 8,67431,CLE,-6.5,6.5,PIT,23,13,Y,67431,0,15,54,0,Cleveland,KBKL,KBKL4193816,KBKL,O,26-Oct-14,EST,41.518,-81.683,584,57,48,53,57,46,43,32,37,62,49,55,51,43,46,23,14,283,31,0,10,3050,304,3354,637,637,0,0,29.95,29.79,29.9,1014.2,1008.8,1012.5,46,CLR,Fair,KBKL,O,EST,41.518,-81.683,584,56,52,37,49,47,280,15,0,201,CLR,10,142,14,156,142,156,203,0,0,0,29.92,1013.3,46,CLR,Fair,26-Oct-14,16
KBKL 27/Nov/2016 13,327,CLE2016,27-Nov-16,27-Nov-16,27-Nov-16,1:00,13,NYG,-6.5,CLE,40,U,46.5,2016,Week 12,60034,CLE,6.5,-6.5,TB,13,27,Y,67431,0,17,46,0,Cleveland,KBKL,KBKL4270113,KBKL,O,27-Nov-16,EST,41.518,-81.683,584,49,37,43,49,31,34,29,31,73,52,64,42,35,38,16,11,186,20,60,10,1796,192,1988,455,569,0,0,30.24,30.02,30.15,1024.1,1016.7,1021.1,46,CLR,Fair,KBKL,O,EST,41.518,-81.683,584,49,44,33,55,42,220,13,20,45,SCT,10,316,35,351,351,386,501,0,0,0,30.15,1020.9,44,PC,Partly Cloudy,27-Nov-16,13
KBKL 27/Sep/2015 13,328,CLE2015,27-Sep-15,27-Sep-15,27-Sep-15,1:00,13,CLE,-3.5,OAK,47,O,44,2015,Week 3,67431,CLE,-3.5,3.5,CLE,20,27,Y,67431,0,16,75,0,Cleveland,KBKL,KBKL4227413,KBKL,O,27-Sep-15,EST,41.518,-81.683,584,79,63,70,78,62,60,48,55,66,50,59,65,56,61,18,13,154,26,78,10,3030,458,3487,191,714,0,0,30.24,30.12,30.18,1024.1,1019.9,1022.1,40,MC,Overcast,KBKL,O,EST,41.518,-81.683,584,76,78,56,50,64,160,13,25,50,SCT,10,585,67,652,669,736,956,0,0,0,30.19,1022.2,45,CLR,Mostly Clear,27-Sep-15,13
KBKL 29/Sep/2013 13,329,CLE2013,29-Sep-13,29-Sep-13,29-Sep-13,1:00,13,CIN,-3.5,CLE,23,U,42.5,2013,Week 4,71481,CLE,3.5,-3.5,IND,17,6,Y,73200,0,14,73,0,Cleveland,KBKL,KBKL4154613,KBKL,O,29-Sep-13,EST,41.518,-81.683,584,73,57,65,77,54,61,51,56,94,57,74,65,54,60,13,8,179,13,62,10,2655,448,3104,166,709,0.02,0,30.08,29.98,30.02,1019,1015.9,1017.2,40,MC,Overcast,KBKL,O,EST,41.518,-81.683,584,72,72,57,61,63,170,6,100,40,OVC,10,328,66,394,657,723,938,0,0,0,30.01,1016.9,45,CLR,Mostly Clear,29-Sep-13,13
KBKL 30/Nov/2015 20,330,CLE2015,30-Nov-15,30-Nov-15,30-Nov-15,8:30,20,CLE,-6,BAL,60,O,41,2015,Week 12,64380,CLE,-6,6,LAR,27,33,N,67431,0,16,42,0,Cleveland,KBKL,KBKL4233820,KBKL,O,30-Nov-15,EST,41.518,-81.683,584,48,30,40,47,24,36,24,29,79,48,66,42,28,35,14,7,73,14,54,10,1744,189,1933,412,565,0,0,30.32,30.04,30.2,1026.7,1017.4,1022.9,46,CLR,Fair,KBKL,O,EST,41.518,-81.683,584,44,40,31,60,39,50,8,100,22,OVC,10,0,0,0,0,0,0,0,0,0,30.14,1020.7,40,MC,Overcast,30-Nov-15,20
KBKL 30/Oct/2016 13,331,CLE2016,30-Oct-16,30-Oct-16,30-Oct-16,1:00,13,NYJ,-2.5,CLE,59,O,45.5,2016,Week 8,67431,CLE,2.5,-2.5,ARI,28,31,Y,67431,0,17,54,0,Cleveland,KBKL,KBKL4267313,KBKL,O,30-Oct-16,EST,41.518,-81.683,584,63,49,55,64,44,57,38,49,93,66,83,60,45,53,21,12,348,30,100,8.8,1412,282,1695,0,626,0.15,0,30.2,29.91,30.05,1022.8,1012.7,1017.4,40,MC,Overcast,KBKL,O,EST,41.518,-81.683,584,54,52,50,87,52,340,8,100,13,OVC,5,232,47,280,465,512,665,99,0.01,0,30.04,1017.4,18,RAIN,Light Rain,30-Oct-16,13
KBNA 01/Jan/2017 13,332,TEN2016,1-Jan-17,1-Jan-17,1-Jan-17,1:00,13,TEN,-3,HOU,41,P,41,2016,Week 17,65205,TEN,-3,3,PHI,24,17,Y,69143,0,17,48,0,Nashville,KBNA,KBNA4273613,KBNA,O,1-Jan-17,CST,36.124,-86.678,600,55,46,51,55,44,54,44,49,100,89,94,54,45,50,10,5,116,24,100,2.3,1196,240,1435,0,586,0,0,30.07,29.97,30.02,1018.2,1014.9,1016.5,40,MC,Overcast,KBNA,O,CST,36.124,-86.678,600,53,51,51,93,52,100,6,100,5,OVC,1.8,198,40,238,397,437,568,0,0,0,29.98,1015.3,21,RAIN,Light Drizzle,1-Jan-17,13
KBNA 02/Dec/2018 16,333,TEN2018,2-Dec-18,2-Dec-18,2-Dec-18,4:05,16,TEN,-9.5,NYJ,48,O,40.5,2018,Week 13,60904,TEN,-9.5,9.5,NYJ,26,22,N,69143,0,19,62,0,Nashville,KBNA,KBNA4343616,KBNA,O,2-Dec-18,CST,36.117,-86.683,689,71,48,58,70,46,54,28,40,90,23,58,57,43,50,16,8,215,30,9,10,2218,250,2468,497,592,0,0,29.89,29.59,29.69,1012,1001.8,1005.1,45,CLR,Mostly Clear,KBNA,O,CST,36.117,-86.683,689,67,67,28,23,49,230,12,5,180,FEW,10,18,2,20,18,20,25,0,0,0,29.69,1005,45,CLR,Mostly Clear,2-Dec-18,16
KBNA 03/Dec/2017 13,334,TEN2017,3-Dec-17,3-Dec-17,3-Dec-17,1:00,13,TEN,-7,HOU,37,U,42,2017,Week 13,62758,TEN,-7,7,LAR,24,13,Y,69143,0,18,36,0,Nashville,KBNA,KBNA4307213,KBNA,O,3-Dec-17,CST,36.124,-86.678,600,66,36,50,65,37,41,32,38,89,35,67,52,36,44,8,2,118,8,38,9.9,1973,248,2221,208,591,0,0,30.27,30.16,30.2,1025.1,1021,1022.8,52,PC,High Clouds,KBNA,O,CST,36.124,-86.678,600,64,64,38,38,51,90,7,70,250,BKN,10,309,39,348,391,430,559,0,0,0,30.19,1022.4,52,PC,High Clouds,3-Dec-17,13
KBNA 05/Nov/2017 13,335,TEN2017,5-Nov-17,5-Nov-17,5-Nov-17,1:00,13,TEN,-3,BAL,43,O,41,2017,Week 9,67322,TEN,-3,3,BAL,23,20,N,69143,0,18,85,0,Nashville,KBNA,KBNA4304413,KBNA,O,5-Nov-17,CST,36.124,-86.678,600,82,68,74,82,68,65,58,62,87,51,70,70,64,67,22,13,197,33,88,10,1607,328,1935,82,632,0,0,30.05,29.91,29.98,1016.9,1012.3,1014.5,40,MC,Overcast,KBNA,O,CST,36.124,-86.678,600,79,81,62,56,68,210,13,100,250,BKN,10,284,48,332,481,529,687,0,0,0,29.95,1013.5,52,PC,High Clouds,5-Nov-17,13
KBNA 05/Oct/2014 13,336,TEN2014,5-Oct-14,5-Oct-14,5-Oct-14,1:00,13,CLE,-1,TEN,57,O,44,2014,Week 5,69143,TEN,1,-1,TB,28,29,N,69143,0,15,71,0,Nashville,KBNA,KBNA4191713,KBNA,O,5-Oct-14,CST,36.124,-86.678,600,74,37,58,75,32,46,34,40,89,30,56,57,36,48,20,9,202,31,22,10,3863,473,4336,425,698,0,0,29.99,29.8,29.9,1015.6,1009.1,1012.7,44,PC,Partly Cloudy,KBNA,O,CST,36.124,-86.678,600,71,71,41,34,55,190,15,75,110,BKN,10,480,65,545,651,716,930,0,0,0,29.85,1011,45,CLR,Mostly Clear,5-Oct-14,13
KBNA 06/Dec/2015 13,337,TEN2015,6-Dec-15,6-Dec-15,6-Dec-15,1:00,13,TEN,-3,JAX,81,O,43.5,2015,Week 13,57355,TEN,-3,3,BAL,42,39,N,69143,0,16,56,0,Nashville,KBNA,KBNA4234413,KBNA,O,6-Dec-15,CST,36.124,-86.678,600,62,30,46,60,24,41,26,35,85,42,67,49,29,40,13,3,184,24,59,9.9,1221,243,1463,147,588,0,0,30.5,30.26,30.38,1032.7,1024.6,1029,44,PC,Partly Cloudy,KBNA,O,CST,36.124,-86.678,600,59,59,37,44,49,0,0,100,40,OVC,10,194,39,232,387,426,553,0,0,0,30.38,1028.8,40,MC,Overcast,6-Dec-15,13
KBNA 06/Dec/2018 20,338,TEN2018,6-Dec-18,6-Dec-18,6-Dec-18,8:20,20,TEN,-5.5,JAX,39,O,37,2018,Week 14,60344,TEN,-5.5,5.5,JAX,30,9,Y,69143,0,19,64,0,Nashville,KBNA,KBNA4344020,KBNA,O,6-Dec-18,CST,36.117,-86.683,689,47,24,38,46,19,31,19,23,78,38,58,37,23,32,9,6,213,24,75,10,1284,243,1527,45,588,0,0,30.4,30.31,30.36,1030,1026.6,1028.5,40,MC,Overcast,KBNA,O,CST,36.117,-86.683,689,44,40,24,45,36,260,8,100,32,OVC,10,0,0,0,0,0,0,0,0,0,30.36,1028.4,40,MC,Overcast,6-Dec-18,20
KBNA 06/Oct/2013 13,339,TEN2013,6-Oct-13,6-Oct-13,6-Oct-13,1:00,13,KC,-2.5,TEN,43,O,38,2013,Week 5,69143,TEN,2.5,-2.5,TB,17,26,Y,69143,0,14,74,0,Nashville,KBNA,KBNA4155313,KBNA,O,6-Oct-13,CST,36.124,-86.678,600,75,55,65,78,56,69,51,60,93,69,86,71,54,63,14,7,219,26,82,8.9,1900,467,2366,0,696,0.92,0,29.95,29.83,29.88,1014.2,1010.1,1011.8,18,RAIN,Light Rain,KBNA,O,CST,36.124,-86.678,600,63,63,61,93,62,290,7,100,6,OVC,9,322,64,386,644,708,920,0,0,0,29.84,1010.5,18,RAIN,Light Rain,6-Oct-13,13
KBNA 06/Oct/2019 13,340,TEN2019,6-Oct-19,6-Oct-19,6-Oct-19,1:00,13,TEN,-5,BUF,21,O,52,2019,Week 5,66910,TEN,-5,5,LAC,7,14,Y,69143,0,20,81,0,Nashville,KBNA,KBNA4374413,KBNA,O,6-Oct-19,CST,36.117,-86.683,689,82,66,74,83,67,69,63,65,91,58,75,71,65,68,15,9,188,31,87,8.5,2340,467,2806,0,696,0.95,0,30.16,30.05,30.1,1020.5,1016.6,1018.7,40,MC,Overcast,KBNA,O,CST,36.117,-86.683,689,81,83,65,58,71,190,6,100,36,OVC,10,322,64,386,644,708,921,0,0,0,30.1,1018.7,40,MC,Overcast,6-Oct-19,13
KBNA 07/Dec/2014 13,341,TEN2014,7-Dec-14,7-Dec-14,7-Dec-14,1:00,13,NYG,-3,TEN,43,U,46.5,2014,Week 14,69143,TEN,3,-3,WAS,7,36,Y,69143,0,15,47,0,Nashville,KBNA,KBNA4198013,KBNA,O,7-Dec-14,CST,36.124,-86.678,600,50,40,43,49,33,36,33,34,80,57,70,42,38,39,15,8,9,24,89,10,1413,243,1655,87,587,0,0,30.51,30.3,30.41,1033.1,1026.1,1029.8,40,MC,Overcast,KBNA,O,CST,36.124,-86.678,600,47,45,33,59,41,100,5,75,25,BKN,10,295,39,334,386,425,552,0,0,0,30.4,1029.4,45,CLR,Mostly Clear,7-Dec-14,13
KBNA 10/Nov/2013 13,342,TEN2013,10-Nov-13,10-Nov-13,10-Nov-13,1:00,13,TEN,-11.5,JAX,56,O,42,2013,Week 10,69143,TEN,-11.5,11.5,TEN,27,29,N,69143,0,14,65,0,Nashville,KBNA,KBNA4158813,KBNA,O,10-Nov-13,CST,36.124,-86.678,600,67,38,51,66,35,41,21,31,89,21,53,50,35,42,10,5,327,24,0,10,3093,310,3403,623,623,0,0,30.37,30.26,30.32,1028.4,1024.6,1026.6,46,CLR,Fair,KBNA,O,CST,36.124,-86.678,600,65,65,32,29,49,330,6,0,201,CLR,10,459,46,505,459,505,656,0,0,0,30.3,1026.1,46,CLR,Fair,10-Nov-13,13
KBNA 10/Nov/2019 13,343,TEN2019,10-Nov-19,10-Nov-19,10-Nov-19,1:00,13,KC,-3.5,TEN,67,O,47,2019,Week 10,68864,TEN,3.5,-3.5,KC,35,32,N,69143,0,20,33,0,Nashville,KBNA,KBNA4377913,KBNA,O,10-Nov-19,CST,36.117,-86.683,689,69,38,53,68,32,38,25,33,65,30,47,52,34,43,16,8,193,24,16,10,3084,310,3394,612,623,0,0,30.18,30.06,30.11,1022,1017.7,1019.6,46,CLR,Fair,KBNA,O,CST,36.117,-86.683,689,66,66,35,32,51,210,12,0,200,CLR,10,459,46,505,459,505,656,0,0,0,30.09,1018.6,46,CLR,Fair,10-Nov-19,13
KBNA 10/Sep/2017 13,344,TEN2017,10-Sep-17,10-Sep-17,10-Sep-17,1:00,13,TEN,-2.5,OAK,42,U,50.5,2017,Week 1,69089,TEN,-2.5,2.5,OAK,16,26,Y,69143,0,18,61,0,Nashville,KBNA,KBNA4298813,KBNA,O,10-Sep-17,CST,36.124,-86.678,600,80,55,67,79,56,56,49,53,90,38,64,64,54,59,12,7,43,12,16,10,5780,603,6383,671,755,0,0,30.3,30.16,30.23,1025.5,1020.9,1023.2,46,CLR,Fair,KBNA,O,CST,36.124,-86.678,600,79,79,54,42,64,100,10,20,50,SCT,10,712,79,791,791,870,1130,0,0,0,30.23,1023.3,44,PC,Partly Cloudy,10-Sep-17,13
KBNA 11/Dec/2016 13,345,TEN2016,11-Dec-16,11-Dec-16,11-Dec-16,1:00,13,TEN,-2,DEN,23,U,44,2016,Week 14,68780,TEN,-2,2,WAS,13,10,Y,69143,0,17,48,0,Nashville,KBNA,KBNA4271513,KBNA,O,11-Dec-16,CST,36.124,-86.678,600,57,24,46,57,21,47,14,25,72,23,47,49,24,36,30,15,182,40,95,9.8,1430,237,1668,30,585,0.12,0,30.37,29.91,30.13,1028.3,1013,1020.5,42,MC,Mostly Cloudy,KBNA,O,CST,36.124,-86.678,600,57,52,19,23,42,180,24,100,50,BKN,10,248,38,286,382,420,545,0,0,0,30.1,1019.2,42,MC,Mostly Cloudy,11-Dec-16,13
KBNA 11/Nov/2018 13,346,TEN2018,11-Nov-18,11-Nov-18,11-Nov-18,1:00,13,NE,-6.5,TEN,44,U,46.5,2018,Week 10,69363,TEN,6.5,-6.5,NE,34,10,Y,69143,0,19,39,0,Nashville,KBNA,KBNA4341513,KBNA,O,11-Nov-18,CST,36.117,-86.683,689,53,25,40,52,22,35,19,27,85,39,63,42,23,34,6,3,92,34,47,10,2530,307,2837,299,621,0,0,30.36,30.24,30.29,1028.6,1024.1,1026.2,42,MC,Mostly Cloudy,KBNA,O,CST,36.117,-86.683,689,51,51,28,41,41,220,3,70,140,BKN,10,344,46,390,455,501,650,0,0,0,30.27,1025.2,42,MC,Mostly Cloudy,11-Nov-18,13
KBNA 11/Oct/2015 13,347,TEN2015,11-Oct-15,11-Oct-15,11-Oct-15,1:00,13,BUF,-1,TEN,27,U,43,2015,Week 5,65670,TEN,1,-1,IND,13,14,N,69143,0,16,72,0,Nashville,KBNA,KBNA4228813,KBNA,O,11-Oct-15,CST,36.124,-86.678,600,73,45,58,72,46,52,43,47,93,37,70,59,45,52,8,3,146,24,23,8.9,3614,444,4058,375,684,0,0,30.08,29.89,29.98,1018.5,1012.2,1015.2,46,CLR,Fair,KBNA,O,CST,36.124,-86.678,600,70,70,47,44,57,0,0,70,250,BKN,10,486,62,548,615,677,879,0,0,0,29.97,1014.9,52,PC,High Clouds,11-Oct-15,13
KBNA 11/Sep/2016 13,348,TEN2016,11-Sep-16,11-Sep-16,11-Sep-16,1:00,13,MIN,-2.5,TEN,41,O,40,2016,Week 1,63816,TEN,2.5,-2.5,ARI,16,25,Y,69143,0,17,77,0,Nashville,KBNA,KBNA4262413,KBNA,O,11-Sep-16,CST,36.124,-86.678,600,83,62,72,82,62,63,52,57,90,37,63,68,59,63,12,6,347,24,45,10,5197,593,5790,413,752,0,0,30.2,30.09,30.14,1022.8,1019,1020.6,45,CLR,Mostly Clear,KBNA,O,CST,36.124,-86.678,600,81,81,55,41,65,60,7,25,50,SCT,10,715,78,793,781,859,1116,0,0,0,30.15,1021,45,CLR,Mostly Clear,11-Sep-16,13
KBNA 12/Nov/2017 13,349,TEN2017,12-Nov-17,12-Nov-17,12-Nov-17,1:00,13,TEN,-4.5,CIN,44,O,40.5,2017,Week 10,67432,TEN,-4.5,4.5,DEN,24,20,N,69143,0,18,38,0,Nashville,KBNA,KBNA4305113,KBNA,O,12-Nov-17,CST,36.124,-86.678,600,57,48,53,56,45,49,42,46,83,72,78,52,44,50,14,7,187,18,98,9.7,1506,302,1806,0,620,0,0,30.38,30.27,30.31,1028.6,1024.9,1026.3,40,MC,Overcast,KBNA,O,CST,36.124,-86.678,600,55,54,48,77,51,190,6,100,40,OVC,10,226,45,270,451,496,645,0,0,0,30.28,1025.4,40,MC,Overcast,12-Nov-17,13
KBNA 12/Oct/2014 13,350,TEN2014,12-Oct-14,12-Oct-14,12-Oct-14,1:00,13,TEN,-4,JAX,30,U,42.5,2014,Week 6,69143,TEN,-4,4,SEA,16,14,N,69143,0,15,74,0,Nashville,KBNA,KBNA4192413,KBNA,O,12-Oct-14,CST,36.124,-86.678,600,77,58,66,77,58,66,57,62,97,74,89,69,57,63,14,6,166,24,99,8.2,1804,438,2243,1,683,0.02,0,30.04,29.94,29.99,1017.4,1014,1015.7,40,MC,Overcast,KBNA,O,CST,36.124,-86.678,600,73,77,66,79,69,190,8,100,9,BKN,10,186,61,247,609,670,870,0,0,0,29.98,1014.8,45,CLR,Mostly Clear,12-Oct-14,13
KBNA 13/Nov/2016 13,351,TEN2016,13-Nov-16,13-Nov-16,13-Nov-16,1:00,13,GB,-3,TEN,72,O,49,2016,Week 10,69116,TEN,3,-3,SF,47,25,Y,69143,0,17,55,0,Nashville,KBNA,KBNA4268713,KBNA,O,13-Nov-16,CST,36.124,-86.678,600,65,33,48,65,34,36,29,33,82,32,59,50,32,41,6,1,203,24,0,7.9,2955,294,3249,618,618,0,0,30.31,30.14,30.23,1026.4,1020.7,1023.7,46,CLR,Fair,KBNA,O,CST,36.124,-86.678,600,64,64,33,32,49,310,3,0,206,CLR,10,443,44,487,443,487,633,0,0,0,30.21,1023.1,46,CLR,Fair,13-Nov-16,13
KBNA 14/Dec/2014 16,352,TEN2014,14-Dec-14,14-Dec-14,14-Dec-14,4:05,16,NYJ,-3,TEN,27,U,41.5,2014,Week 15,69143,TEN,3,-3,JAX,11,16,Y,69143,0,15,49,0,Nashville,KBNA,KBNA4198716,KBNA,O,14-Dec-14,CST,36.124,-86.678,600,52,35,45,52,34,41,35,39,97,66,78,47,36,42,5,1,111,24,73,8.2,1173,235,1410,10,583,0,0,30.24,30.09,30.17,1024,1019,1021.7,40,MC,Overcast,KBNA,O,CST,36.124,-86.678,600,51,51,41,69,46,0,0,100,20,BKN,10,10,2,12,19,21,27,0,0,0,30.14,1020.8,42,MC,Mostly Cloudy,14-Dec-14,16
KBNA 14/Nov/2013 20,353,TEN2013,14-Nov-13,14-Nov-13,14-Nov-13,8:25,20,IND,-3,TEN,57,O,42.5,2013,Week 11,69143,TEN,3,-3,TB,27,30,N,69143,0,14,44,0,Nashville,KBNA,KBNA4159220,KBNA,O,14-Nov-13,CST,36.124,-86.678,600,59,23,40,58,18,25,13,18,81,17,49,42,22,32,10,5,185,24,20,10,2930,294,3224,535,616,0,0,30.45,30.2,30.35,1031.3,1022.8,1027.8,46,CLR,Fair,KBNA,O,CST,36.124,-86.678,600,41,36,20,43,33,170,7,0,201,CLR,10,0,0,0,0,0,0,0,0,0,30.26,1024.8,46,CLR,Fair,14-Nov-13,20
KBNA 14/Oct/2018 16,354,TEN2018,14-Oct-18,14-Oct-18,14-Oct-18,4:25,16,BAL,-2.5,TEN,21,U,43.5,2018,Week 6,64441,TEN,2.5,-2.5,BAL,0,21,Y,69143,0,19,53,0,Nashville,KBNA,KBNA4338716,KBNA,O,14-Oct-18,CST,36.117,-86.683,689,69,53,63,68,52,64,49,58,93,76,86,65,51,60,10,6,153,24,100,9.5,1792,427,2219,0,678,0.23,0,30.03,29.95,29.99,1016.4,1014,1015.2,19,RAIN,Moderate Rain,KBNA,O,CST,36.117,-86.683,689,68,68,64,87,65,180,10,100,40,OVC,8,60,12,72,121,133,173,99,0.01,0,29.96,1014.4,18,RAIN,Light Rain,14-Oct-18,16
KBNA 14/Sep/2014 13,355,TEN2014,14-Sep-14,14-Sep-14,14-Sep-14,1:00,13,TEN,-3.5,DAL,36,U,49.5,2014,Week 2,69143,TEN,-3.5,3.5,DEN,10,26,Y,69143,0,15,77,0,Nashville,KBNA,KBNA4189613,KBNA,O,14-Sep-14,CST,36.124,-86.678,600,80,53,66,80,54,58,50,54,87,44,68,65,52,59,8,3,359,24,34,10,4634,584,5218,316,746,0,0,30.25,30.16,30.2,1024.4,1021.2,1022.7,45,CLR,Mostly Clear,KBNA,O,CST,36.124,-86.678,600,77,78,57,50,65,300,7,75,150,BKN,10,595,77,672,770,847,1100,0,0,0,30.19,1022.4,45,CLR,Mostly Clear,14-Sep-14,13
KBNA 15/Dec/2013 16,356,TEN2013,15-Dec-13,15-Dec-13,15-Dec-13,4:25,16,ARI,-3,TEN,71,O,43,2013,Week 15,69143,TEN,3,-3,CAR,34,37,N,69143,0,14,37,0,Nashville,KBNA,KBNA4162316,KBNA,O,15-Dec-13,CST,36.124,-86.678,600,36,28,33,36,21,31,24,26,86,70,77,34,28,31,14,8,295,26,86,9.9,1172,235,1408,0,583,0,0,30.24,30.03,30.18,1023.9,1017.1,1022.1,40,MC,Overcast,KBNA,O,CST,36.124,-86.678,600,34,29,25,70,31,250,5,100,21,OVC,10,10,2,12,20,22,29,0,0,0,30.22,1023.5,40,MC,Overcast,15-Dec-13,16
KBNA 15/Dec/2019 13,357,TEN2019,15-Dec-19,15-Dec-19,15-Dec-19,1:00,13,TEN,-1,HOU,45,O,36,2019,Week 15,65265,TEN,-1,1,NYJ,21,24,Y,69143,0,20,59,0,Nashville,KBNA,KBNA4381413,KBNA,O,15-Dec-19,CST,36.117,-86.683,689,61,40,48,59,37,52,34,39,76,58,70,54,38,44,21,7,138,32,91,9.1,924,235,1159,63,583,0,0,30.13,29.9,30.02,1020.5,1012.3,1016.5,40,MC,Overcast,KBNA,O,CST,36.117,-86.683,689,48,46,37,66,43,40,6,20,19,OVC,10,210,38,248,382,420,545,0,0,0,30.06,1018.1,44,PC,Partly Cloudy,15-Dec-19,13
KBNA 15/Nov/2015 13,358,TEN2015,15-Nov-15,15-Nov-15,15-Nov-15,1:00,13,CAR,-3.5,TEN,37,U,43,2015,Week 10,63591,TEN,3.5,-3.5,JAX,10,27,Y,69143,0,16,60,0,Nashville,KBNA,KBNA4232313,KBNA,O,15-Nov-15,CST,36.124,-86.678,600,64,34,48,63,30,37,24,29,89,24,55,46,33,40,7,2,146,24,80,9.9,2104,294,2398,59,615,0,0,30.45,30.29,30.37,1031.3,1025.7,1028.6,44,PC,Partly Cloudy,KBNA,O,CST,36.124,-86.678,600,60,60,26,27,45,90,6,90,180,BKN,10,317,44,361,440,484,629,0,0,0,30.36,1028.2,44,PC,Partly Cloudy,15-Nov-15,13
KBNA 15/Sep/2019 13,359,TEN2019,15-Sep-19,15-Sep-19,15-Sep-19,1:00,13,TEN,-3,IND,36,U,43.5,2019,Week 2,62849,TEN,-3,3,IND,17,19,N,69143,0,20,86,0,Nashville,KBNA,KBNA4372313,KBNA,O,15-Sep-19,CST,36.117,-86.683,689,97,65,81,101,66,67,59,64,87,34,58,76,63,70,8,2,51,40,13,10,5429,578,6007,647,743,0,0,30.2,30.05,30.13,1021.9,1016.8,1019.4,45,CLR,Mostly Clear,KBNA,O,CST,36.117,-86.683,689,95,98,64,36,74,310,5,25,70,SCT,10,669,76,745,765,841,1093,0,0,0,30.12,1019.3,44,PC,Partly Cloudy,15-Sep-19,13
KBNA 16/Oct/2016 13,360,TEN2016,16-Oct-16,16-Oct-16,16-Oct-16,1:00,13,TEN,-7.5,CLE,54,O,45,2016,Week 6,60897,TEN,-7.5,7.5,ARI,28,26,N,69143,0,17,79,0,Nashville,KBNA,KBNA4265913,KBNA,O,16-Oct-16,CST,36.124,-86.678,600,84,63,72,83,64,62,56,59,84,41,66,68,60,64,14,9,182,24,31,10,2719,412,3130,322,674,0,0,30.16,30.01,30.09,1021.5,1016.2,1018.8,44,PC,Partly Cloudy,KBNA,O,CST,36.124,-86.678,600,82,83,60,47,68,200,14,100,43,BKN,10,290,58,348,581,639,830,0,0,0,30.06,1017.9,42,MC,Mostly Cloudy,16-Oct-16,13
KBNA 16/Oct/2017 20,361,TEN2017,16-Oct-17,16-Oct-17,16-Oct-17,8:30,20,TEN,-7,IND,58,O,46.5,2017,Week 6,63888,TEN,-7,7,IND,36,22,Y,69143,0,18,55,0,Nashville,KBNA,KBNA4302420,KBNA,O,16-Oct-17,CST,36.124,-86.678,600,67,46,56,66,46,45,40,42,80,39,61,53,45,49,16,10,89,23,34,10,3337,417,3754,443,674,0,0,30.34,30.24,30.29,1027.3,1023.9,1025.7,46,CLR,Fair,KBNA,O,CST,36.124,-86.678,600,54,52,42,64,48,200,7,0,201,CLR,10,0,0,0,0,0,0,0,0,0,30.3,1026,46,CLR,Fair,16-Oct-17,20
KBNA 16/Sep/2018 13,362,TEN2018,16-Sep-18,16-Sep-18,16-Sep-18,1:00,13,HOU,-3.5,TEN,37,U,41,2018,Week 2,62372,TEN,3.5,-3.5,HOU,20,17,N,69143,0,19,89,0,Nashville,KBNA,KBNA4335913,KBNA,O,16-Sep-18,CST,36.117,-86.683,689,86,73,78,89,73,70,66,67,81,55,70,74,69,71,15,9,32,47,77,10,2836,574,3410,38,742,0,0,29.99,29.9,29.94,1014.7,1011.6,1013.2,42,MC,Mostly Cloudy,KBNA,O,CST,36.117,-86.683,689,85,89,68,57,74,40,14,100,250,OVC,10,326,76,402,759,835,1085,0,0,0,29.94,1012.9,50,PC,High Overcast,16-Sep-18,13
KBNA 17/Nov/2014 20,363,TEN2014,17-Nov-14,17-Nov-14,17-Nov-14,8:30,20,PIT,-7,TEN,51,O,46,2014,Week 11,69143,TEN,7,-7,ATL,24,27,N,69143,0,15,25,0,Nashville,KBNA,KBNA4196020,KBNA,O,17-Nov-14,CST,36.124,-86.678,600,40,23,31,40,17,39,13,24,97,53,76,40,21,29,16,9,312,24,90,8.8,1478,285,1762,18,611,0.38,0.2,30.25,29.85,30.06,1024.3,1011,1018.1,40,MC,Overcast,KBNA,O,CST,36.124,-86.678,600,25,25,14,63,22,0,0,5,45,FEW,10,0,0,0,0,0,0,0,0,0,30.23,1023.6,45,CLR,Mostly Clear,17-Nov-14,20
KBNA 18/Oct/2015 13,364,TEN2015,18-Oct-15,18-Oct-15,18-Oct-15,1:00,13,TEN,-2.5,MIA,48,O,43.5,2015,Week 6,62342,TEN,-2.5,2.5,LAR,10,38,Y,69143,0,16,60,0,Nashville,KBNA,KBNA4229513,KBNA,O,18-Oct-15,CST,36.124,-86.678,600,63,38,50,62,35,33,22,28,70,21,45,46,35,40,13,6,66,24,0,10,4083,410,4493,669,669,0,0,30.53,30.4,30.45,1034,1029.4,1031.3,46,CLR,Fair,KBNA,O,CST,36.124,-86.678,600,61,59,23,23,45,200,13,0,201,CLR,10,575,58,633,575,633,821,0,0,0,30.47,1031.8,46,CLR,Fair,18-Oct-15,13
KBNA 20/Oct/2013 16,365,TEN2013,20-Oct-13,20-Oct-13,20-Oct-13,4:05,16,SF,-3.5,TEN,48,O,41,2013,Week 7,69143,TEN,3.5,-3.5,LAC,17,31,Y,69143,0,14,68,0,Nashville,KBNA,KBNA4156716,KBNA,O,20-Oct-13,CST,36.124,-86.678,600,64,35,49,64,31,43,33,37,97,34,69,50,34,43,7,3,142,24,1,9,3937,399,4336,650,665,0,0,30.13,30.03,30.08,1020.4,1017.1,1018.5,46,CLR,Fair,KBNA,O,CST,36.124,-86.678,600,62,62,33,34,49,90,5,0,207,CLR,10,98,10,108,98,108,140,0,0,0,30.04,1017.3,46,CLR,Fair,20-Oct-13,16
KBNA 20/Oct/2019 13,366,TEN2019,20-Oct-19,20-Oct-19,20-Oct-19,1:00,13,TEN,PK,LAC,43,O,41,2019,Week 7,62431,TEN,PK,PK,LAR,23,20,PK,69143,0,20,74,0,Nashville,KBNA,KBNA4375813,KBNA,O,20-Oct-19,CST,36.117,-86.683,689,78,60,66,78,60,58,48,54,90,37,70,62,57,59,7,2,151,24,46,8.4,3219,399,3617,406,665,0,0,29.95,29.83,29.9,1013.8,1009.8,1012.2,46,CLR,Fair,KBNA,O,CST,36.117,-86.683,689,74,76,52,46,61,370,3,35,25,CLR,10,465,56,521,564,620,806,0,0,0,29.9,1012.1,46,CLR,Fair,20-Oct-19,13
KBNA 22/Dec/2018 16,367,TEN2018,22-Dec-18,22-Dec-18,22-Dec-18,4:30,16,TEN,-11,WAS,41,O,38,2018,Week 16,60746,TEN,-11,11,WAS,25,16,N,69143,0,19,64,0,Nashville,KBNA,KBNA4345616,KBNA,O,22-Dec-18,CST,36.117,-86.683,689,52,29,40,51,25,34,27,31,88,48,69,43,29,36,12,6,184,24,28,9.6,2143,233,2376,429,582,0,0,30.14,29.93,30.07,1020.8,1013.8,1018.4,45,CLR,Mostly Clear,KBNA,O,CST,36.117,-86.683,689,50,46,31,48,42,170,9,5,250,FEW,10,25,2,27,25,27,36,0,0,0,30.07,1018.3,45,CLR,Mostly Clear,22-Dec-18,16
KBNA 22/Dec/2019 13,368,TEN2019,22-Dec-19,22-Dec-19,22-Dec-19,1:00,13,NO,-3,TEN,66,O,44,2019,Week 16,66756,TEN,3,-3,NO,28,38,Y,69143,0,20,26,0,Nashville,KBNA,KBNA4382113,KBNA,O,22-Dec-19,CST,36.117,-86.683,689,51,42,47,50,44,39,34,37,76,58,68,45,41,43,9,3,41,24,84,10,1150,233,1383,159,582,0.09,0,30.35,30.06,30.23,1027.7,1017.9,1023.9,18,RAIN,Light Rain,KBNA,O,CST,36.117,-86.683,689,50,50,39,67,45,60,2,100,90,OVC,10,192,38,230,384,422,548,99,0.01,0,30.25,1024.2,18,RAIN,Light Rain,22-Dec-19,13
KBNA 22/Sep/2013 13,369,TEN2013,22-Sep-13,22-Sep-13,22-Sep-13,1:00,13,TEN,-3,LAC,37,U,43,2013,Week 3,69143,TEN,-3,3,CLE,20,17,N,69143,0,14,76,0,Nashville,KBNA,KBNA4153913,KBNA,O,22-Sep-13,CST,36.124,-86.678,600,77,51,64,78,52,52,48,51,89,39,64,62,50,57,13,6,60,24,1,10,5361,540,5901,719,728,0,0,29.96,29.87,29.92,1014.4,1011.6,1013.1,46,CLR,Fair,KBNA,O,CST,36.124,-86.678,600,76,77,49,39,61,300,8,0,201,CLR,10,726,73,799,726,799,1038,0,0,0,29.92,1013.1,46,CLR,Fair,22-Sep-13,13
KBNA 23/Oct/2016 13,370,TEN2016,23-Oct-16,23-Oct-16,23-Oct-16,1:00,13,TEN,-4,IND,60,O,48.5,2016,Week 7,65470,TEN,-4,4,WAS,26,34,Y,69143,0,17,71,0,Nashville,KBNA,KBNA4266613,KBNA,O,23-Oct-16,CST,36.124,-86.678,600,77,40,60,77,41,44,36,41,82,26,54,58,39,50,10,5,213,24,5,10,3791,381,4172,629,659,0,0,30.26,30.14,30.19,1024.7,1020.6,1022.5,46,CLR,Fair,KBNA,O,CST,36.124,-86.678,600,75,76,42,31,57,230,6,0,201,CLR,10,542,54,596,542,596,774,0,0,0,30.17,1021.7,46,CLR,Fair,23-Oct-16,13
KBNA 24/Dec/2017 13,371,TEN2017,24-Dec-17,24-Dec-17,24-Dec-17,1:00,13,LAR,-6,TEN,50,O,46,2017,Week 16,60097,TEN,6,-6,ATL,23,27,N,69143,0,18,47,0,Nashville,KBNA,KBNA4309313,KBNA,O,24-Dec-17,CST,36.124,-86.678,600,43,29,39,42,19,38,17,33,89,59,80,40,26,37,22,9,305,32,100,8.4,1129,234,1361,0,583,0.01,0,30.35,30.04,30.16,1028.2,1017.4,1021.5,40,MC,Overcast,KBNA,O,CST,36.124,-86.678,600,42,36,37,82,40,230,10,100,11,OVC,7,192,38,230,385,423,550,0,0,0,30.04,1017.4,40,MC,Overcast,24-Dec-17,13
KBNA 24/Nov/2019 13,372,TEN2019,24-Nov-19,24-Nov-19,24-Nov-19,1:00,13,TEN,-3,JAX,62,O,48,2019,Week 12,60926,TEN,-3,3,JAX,42,20,Y,69143,0,20,49,0,Nashville,KBNA,KBNA4379313,KBNA,O,24-Nov-19,CST,36.117,-86.683,689,55,34,44,54,30,35,30,33,85,45,66,45,33,39,9,6,243,24,29,10,2476,266,2742,514,601,0,0,29.99,29.88,29.92,1015.5,1011.8,1013.4,45,CLR,Mostly Clear,KBNA,O,CST,36.117,-86.683,689,53,51,32,45,44,0,6,0,199,CLR,10,411,41,452,411,452,587,0,0,0,29.9,1012.4,47,CLR,Clear,24-Nov-19,13
KBNA 24/Sep/2017 16,373,TEN2017,24-Sep-17,24-Sep-17,24-Sep-17,4:05,16,TEN,-2,SEA,60,O,41.5,2017,Week 3,69127,TEN,-2,2,SF,33,27,Y,69143,0,18,83,0,Nashville,KBNA,KBNA4300216,KBNA,O,24-Sep-17,CST,36.124,-86.678,600,91,68,78,91,68,69,60,66,96,39,70,72,67,70,8,3,162,8,40,9,4207,531,4738,335,723,0,0,30.08,30,30.03,1018,1015.2,1016.3,54,CLR,Few High Clouds,KBNA,O,CST,36.124,-86.678,600,86,88,63,46,71,150,6,100,250,BKN,10,94,22,116,223,245,319,0,0,0,30,1015.3,42,MC,Mostly Cloudy,24-Sep-17,16
KBNA 25/Oct/2015 13,374,TEN2015,25-Oct-15,25-Oct-15,25-Oct-15,1:00,13,ATL,-6,TEN,17,U,45.5,2015,Week 7,63329,TEN,6,-6,PHI,7,10,N,69143,0,16,61,0,Nashville,KBNA,KBNA4230213,KBNA,O,25-Oct-15,CST,36.124,-86.678,600,69,57,60,67,54,56,53,54,90,73,83,64,55,57,13,9,342,24,100,9.8,1878,375,2252,0,655,0.08,0,30.24,30.12,30.19,1023.7,1020.1,1022.3,42,MC,Mostly Cloudy,KBNA,O,CST,36.124,-86.678,600,62,61,53,73,57,300,12,100,17,OVC,10,268,54,322,536,590,766,0,0,0,30.17,1021.8,42,MC,Mostly Cloudy,25-Oct-15,13
KBNA 25/Sep/2016 13,375,TEN2016,25-Sep-16,25-Sep-16,25-Sep-16,1:00,13,OAK,-1.5,TEN,27,U,47,2016,Week 3,62370,TEN,1.5,-1.5,MIN,10,17,Y,69143,0,17,89,0,Nashville,KBNA,KBNA4263813,KBNA,O,25-Sep-16,CST,36.124,-86.678,600,94,64,79,94,64,67,60,64,93,34,65,73,63,69,10,2,24,24,4,8.7,5101,519,5620,674,721,0,0,30.1,30.01,30.06,1018.6,1015.3,1017,46,CLR,Fair,KBNA,O,CST,36.124,-86.678,600,92,93,61,36,72,370,3,5,60,FEW,10,685,70,755,703,773,1005,0,0,0,30.05,1016.7,46,CLR,Fair,25-Sep-16,13
KBNA 26/Oct/2014 13,376,TEN2014,26-Oct-14,26-Oct-14,26-Oct-14,1:00,13,HOU,-3.5,TEN,46,O,43,2014,Week 8,69143,TEN,3.5,-3.5,CAR,16,30,Y,69143,0,15,79,0,Nashville,KBNA,KBNA4193813,KBNA,O,26-Oct-14,CST,36.124,-86.678,600,82,53,65,82,52,63,53,58,100,49,81,68,53,61,7,3,141,24,10,6.9,3644,371,4016,634,653,0,0,30.05,29.94,29.99,1017.3,1014,1015.4,46,CLR,Fair,KBNA,O,CST,36.124,-86.678,600,79,80,60,52,67,100,6,0,201,CLR,10,531,53,584,531,584,759,0,0,0,29.98,1015.1,46,CLR,Fair,26-Oct-14,13
KBNA 27/Dec/2015 13,377,TEN2015,27-Dec-15,27-Dec-15,27-Dec-15,1:00,13,HOU,-3.5,TEN,40,O,39,2015,Week 16,62153,TEN,3.5,-3.5,LAR,6,34,Y,69143,0,16,72,0,Nashville,KBNA,KBNA4236513,KBNA,O,27-Dec-15,CST,36.124,-86.678,600,76,59,69,78,57,65,55,60,87,58,75,67,57,64,23,13,185,33,96,10,839,236,1075,18,583,0,0,30.02,29.91,29.96,1016.5,1012.8,1014.7,42,MC,Mostly Cloudy,KBNA,O,CST,36.124,-86.678,600,75,78,61,62,66,200,13,100,34,OVC,10,136,39,175,389,428,555,0,0,0,29.93,1013.6,42,MC,Mostly Cloudy,27-Dec-15,13
KBNA 27/Oct/2016 20,378,TEN2016,27-Oct-16,27-Oct-16,27-Oct-16,8:25,20,TEN,-3,JAX,58,O,43.5,2016,Week 8,61619,TEN,-3,3,BUF,36,22,Y,69143,0,17,66,0,Nashville,KBNA,KBNA4267020,KBNA,O,27-Oct-16,CST,36.124,-86.678,600,81,55,68,80,55,59,47,53,84,39,60,65,53,60,13,7,266,24,61,10,2217,362,2580,168,650,0,0,30.26,30.15,30.2,1024.7,1021.1,1022.7,42,MC,Mostly Cloudy,KBNA,O,CST,36.124,-86.678,600,64,63,57,78,60,360,13,0,201,CLR,10,0,0,0,0,0,0,0,0,0,30.24,1024.1,46,CLR,Fair,27-Oct-16,20
KBNA 27/Oct/2019 13,379,TEN2019,27-Oct-19,27-Oct-19,27-Oct-19,1:00,13,TEN,-5.5,TB,50,O,39,2019,Week 8,62073,TEN,-5.5,5.5,JAX,27,23,N,69143,0,20,80,0,Nashville,KBNA,KBNA4376513,KBNA,O,27-Oct-19,CST,36.117,-86.683,689,63,49,57,62,50,54,46,51,90,67,81,56,48,54,7,3,242,34,67,8.6,1879,366,2247,80,650,0.02,0,30.09,29.89,30.03,1018.6,1011.6,1016.4,40,MC,Overcast,KBNA,O,CST,36.117,-86.683,689,61,61,51,70,56,0,0,100,20,OVC,10,262,53,316,525,578,750,0,0,0,30.05,1017.2,40,MC,Overcast,27-Oct-19,13
KBNA 27/Sep/2015 13,380,TEN2015,27-Sep-15,27-Sep-15,27-Sep-15,1:00,13,IND,-3.5,TEN,68,O,46.5,2015,Week 3,65920,TEN,3.5,-3.5,ATL,33,35,N,69143,0,16,77,0,Nashville,KBNA,KBNA4227413,KBNA,O,27-Sep-15,CST,36.124,-86.678,600,81,67,73,81,68,66,62,65,93,56,77,69,65,67,9,4,153,24,96,10,2163,516,2679,0,716,0,0,30.12,30.01,30.05,1019.7,1016.1,1017.7,42,MC,Mostly Cloudy,KBNA,O,CST,36.124,-86.678,600,79,81,62,56,68,180,9,100,30,BKN,10,394,70,464,697,767,996,0,0,0,30.05,1017.7,45,CLR,Mostly Clear,27-Sep-15,13
KBNA 28/Dec/2014 13,381,TEN2014,28-Dec-14,28-Dec-14,28-Dec-14,1:00,13,IND,-7.5,TEN,37,U,46.5,2014,Week 17,69143,TEN,7.5,-7.5,IND,10,27,Y,69143,0,15,41,0,Nashville,KBNA,KBNA4200113,KBNA,O,28-Dec-14,CST,36.124,-86.678,600,50,37,42,50,31,49,35,40,100,93,94,49,36,42,12,6,347,24,100,5.9,1175,236,1411,0,583,0.28,0,30.19,30.06,30.14,1022.3,1017.9,1020.8,18,RAIN,Light Rain,KBNA,O,CST,36.124,-86.678,600,41,37,39,93,40,340,6,100,7,OVC,8,195,39,234,390,429,557,0,0,0,30.13,1020.2,40,MC,Overcast,28-Dec-14,13
KBNA 29/Dec/2013 13,382,TEN2013,29-Dec-13,29-Dec-13,29-Dec-13,1:00,13,TEN,-7,HOU,26,U,44.5,2013,Week 17,69143,TEN,-7,7,JAX,16,10,N,69143,0,14,53,0,Nashville,KBNA,KBNA4163713,KBNA,O,29-Dec-13,CST,36.124,-86.678,600,55,34,44,55,26,41,27,36,97,51,78,47,31,41,15,5,314,24,81,8.2,1606,237,1843,276,584,0.36,0,30.16,29.91,30,1021.2,1013,1015.8,18,RAIN,Light Rain,KBNA,O,CST,36.124,-86.678,600,53,53,38,57,46,370,3,5,27,FEW,10,381,39,420,391,430,559,0,0,0,29.94,1014.4,46,CLR,Fair,29-Dec-13,13
KBNA 29/Nov/2015 13,383,TEN2015,29-Nov-15,29-Nov-15,29-Nov-15,1:00,13,OAK,-1,TEN,45,P,45,2015,Week 12,58075,TEN,1,-1,LAR,21,24,Y,69143,0,16,57,0,Nashville,KBNA,KBNA4233713,KBNA,O,29-Nov-15,CST,36.124,-86.678,600,62,51,57,61,50,58,48,54,93,86,91,59,50,56,10,5,37,24,100,5,1273,254,1530,0,595,1.84,0,30.16,30,30.09,1021.2,1015.9,1018.8,18,RAIN,Light Rain,KBNA,O,CST,36.124,-86.678,600,60,60,57,90,58,60,3,100,3,OVC,10,200,40,240,400,440,571,99,0.04,0,30.04,1017.2,19,RAIN,Moderate Rain,29-Nov-15,13
KBNA 29/Sep/2013 16,384,TEN2013,29-Sep-13,29-Sep-13,29-Sep-13,4:05,16,TEN,-3.5,NYJ,51,O,40.5,2013,Week 4,69143,TEN,-3.5,3.5,TEN,38,13,Y,69143,0,14,74,0,Nashville,KBNA,KBNA4154616,KBNA,O,29-Sep-13,CST,36.124,-86.678,600,75,58,65,77,58,61,54,57,93,53,76,63,56,60,15,5,172,24,80,9.8,3056,504,3560,17,711,0.02,0,30.11,30.01,30.06,1019.8,1016.3,1017.8,45,CLR,Mostly Clear,KBNA,O,CST,36.124,-86.678,600,70,70,58,66,63,180,7,100,60,OVC,10,98,20,118,195,215,279,0,0,0,30.02,1016.5,45,CLR,Mostly Clear,29-Sep-13,16
KBNA 30/Dec/2018 20,385,TEN2018,30-Dec-18,30-Dec-18,30-Dec-18,8:25,20,IND,-5,TEN,50,O,42.5,2018,Week 17,68978,TEN,5,-5,IND,17,33,Y,69143,0,19,62,0,Nashville,KBNA,KBNA4346420,KBNA,O,30-Dec-18,CST,36.117,-86.683,689,60,37,48,60,30,49,29,36,89,42,66,49,34,42,8,4,134,47,96,9.4,1617,237,1854,45,585,0.21,0,30.25,30.03,30.14,1024.7,1016.7,1020.8,40,MC,Overcast,KBNA,O,CST,36.117,-86.683,689,52,50,44,75,48,150,6,100,170,OVC,10,0,0,0,0,0,0,0,0,0,30.08,1018.8,40,MC,Overcast,30-Dec-18,20
KBNA 30/Sep/2018 13,386,TEN2018,30-Sep-18,30-Sep-18,30-Sep-18,1:00,13,PHI,-3,TEN,49,O,41.5,2018,Week 4,69013,TEN,3,-3,PHI,26,23,N,69143,0,19,43,0,Nashville,KBNA,KBNA4337313,KBNA,O,30-Sep-18,CST,36.117,-86.683,689,88,59,73,90,60,66,57,62,90,46,72,72,58,66,8,2,133,47,20,9.7,4322,500,4822,514,710,0,0,30.26,30.16,30.21,1024.1,1020.9,1022.4,45,CLR,Mostly Clear,KBNA,O,CST,36.117,-86.683,689,85,87,63,48,71,190,3,100,250,BKN,10,299,68,367,680,748,971,0,0,0,30.2,1022,42,MC,Mostly Cloudy,30-Sep-18,13
KBNA 31/Dec/2017 16,387,TEN2017,31-Dec-17,31-Dec-17,31-Dec-17,4:25,16,TEN,-2.5,JAX,25,U,40.5,2017,Week 17,65501,TEN,-2.5,2.5,JAX,15,10,Y,69143,0,18,41,0,Nashville,KBNA,KBNA4310016,KBNA,O,31-Dec-17,CST,36.124,-86.678,600,26,13,18,25,0,6,0,3,65,36,53,19,12,15,18,12,356,23,49,10,1935,238,2173,294,585,0,0,30.58,30.31,30.43,1036.5,1027,1031.2,45,CLR,Mostly Clear,KBNA,O,CST,36.124,-86.678,600,22,10,0,38,17,330,12,25,230,SCT,10,32,4,36,35,39,51,0,0,0,30.43,1031.1,54,CLR,Few High Clouds,31-Dec-17,16
KBOS 01/Oct/2017 13,388,NEP2017,1-Oct-17,1-Oct-17,1-Oct-17,1:00,13,NE,-9.5,CAR,63,O,48,2017,Week 4,65878,NE,-9.5,9.5,CAR,30,33,N,65878,0,15,42,0,Boston,KBOS,KBOS4300913,KBOS,O,1-Oct-17,EST,42.363,-71.006,20,66,47,57,66,44,45,38,42,86,36,61,53,46,49,12,8,303,12,1,10,4228,425,4653,695,705,0,0,30.36,30.23,30.3,1028.1,1023.7,1025.9,46,CLR,Fair,KBOS,O,EST,42.363,-71.006,20,61,60,43,52,52,140,7,0,201,CLR,10,585,58,643,585,643,835,0,0,0,30.29,1025.7,46,CLR,Fair,1-Oct-17,13
KBOS 02/Dec/2018 16,389,NEP2018,2-Dec-18,2-Dec-18,2-Dec-18,4:25,16,NE,-6,MIN,34,U,50,2018,Week 13,65878,NE,-6,6,MIN,24,10,Y,65878,0,16,87,0,Boston,KBOS,KBOS4343616,KBOS,O,2-Dec-18,EST,42.367,-71.017,20,51,41,47,51,36,49,36,44,93,79,90,50,38,45,17,9,99,24,100,3.6,875,175,1049,0,557,0.75,0,30.16,29.58,29.83,1021.3,1000.8,1010,18,RAIN,Light Rain,KBOS,O,EST,42.367,-71.017,20,50,47,48,93,49,300,7,100,6,OVC,1.5,0,0,0,0,0,0,99,0.03,0,29.63,1003.2,64,HAZY,Mist,2-Dec-18,16
KBOS 02/Nov/2014 16,390,NEP2014,2-Nov-14,2-Nov-14,2-Nov-14,4:25,16,DEN,-3,NE,64,O,53,2014,Week 9,68756,NE,3,-3,IND,43,21,Y,68756,0,12,41,0,Boston,KBOS,KBOS4194516,KBOS,O,2-Nov-14,EST,42.363,-71.006,20,42,34,39,42,22,35,15,28,92,35,69,38,32,35,24,21,328,38,82,8.1,1318,264,1584,10,616,0.31,0,29.82,29.62,29.7,1009.7,1002.9,1005.7,18,RAIN,Light Rain,KBOS,O,EST,42.363,-71.006,20,41,32,24,51,35,310,21,100,49,OVC,10,10,2,12,19,21,27,0,0,0,29.65,1004.2,40,MC,Overcast,2-Nov-14,16
KBOS 02/Oct/2016 13,391,NEP2016,2-Oct-16,2-Oct-16,2-Oct-16,1:00,13,NE,-3.5,BUF,16,U,41,2016,Week 4,66829,NE,-3.5,3.5,MIN,0,16,Y,65878,0,14,56,0,Boston,KBOS,KBOS4264513,KBOS,O,2-Oct-16,EST,42.363,-71.006,20,57,53,55,57,50,54,53,54,100,87,95,55,53,54,15,8,302,24,100,7.4,2074,415,2489,0,700,0.03,0,30.16,30.01,30.1,1021.4,1016.2,1019.1,40,MC,Overcast,KBOS,O,EST,42.363,-71.006,20,57,56,54,90,55,300,6,100,10,OVC,10,286,57,343,572,629,817,0,0,0,30.09,1019.1,40,MC,Overcast,2-Oct-16,13
KBOS 03/Nov/2013 16,392,NEP2013,3-Nov-13,3-Nov-13,3-Nov-13,4:25,16,NE,-6,PIT,86,O,42.5,2013,Week 9,68756,NE,-6,6,DET,55,31,Y,68756,0,11,44,0,Boston,KBOS,KBOS4158116,KBOS,O,3-Nov-13,EST,42.363,-71.006,20,53,34,43,53,27,44,14,29,85,35,63,49,29,38,15,11,335,24,63,9.1,1371,261,1634,122,614,0.03,0,30.42,29.78,30.12,1030.1,1008.4,1019.9,45,CLR,Mostly Clear,KBOS,O,EST,42.363,-71.006,20,45,41,26,48,37,350,8,25,39,SCT,10,15,2,17,17,19,25,0,0,0,30.19,1022.3,45,CLR,Mostly Clear,3-Nov-13,16
KBOS 04/Dec/2016 13,393,NEP2016,4-Dec-16,4-Dec-16,4-Dec-16,1:00,13,NE,-13.5,LAR,36,U,45,2016,Week 13,66829,NE,-13.5,13.5,PHI,26,10,Y,65878,0,14,37,0,Boston,KBOS,KBOS4270813,KBOS,O,4-Dec-16,EST,42.363,-71.006,20,42,31,36,41,24,22,19,20,64,43,53,33,28,31,16,10,318,24,17,10,1599,171,1770,450,555,0,0,30.22,30.08,30.16,1023.3,1018.6,1021.4,45,CLR,Mostly Clear,KBOS,O,EST,42.363,-71.006,20,40,34,20,45,33,310,10,0,201,CLR,10,282,28,310,282,310,402,0,0,0,30.15,1021.1,46,CLR,Fair,4-Dec-16,13
KBOS 04/Nov/2018 20,394,NEP2018,4-Nov-18,4-Nov-18,4-Nov-18,8:20,20,NE,-5,GB,48,U,56.5,2018,Week 9,65878,NE,-5,5,GB,31,17,Y,65878,0,16,27,0,Boston,KBOS,KBOS4340820,KBOS,O,4-Nov-18,EST,42.367,-71.017,20,56,42,47,54,37,35,26,30,65,34,50,43,37,40,15,10,309,25,44,10,2267,255,2522,330,611,0,0,30.57,30.25,30.46,1035.1,1024.4,1031.4,52,PC,High Clouds,KBOS,O,EST,42.367,-71.017,20,45,40,32,61,40,10,9,70,250,BKN,10,0,0,0,0,0,0,0,0,0,30.55,1034.3,52,PC,High Clouds,4-Nov-18,20
KBOS 04/Oct/2018 20,395,NEP2018,4-Oct-18,4-Oct-18,4-Oct-18,8:20,20,NE,-11,IND,62,O,50,2018,Week 5,65878,NE,-11,11,IND,38,24,Y,65878,0,16,50,0,Boston,KBOS,KBOS4337720,KBOS,O,4-Oct-18,EST,42.367,-71.017,20,73,59,67,77,59,65,55,61,90,69,81,67,57,63,17,11,214,24,90,9.9,1478,409,1887,0,694,0,0,30.07,29.89,29.98,1018.1,1012.2,1015,40,MC,Overcast,KBOS,O,EST,42.367,-71.017,20,70,70,65,84,67,230,12,95,130,BKN,10,0,0,0,0,0,0,0,0,0,29.92,1013.2,42,MC,Mostly Cloudy,4-Oct-18,20
KBOS 05/Oct/2014 20,396,NEP2014,5-Oct-14,5-Oct-14,5-Oct-14,8:30,20,CIN,-2.5,NE,60,O,46.5,2014,Week 5,68756,NE,2.5,-2.5,ATL,43,17,Y,68756,0,12,35,0,Boston,KBOS,KBOS4191720,KBOS,O,5-Oct-14,EST,42.363,-71.006,20,61,49,54,61,43,55,33,40,93,38,63,60,45,48,17,12,262,24,18,10,3738,404,4142,583,692,0,0,29.97,29.56,29.76,1014.8,1001,1007.8,45,CLR,Mostly Clear,KBOS,O,EST,42.363,-71.006,20,53,51,37,55,46,230,8,5,200,FEW,10,0,0,0,0,0,0,0,0,0,29.9,1012.5,45,CLR,Mostly Clear,5-Oct-14,20
KBOS 06/Dec/2015 16,397,NEP2015,6-Dec-15,6-Dec-15,6-Dec-15,4:25,16,NE,-9.5,PHI,63,O,49,2015,Week 13,66829,NE,-9.5,9.5,LAR,28,35,N,65878,0,13,44,0,Boston,KBOS,KBOS4234416,KBOS,O,6-Dec-15,EST,42.363,-71.006,20,59,36,45,58,28,35,28,32,86,32,65,46,34,40,13,8,223,24,23,9.6,1650,170,1820,498,552,0,0,30.56,30.2,30.37,1035,1022.7,1028.5,46,CLR,Fair,KBOS,O,EST,42.363,-71.006,20,56,54,28,34,44,230,9,25,220,SCT,10,0,0,0,0,0,0,0,0,0,30.29,1025.7,45,CLR,Mostly Clear,6-Dec-15,16
KBOS 07/Sep/2017 20,398,NEP2017,7-Sep-17,7-Sep-17,7-Sep-17,8:30,20,NE,-9,KC,69,O,42,2017,Week 1,65878,NE,-9,9,KC,27,42,Y,65878,0,15,71,0,Boston,KBOS,KBOS4298520,KBOS,O,7-Sep-17,EST,42.363,-71.006,20,76,60,66,77,59,61,52,56,97,45,74,64,57,61,16,11,259,32,84,9.3,1834,566,2400,93,771,0.66,0,29.95,29.72,29.82,1014.1,1006.3,1009.8,42,MC,Mostly Cloudy,KBOS,O,EST,42.363,-71.006,20,64,63,53,68,58,300,13,95,110,BKN,10,0,0,0,0,0,0,0,0,0,29.91,1012.9,42,MC,Mostly Cloudy,7-Sep-17,20
KBOS 08/Dec/2013 13,399,NEP2013,8-Dec-13,8-Dec-13,8-Dec-13,1:00,13,NE,-10,CLE,53,O,47.5,2013,Week 14,68756,NE,-10,10,NYG,27,26,N,68756,0,11,31,0,Boston,KBOS,KBOS4161613,KBOS,O,8-Dec-13,EST,42.363,-71.006,20,32,27,30,31,18,16,11,13,54,43,49,26,23,25,13,7,323,24,74,10,1129,166,1295,38,550,0,0,30.59,30.45,30.54,1035.4,1031.3,1034,45,CLR,Mostly Clear,KBOS,O,EST,42.363,-71.006,20,31,23,11,43,25,320,9,100,120,OVC,10,181,28,209,278,306,397,0,0,0,30.55,1034.4,45,CLR,Mostly Clear,8-Dec-13,13
KBOS 08/Dec/2019 13,400,NEP2019,8-Dec-19,8-Dec-19,8-Dec-19,1:00,13,NE,-3,KC,39,O,40,2019,Week 14,65878,NE,-3,3,KC,16,23,Y,65878,0,17,31,0,Boston,KBOS,KBOS4380713,KBOS,O,8-Dec-19,EST,42.367,-71.017,20,41,23,32,39,16,30,10,17,70,33,55,35,21,26,15,10,221,27,47,10,1472,167,1639,353,551,0,0,30.54,30.31,30.46,1034.4,1026.5,1031.4,46,CLR,Fair,KBOS,O,EST,42.367,-71.017,20,36,28,10,34,28,200,12,75,250,FEW,10,213,28,241,279,307,398,0,0,0,30.46,1031.5,52,PC,High Clouds,8-Dec-19,13
KBOS 08/Nov/2015 13,401,NEP2015,8-Nov-15,8-Nov-15,8-Nov-15,1:00,13,NE,-13.5,WAS,37,U,51.5,2015,Week 9,66829,NE,-13.5,13.5,NO,27,10,Y,65878,0,13,54,0,Boston,KBOS,KBOS4231613,KBOS,O,8-Nov-15,EST,42.363,-71.006,20,56,44,50,56,38,34,24,30,63,30,47,44,40,42,16,12,283,24,2,10,2341,240,2581,575,601,0,0,30.38,30.03,30.25,1028.7,1017.1,1024.5,46,CLR,Fair,KBOS,O,EST,42.363,-71.006,20,55,51,26,33,43,270,14,5,60,FEW,10,355,36,391,364,400,520,0,0,0,30.26,1024.8,45,CLR,Mostly Clear,8-Nov-15,13
KBOS 08/Sep/2019 20,402,NEP2019,8-Sep-19,8-Sep-19,8-Sep-19,8:20,20,NE,-5.5,PIT,36,U,49,2019,Week 1,65878,NE,-5.5,5.5,PIT,33,3,Y,65878,0,17,34,0,Boston,KBOS,KBOS4371620,KBOS,O,8-Sep-19,EST,42.367,-71.017,20,78,61,69,78,61,52,45,50,70,36,53,62,56,58,14,10,297,24,58,10,4279,560,4839,276,768,0,0,30.18,29.82,30,1022,1009.7,1015.8,45,CLR,Mostly Clear,KBOS,O,EST,42.367,-71.017,20,70,70,50,49,59,360,13,100,250,OVC,10,0,0,0,0,0,0,0,0,0,30.12,1019.7,50,PC,High Overcast,8-Sep-19,20
KBOS 09/Sep/2018 13,403,NEP2018,9-Sep-18,9-Sep-18,9-Sep-18,1:00,13,NE,-6,HOU,47,U,50,2018,Week 1,65878,NE,-6,6,HOU,27,20,Y,65878,0,16,83,0,Boston,KBOS,KBOS4335213,KBOS,O,9-Sep-18,EST,42.367,-71.017,20,65,57,61,65,55,48,40,45,67,46,56,54,51,53,20,14,40,34,95,10,2887,555,3442,51,765,0,0,30.33,30.21,30.29,1027,1022.9,1025.5,50,PC,High Overcast,KBOS,O,EST,42.367,-71.017,20,65,64,45,49,54,60,12,100,220,BKN,10,320,72,392,718,790,1026,0,0,0,30.31,1026.4,42,MC,Mostly Cloudy,9-Sep-18,13
KBOS 10/Oct/2019 13,404,NEP2019,10-Oct-19,10-Oct-19,10-Oct-19,1:00,13,NE,-11,NYG,49,P,49,2019,Week 6,65878,NE,-11,11,NYG,35,14,Y,65878,0,17,58,0,Boston,KBOS,KBOS4374813,KBOS,O,10-Oct-19,EST,42.367,-71.017,20,59,53,56,59,49,48,40,44,77,51,65,52,49,50,25,21,24,39,94,10,1823,378,2202,0,677,0.02,0,30.29,30.21,30.25,1025.7,1022.9,1024.4,18,RAIN,Light Rain,KBOS,O,EST,42.367,-71.017,20,56,51,43,62,49,20,24,100,110,OVC,10,277,53,330,527,580,753,0,0,0,30.25,1024.2,40,MC,Overcast,10-Oct-19,13
KBOS 10/Sep/2015 20,405,NEP2015,10-Sep-15,10-Sep-15,10-Sep-15,8:30,20,NE,-7,PIT,49,U,51,2015,Week 1,66829,NE,-7,7,LAC,28,21,N,65878,0,13,64,0,Boston,KBOS,KBOS4225720,KBOS,O,10-Sep-15,EST,42.363,-71.006,20,77,64,70,81,64,71,61,65,93,71,83,73,63,67,18,11,279,47,81,9.4,2397,546,2944,33,763,0.17,0,29.9,29.75,29.85,1012.6,1007,1010.5,45,CLR,Mostly Clear,KBOS,O,EST,42.363,-71.006,20,65,64,61,87,63,300,13,100,13,OVC,10,0,0,0,0,0,0,99,0.01,0,29.84,1010.6,18,RAIN,Light Rain,10-Sep-15,20
KBOS 12/Dec/2016 20,406,NEP2016,12-Dec-16,12-Dec-16,12-Dec-16,8:30,20,NE,-6,BAL,53,O,45.5,2016,Week 14,66829,NE,-6,6,HOU,30,23,Y,65878,0,14,33,0,Boston,KBOS,KBOS4271620,KBOS,O,12-Dec-16,EST,42.363,-71.006,20,44,29,38,44,22,40,28,35,100,76,91,42,28,37,17,11,217,24,67,7.9,765,162,927,44,548,0.42,0.7,30.29,29.72,29.88,1025.7,1006.4,1011.8,45,CLR,Mostly Clear,KBOS,O,EST,42.363,-71.006,20,37,28,35,93,36,220,14,20,60,SCT,10,0,0,0,0,0,0,0,0,0,29.8,1010.5,46,CLR,Fair,12-Dec-16,20
KBOS 12/Sep/2013 20,407,NEP2013,12-Sep-13,12-Sep-13,12-Sep-13,8:25,20,NE,-11,NYJ,23,U,43,2013,Week 2,68756,NE,-11,11,GB,13,10,N,68756,0,11,72,0,Boston,KBOS,KBOS4152920,KBOS,O,12-Sep-13,EST,42.363,-71.006,20,88,67,76,92,68,71,66,68,93,59,78,76,67,71,20,11,198,28,74,8.6,4060,536,4596,185,757,0.57,0,29.93,29.67,29.8,1013.5,1004.6,1009.3,45,CLR,Mostly Clear,KBOS,O,EST,42.363,-71.006,20,74,78,68,82,70,200,13,100,16,OVC,10,0,0,0,0,0,0,0,0,0,29.7,1005.9,45,CLR,Mostly Clear,12-Sep-13,20
KBOS 13/Nov/2016 20,408,NEP2016,13-Nov-16,13-Nov-16,13-Nov-16,8:30,20,NE,-7.5,SEA,55,O,49.5,2016,Week 10,66829,NE,-7.5,7.5,CIN,24,31,N,65878,0,14,45,0,Boston,KBOS,KBOS4268720,KBOS,O,13-Nov-16,EST,42.363,-71.006,20,60,41,51,60,33,32,23,28,53,32,42,47,35,41,14,10,254,24,41,10,1961,219,2180,391,590,0,0,30.03,29.93,29.97,1016.8,1013.5,1015,46,CLR,Fair,KBOS,O,EST,42.363,-71.006,20,53,51,30,41,43,230,8,0,201,CLR,10,0,0,0,0,0,0,0,0,0,29.96,1014.5,46,CLR,Fair,13-Nov-16,20
KBOS 13/Oct/2013 16,409,NEP2013,13-Oct-13,13-Oct-13,13-Oct-13,4:25,16,NE,-2,NO,57,O,51,2013,Week 6,68756,NE,-2,2,MIN,30,27,Y,68756,0,11,59,0,Boston,KBOS,KBOS4156016,KBOS,O,13-Oct-13,EST,42.363,-71.006,20,61,49,54,60,46,47,42,45,86,58,71,53,47,50,15,8,81,24,26,10,2612,361,2973,419,669,0,0,30.45,30.37,30.41,1031.1,1028.6,1029.8,45,CLR,Mostly Clear,KBOS,O,EST,42.363,-71.006,20,57,54,44,62,51,100,12,20,32,SCT,10,75,8,83,83,91,119,0,0,0,30.4,1029.6,44,PC,Partly Cloudy,13-Oct-13,16
KBOS 14/Dec/2014 13,410,NEP2014,14-Dec-14,14-Dec-14,14-Dec-14,1:00,13,NE,-9,MIA,54,O,48,2014,Week 15,68756,NE,-9,9,TB,41,13,Y,68756,0,12,43,0,Boston,KBOS,KBOS4198713,KBOS,O,14-Dec-14,EST,42.363,-71.006,20,45,33,37,44,25,29,25,27,79,53,67,38,30,33,13,10,305,24,42,10,1140,161,1300,283,546,0,0,29.91,29.78,29.83,1012.9,1008.5,1010.2,46,CLR,Fair,KBOS,O,EST,42.363,-71.006,20,43,38,29,58,37,290,9,25,35,SCT,10,240,27,267,274,301,392,0,0,0,29.8,1009.1,45,CLR,Mostly Clear,14-Dec-14,13
KBOS 14/Oct/2018 20,411,NEP2018,14-Oct-18,14-Oct-18,14-Oct-18,8:20,20,NE,-4,KC,83,O,59.5,2018,Week 6,65878,NE,-4,4,KC,43,40,N,65878,0,16,32,0,Boston,KBOS,KBOS4338720,KBOS,O,14-Oct-18,EST,42.367,-71.017,20,59,45,52,59,40,42,35,39,77,46,62,49,42,46,16,10,256,22,37,10,2558,354,2912,195,667,0,0,30.22,30.06,30.17,1023.3,1018,1021.7,46,CLR,Fair,KBOS,O,EST,42.367,-71.017,20,53,51,41,64,47,230,8,0,376,CLR,10,0,0,0,0,0,0,0,0,0,30.21,1023,46,CLR,Fair,14-Oct-18,20
KBOS 16/Oct/2014 20,412,NEP2014,16-Oct-14,16-Oct-14,16-Oct-14,8:25,20,NE,-9.5,NYJ,52,O,44.5,2014,Week 7,68756,NE,-9.5,9.5,MIN,27,25,N,68756,0,12,63,0,Boston,KBOS,KBOS4192820,KBOS,O,16-Oct-14,EST,42.363,-71.006,20,70,60,65,69,61,68,60,64,100,90,95,68,61,65,16,10,144,26,99,8.4,1522,344,1865,3,661,0.63,0,29.95,29.66,29.81,1014.3,1004.3,1009.6,18,RAIN,Light Rain,KBOS,O,EST,42.363,-71.006,20,63,61,62,97,62,190,14,100,7,OVC,8,0,0,0,0,0,0,99,0.06,0,29.73,1006.9,17,RAIN,Heavy Rain,16-Oct-14,20
KBOS 16/Oct/2016 13,413,NEP2016,16-Oct-16,16-Oct-16,16-Oct-16,1:00,13,NE,-7.5,CIN,52,O,48.5,2016,Week 6,66829,NE,-7.5,7.5,IND,35,17,Y,65878,0,14,66,0,Boston,KBOS,KBOS4265913,KBOS,O,16-Oct-16,EST,42.363,-71.006,20,71,46,60,71,43,56,44,51,97,51,74,61,46,54,21,13,224,28,69,10,2677,338,3015,139,661,0,0,30.28,29.89,30.07,1025.5,1012.3,1018.2,45,CLR,Mostly Clear,KBOS,O,EST,42.363,-71.006,20,69,69,51,53,59,230,16,95,70,BKN,10,336,48,384,484,532,692,0,0,0,30.02,1016.7,45,CLR,Mostly Clear,16-Oct-16,13
KBOS 18/Sep/2016 13,414,NEP2016,18-Sep-16,18-Sep-16,18-Sep-16,1:00,13,NE,-5.5,MIA,55,O,42,2016,Week 2,66829,NE,-5.5,5.5,MIN,31,24,Y,65878,0,14,78,0,Boston,KBOS,KBOS4263113,KBOS,O,18-Sep-16,EST,42.363,-71.006,20,82,66,75,84,65,70,64,67,93,64,79,72,65,70,23,13,216,28,99,10,1777,497,2275,5,739,0,0,30.06,30,30.03,1017.9,1015.8,1016.9,40,MC,Overcast,KBOS,O,EST,42.363,-71.006,20,80,83,68,67,72,220,14,100,130,OVC,10,132,66,198,660,726,943,0,0,0,30,1015.9,40,MC,Overcast,18-Sep-16,13
KBOS 20/Dec/2015 13,415,NEP2015,20-Dec-15,20-Dec-15,20-Dec-15,1:00,13,NE,-14.5,TEN,49,O,48,2015,Week 15,66829,NE,-14.5,14.5,OAK,33,16,Y,65878,0,13,39,0,Boston,KBOS,KBOS4235813,KBOS,O,20-Dec-15,EST,42.363,-71.006,20,41,31,36,41,21,23,14,18,64,39,49,33,26,30,17,10,248,24,28,10,1488,160,1649,355,544,0,0,30.47,30.12,30.36,1031.8,1020.1,1028,45,CLR,Mostly Clear,KBOS,O,EST,42.363,-71.006,20,40,35,17,40,32,290,8,5,50,FEW,10,267,27,294,274,301,392,0,0,0,30.4,1029.4,45,CLR,Mostly Clear,20-Dec-15,13
KBOS 21/Dec/2019 13,416,NEP2019,21-Dec-19,21-Dec-19,21-Dec-19,1:00,13,NE,-13,BUF,41,O,41,2019,Week 16,65878,NE,-13,13,BUF,24,17,N,65878,0,17,72,0,Boston,KBOS,KBOS4382013,KBOS,O,21-Dec-19,EST,42.367,-71.017,20,35,22,29,34,13,27,10,18,75,48,61,31,20,25,10,5,275,24,31,10,977,159,1136,467,545,0,0,30.64,30.42,30.56,1037.8,1030,1034.8,45,CLR,Mostly Clear,KBOS,O,EST,42.367,-71.017,20,34,34,19,56,29,0,0,70,13,FEW,10,83,27,110,275,302,393,0,0,0,30.56,1034.8,42,MC,Mostly Cloudy,21-Dec-19,13
KBOS 21/Sep/2014 13,417,NEP2014,21-Sep-14,21-Sep-14,21-Sep-14,1:00,13,NE,-14,OAK,25,U,47,2014,Week 3,68756,NE,-14,14,NE,16,9,N,68756,0,12,78,0,Boston,KBOS,KBOS4190313,KBOS,O,21-Sep-14,EST,42.363,-71.006,20,82,63,70,84,62,68,57,65,93,61,82,71,60,66,16,7,168,24,88,9.8,2035,486,2521,2,731,0.01,0,30.06,29.54,29.79,1017.9,1000.2,1008.7,42,MC,Mostly Cloudy,KBOS,O,EST,42.363,-71.006,20,79,82,67,67,71,160,13,100,35,OVC,10,343,65,408,647,712,925,0,0,0,29.76,1007.9,44,PC,Partly Cloudy,21-Sep-14,13
KBOS 22/Oct/2017 20,418,NEP2017,22-Oct-17,22-Oct-17,22-Oct-17,8:30,20,NE,-3,ATL,30,U,57,2017,Week 7,65878,NE,-3,3,NYG,23,7,Y,65878,0,15,32,0,Boston,KBOS,KBOS4303020,KBOS,O,22-Oct-17,EST,42.363,-71.006,20,66,54,59,66,54,57,45,52,97,52,77,60,51,55,12,5,68,12,68,9.7,2872,315,3187,418,644,0,0,30.42,30.33,30.39,1030.1,1026.8,1029,54,CLR,Few High Clouds,KBOS,O,EST,42.363,-71.006,20,56,55,54,93,55,60,5,100,5,OVC,10,0,0,0,0,0,0,0,0,0,30.42,1029.9,40,MC,Overcast,22-Oct-17,20
KBOS 22/Sep/2013 13,419,NEP2013,22-Sep-13,22-Sep-13,22-Sep-13,1:00,13,NE,-7,TB,26,U,44.5,2013,Week 3,68756,NE,-7,7,TEN,23,3,Y,68756,0,11,72,0,Boston,KBOS,KBOS4153913,KBOS,O,22-Sep-13,EST,42.363,-71.006,20,73,55,66,72,53,65,41,53,90,42,68,67,49,60,17,13,271,26,57,9.8,3333,478,3811,294,728,0.37,0,29.83,29.62,29.7,1010.2,1002.9,1005.8,45,CLR,Mostly Clear,KBOS,O,EST,42.363,-71.006,20,71,71,52,51,60,280,16,5,40,FEW,10,625,64,689,641,705,916,0,0,0,29.66,1004.3,45,CLR,Mostly Clear,22-Sep-13,13
KBOS 22/Sep/2016 20,420,NEP2016,22-Sep-16,22-Sep-16,22-Sep-16,8:25,20,NE,-1,HOU,27,U,38.5,2016,Week 3,66829,NE,-1,1,SF,27,0,Y,65878,0,14,68,0,Boston,KBOS,KBOS4263520,KBOS,O,22-Sep-16,EST,42.363,-71.006,20,79,61,70,79,63,61,51,56,78,42,62,65,59,62,13,7,141,24,8,10,4637,473,5110,681,728,0,0,30.19,30.07,30.13,1022.3,1018,1020.4,45,CLR,Mostly Clear,KBOS,O,EST,42.363,-71.006,20,72,72,58,61,64,200,12,25,250,SCT,10,0,0,0,0,0,0,0,0,0,30.09,1018.8,54,CLR,Few High Clouds,22-Sep-16,20
KBOS 22/Sep/2019 13,421,NEP2019,22-Sep-19,22-Sep-19,22-Sep-19,1:00,13,NE,-21,NYJ,44,O,43,2019,Week 3,65878,NE,-21,21,NYJ,30,14,N,65878,0,17,44,0,Boston,KBOS,KBOS4373013,KBOS,O,22-Sep-19,EST,42.367,-71.017,20,89,62,75,88,63,63,54,58,78,31,56,68,58,64,16,11,221,24,40,10,4421,478,4899,442,728,0,0,30.17,29.94,30.06,1021.5,1013.7,1018,52,PC,High Clouds,KBOS,O,EST,42.367,-71.017,20,88,88,55,33,68,220,14,5,250,FEW,10,631,64,695,641,705,916,0,0,0,30.05,1017.5,45,CLR,Mostly Clear,22-Sep-19,13
KBOS 23/Dec/2018 13,422,NEP2018,23-Dec-18,23-Dec-18,23-Dec-18,1:00,13,NE,-13.5,BUF,36,U,45,2018,Week 16,65878,NE,-13.5,13.5,BUF,24,12,N,65878,0,16,69,0,Boston,KBOS,KBOS4345713,KBOS,O,23-Dec-18,EST,42.367,-71.017,20,43,33,36,41,24,21,13,18,57,32,48,32,29,30,17,12,282,30,25,10,1538,158,1696,500,545,0,0,30.1,29.85,30.03,1019.3,1010.7,1017,45,CLR,Mostly Clear,KBOS,O,EST,42.367,-71.017,20,40,31,14,35,31,280,16,5,30,FEW,10,269,28,297,276,304,395,0,0,0,30.03,1017,45,CLR,Mostly Clear,23-Dec-18,13
KBOS 23/Nov/2014 13,423,NEP2014,23-Nov-14,23-Nov-14,23-Nov-14,1:00,13,NE,-7,DET,43,U,47.5,2014,Week 12,68756,NE,-7,7,PIT,34,9,Y,68756,0,12,61,0,Boston,KBOS,KBOS4196613,KBOS,O,23-Nov-14,EST,42.363,-71.006,20,59,42,49,59,34,38,22,32,76,43,53,49,35,41,16,10,226,24,63,10,1549,194,1743,235,571,0,0,30.14,30.06,30.11,1020.7,1018,1019.5,44,PC,Partly Cloudy,KBOS,O,EST,42.363,-71.006,20,58,55,38,48,48,270,12,70,75,BKN,10,200,31,231,308,339,440,0,0,0,30.1,1019.4,42,MC,Mostly Cloudy,23-Nov-14,13
KBOS 23/Nov/2015 20,424,NEP2015,23-Nov-15,23-Nov-15,23-Nov-15,8:30,20,NE,-7,BUF,33,U,47.5,2015,Week 11,66829,NE,-7,7,LAC,20,13,N,65878,0,13,28,0,Boston,KBOS,KBOS4233120,KBOS,O,23-Nov-15,EST,42.363,-71.006,20,42,30,37,41,22,35,5,18,86,28,50,37,25,31,17,13,314,31,31,10,1885,194,2079,532,571,0.04,0,30.14,29.8,29.94,1020.8,1009.1,1013.8,45,CLR,Mostly Clear,KBOS,O,EST,42.363,-71.006,20,33,24,7,33,26,290,13,5,218,CLR,10,0,0,0,0,0,0,0,0,0,30.09,1018.8,46,CLR,Fair,23-Nov-15,20
KBOS 24/Dec/2016 13,425,NEP2016,24-Dec-16,24-Dec-16,24-Dec-16,1:00,13,NE,-17,NYJ,44,U,45,2016,Week 16,66829,NE,-17,17,NYJ,41,3,Y,65878,0,14,40,0,Boston,KBOS,KBOS4272813,KBOS,O,24-Dec-16,EST,42.363,-71.006,20,45,35,41,44,29,42,25,34,96,57,78,43,33,38,16,12,231,24,66,8.8,806,159,966,71,545,0.38,0,30.31,29.96,30.13,1026.5,1014.5,1020.4,18,RAIN,Light Rain,KBOS,O,EST,42.363,-71.006,20,42,35,41,96,42,240,14,100,28,OVC,3,138,28,166,277,305,396,99,0.14,0,30.01,1016.2,18,RAIN,Light Rain,24-Dec-16,13
KBOS 24/Dec/2017 13,426,NEP2017,24-Dec-17,24-Dec-17,24-Dec-17,1:00,13,NE,-11,BUF,53,O,47.5,2017,Week 16,65878,NE,-11,11,BUF,37,16,Y,65878,0,15,82,0,Boston,KBOS,KBOS4309313,KBOS,O,24-Dec-17,EST,42.363,-71.006,20,39,32,35,39,24,34,23,28,89,64,75,37,29,32,23,11,4,28,84,10,858,158,1016,11,545,0,0,30.25,29.88,30.13,1024.5,1011.7,1020.3,40,MC,Overcast,KBOS,O,EST,42.363,-71.006,20,34,26,24,67,30,360,10,100,220,OVC,10,119,28,147,277,305,395,0,0,0,30.21,1023,50,PC,High Overcast,24-Dec-17,13
KBOS 24/Nov/2013 20,427,NEP2013,24-Nov-13,24-Nov-13,24-Nov-13,8:30,20,DEN,-1,NE,65,O,54,2013,Week 12,68756,NE,1,-1,DAL,34,31,Y,68756,0,11,23,0,Boston,KBOS,KBOS4160220,KBOS,O,24-Nov-13,EST,42.363,-71.006,20,31,21,25,31,7,13,-8,1,55,21,36,25,16,20,29,22,295,44,8,10,1833,191,2024,522,569,0,0,30.18,29.79,29.95,1022.1,1008.8,1014.1,45,CLR,Mostly Clear,KBOS,O,EST,42.363,-71.006,20,24,9,-4,29,18,300,23,0,201,SCT,10,0,0,0,0,0,0,0,0,0,30.08,1018.7,46,CLR,Fair,24-Nov-13,20
KBOS 24/Nov/2019 13,428,NEP2019,24-Nov-19,24-Nov-19,24-Nov-19,1:00,13,NE,-6,DAL,22,O,40,2019,Week 12,65878,NE,-6,6,MIA,13,9,N,65878,0,17,68,0,Boston,KBOS,KBOS4379313,KBOS,O,24-Nov-19,EST,42.367,-71.017,20,48,40,43,48,32,43,27,37,87,53,78,46,35,40,31,16,354,43,100,6.5,953,191,1143,0,569,1.51,0,29.75,29.08,29.38,1007.4,984.6,994.8,18,RAIN,Light Rain,KBOS,O,EST,42.367,-71.017,20,48,39,43,83,46,20,31,100,16,OVC,2.5,152,30,182,305,335,436,99,0.21,0,29.18,988.1,19,RAIN,Moderate Rain,24-Nov-19,13
KBOS 24/Sep/2017 13,429,NEP2017,24-Sep-17,24-Sep-17,24-Sep-17,1:00,13,NE,-13.5,HOU,69,O,44.5,2017,Week 3,65878,NE,-13.5,13.5,HOU,36,33,N,65878,0,15,80,0,Boston,KBOS,KBOS4300213,KBOS,O,24-Sep-17,EST,42.363,-71.006,20,79,61,70,81,61,65,61,63,100,60,80,69,61,65,8,3,103,8,1,10,4663,467,5130,716,723,0,0,30.07,30.01,30.04,1018.1,1016.2,1017.1,46,CLR,Fair,KBOS,O,EST,42.363,-71.006,20,79,81,64,60,69,120,7,0,201,CLR,10,629,63,692,629,692,898,0,0,0,30.03,1017,46,CLR,Fair,24-Sep-17,13
KBOS 25/Oct/2015 13,430,NEP2015,25-Oct-15,25-Oct-15,25-Oct-15,1:00,13,NE,-7,NYJ,53,O,47.5,2015,Week 7,66829,NE,-7,7,GB,30,23,N,65878,0,13,58,0,Boston,KBOS,KBOS4230213,KBOS,O,25-Oct-15,EST,42.363,-71.006,20,63,48,55,62,45,54,33,46,90,57,76,57,43,51,16,12,246,33,78,9.9,1395,301,1697,6,637,0.03,0,30.21,29.98,30.07,1022.9,1015.1,1018.4,44,PC,Partly Cloudy,KBOS,O,EST,42.363,-71.006,20,60,58,54,80,57,230,15,100,18,OVC,10,218,44,262,436,480,623,0,0,0,29.98,1015.1,42,MC,Mostly Cloudy,25-Oct-15,13
KBOS 26/Nov/2017 13,431,NEP2017,26-Nov-17,26-Nov-17,26-Nov-17,1:00,13,NE,-16.5,MIA,52,O,49,2017,Week 12,65878,NE,-16.5,16.5,ATL,35,17,Y,65878,0,15,64,0,Boston,KBOS,KBOS4306513,KBOS,O,26-Nov-17,EST,42.363,-71.006,20,51,37,45,50,29,36,19,27,61,36,50,44,31,38,28,15,269,36,65,9.9,1714,186,1901,468,565,0,0,29.91,29.65,29.78,1012.8,1003.9,1008.5,40,MC,Overcast,KBOS,O,EST,42.363,-71.006,20,47,40,25,42,38,280,20,20,50,SCT,10,270,30,300,300,330,429,0,0,0,29.77,1008,44,PC,Partly Cloudy,26-Nov-17,13
KBOS 26/Oct/2014 13,432,NEP2014,26-Oct-14,26-Oct-14,26-Oct-14,1:00,13,NE,-6,CHI,74,O,52,2014,Week 8,68756,NE,-6,6,NO,51,23,Y,68756,0,12,57,0,Boston,KBOS,KBOS4193813,KBOS,O,26-Oct-14,EST,42.363,-71.006,20,59,47,54,57,43,45,36,40,68,49,60,51,43,47,18,13,271,29,58,10,1825,296,2121,155,634,0,0,29.71,29.44,29.53,1006.2,997.1,1000.1,45,CLR,Mostly Clear,KBOS,O,EST,42.363,-71.006,20,56,52,38,51,47,300,17,90,43,BKN,10,237,43,280,431,474,616,0,0,0,29.47,998,44,PC,Partly Cloudy,26-Oct-14,13
KBOS 27/Oct/2013 13,433,NEP2013,27-Oct-13,27-Oct-13,27-Oct-13,1:00,13,NE,-6.5,MIA,44,U,46,2013,Week 8,68756,NE,-6.5,6.5,NO,27,17,Y,68756,0,11,53,0,Boston,KBOS,KBOS4157413,KBOS,O,27-Oct-13,EST,42.363,-71.006,20,57,44,50,56,38,39,25,32,83,35,52,45,39,42,17,12,270,26,48,10,2426,290,2716,349,631,0.03,0,30.08,29.83,29.91,1018.6,1010.2,1013,18,RAIN,Light Rain,KBOS,O,EST,42.363,-71.006,20,55,51,31,40,44,300,16,70,49,BKN,10,276,42,318,425,467,607,0,0,0,29.86,1011.3,42,MC,Mostly Cloudy,27-Oct-13,13
KBOS 27/Oct/2019 13,434,NEP2019,27-Oct-19,27-Oct-19,27-Oct-19,1:00,13,NE,-8.5,CLE,40,O,39,2019,Week 8,65878,NE,-8.5,8.5,BUF,27,13,Y,65878,0,17,72,0,Boston,KBOS,KBOS4376513,KBOS,O,27-Oct-19,EST,42.367,-71.017,20,56,51,53,56,44,52,40,46,90,64,77,54,46,50,30,16,90,40,100,6.6,1452,290,1743,0,631,1.43,0,30.31,29.72,30.03,1026.2,1006.6,1016.8,19,RAIN,Moderate Rain,KBOS,O,EST,42.367,-71.017,20,51,44,44,77,48,100,23,100,42,OVC,4,212,42,254,425,467,607,99,0.13,0,30.04,1016.9,19,RAIN,Moderate Rain,27-Oct-19,13
KBOS 27/Sep/2015 13,435,NEP2015,27-Sep-15,27-Sep-15,27-Sep-15,1:00,13,NE,-14,JAX,68,O,49,2015,Week 3,66829,NE,-14,14,NYG,51,17,Y,65878,0,13,70,0,Boston,KBOS,KBOS4227413,KBOS,O,27-Sep-15,EST,42.363,-71.006,20,64,48,58,64,45,57,42,49,90,60,74,60,45,53,14,7,126,24,15,10,4358,452,4810,595,715,0,0,30.51,30.34,30.43,1033.2,1021.4,1030,45,CLR,Mostly Clear,KBOS,O,EST,42.363,-71.006,20,63,62,51,65,56,80,9,5,250,FEW,10,601,61,662,610,671,871,0,0,0,30.43,1030.4,45,CLR,Mostly Clear,27-Sep-15,13
KBOS 28/Dec/2014 13,436,NEP2014,28-Dec-14,28-Dec-14,28-Dec-14,1:00,13,NE,-4.5,BUF,26,U,43.5,2014,Week 17,68756,NE,-4.5,4.5,LAR,9,17,Y,68756,0,12,49,0,Boston,KBOS,KBOS4200113,KBOS,O,28-Dec-14,EST,42.363,-71.006,20,52,40,46,52,34,42,27,35,80,55,66,46,36,41,20,14,254,28,97,10,756,161,918,0,546,0.01,0,29.98,29.76,29.87,1015.4,1007.9,1011.4,45,CLR,Mostly Clear,KBOS,O,EST,42.363,-71.006,20,50,46,42,74,46,250,12,100,30,OVC,10,78,28,106,282,310,402,0,0,0,29.76,1007.9,45,CLR,Mostly Clear,28-Dec-14,13
KBOS 29/Dec/2013 16,437,NEP2013,29-Dec-13,29-Dec-13,29-Dec-13,4:25,16,NE,-7.5,BUF,54,O,46.5,2013,Week 17,68756,NE,-7.5,7.5,ATL,34,20,Y,68756,0,11,41,0,Boston,KBOS,KBOS4163716,KBOS,O,29-Dec-13,EST,42.363,-71.006,20,44,33,39,43,29,40,25,32,97,62,77,41,31,36,17,8,297,29,96,6.8,836,161,997,0,547,1.32,0,30.04,29.42,29.81,1017.4,996.3,1009.6,40,MC,Overcast,KBOS,O,EST,42.363,-71.006,20,39,34,37,93,38,100,7,100,48,OVC,2,1,0,1,2,2,3,99,0.09,0,29.76,1007.7,19,RAIN,Moderate Rain,29-Dec-13,16
KBOS 29/Oct/2015 20,438,NEP2015,29-Oct-15,29-Oct-15,29-Oct-15,8:25,20,NE,-8,MIA,43,U,51.5,2015,Week 8,66829,NE,-8,8,PIT,36,7,Y,65878,0,13,53,0,Boston,KBOS,KBOS4230620,KBOS,O,29-Oct-15,EST,42.363,-71.006,20,75,57,67,77,53,66,30,52,97,31,66,67,45,60,24,17,222,37,67,8.8,2021,282,2303,163,627,0.73,0,29.67,29.44,29.53,1004.6,996.9,1000.1,45,CLR,Mostly Clear,KBOS,O,EST,42.363,-71.006,20,62,59,31,31,48,260,22,75,130,BKN,10,0,0,0,0,0,0,0,0,0,29.55,1000.8,45,CLR,Mostly Clear,29-Oct-15,20
KBOS 29/Oct/2017 13,439,NEP2017,29-Oct-17,29-Oct-17,29-Oct-17,1:00,13,NE,-7,LAC,34,U,49,2017,Week 8,65878,NE,-7,7,DEN,21,13,Y,65878,0,15,86,0,Boston,KBOS,KBOS4303713,KBOS,O,29-Oct-17,EST,42.363,-71.006,20,61,56,59,61,54,61,55,57,100,84,94,61,56,58,39,17,113,52,100,8.5,1253,282,1537,0,627,1,0,29.97,29.26,29.76,1014.8,990.7,1007.7,40,MC,Overcast,KBOS,O,EST,42.363,-71.006,20,59,56,57,93,58,100,18,100,100,OVC,10,207,41,248,414,455,592,0,0,0,29.81,1009.3,18,RAIN,Light Rain,29-Oct-17,13
KBOS 30/Dec/2018 13,440,NEP2018,30-Dec-18,30-Dec-18,30-Dec-18,1:00,13,NE,-14,NYJ,41,U,47,2018,Week 17,65878,NE,-14,14,NYJ,38,3,Y,65878,0,16,57,0,Boston,KBOS,KBOS4346413,KBOS,O,30-Dec-18,EST,42.367,-71.017,20,34,26,30,34,17,23,10,16,72,44,56,28,22,26,12,6,344,47,52,10,1359,161,1520,347,548,0,0,30.3,30.15,30.22,1025.8,1020.8,1023.2,45,CLR,Mostly Clear,KBOS,O,EST,42.367,-71.017,20,32,32,16,52,27,90,3,5,28,FEW,10,278,28,306,285,313,407,0,0,0,30.18,1021.8,45,CLR,Mostly Clear,30-Dec-18,13
KBOS 30/Sep/2018 13,441,NEP2018,30-Sep-18,30-Sep-18,30-Sep-18,1:00,13,NE,-6.5,MIA,45,U,50.5,2018,Week 4,65878,NE,-6.5,6.5,MIA,38,7,Y,65878,0,16,66,0,Boston,KBOS,KBOS4337313,KBOS,O,30-Sep-18,EST,42.367,-71.017,20,70,54,62,69,51,50,41,45,72,36,54,55,49,53,13,7,278,47,43,10,3667,431,4098,361,705,0,0,30.35,30.26,30.3,1027.6,1024.6,1025.9,45,CLR,Mostly Clear,KBOS,O,EST,42.367,-71.017,20,69,69,42,38,55,280,8,30,250,SCT,10,526,59,585,591,650,844,0,0,0,30.3,1026,54,CLR,Few High Clouds,30-Sep-18,13
KBOS 31/Dec/2017 13,442,NEP2017,31-Dec-17,31-Dec-17,31-Dec-17,1:00,13,NE,-16,NYJ,32,U,43,2017,Week 17,65878,NE,-16,16,NYJ,26,6,Y,65878,0,15,43,0,Boston,KBOS,KBOS4310013,KBOS,O,31-Dec-17,EST,42.363,-71.006,20,13,4,10,13,-13,8,-9,-3,84,44,59,12,3,8,21,15,294,31,25,10,1415,162,1577,262,549,0,0,30.2,29.94,30.11,1022.5,1013.9,1019.5,46,CLR,Fair,KBOS,O,EST,42.363,-71.006,20,12,-6,-6,44,9,280,20,100,250,BKN,10,202,29,231,286,315,409,0,0,0,30.09,1018.8,52,PC,High Clouds,31-Dec-17,13
KBUF 01/Dec/2013 16,443,BUF2013,1-Dec-13,1-Dec-13,1-Dec-13,4:05,16,BUF,-4.5,ATL,65,O,48,2013,Week 13,38969,BUF,-4.5,4.5,DET,31,34,N,73079,0,40,72,1,Buffalo,KBUF,KBUF4160916,KBUF,O,1-Dec-13,EST,42.941,-78.732,728,40,32,36,39,25,30,23,27,79,64,71,35,29,32,12,7,186,24,100,10,849,169,1020,6,556,0,0,30.17,29.96,30.05,1021.8,1014.4,1017.6,42,MC,Mostly Cloudy,KBUF,O,EST,42.941,-78.732,728,38,33,29,70,34,180,6,100,35,OVC,10,12,2,14,24,26,34,0,0,0,29.99,1015.7,40,MC,Overcast,1-Dec-13,16
KBUF 03/Dec/2017 13,444,BUF2017,3-Dec-17,3-Dec-17,3-Dec-17,1:00,13,NE,-8,BUF,26,U,49,2017,Week 13,68499,BUF,8,-8,PHI,3,23,Y,71608,0,44,35,0,Buffalo,KBUF,KBUF4307213,KBUF,O,3-Dec-17,EST,42.941,-78.732,728,47,33,39,46,29,39,30,34,93,71,82,43,33,37,14,6,217,14,34,8.1,1371,167,1538,383,552,0,0,30.25,30.11,30.17,1025.2,1020.3,1022.3,45,CLR,Mostly Clear,KBUF,O,EST,42.941,-78.732,728,45,39,39,80,42,230,12,70,16,BKN,6,199,31,230,306,337,437,0,0,0,30.15,1021.6,35,HAZY,Haze,3-Dec-17,13
KBUF 03/Jan/2016 13,445,BUF2015,3-Jan-16,3-Jan-16,3-Jan-16,1:00,13,NYJ,-3,BUF,39,U,41,2015,Week 17,68670,BUF,3,-3,BUF,22,17,Y,71870,0,42,51,0,Buffalo,KBUF,KBUF4237213,KBUF,O,3-Jan-16,EST,42.941,-78.732,728,37,19,31,37,8,29,11,21,78,61,69,34,19,28,22,16,280,35,98,8.9,725,161,886,5,547,0,0,30.1,29.71,29.87,1019.3,1006.2,1011.6,9,SNOW,Light Snow,KBUF,O,EST,42.941,-78.732,728,34,24,26,73,31,260,16,100,23,OVC,10,154,31,184,307,338,438,0,0,0,29.8,1009.2,42,MC,Mostly Cloudy,3-Jan-16,13
KBUF 03/Nov/2013 13,446,BUF2013,3-Nov-13,3-Nov-13,3-Nov-13,1:00,13,KC,-5,BUF,36,U,41,2013,Week 9,68159,BUF,5,-5,JAX,13,23,Y,73079,0,40,38,0,Buffalo,KBUF,KBUF4158113,KBUF,O,3-Nov-13,EST,42.941,-78.732,728,39,28,34,38,26,30,20,23,82,48,66,34,26,30,8,6,24,24,41,10,2157,253,2410,426,611,0,0,30.55,30.07,30.35,1034.4,1018.4,1027.8,45,CLR,Mostly Clear,KBUF,O,EST,42.941,-78.732,728,38,32,21,51,32,100,8,20,38,SCT,10,374,42,416,415,457,593,0,0,0,30.37,1028.6,44,PC,Partly Cloudy,3-Nov-13,13
KBUF 03/Nov/2019 13,447,BUF2019,3-Nov-19,3-Nov-19,3-Nov-19,1:00,13,BUF,-3.5,WAS,33,O,46,2019,Week 9,67685,BUF,-3.5,3.5,WAS,24,9,Y,71608,0,46,54,0,Buffalo,KBUF,KBUF4377213,KBUF,O,3-Nov-19,EST,42.933,-78.733,692,41,33,36,40,26,34,23,28,100,53,73,35,30,33,22,12,257,31,81,10,1171,254,1425,89,611,0,0,30.19,29.99,30.09,1022.9,1016.3,1019.8,42,MC,Mostly Cloudy,KBUF,O,EST,42.933,-78.733,692,40,31,26,58,35,290,17,100,190,BKN,10,168,42,210,416,458,594,0,0,0,30.1,1020,42,MC,Mostly Cloudy,3-Nov-19,13
KBUF 04/Nov/2018 13,448,BUF2018,4-Nov-18,4-Nov-18,4-Nov-18,1:00,13,CHI,-10,BUF,50,O,38,2018,Week 9,68749,BUF,10,-10,CHI,9,41,Y,71608,0,45,72,0,Buffalo,KBUF,KBUF4340813,KBUF,O,4-Nov-18,EST,42.933,-78.733,692,49,30,41,49,29,35,29,33,92,57,73,42,30,37,14,8,86,34,75,10,1801,249,2050,75,609,0,0,30.51,30.2,30.38,1033.7,1023.1,1029.3,42,MC,Mostly Cloudy,KBUF,O,EST,42.933,-78.733,692,48,43,34,58,42,90,12,100,260,BKN,10,270,41,311,410,451,586,0,0,0,30.42,1030.7,42,MC,Mostly Cloudy,4-Nov-18,13
KBUF 04/Oct/2015 13,449,BUF2015,4-Oct-15,4-Oct-15,4-Oct-15,1:00,13,BUF,-6,NYG,34,U,46.5,2015,Week 4,70677,BUF,-6,6,CAR,10,24,Y,71870,0,42,60,0,Buffalo,KBUF,KBUF4228113,KBUF,O,4-Oct-15,EST,42.941,-78.732,728,65,45,54,65,40,51,42,46,90,61,76,57,44,50,12,8,65,24,72,10,1442,403,1845,33,694,0,0,30.32,30.21,30.27,1026.8,1023,1024.9,45,CLR,Mostly Clear,KBUF,O,EST,42.941,-78.732,728,62,61,49,62,55,60,9,100,47,BKN,10,241,59,300,594,653,848,0,0,0,30.26,1024.8,42,MC,Mostly Cloudy,4-Oct-15,13
KBUF 06/Dec/2015 13,450,BUF2015,6-Dec-15,6-Dec-15,6-Dec-15,1:00,13,BUF,-3,HOU,51,O,42,2015,Week 13,68544,BUF,-3,3,LAR,30,21,Y,71870,0,42,49,0,Buffalo,KBUF,KBUF4234413,KBUF,O,6-Dec-15,EST,42.941,-78.732,728,45,28,37,45,21,37,25,31,92,63,80,41,28,35,10,6,207,24,48,9.1,961,162,1123,21,548,0,0,30.58,30.24,30.39,1035.4,1024.2,1029.2,45,CLR,Mostly Clear,KBUF,O,EST,42.941,-78.732,728,45,40,36,71,41,230,9,100,150,OVC,10,190,30,220,301,331,430,0,0,0,30.4,1029.3,44,PC,Partly Cloudy,6-Dec-15,13
KBUF 07/Oct/2018 13,451,BUF2018,7-Oct-18,7-Oct-18,7-Oct-18,1:00,13,TEN,-6,BUF,25,U,38,2018,Week 5,68202,BUF,6,-6,TEN,13,12,N,71608,0,45,37,0,Buffalo,KBUF,KBUF4338013,KBUF,O,7-Oct-18,EST,42.933,-78.733,692,67,53,59,68,49,66,52,58,100,93,98,68,53,59,15,9,43,40,100,7.1,1932,386,2318,0,685,0.02,0,30.32,30.07,30.22,1026.7,1018.3,1023.4,19,RAIN,Moderate Rain,KBUF,O,EST,42.933,-78.733,692,58,56,58,100,58,50,10,100,3,OVC,0.8,288,58,346,575,633,821,0,0,0,30.25,1024.1,21,RAIN,Light Drizzle,7-Oct-18,13
KBUF 08/Dec/2019 13,452,BUF2019,8-Dec-19,8-Dec-19,8-Dec-19,1:00,13,BAL,-1,BUF,41,O,57,2019,Week 14,69134,BUF,1,-1,BAL,17,24,Y,71608,0,46,26,0,Buffalo,KBUF,KBUF4380713,KBUF,O,8-Dec-19,EST,42.933,-78.733,692,46,23,37,46,15,34,16,24,80,45,63,41,21,31,22,14,186,32,52,10,757,161,918,234,547,0,0,30.35,29.97,30.11,1028.7,1015.6,1020.7,46,CLR,Fair,KBUF,O,EST,42.933,-78.733,692,41,33,23,49,34,200,17,100,270,CLR,10,180,30,210,298,328,426,0,0,0,30.05,1018.9,46,CLR,Fair,8-Dec-19,13
KBUF 08/Nov/2015 13,453,BUF2015,8-Nov-15,8-Nov-15,8-Nov-15,1:00,13,BUF,-4,MIA,50,O,44,2015,Week 9,70214,BUF,-4,4,OAK,33,17,Y,71870,0,42,47,0,Buffalo,KBUF,KBUF4231613,KBUF,O,8-Nov-15,EST,42.941,-78.732,728,50,36,42,49,32,35,32,33,79,55,70,43,36,38,16,8,248,24,11,10,1953,234,2187,461,599,0,0,30.43,30.28,30.38,1030.4,1025.4,1028.8,45,CLR,Mostly Clear,KBUF,O,EST,42.941,-78.732,728,49,45,33,55,42,230,9,20,33,SCT,10,352,39,391,391,430,558,0,0,0,30.41,1029.7,44,PC,Partly Cloudy,8-Nov-15,13
KBUF 08/Sep/2013 13,454,BUF2013,8-Sep-13,8-Sep-13,8-Sep-13,1:00,13,NE,-10,BUF,44,U,51,2013,Week 1,69519,BUF,10,-10,ATL,21,23,N,73079,0,40,65,0,Buffalo,KBUF,KBUF4152513,KBUF,O,8-Sep-13,EST,42.941,-78.732,728,68,51,62,67,52,66,44,51,97,45,69,66,49,57,15,8,264,24,64,9.1,4428,554,4982,377,768,0,0,30.13,29.88,30.03,1020.4,1011.7,1017,45,CLR,Mostly Clear,KBUF,O,EST,42.941,-78.732,728,65,65,47,52,55,100,7,90,40,BKN,10,518,75,593,751,826,1073,0,0,0,30.07,1018.4,44,PC,Partly Cloudy,8-Sep-13,13
KBUF 09/Dec/2018 13,455,BUF2018,9-Dec-18,9-Dec-18,9-Dec-18,1:00,13,BUF,-4.5,NYJ,50,O,37,2018,Week 14,59119,BUF,-4.5,4.5,NYJ,23,27,N,71608,0,45,79,0,Buffalo,KBUF,KBUF4344313,KBUF,O,9-Dec-18,EST,42.933,-78.733,692,30,24,27,30,15,23,15,20,81,68,74,28,21,24,17,9,245,21,65,9.8,1130,160,1289,264,545,0,0,30.48,30.21,30.31,1033.1,1023.9,1027.4,40,MC,Overcast,KBUF,O,EST,42.933,-78.733,692,30,19,21,69,27,220,16,20,19,SCT,10,267,30,297,297,327,424,0,0,0,30.25,1025.6,44,PC,Partly Cloudy,9-Dec-18,13
KBUF 09/Nov/2014 13,456,BUF2014,9-Nov-14,9-Nov-14,9-Nov-14,1:00,13,BUF,-1.5,KC,30,U,42,2014,Week 10,68119,BUF,-1.5,1.5,MIN,13,17,Y,71857,0,41,41,0,Buffalo,KBUF,KBUF4195213,KBUF,O,9-Nov-14,EST,42.941,-78.732,728,49,35,41,45,31,36,28,31,86,58,70,40,33,37,16,9,225,32,98,10,1204,231,1434,3,597,0.01,0,29.94,29.83,29.89,1014,1010.2,1012.1,45,CLR,Mostly Clear,KBUF,O,EST,42.941,-78.732,728,42,35,32,68,38,230,12,100,28,OVC,10,193,39,232,386,425,551,0,0,0,29.9,1012.6,42,MC,Mostly Cloudy,9-Nov-14,13
KBUF 10/Dec/2017 13,457,BUF2017,10-Dec-17,10-Dec-17,10-Dec-17,1:00,13,BUF,-3,IND,20,U,36.5,2017,Week 14,60222,BUF,-3,3,JAX,13,7,Y,71608,0,44,45,0,Buffalo,KBUF,KBUF4307913,KBUF,O,10-Dec-17,EST,42.941,-78.732,728,29,27,28,29,13,25,16,22,92,61,78,27,24,26,20,12,265,31,100,6.4,786,159,946,0,545,0.05,2.1,29.88,29.75,29.83,1012.7,1008.4,1011.1,9,SNOW,Light Snow,KBUF,O,EST,42.941,-78.732,728,29,18,21,72,26,260,15,100,32,OVC,5,148,30,178,295,325,422,0,0,0,29.82,1010.7,9,SNOW,Light Snow,10-Dec-17,13
KBUF 10/Sep/2017 13,458,BUF2017,10-Sep-17,10-Sep-17,10-Sep-17,1:00,13,BUF,-7.5,NYJ,33,U,42,2017,Week 1,68751,BUF,-7.5,7.5,NYJ,21,12,Y,71608,0,44,44,0,Buffalo,KBUF,KBUF4298813,KBUF,O,10-Sep-17,EST,42.941,-78.732,728,67,45,56,66,45,49,43,46,93,45,71,55,44,51,9,4,44,9,15,10,4339,545,4884,561,763,0,0,30.51,30.42,30.46,1033.3,1030.5,1031.5,46,CLR,Fair,KBUF,O,EST,42.941,-78.732,728,65,65,45,49,54,370,3,40,250,SCT,10,622,74,696,740,814,1057,0,0,0,30.48,1032.2,44,PC,Partly Cloudy,10-Sep-17,13
KBUF 11/Dec/2016 13,459,BUF2016,11-Dec-16,11-Dec-16,11-Dec-16,1:00,13,PIT,-2,BUF,47,O,45.5,2016,Week 14,69657,BUF,2,-2,TB,20,27,Y,71608,0,43,24,0,Buffalo,KBUF,KBUF4271513,KBUF,O,11-Dec-16,EST,42.941,-78.732,728,29,23,26,29,14,26,16,21,89,66,80,28,22,24,17,9,172,24,99,3.8,779,155,934,0,545,0.27,3.9,30.42,29.85,30.24,1030.2,1011,1024.2,9,SNOW,Light Snow,KBUF,O,EST,42.941,-78.732,728,26,16,21,81,24,170,10,100,16,VV,1.8,146,29,176,293,322,419,0,0,0,30.29,1025.8,9,SNOW,Light Snow,11-Dec-16,13
KBUF 12/Nov/2017 13,460,BUF2017,12-Nov-17,12-Nov-17,12-Nov-17,1:00,13,NO,-2,BUF,57,O,48,2017,Week 10,67501,BUF,2,-2,NO,10,47,Y,71608,0,44,42,0,Buffalo,KBUF,KBUF4305113,KBUF,O,12-Nov-17,EST,42.941,-78.732,728,42,29,35,41,23,32,15,22,86,50,58,35,25,30,7,5,135,7,100,10,1033,219,1253,0,590,0.02,0,30.37,30.31,30.34,1029.2,1027.3,1028.3,40,MC,Overcast,KBUF,O,EST,42.941,-78.732,728,39,39,22,50,33,370,3,100,80,OVC,10,186,37,224,373,410,532,0,0,0,30.34,1028.4,40,MC,Overcast,12-Nov-17,13
KBUF 12/Oct/2014 13,461,BUF2014,12-Oct-14,12-Oct-14,12-Oct-14,1:00,13,BUF, PK,NE,59,O,44.5,2014,Week 6,70185,BUF, PK,PK,TEN,22,37,PK,71857,0,41,59,0,Buffalo,KBUF,KBUF4192413,KBUF,O,12-Oct-14,EST,42.941,-78.732,728,61,35,48,61,32,39,32,35,89,35,65,48,34,42,10,5,123,24,12,10,3398,357,3755,563,671,0,0,30.29,30.12,30.21,1025.9,1020,1023.2,45,CLR,Mostly Clear,KBUF,O,EST,42.941,-78.732,728,58,58,34,41,47,120,5,5,250,FEW,10,535,54,589,543,597,775,0,0,0,30.22,1023.3,45,CLR,Mostly Clear,12-Oct-14,13
KBUF 13/Oct/2013 13,462,BUF2013,13-Oct-13,13-Oct-13,13-Oct-13,1:00,13,CIN,-6,BUF,51,O,41.5,2013,Week 6,67739,BUF,6,-6,CLE,24,27,N,73079,0,40,68,0,Buffalo,KBUF,KBUF4156013,KBUF,O,13-Oct-13,EST,42.941,-78.732,728,68,57,63,68,58,61,39,54,96,44,71,62,49,58,13,7,201,24,94,8.4,1765,355,2120,0,668,0.32,0,30.28,30.17,30.23,1025.3,1021.8,1023.8,18,RAIN,Light Rain,KBUF,O,EST,42.941,-78.732,728,68,68,58,70,62,210,9,100,30,OVC,10,268,54,322,537,591,767,0,0,0,30.24,1024,44,PC,Partly Cloudy,13-Oct-13,13
KBUF 13/Sep/2015 13,463,BUF2015,13-Sep-15,13-Sep-15,13-Sep-15,1:00,13,IND,-1,BUF,41,U,44.5,2015,Week 1,70319,BUF,1,-1,NO,27,14,Y,71870,0,42,53,0,Buffalo,KBUF,KBUF4226013,KBUF,O,13-Sep-15,EST,42.941,-78.732,728,56,51,54,56,49,52,46,50,93,75,88,53,49,52,16,11,274,23,100,7.6,2515,524,3039,0,754,0.41,0,29.94,29.74,29.83,1013.9,1007,1010,18,RAIN,Light Rain,KBUF,O,EST,42.941,-78.732,728,55,51,50,83,52,260,16,100,14,OVC,8,362,72,434,723,795,1032,99,0.02,0,29.83,1010,18,RAIN,Light Rain,13-Sep-15,13
KBUF 14/Dec/2014 13,464,BUF2014,14-Dec-14,14-Dec-14,14-Dec-14,1:00,13,GB,-3.5,BUF,34,U,50,2014,Week 15,70214,BUF,3.5,-3.5,LAC,21,13,Y,71857,0,41,34,0,Buffalo,KBUF,KBUF4198713,KBUF,O,14-Dec-14,EST,42.941,-78.732,728,38,35,37,38,28,36,34,35,93,89,92,37,35,36,12,8,266,24,100,5.5,773,155,929,0,542,0,0,30.08,29.93,30.01,1018.6,1013.7,1016.3,21,RAIN,Light Drizzle,KBUF,O,EST,42.941,-78.732,728,38,31,35,89,37,260,10,100,9,OVC,5,146,29,176,293,322,418,0,0,0,30,1015.9,42,MC,Mostly Cloudy,14-Dec-14,13
KBUF 14/Sep/2014 13,465,BUF2014,14-Sep-14,14-Sep-14,14-Sep-14,1:00,13,BUF,-1,MIA,39,U,43,2014,Week 2,69954,BUF,-1,1,MIN,29,10,Y,71857,0,41,61,0,Buffalo,KBUF,KBUF4189613,KBUF,O,14-Sep-14,EST,42.941,-78.732,728,62,43,53,61,40,46,37,42,90,41,68,51,42,47,12,4,249,24,55,10,2325,520,2845,202,752,0,0,30.37,30.22,30.29,1028.3,1023.4,1025.8,45,CLR,Mostly Clear,KBUF,O,EST,42.941,-78.732,728,58,58,39,50,49,0,0,100,40,BKN,10,244,72,316,717,789,1024,0,0,0,30.3,1026.2,44,PC,Partly Cloudy,14-Sep-14,13
KBUF 15/Sep/2013 13,466,BUF2013,15-Sep-13,15-Sep-13,15-Sep-13,1:00,13,CAR,-3.5,BUF,47,O,43.5,2013,Week 2,67819,BUF,3.5,-3.5,SEA,24,23,N,73079,0,40,66,0,Buffalo,KBUF,KBUF4153213,KBUF,O,15-Sep-13,EST,42.941,-78.732,728,67,46,57,66,44,50,39,46,89,54,68,57,43,51,14,8,213,24,82,9.9,2925,514,3439,3,749,0.13,0,30.16,30.07,30.11,1021.4,1018.2,1019.8,45,CLR,Mostly Clear,KBUF,O,EST,42.941,-78.732,728,65,65,49,56,56,220,10,100,39,OVC,10,444,71,515,711,782,1016,0,0,0,30.1,1019.3,45,CLR,Mostly Clear,15-Sep-13,13
KBUF 15/Sep/2016 20,467,BUF2016,15-Sep-16,15-Sep-16,15-Sep-16,8:25,20,BUF, PK,NYJ,68,O,40.5,2016,Week 2,70256,BUF, PK,PK,LAR,31,37,PK,71608,0,43,54,0,Buffalo,KBUF,KBUF4262820,KBUF,O,15-Sep-16,EST,42.941,-78.732,728,70,50,60,70,50,52,47,49,89,45,71,58,48,54,13,6,57,24,10,10,4794,509,5303,630,749,0,0,30.35,30.24,30.28,1027.8,1024.1,1025.6,45,CLR,Mostly Clear,KBUF,O,EST,42.941,-78.732,728,59,57,52,78,55,50,9,10,260,FEW,10,0,0,0,0,0,0,0,0,0,30.25,1024.5,45,CLR,Mostly Clear,15-Sep-16,20
KBUF 16/Dec/2018 13,468,BUF2018,16-Dec-18,16-Dec-18,16-Dec-18,1:00,13,BUF,-2.5,DET,27,U,39.5,2018,Week 15,59110,BUF,-2.5,2.5,DET,14,13,N,71608,0,45,52,0,Buffalo,KBUF,KBUF4345013,KBUF,O,16-Dec-18,EST,42.933,-78.733,692,40,33,36,40,25,36,31,33,100,73,89,37,32,35,14,9,40,47,99,8.7,642,153,795,0,542,0.01,0,30.11,29.87,29.99,1020.4,1012.2,1016.2,40,MC,Overcast,KBUF,O,EST,42.933,-78.733,692,39,32,33,79,36,50,10,100,65,OVC,10,146,29,175,292,321,417,0,0,0,29.96,1015.3,40,MC,Overcast,16-Dec-18,13
KBUF 16/Oct/2016 13,469,BUF2016,16-Oct-16,16-Oct-16,16-Oct-16,1:00,13,BUF,-7.5,SF,61,O,44,2016,Week 6,70003,BUF,-7.5,7.5,DEN,45,16,Y,71608,0,43,72,0,Buffalo,KBUF,KBUF4265913,KBUF,O,16-Oct-16,EST,42.941,-78.732,728,74,63,67,77,63,61,54,58,93,59,72,64,58,62,24,14,225,35,99,9.8,815,332,1147,0,660,0.01,0,30.04,29.92,29.97,1017.3,1013.1,1015,45,CLR,Mostly Clear,KBUF,O,EST,42.941,-78.732,728,72,72,58,61,64,230,24,100,30,BKN,10,87,51,138,512,563,732,0,0,0,29.94,1013.9,45,CLR,Mostly Clear,16-Oct-16,13
KBUF 16/Sep/2018 13,470,BUF2018,16-Sep-18,16-Sep-18,16-Sep-18,1:00,13,LAC,-7.5,BUF,51,O,41.5,2018,Week 2,69187,BUF,7.5,-7.5,LAC,20,31,Y,71608,0,45,36,0,Buffalo,KBUF,KBUF4335913,KBUF,O,16-Sep-18,EST,42.933,-78.733,692,87,66,76,89,66,69,62,65,97,45,73,73,65,69,9,5,147,24,23,10,4451,509,4960,480,746,0,0,30.22,30.11,30.16,1022.9,1019.2,1021.1,45,CLR,Mostly Clear,KBUF,O,EST,42.933,-78.733,692,86,89,65,50,72,130,6,40,220,SCT,10,592,71,663,705,776,1007,0,0,0,30.18,1021.3,44,PC,Partly Cloudy,16-Sep-18,13
KBUF 17/Dec/2017 13,471,BUF2017,17-Dec-17,17-Dec-17,17-Dec-17,1:00,13,BUF,-3.5,MIA,40,P,40,2017,Week 15,62202,BUF,-3.5,3.5,MIA,24,16,Y,71608,0,44,81,0,Buffalo,KBUF,KBUF4308613,KBUF,O,17-Dec-17,EST,42.941,-78.732,728,25,19,22,25,8,20,12,15,81,68,75,23,18,20,10,7,52,10,100,10,471,153,624,0,541,0,0,30.29,30.04,30.19,1027,1018.5,1023.6,40,MC,Overcast,KBUF,O,EST,42.941,-78.732,728,23,14,14,68,20,50,8,100,200,BKN,10,89,29,118,291,320,416,0,0,0,30.21,1024.3,42,MC,Mostly Cloudy,17-Dec-17,13
KBUF 17/Nov/2013 13,472,BUF2013,17-Nov-13,17-Nov-13,17-Nov-13,1:00,13,NYJ,-2,BUF,51,O,39,2013,Week 11,68036,BUF,2,-2,LAR,37,14,Y,73079,0,40,62,0,Buffalo,KBUF,KBUF4159513,KBUF,O,17-Nov-13,EST,42.941,-78.732,728,64,52,59,63,48,56,43,50,89,62,74,58,49,54,25,17,184,37,98,9.6,833,203,1036,12,579,0.42,0,29.97,29.36,29.72,1014.9,994.2,1006.3,42,MC,Mostly Cloudy,KBUF,O,EST,42.941,-78.732,728,61,58,53,75,57,190,22,100,23,BKN,10,90,35,125,352,387,503,0,0,0,29.77,1008,40,MC,Overcast,17-Nov-13,13
KBUF 18/Dec/2016 13,473,BUF2016,18-Dec-16,18-Dec-16,18-Dec-16,1:00,13,BUF,-10.5,CLE,46,O,44,2016,Week 15,66529,BUF,-10.5,10.5,PHI,33,13,Y,71608,0,43,25,0,Buffalo,KBUF,KBUF4272213,KBUF,O,18-Dec-16,EST,42.941,-78.732,728,33,17,26,33,6,32,7,18,96,57,75,33,16,24,23,11,284,30,95,7.4,398,153,552,0,541,0.19,0,30.63,29.62,30.11,1037.3,1003,1019.6,9,SNOW,Light Snow,KBUF,O,EST,42.941,-78.732,728,26,13,15,63,23,290,17,100,30,BKN,10,13,29,42,291,320,415,0,0,0,30.15,1021.2,44,PC,Partly Cloudy,18-Dec-16,13
KBUF 18/Oct/2015 13,474,BUF2015,18-Oct-15,18-Oct-15,18-Oct-15,1:00,13,CIN,-3,BUF,55,O,42,2015,Week 6,69593,BUF,3,-3,DEN,21,34,Y,71870,0,42,37,0,Buffalo,KBUF,KBUF4229513,KBUF,O,18-Oct-15,EST,42.941,-78.732,728,45,33,38,45,29,32,24,27,78,44,65,37,32,34,17,6,322,24,85,10,1051,328,1380,3,654,0.01,0,30.43,30.27,30.35,1030.5,1025.1,1027.8,45,CLR,Mostly Clear,KBUF,O,EST,42.941,-78.732,728,43,38,28,56,37,330,9,100,26,BKN,10,147,51,198,506,557,723,99,0.01,0,30.35,1027.8,18,RAIN,Light Rain,18-Oct-15,13
KBUF 19/Oct/2014 13,475,BUF2014,19-Oct-14,19-Oct-14,19-Oct-14,1:00,13,BUF,-6.5,MIN,33,U,43,2014,Week 7,68477,BUF,-6.5,6.5,DET,17,16,N,71857,0,41,45,0,Buffalo,KBUF,KBUF4193113,KBUF,O,19-Oct-14,EST,42.941,-78.732,728,47,38,42,47,32,35,26,30,79,54,64,41,34,37,17,10,283,23,91,10,1582,321,1903,83,651,0,0,30.14,29.99,30.07,1020.5,1015.7,1018.2,42,MC,Mostly Cloudy,KBUF,O,EST,42.941,-78.732,728,45,39,29,54,38,250,12,100,39,BKN,10,145,50,195,500,550,714,0,0,0,30.11,1019.5,42,MC,Mostly Cloudy,19-Oct-14,13
KBUF 20/Oct/2019 13,476,BUF2019,20-Oct-19,20-Oct-19,20-Oct-19,1:00,13,BUF,-4.5,MIA,52,O,31,2019,Week 7,68340,BUF,-4.5,4.5,MIA,31,21,Y,71608,0,46,38,0,Buffalo,KBUF,KBUF4375813,KBUF,O,20-Oct-19,EST,42.933,-78.733,692,66,40,52,65,38,46,37,41,86,42,70,53,40,47,8,5,182,24,56,10,2236,317,2553,223,649,0,0,30,29.87,29.92,1016.2,1011.7,1013.3,52,PC,High Clouds,KBUF,O,EST,42.933,-78.733,692,64,64,43,46,53,260,7,50,220,SCT,10,409,49,458,494,543,706,0,0,0,29.9,1012.6,44,PC,Partly Cloudy,20-Oct-19,13
KBUF 20/Sep/2015 13,477,BUF2015,20-Sep-15,20-Sep-15,20-Sep-15,1:00,13,BUF,-1,NE,72,O,44.5,2015,Week 2,70858,BUF,-1,1,WAS,32,40,Y,71870,0,42,62,0,Buffalo,KBUF,KBUF4226713,KBUF,O,20-Sep-15,EST,42.941,-78.732,728,67,50,58,67,51,51,41,46,87,43,67,55,49,52,9,5,89,24,68,10,3428,486,3914,159,734,0,0,30.21,30.02,30.16,1022.9,1016.6,1021.2,45,CLR,Mostly Clear,KBUF,O,EST,42.941,-78.732,728,65,65,44,47,54,100,9,75,30,BKN,10,522,68,590,682,750,974,0,0,0,30.19,1022.2,45,CLR,Mostly Clear,20-Sep-15,13
KBUF 21/Sep/2014 13,478,BUF2014,21-Sep-14,21-Sep-14,21-Sep-14,1:00,13,BUF,-2.5,LAC,32,U,45.5,2014,Week 3,68611,BUF,-2.5,2.5,GB,10,22,Y,71857,0,41,72,0,Buffalo,KBUF,KBUF4190313,KBUF,O,21-Sep-14,EST,42.941,-78.732,728,74,52,67,77,51,64,50,58,87,59,72,67,53,62,26,17,234,43,79,9.6,3403,478,3882,282,731,0.11,0,29.76,29.58,29.65,1007.9,1001.6,1004,45,CLR,Mostly Clear,KBUF,O,EST,42.941,-78.732,728,72,72,62,71,66,230,25,45,20,SCT,10,543,68,611,675,743,965,0,0,0,29.58,1001.7,45,CLR,Mostly Clear,21-Sep-14,13
KBUF 22/Dec/2013 13,479,BUF2013,22-Dec-13,22-Dec-13,22-Dec-13,1:00,13,BUF,-1,MIA,19,U,42,2013,Week 16,54305,BUF,-1,1,SF,19,0,Y,73079,0,40,41,0,Buffalo,KBUF,KBUF4163013,KBUF,O,22-Dec-13,EST,42.941,-78.732,728,42,31,36,42,18,40,29,34,97,86,92,41,30,35,24,15,188,39,100,7.2,649,153,803,0,541,1.38,0,29.96,29.61,29.75,1014.7,1002.6,1007.4,3,SNOW,Freezing Rain,KBUF,O,EST,42.941,-78.732,728,34,29,33,97,34,90,5,100,5,OVC,1.2,146,29,175,292,321,417,99,0.04,0,29.67,1004.6,19,RAIN,Moderate Rain,22-Dec-13,13
KBUF 22/Oct/2017 13,480,BUF2017,22-Oct-17,22-Oct-17,22-Oct-17,1:00,13,BUF,-3,TB,57,O,46,2017,Week 7,68561,BUF,-3,3,TB,30,27,N,71608,0,44,86,0,Buffalo,KBUF,KBUF4303013,KBUF,O,22-Oct-17,EST,42.941,-78.732,728,79,49,65,78,51,52,43,48,75,36,56,61,48,56,10,7,173,10,79,10,1958,306,2264,24,643,0,0,30.28,30.12,30.21,1025.4,1019.5,1023,52,PC,High Clouds,KBUF,O,EST,42.941,-78.732,728,76,77,47,36,60,220,7,100,270,BKN,10,303,48,351,481,529,688,0,0,0,30.22,1023.3,52,PC,High Clouds,22-Oct-17,13
KBUF 22/Sep/2019 13,481,BUF2019,22-Sep-19,22-Sep-19,22-Sep-19,1:00,13,BUF,-6,CIN,38,U,43.5,2019,Week 3,69448,BUF,-6,6,CIN,21,17,N,71608,0,46,86,0,Buffalo,KBUF,KBUF4373013,KBUF,O,22-Sep-19,EST,42.933,-78.733,692,85,67,75,85,67,65,58,62,87,44,66,71,64,67,23,11,220,33,58,10,3589,472,4061,216,728,0,0,30.12,29.85,30,1019.4,1010.1,1015.5,42,MC,Mostly Cloudy,KBUF,O,EST,42.933,-78.733,692,83,85,63,51,70,240,17,30,250,SCT,10,600,67,667,669,736,956,0,0,0,30,1015.6,54,CLR,Few High Clouds,22-Sep-19,13
KBUF 24/Dec/2016 13,482,BUF2016,24-Dec-16,24-Dec-16,24-Dec-16,1:00,13,BUF,-4.5,MIA,65,O,44,2016,Week 16,64690,BUF,-4.5,4.5,PIT,31,34,N,71608,0,43,35,0,Buffalo,KBUF,KBUF4272813,KBUF,O,24-Dec-16,EST,42.941,-78.732,728,41,34,37,40,27,37,22,31,93,53,78,39,30,35,17,11,242,26,100,9.2,766,153,919,0,541,0.2,0,30.39,29.93,30.15,1029.2,1013.6,1020.8,18,RAIN,Light Rain,KBUF,O,EST,42.941,-78.732,728,38,30,32,79,36,270,12,100,15,BKN,10,147,29,176,294,323,419,0,0,0,30.11,1019.8,42,MC,Mostly Cloudy,24-Dec-16,13
KBUF 24/Nov/2014 19,483,BUF2014,24-Nov-14,24-Nov-14,24-Nov-14,7:00,19,BUF,-2.5,NYJ,41,U,42.5,2014,Week 12,56044,BUF,-2.5,2.5,BAL,38,3,Y,71857,0,41,72,1,Buffalo,KBUF,KBUF4196719,KBUF,O,24-Nov-14,EST,42.941,-78.732,728,65,42,53,64,34,51,32,44,83,54,71,56,40,49,32,23,209,52,83,10,1188,184,1373,87,565,0.13,0,29.68,29.23,29.39,1005,989.7,995.4,45,CLR,Mostly Clear,KBUF,O,EST,42.941,-78.732,728,46,38,38,73,42,240,22,30,11,SCT,10,0,0,0,0,0,0,0,0,0,29.53,1000.1,45,CLR,Mostly Clear,24-Nov-14,19
KBUF 24/Nov/2019 13,484,BUF2019,24-Nov-19,24-Nov-19,24-Nov-19,1:00,13,BUF,-3,DEN,23,O,51,2019,Week 12,67338,BUF,-3,3,JAX,20,3,Y,71608,0,46,42,0,Buffalo,KBUF,KBUF4379313,KBUF,O,24-Nov-19,EST,42.933,-78.733,692,45,34,40,44,27,38,27,32,92,62,75,41,33,36,23,13,245,36,84,9.6,1128,184,1312,141,565,0,0,29.63,29.52,29.56,1003.7,1000.1,1001.4,40,MC,Overcast,KBUF,O,EST,42.933,-78.733,692,40,30,31,70,36,260,23,90,200,BKN,9,215,33,248,328,361,469,0,0,0,29.53,1000.6,42,MC,Mostly Cloudy,24-Nov-19,13
KBUF 24/Sep/2017 13,485,BUF2017,24-Sep-17,24-Sep-17,24-Sep-17,1:00,13,DEN,-3.5,BUF,42,O,39.5,2017,Week 3,68865,BUF,3.5,-3.5,CIN,26,16,Y,71608,0,44,76,0,Buffalo,KBUF,KBUF4300213,KBUF,O,24-Sep-17,EST,42.941,-78.732,728,90,63,76,94,64,68,60,65,90,47,69,74,62,68,7,4,189,7,1,9.9,4563,461,5024,708,723,0,0,30.18,30.1,30.13,1021.7,1018.8,1020.1,46,CLR,Fair,KBUF,O,EST,42.941,-78.732,728,87,90,66,50,73,250,5,5,45,FEW,10,641,66,707,657,723,938,0,0,0,30.14,1020.2,46,CLR,Fair,24-Sep-17,13
KBUF 25/Nov/2018 13,486,BUF2018,25-Nov-18,25-Nov-18,25-Nov-18,1:00,13,JAX,-3,BUF,45,O,36.5,2018,Week 12,57799,BUF,3,-3,JAX,24,21,N,71608,0,45,36,0,Buffalo,KBUF,KBUF4342913,KBUF,O,25-Nov-18,EST,42.933,-78.733,692,45,38,43,45,35,42,35,38,93,74,83,44,38,41,20,10,238,28,99,10,693,182,875,0,564,0,0,29.91,29.67,29.81,1013.4,1005.2,1010,40,MC,Overcast,KBUF,O,EST,42.933,-78.733,692,43,36,37,80,40,270,14,100,27,OVC,10,163,33,196,326,359,465,0,0,0,29.84,1011,40,MC,Overcast,25-Nov-18,13
KBUF 25/Sep/2016 13,487,BUF2016,25-Sep-16,25-Sep-16,25-Sep-16,1:00,13,ARI,-5,BUF,51,O,48,2016,Week 3,68647,BUF,5,-5,BUF,33,18,Y,71608,0,43,62,0,Buffalo,KBUF,KBUF4263813,KBUF,O,25-Sep-16,EST,42.941,-78.732,728,67,43,55,66,42,46,39,41,83,37,64,53,42,48,9,5,63,24,34,10,3747,450,4197,329,720,0,0,30.26,30.1,30.2,1025,1019.4,1022.8,46,CLR,Fair,KBUF,O,EST,42.941,-78.732,728,64,64,40,41,52,360,5,65,250,SCT,10,506,64,570,645,709,921,0,0,0,30.21,1023.3,44,PC,Partly Cloudy,25-Sep-16,13
KBUF 27/Dec/2015 13,488,BUF2015,27-Dec-15,27-Dec-15,27-Dec-15,1:00,13,BUF,-6.5,DAL,22,U,42.5,2015,Week 16,70172,BUF,-6.5,6.5,PIT,16,6,Y,71870,0,42,37,0,Buffalo,KBUF,KBUF4236513,KBUF,O,27-Dec-15,EST,42.941,-78.732,728,48,33,39,48,24,46,26,36,97,72,90,47,31,39,16,9,334,25,96,6.5,772,156,927,0,542,0.73,0,30.34,29.86,30.06,1027.4,1011.3,1017.8,18,RAIN,Light Rain,KBUF,O,EST,42.941,-78.732,728,37,30,35,93,36,320,10,100,6,OVC,10,148,30,178,296,326,423,99,0.01,0,29.98,1015.4,18,RAIN,Light Rain,27-Dec-15,13
KBUF 27/Nov/2016 13,489,BUF2016,27-Nov-16,27-Nov-16,27-Nov-16,1:00,13,BUF,-8.5,JAX,49,O,44,2016,Week 12,67849,BUF,-8.5,8.5,TEN,28,21,N,71608,0,43,38,0,Buffalo,KBUF,KBUF4270113,KBUF,O,27-Nov-16,EST,42.941,-78.732,728,46,34,39,45,29,34,30,31,86,56,74,40,33,36,14,7,257,24,78,10,1095,177,1273,168,561,0,0,30.18,30.11,30.14,1022.1,1019.7,1020.7,45,CLR,Mostly Clear,KBUF,O,EST,42.941,-78.732,728,43,37,32,65,38,290,12,100,26,BKN,10,158,32,190,317,349,453,0,0,0,30.14,1020.6,45,CLR,Mostly Clear,27-Nov-16,13
KBUF 27/Oct/2019 13,490,BUF2019,27-Oct-19,27-Oct-19,27-Oct-19,1:00,13,PHI,-3,BUF,44,O,47,2019,Week 8,69435,BUF,3,-3,CAR,13,31,Y,71608,0,46,67,0,Buffalo,KBUF,KBUF4376513,KBUF,O,27-Oct-19,EST,42.933,-78.733,692,61,52,54,60,45,55,47,50,100,78,88,57,49,52,30,19,219,55,96,7.8,1447,282,1731,36,629,0.86,0,30.01,29.57,29.76,1016.5,1001.4,1007.9,18,RAIN,Light Rain,KBUF,O,EST,42.933,-78.733,692,52,45,50,93,51,240,26,100,27,OVC,2.5,226,45,272,453,498,647,0,0,0,29.69,1005.6,18,RAIN,Light Rain,27-Oct-19,13
KBUF 29/Oct/2017 13,491,BUF2017,29-Oct-17,29-Oct-17,29-Oct-17,1:00,13,BUF,-2,OAK,48,O,47.5,2017,Week 8,69599,BUF,-2,2,DAL,34,14,Y,71608,0,44,29,0,Buffalo,KBUF,KBUF4303713,KBUF,O,29-Oct-17,EST,42.941,-78.732,728,44,41,43,44,35,42,37,40,97,80,90,43,40,41,14,6,341,24,100,9.2,1368,274,1643,0,624,0.31,0,29.86,29.41,29.7,1011.5,996.2,1006.1,18,RAIN,Light Rain,KBUF,O,EST,42.941,-78.732,728,43,39,41,93,42,20,7,100,50,OVC,7,220,44,264,441,485,631,99,0.03,0,29.71,1006.5,18,RAIN,Light Rain,29-Oct-17,13
KBUF 29/Oct/2018 20,492,BUF2018,29-Oct-18,29-Oct-18,29-Oct-18,8:15,20,NE,-13.5,BUF,31,U,44.5,2018,Week 8,70109,BUF,13.5,-13.5,NE,6,25,Y,71608,0,45,86,0,Buffalo,KBUF,KBUF4340220,KBUF,O,29-Oct-18,EST,42.933,-78.733,692,46,38,42,46,33,41,30,36,96,58,81,42,36,40,18,11,261,30,97,9.8,1117,274,1392,0,624,0.1,0,30.01,29.64,29.84,1016.8,1004.3,1010.9,18,RAIN,Light Rain,KBUF,O,EST,42.933,-78.733,692,42,36,30,62,37,260,10,100,230,BKN,10,0,0,0,0,0,0,0,0,0,29.97,1015.3,42,MC,Mostly Cloudy,29-Oct-18,20
KBUF 29/Sep/2013 13,493,BUF2013,29-Sep-13,29-Sep-13,29-Sep-13,1:00,13,BAL,-3.5,BUF,43,U,45,2013,Week 4,68296,BUF,3.5,-3.5,LAC,23,20,N,73079,0,40,74,0,Buffalo,KBUF,KBUF4154613,KBUF,O,29-Sep-13,EST,42.941,-78.732,728,75,51,64,77,49,56,46,51,83,48,66,62,49,57,12,6,178,24,60,10,3280,432,3712,231,708,0,0,30.15,29.99,30.05,1021,1015.6,1017.7,45,CLR,Mostly Clear,KBUF,O,EST,42.941,-78.732,728,74,77,53,48,62,190,8,75,200,BKN,10,484,63,547,626,689,894,0,0,0,30.03,1016.9,45,CLR,Mostly Clear,29-Sep-13,13
KBUF 29/Sep/2019 13,494,BUF2019,29-Sep-19,29-Sep-19,29-Sep-19,1:00,13,NE,-7,BUF,26,U,41.5,2019,Week 4,70317,BUF,7,-7,NE,10,16,N,71608,0,46,82,0,Buffalo,KBUF,KBUF4373713,KBUF,O,29-Sep-19,EST,42.933,-78.733,692,62,53,56,62,49,56,44,48,96,56,77,58,49,52,15,11,55,24,94,10,2026,432,2459,15,708,0,0,30.4,30.27,30.34,1029.7,1025,1027.4,42,MC,Mostly Cloudy,KBUF,O,EST,42.933,-78.733,692,62,60,48,60,54,60,13,100,250,BKN,10,424,63,487,626,689,894,0,0,0,30.36,1028.2,52,PC,High Clouds,29-Sep-19,13
KBUF 30/Dec/2018 13,495,BUF2018,30-Dec-18,30-Dec-18,30-Dec-18,1:00,13,BUF,-5.5,MIA,59,O,39.5,2018,Week 17,67420,BUF,-5.5,5.5,MIA,42,17,Y,71608,0,45,23,0,Buffalo,KBUF,KBUF4346413,KBUF,O,30-Dec-18,EST,42.933,-78.733,692,34,26,29,34,20,30,20,26,100,70,86,31,24,28,16,6,213,47,83,7.6,774,157,931,0,544,0.11,2,30.16,30.06,30.12,1022.2,1018.8,1020.8,9,SNOW,Light Snow,KBUF,O,EST,42.933,-78.733,692,32,27,27,82,30,270,5,100,25,OVC,10,150,30,180,300,330,429,0,0,0,30.06,1018.9,40,MC,Overcast,30-Dec-18,13
KBUF 30/Nov/2014 13,496,BUF2014,30-Nov-14,30-Nov-14,30-Nov-14,1:00,13,BUF,-3,CLE,36,U,42,2014,Week 13,68576,BUF,-3,3,OAK,26,10,Y,71857,0,41,57,0,Buffalo,KBUF,KBUF4197313,KBUF,O,30-Nov-14,EST,42.941,-78.732,728,60,46,54,59,38,51,34,44,90,58,68,54,40,49,22,18,214,37,99,9.8,805,172,978,8,556,0.08,0,29.9,29.78,29.82,1012.8,1008.4,1009.8,42,MC,Mostly Cloudy,KBUF,O,EST,42.941,-78.732,728,56,53,46,70,51,210,14,100,27,OVC,10,156,31,188,313,344,447,0,0,0,29.78,1008.4,40,MC,Overcast,30-Nov-14,13
KBUF 30/Oct/2016 13,497,BUF2016,30-Oct-16,30-Oct-16,30-Oct-16,1:00,13,NE,-6.5,BUF,66,O,48.5,2016,Week 8,70442,BUF,6.5,-6.5,BUF,25,41,Y,71608,0,43,50,0,Buffalo,KBUF,KBUF4267313,KBUF,O,30-Oct-16,EST,42.941,-78.732,728,55,41,48,55,38,51,33,42,90,71,82,53,40,46,14,8,338,24,96,9.9,1248,264,1510,0,622,0.04,0,30.2,29.93,30.03,1022.7,1013.5,1017,42,MC,Mostly Cloudy,KBUF,O,EST,42.941,-78.732,728,46,42,43,89,45,350,9,100,8,OVC,9,216,43,258,431,474,615,99,0.03,0,29.99,1015.7,18,RAIN,Light Rain,30-Oct-16,13
KCLT 01/Dec/2013 13,498,CAR2013,1-Dec-13,1-Dec-13,1-Dec-13,1:00,13,CAR,-7,TB,33,U,41,2013,Week 13,72795,CAR,-7,7,OAK,27,6,Y,73778,0,17,57,0,Charlotte,KCLT,KCLT4160913,KCLT,O,1-Dec-13,EST,35.214,-80.949,748,57,26,41,57,23,38,24,31,93,42,71,47,26,37,9,2,221,24,50,10,2317,262,2579,384,599,0,0,30.36,30.03,30.19,1028,1017,1022.4,45,CLR,Mostly Clear,KCLT,O,EST,35.214,-80.949,748,54,54,31,42,44,0,0,25,60,SCT,10,407,45,452,450,495,643,0,0,0,30.17,1021.7,45,CLR,Mostly Clear,1-Dec-13,13
KCLT 01/Dec/2019 13,499,CAR2019,1-Dec-19,1-Dec-19,1-Dec-19,1:00,13,CAR,-5,WAS,50,O,50,2019,Week 13,71504,CAR,-5,5,DEN,21,29,Y,75523,0,23,35,0,Charlotte,KCLT,KCLT4380013,KCLT,O,1-Dec-19,EST,35.217,-80.95,722,68,49,57,68,48,57,29,44,93,29,68,60,43,51,23,10,213,38,58,7.2,1434,264,1700,214,598,0.6,0,29.88,29.48,29.62,1011.4,997.7,1002.6,45,CLR,Mostly Clear,KCLT,O,EST,35.217,-80.95,722,65,64,57,76,60,220,15,100,250,BKN,10,153,45,198,450,495,642,0,0,0,29.53,999.4,42,MC,Mostly Cloudy,1-Dec-19,13
KCLT 02/Nov/2015 20,500,CAR2015,2-Nov-15,2-Nov-15,2-Nov-15,8:30,20,CAR,-5.5,IND,55,O,45.5,2015,Week 8,74136,CAR,-5.5,5.5,ATL,29,26,N,75419,0,19,62,0,Charlotte,KCLT,KCLT4231020,KCLT,O,2-Nov-15,EST,35.214,-80.949,748,65,58,63,65,57,63,55,61,96,90,92,63,57,62,13,7,83,24,100,4.1,1754,350,2101,0,641,3.08,0,30.07,29.96,30.02,1018.2,1014.7,1016.4,18,RAIN,Light Rain,KCLT,O,EST,35.214,-80.949,748,65,65,62,90,63,90,7,100,6,OVC,5,0,0,0,0,0,0,99,0.03,0,30.02,1016.6,18,RAIN,Light Rain,2-Nov-15,20
KCLT 03/Jan/2016 16,501,CAR2015,3-Jan-16,3-Jan-16,3-Jan-16,4:25,16,CAR,-10,TB,48,O,45,2015,Week 17,74169,CAR,-10,10,DEN,38,10,Y,75419,0,19,63,0,Charlotte,KCLT,KCLT4237216,KCLT,O,3-Jan-16,EST,35.214,-80.949,748,53,27,41,53,22,31,21,27,92,30,62,41,27,35,7,3,244,7,49,10,1989,252,2241,160,591,0,0,30.09,29.92,30,1019,1013.3,1016,52,PC,High Clouds,KCLT,O,EST,35.214,-80.949,748,52,51,22,31,40,220,5,70,230,BKN,10,103,13,116,131,144,188,0,0,0,29.93,1013.5,52,PC,High Clouds,3-Jan-16,16
KCLT 03/Nov/2013 13,502,CAR2013,3-Nov-13,3-Nov-13,3-Nov-13,1:00,13,CAR,-8.5,ATL,44,U,47,2013,Week 9,73720,CAR,-8.5,8.5,NE,34,10,Y,73778,0,17,62,0,Charlotte,KCLT,KCLT4158113,KCLT,O,3-Nov-13,EST,35.214,-80.949,748,62,36,52,62,37,41,32,35,89,34,57,49,37,44,14,8,347,24,1,10,3403,348,3751,621,639,0,0,30.34,30,30.2,1027.4,1015.9,1022.6,46,CLR,Fair,KCLT,O,EST,35.214,-80.949,748,61,60,34,36,48,350,9,5,55,FEW,10,538,55,593,552,607,788,0,0,0,30.22,1023.3,45,CLR,Mostly Clear,3-Nov-13,13
KCLT 03/Nov/2019 13,503,CAR2019,3-Nov-19,3-Nov-19,3-Nov-19,1:00,13,CAR,-3,TEN,50,O,41,2019,Week 9,72540,CAR,-3,3,TEN,30,20,Y,75523,0,23,70,0,Charlotte,KCLT,KCLT4377213,KCLT,O,3-Nov-19,EST,35.217,-80.95,722,61,31,48,61,26,35,23,30,89,25,53,46,31,40,13,5,9,34,2,10,3464,348,3812,632,639,0,0,30.3,30.19,30.24,1025.9,1022.1,1024,46,CLR,Fair,KCLT,O,EST,35.217,-80.95,722,59,58,30,33,46,370,7,0,400,CLR,10,552,55,607,552,607,788,0,0,0,30.26,1024.5,46,CLR,Fair,3-Nov-19,13
KCLT 04/Nov/2018 13,504,CAR2018,4-Nov-18,4-Nov-18,4-Nov-18,1:00,13,CAR,-6,TB,70,O,55.5,2018,Week 9,73513,CAR,-6,6,TB,42,28,Y,75523,0,22,42,0,Charlotte,KCLT,KCLT4340813,KCLT,O,4-Nov-18,EST,35.217,-80.95,722,64,38,54,63,37,55,36,43,96,44,68,55,38,48,9,6,46,34,51,9.5,2335,342,2677,266,637,0.09,0,30.44,30.19,30.33,1030.6,1022,1027,46,CLR,Fair,KCLT,O,EST,35.217,-80.95,722,62,62,40,44,51,370,3,100,250,BKN,10,241,55,296,547,602,781,0,0,0,30.36,1027.8,42,MC,Mostly Cloudy,4-Nov-18,13
KCLT 05/Nov/2017 13,505,CAR2017,5-Nov-17,5-Nov-17,5-Nov-17,1:00,13,ATL,-3,CAR,37,U,42,2017,Week 9,74244,CAR,3,-3,DET,20,17,N,75523,0,21,84,0,Charlotte,KCLT,KCLT4304413,KCLT,O,5-Nov-17,EST,35.214,-80.949,748,66,53,60,66,52,61,54,57,100,81,93,63,54,58,8,5,83,8,100,6.7,1695,340,2032,0,636,0,0,30.21,30.13,30.16,1022.8,1019.8,1021.1,40,MC,Overcast,KCLT,O,EST,35.214,-80.949,748,63,63,58,84,60,370,3,100,12,OVC,9,271,54,325,542,596,774,0,0,0,30.17,1021.2,40,MC,Overcast,5-Nov-17,13
KCLT 05/Oct/2014 13,506,CAR2014,5-Oct-14,5-Oct-14,5-Oct-14,1:00,13,CAR,-1.5,CHI,55,O,47,2014,Week 5,73659,CAR,-1.5,1.5,GB,31,24,Y,74455,0,18,63,0,Charlotte,KCLT,KCLT4191713,KCLT,O,5-Oct-14,EST,35.214,-80.949,748,65,38,52,64,39,41,31,36,89,29,59,49,37,45,10,4,207,24,15,10,4782,484,5266,673,699,0,0,30.04,29.93,29.99,1017.3,1013.7,1015.5,45,CLR,Mostly Clear,KCLT,O,EST,35.214,-80.949,748,62,61,31,31,48,230,10,0,201,CLR,10,710,71,781,710,781,1014,0,0,0,29.99,1015.7,46,CLR,Fair,5-Oct-14,13
KCLT 06/Oct/2019 13,507,CAR2019,6-Oct-19,6-Oct-19,6-Oct-19,1:00,13,CAR,-3.5,JAX,61,O,44,2019,Week 5,72762,CAR,-3.5,3.5,NYJ,34,27,Y,75523,0,23,23,0,Charlotte,KCLT,KCLT4374413,KCLT,O,6-Oct-19,EST,35.217,-80.95,722,81,59,69,81,57,62,51,57,78,51,67,67,55,62,10,7,25,24,98,9.9,1944,479,2423,21,697,0.03,0,30.3,30.21,30.25,1025.6,1022.3,1023.9,42,MC,Mostly Cloudy,KCLT,O,EST,35.217,-80.95,722,75,78,59,58,65,110,3,100,250,BKN,10,292,70,362,704,774,1006,0,0,0,30.27,1024.4,42,MC,Mostly Cloudy,6-Oct-19,13
KCLT 07/Oct/2018 13,508,CAR2018,7-Oct-18,7-Oct-18,7-Oct-18,1:00,13,CAR,-6.5,NYG,64,O,43.5,2018,Week 5,74221,CAR,-6.5,6.5,NYG,33,31,N,75523,0,22,50,0,Charlotte,KCLT,KCLT4338013,KCLT,O,7-Oct-18,EST,35.217,-80.95,722,88,70,78,95,70,74,70,71,100,59,82,77,70,74,9,5,54,24,40,7.2,3299,474,3772,338,695,0,0,30.27,30.18,30.22,1024.2,1021.2,1022.4,45,CLR,Mostly Clear,KCLT,O,EST,35.217,-80.95,722,84,90,72,67,76,10,3,40,250,SCT,9,587,70,657,699,769,998,0,0,0,30.24,1022.9,44,PC,Partly Cloudy,7-Oct-18,13
KCLT 08/Nov/2015 13,509,CAR2015,8-Nov-15,8-Nov-15,8-Nov-15,1:00,13,GB,-2.5,CAR,66,O,46,2015,Week 9,74461,CAR,2.5,-2.5,NYJ,37,29,Y,75419,0,19,53,0,Charlotte,KCLT,KCLT4231613,KCLT,O,8-Nov-15,EST,35.214,-80.949,748,58,47,53,59,45,42,34,36,80,41,51,48,44,46,14,10,65,24,100,10,1500,327,1828,3,630,0.05,0,30.39,30.22,30.34,1029.1,1023.4,1027.3,40,MC,Overcast,KCLT,O,EST,35.214,-80.949,748,55,53,34,45,46,60,9,95,50,BKN,10,277,53,330,528,581,754,0,0,0,30.36,1028.2,45,CLR,Mostly Clear,8-Nov-15,13
KCLT 08/Sep/2013 13,510,CAR2013,8-Sep-13,8-Sep-13,8-Sep-13,1:00,13,SEA,-3,CAR,19,U,44.5,2013,Week 1,73294,CAR,3,-3,NYG,7,12,Y,73778,0,17,87,0,Charlotte,KCLT,KCLT4152513,KCLT,O,8-Sep-13,EST,35.214,-80.949,748,89,61,76,90,62,68,60,65,100,40,72,72,61,69,9,2,351,24,34,9.6,4039,619,4658,335,758,0,0,30,29.93,29.97,1016.2,1013.4,1014.8,45,CLR,Mostly Clear,KCLT,O,EST,35.214,-80.949,748,86,88,63,46,71,350,5,100,50,BKN,10,324,85,409,852,937,1217,0,0,0,29.96,1014.5,45,CLR,Mostly Clear,8-Sep-13,13
KCLT 08/Sep/2019 13,511,CAR2019,8-Sep-19,8-Sep-19,8-Sep-19,1:03,13,LAR,-1.5,CAR,57,O,49.5,2019,Week 1,72005,CAR,1.5,-1.5,CHI,27,30,Y,75523,0,23,38,0,Charlotte,KCLT,KCLT4371613,KCLT,O,8-Sep-19,EST,35.217,-80.95,722,93,69,81,97,70,66,57,62,66,36,53,74,62,69,10,6,15,24,7,9.9,6036,619,6656,690,758,0,0,30.07,29.97,30.03,1017.2,1013.9,1015.7,46,CLR,Fair,KCLT,O,EST,35.217,-80.95,722,89,92,65,45,73,350,5,5,50,FEW,10,831,85,916,852,937,1217,0,0,0,30.03,1015.9,45,CLR,Mostly Clear,8-Sep-19,13
KCLT 09/Sep/2018 16,512,CAR2018,9-Sep-18,9-Sep-18,9-Sep-18,4:25,16,CAR,-3,DAL,24,U,42,2018,Week 1,74532,CAR,-3,3,DAL,16,8,Y,75523,0,22,46,0,Charlotte,KCLT,KCLT4335216,KCLT,O,9-Sep-18,EST,35.217,-80.95,722,89,73,78,96,74,75,71,73,97,65,84,78,73,75,13,7,56,33,100,9.6,2621,617,3238,0,756,0.7,0,29.97,29.86,29.93,1013.8,1009.9,1012.4,42,MC,Mostly Cloudy,KCLT,O,EST,35.217,-80.95,722,84,89,71,65,75,50,9,100,250,BKN,10,294,44,338,439,483,627,0,0,0,29.86,1009.9,52,PC,High Clouds,9-Sep-18,16
KCLT 10/Dec/2017 13,513,CAR2017,10-Dec-17,10-Dec-17,10-Dec-17,1:00,13,MIN,-2.5,CAR,55,O,40.5,2017,Week 14,73728,CAR,2.5,-2.5,MIN,31,24,Y,75523,0,21,88,0,Charlotte,KCLT,KCLT4307913,KCLT,O,10-Dec-17,EST,35.214,-80.949,748,47,25,36,46,20,25,20,23,79,35,62,37,25,31,8,5,237,8,1,10,2492,250,2742,583,590,0,0,30.23,30.04,30.15,1023.9,1017.7,1021.2,46,CLR,Fair,KCLT,O,EST,35.214,-80.949,748,42,42,23,47,35,0,0,0,201,CLR,10,436,44,480,436,480,623,0,0,0,30.18,1022.4,46,CLR,Fair,10-Dec-17,13
KCLT 10/Oct/2016 20,514,CAR2016,10-Oct-16,10-Oct-16,10-Oct-16,8:30,20,CAR,-6,TB,31,U,47,2016,Week 5,73425,CAR,-6,6,GB,14,17,N,75419,0,20,57,0,Charlotte,KCLT,KCLT4265320,KCLT,O,10-Oct-16,EST,35.214,-80.949,748,73,46,60,72,46,44,38,41,83,30,54,55,46,51,12,7,25,24,4,10,4473,452,4925,662,689,0,0,30.36,30.24,30.3,1028,1023.9,1026.2,45,CLR,Mostly Clear,KCLT,O,EST,35.214,-80.949,748,62,62,42,48,52,370,5,5,250,FEW,10,0,0,0,0,0,0,0,0,0,30.32,1026.9,45,CLR,Mostly Clear,10-Oct-16,20
KCLT 11/Dec/2016 13,515,CAR2016,11-Dec-16,11-Dec-16,11-Dec-16,1:00,13,CAR,-1,LAC,44,U,48.5,2016,Week 14,73856,CAR,-1,1,CIN,28,16,Y,75419,0,20,42,0,Charlotte,KCLT,KCLT4271513,KCLT,O,11-Dec-16,EST,35.214,-80.949,748,43,22,35,42,24,32,13,22,82,30,60,36,22,30,9,3,121,24,76,10,1286,247,1532,89,589,0,0,30.49,30.23,30.4,1032.5,1023.7,1029.6,40,MC,Overcast,KCLT,O,EST,35.214,-80.949,748,42,42,13,30,32,0,0,100,35,OVC,10,217,43,260,434,477,620,0,0,0,30.42,1030.3,40,MC,Overcast,11-Dec-16,13
KCLT 12/Oct/2017 20,516,CAR2017,12-Oct-17,12-Oct-17,12-Oct-17,8:25,20,CAR,-3,PHI,51,O,43.5,2017,Week 6,74373,CAR,-3,3,MIN,23,28,Y,75523,0,21,44,0,Charlotte,KCLT,KCLT4302020,KCLT,O,12-Oct-17,EST,35.214,-80.949,748,87,71,77,93,72,74,67,71,100,59,84,76,69,73,15,7,61,24,81,8.3,2387,448,2835,75,684,0,0,30.15,29.98,30.05,1021,1015.1,1017.6,40,MC,Overcast,KCLT,O,EST,35.214,-80.949,748,75,79,69,82,71,50,13,100,17,OVC,10,0,0,0,0,0,0,0,0,0,30.11,1019.7,40,MC,Overcast,12-Oct-17,20
KCLT 12/Sep/2019 20,517,CAR2019,12-Sep-19,12-Sep-19,12-Sep-19,8:20,20,CAR,-6.5,TB,34,U,48,2019,Week 2,71101,CAR,-6.5,6.5,MIA,14,20,N,75523,0,23,33,0,Charlotte,KCLT,KCLT4372020,KCLT,O,12-Sep-19,EST,35.217,-80.95,722,98,70,84,102,72,70,63,67,91,32,60,76,70,73,10,4,109,24,34,8.6,5488,601,6089,566,749,0,0,30.19,30.08,30.13,1021.2,1017.4,1019.4,46,CLR,Fair,KCLT,O,EST,35.217,-80.95,722,86,89,66,51,73,100,10,100,250,BKN,10,0,0,0,0,0,0,0,0,0,30.11,1018.7,42,MC,Mostly Cloudy,12-Sep-19,20
KCLT 13/Dec/2015 13,518,CAR2015,13-Dec-15,13-Dec-15,13-Dec-15,1:00,13,CAR,-8.5,ATL,38,U,45.5,2015,Week 14,74420,CAR,-8.5,8.5,HOU,38,0,Y,75419,0,19,70,0,Charlotte,KCLT,KCLT4235113,KCLT,O,13-Dec-15,EST,35.214,-80.949,748,71,48,60,70,48,57,46,53,97,53,79,61,47,56,13,4,175,21,82,6.9,1790,247,2037,103,589,0,0,30.25,30.06,30.16,1024,1018.1,1021.4,45,CLR,Mostly Clear,KCLT,O,EST,35.214,-80.949,748,69,69,53,57,60,200,10,90,27,BKN,10,299,43,342,434,477,620,0,0,0,30.16,1021.4,44,PC,Partly Cloudy,13-Dec-15,13
KCLT 13/Nov/2016 13,519,CAR2016,13-Nov-16,13-Nov-16,13-Nov-16,1:00,13,CAR,-3,KC,37,U,44,2016,Week 10,74181,CAR,-3,3,DAL,17,20,N,75419,0,20,48,0,Charlotte,KCLT,KCLT4268713,KCLT,O,13-Nov-16,EST,35.214,-80.949,748,52,27,42,51,28,41,27,35,92,61,76,45,30,39,8,4,322,24,86,9.9,1044,307,1351,0,622,0.05,0,30.33,30.16,30.25,1027.1,1021.2,1024.5,45,CLR,Mostly Clear,KCLT,O,EST,35.214,-80.949,748,47,47,38,71,43,0,0,100,55,BKN,10,314,50,364,503,553,718,0,0,0,30.28,1025.3,45,CLR,Mostly Clear,13-Nov-16,13
KCLT 13/Nov/2017 20,520,CAR2017,13-Nov-17,13-Nov-17,13-Nov-17,8:30,20,CAR,-8,MIA,66,O,38.5,2017,Week 10,72790,CAR,-8,8,SF,45,21,Y,75523,0,21,87,0,Charlotte,KCLT,KCLT4305220,KCLT,O,13-Nov-17,EST,35.214,-80.949,748,63,42,49,62,40,50,36,44,100,56,84,54,41,47,14,6,3,14,52,6.3,2179,310,2488,300,622,0.04,0,30.33,30.25,30.3,1027.1,1024.1,1025.9,46,CLR,Fair,KCLT,O,EST,35.214,-80.949,748,50,45,39,66,45,10,14,5,60,FEW,10,0,0,0,0,0,0,0,0,0,30.31,1026.5,46,CLR,Fair,13-Nov-17,20
KCLT 14/Dec/2014 13,521,CAR2014,14-Dec-14,14-Dec-14,14-Dec-14,1:00,13,CAR,-3.5,TB,36,U,41.5,2014,Week 15,72842,CAR,-3.5,3.5,NYJ,19,17,N,74455,0,18,58,0,Charlotte,KCLT,KCLT4198713,KCLT,O,14-Dec-14,EST,35.214,-80.949,748,63,29,46,63,22,26,16,22,69,20,40,46,27,37,8,3,341,24,0,10,2460,245,2705,588,588,0,0,30.09,30,30.04,1018.9,1016,1017.2,46,CLR,Fair,KCLT,O,EST,35.214,-80.949,748,58,58,22,25,43,0,0,0,201,CLR,10,433,43,476,433,476,619,0,0,0,30.03,1017,46,CLR,Fair,14-Dec-14,13
KCLT 14/Sep/2014 13,522,CAR2014,14-Sep-14,14-Sep-14,14-Sep-14,1:00,13,CAR,-1.5,DET,31,U,43.5,2014,Week 2,73586,CAR,-1.5,1.5,CIN,24,7,Y,74455,0,18,68,0,Charlotte,KCLT,KCLT4189613,KCLT,O,14-Sep-14,EST,35.214,-80.949,748,69,62,66,69,61,62,54,58,86,59,74,63,59,61,10,6,68,24,100,10,2956,592,3550,0,745,0,0,30.27,30.17,30.22,1024.9,1021.7,1023.3,40,MC,Overcast,KCLT,O,EST,35.214,-80.949,748,69,69,55,61,61,70,7,100,24,OVC,10,412,82,494,823,905,1175,0,0,0,30.24,1024.2,40,MC,Overcast,14-Sep-14,13
KCLT 15/Dec/2013 16,523,CAR2013,15-Dec-13,15-Dec-13,15-Dec-13,4:05,16,CAR,-10,NYJ,50,O,40.5,2013,Week 15,73251,CAR,-10,10,BUF,30,20,N,73778,0,17,54,0,Charlotte,KCLT,KCLT4162316,KCLT,O,15-Dec-13,EST,35.214,-80.949,748,55,31,43,54,29,43,25,34,100,40,76,46,31,40,12,6,301,21,46,6.5,2156,244,2400,372,588,0.01,0,30.11,29.76,29.92,1019.8,1007.9,1013.3,45,CLR,Mostly Clear,KCLT,O,EST,35.214,-80.949,748,52,49,28,40,42,300,9,25,35,SCT,10,93,10,103,102,112,146,0,0,0,29.95,1014.3,45,CLR,Mostly Clear,15-Dec-13,16
KCLT 15/Dec/2019 13,524,CAR2019,15-Dec-19,15-Dec-19,15-Dec-19,1:00,13,CAR,-1.5,SEA,54,O,48,2019,Week 15,72544,CAR,-1.5,1.5,SEA,24,30,Y,75523,0,23,66,0,Charlotte,KCLT,KCLT4381413,KCLT,O,15-Dec-19,EST,35.217,-80.95,722,61,33,47,61,36,39,30,36,87,39,67,49,33,42,10,5,201,24,3,10,2366,244,2610,549,588,0,0,30.14,29.88,30.06,1021.1,1012.3,1018.1,46,CLR,Fair,KCLT,O,EST,35.217,-80.95,722,57,56,36,45,47,240,6,0,400,CLR,10,432,43,475,432,475,617,0,0,0,30.1,1019.1,46,CLR,Fair,15-Dec-19,13
KCLT 16/Nov/2014 13,525,CAR2014,16-Nov-14,16-Nov-14,16-Nov-14,1:00,13,ATL,-2.5,CAR,36,U,47,2014,Week 11,73314,CAR,2.5,-2.5,CHI,17,19,N,74455,0,18,52,0,Charlotte,KCLT,KCLT4195913,KCLT,O,16-Nov-14,EST,35.214,-80.949,748,53,29,45,53,30,36,17,24,66,26,45,41,26,36,9,3,135,24,93,10,1906,300,2206,96,617,0,0,30.36,30.04,30.23,1028,1017.2,1023.6,40,MC,Overcast,KCLT,O,EST,35.214,-80.949,748,52,52,19,27,39,0,0,100,28,BKN,10,168,49,217,495,544,707,0,0,0,30.22,1023.2,44,PC,Partly Cloudy,16-Nov-14,13
KCLT 17/Dec/2017 13,526,CAR2017,17-Dec-17,17-Dec-17,17-Dec-17,1:00,13,CAR,-3,GB,55,O,47,2017,Week 15,74447,CAR,-3,3,GB,31,24,Y,75523,0,21,75,0,Charlotte,KCLT,KCLT4308613,KCLT,O,17-Dec-17,EST,35.214,-80.949,748,56,27,43,53,24,40,24,30,85,40,62,44,27,37,9,5,201,9,79,10,1148,244,1392,22,587,0,0,30.3,30.18,30.23,1026.4,1022.1,1023.9,40,MC,Overcast,KCLT,O,EST,35.214,-80.949,748,50,48,31,48,42,240,6,100,95,OVC,10,216,43,259,432,475,617,0,0,0,30.22,1023.7,40,MC,Overcast,17-Dec-17,13
KCLT 17/Dec/2018 20,527,CAR2018,17-Dec-18,17-Dec-18,17-Dec-18,8:15,20,NO,-6,CAR,21,U,50.5,2018,Week 15,74188,CAR,6,-6,NO,9,12,N,75523,0,22,48,0,Charlotte,KCLT,KCLT4345120,KCLT,O,17-Dec-18,EST,35.217,-80.95,722,65,34,49,65,34,41,25,33,100,23,61,49,34,42,10,5,318,24,7,10,2375,244,2619,530,587,0,0,30.09,30,30.04,1018.9,1015.7,1017.1,45,CLR,Mostly Clear,KCLT,O,EST,35.217,-80.95,722,53,51,26,35,42,340,6,5,250,FEW,10,0,0,0,0,0,0,0,0,0,30.03,1016.9,45,CLR,Mostly Clear,17-Dec-18,20
KCLT 17/Nov/2016 20,528,CAR2016,17-Nov-16,17-Nov-16,17-Nov-16,8:25,20,CAR,-3.5,NO,43,U,53.5,2016,Week 11,73288,CAR,-3.5,3.5,BAL,23,20,N,75419,0,20,57,0,Charlotte,KCLT,KCLT4269120,KCLT,O,17-Nov-16,EST,35.214,-80.949,748,72,35,56,72,33,44,35,40,100,30,60,55,36,47,6,3,109,24,1,9.7,2913,294,3207,603,615,0,0,30.16,30.02,30.1,1021.2,1016.7,1019.5,46,CLR,Fair,KCLT,O,EST,35.214,-80.949,748,59,59,41,51,50,180,3,0,201,CLR,10,0,0,0,0,0,0,0,0,0,30.14,1020.7,46,CLR,Fair,17-Nov-16,20
KCLT 17/Nov/2019 13,529,CAR2019,17-Nov-19,17-Nov-19,17-Nov-19,1:00,13,CAR,-2,ATL,32,O,44,2019,Week 11,73106,CAR,-2,2,ATL,3,29,Y,75523,0,23,69,0,Charlotte,KCLT,KCLT4378613,KCLT,O,17-Nov-19,EST,35.217,-80.95,722,59,40,48,59,32,39,27,34,77,47,58,49,35,42,15,11,17,25,56,10,2631,297,2928,438,615,0,0,30.12,29.93,30.03,1020.1,1013.2,1017,42,MC,Mostly Cloudy,KCLT,O,EST,35.217,-80.95,722,56,54,36,47,47,30,8,10,65,FEW,10,466,49,515,491,540,701,0,0,0,30.02,1016.4,45,CLR,Mostly Clear,17-Nov-19,13
KCLT 17/Sep/2017 13,530,CAR2017,17-Sep-17,17-Sep-17,17-Sep-17,1:00,13,CAR,-6.5,BUF,12,U,43.5,2017,Week 2,74122,CAR,-6.5,6.5,ARI,9,3,N,75523,0,21,53,0,Charlotte,KCLT,KCLT4299513,KCLT,O,17-Sep-17,EST,35.214,-80.949,748,87,63,75,89,65,69,63,66,97,46,75,73,64,69,9,5,5,9,24,9.9,4873,574,5447,551,739,0,0,30.16,30.05,30.1,1020.3,1016.6,1018.4,44,PC,Partly Cloudy,KCLT,O,EST,35.214,-80.949,748,85,87,63,48,71,10,6,40,100,SCT,10,646,81,727,808,889,1154,0,0,0,30.11,1018.8,44,PC,Partly Cloudy,17-Sep-17,13
KCLT 18/Nov/2013 20,531,CAR2013,18-Nov-13,18-Nov-13,18-Nov-13,8:40,20,CAR,-3,NE,44,U,46.5,2013,Week 11,74225,CAR,-3,3,ATL,24,20,Y,73778,0,17,59,0,Charlotte,KCLT,KCLT4159620,KCLT,O,18-Nov-13,EST,35.214,-80.949,748,78,53,66,77,51,67,27,48,97,24,61,67,44,58,23,9,301,31,32,9.7,2868,295,3163,534,614,0.03,0,29.99,29.83,29.89,1015.5,1010.2,1012.2,45,CLR,Mostly Clear,KCLT,O,EST,35.214,-80.949,748,58,56,31,36,46,330,9,0,201,CLR,10,0,0,0,0,0,0,0,0,0,29.93,1013.7,46,CLR,Fair,18-Nov-13,20
KCLT 18/Sep/2016 13,532,CAR2016,18-Sep-16,18-Sep-16,18-Sep-16,1:00,13,CAR,-12.5,SF,73,O,44.5,2016,Week 2,74143,CAR,-12.5,12.5,BAL,46,27,Y,75419,0,20,85,0,Charlotte,KCLT,KCLT4263113,KCLT,O,18-Sep-16,EST,35.214,-80.949,748,89,65,78,91,66,68,63,65,91,46,67,73,64,69,8,4,148,24,81,10,3240,566,3806,39,737,0,0,30.11,29.97,30.04,1018.6,1013.9,1016.2,42,MC,Mostly Cloudy,KCLT,O,EST,35.214,-80.949,748,87,90,66,50,73,130,5,90,250,BKN,10,551,80,631,798,878,1140,0,0,0,30.03,1016.1,52,PC,High Clouds,18-Sep-16,13
KCLT 20/Oct/2013 13,533,CAR2013,20-Oct-13,20-Oct-13,20-Oct-13,1:00,13,CAR,-7,LAR,45,O,42.5,2013,Week 7,72686,CAR,-7,7,BUF,30,15,Y,73778,0,17,68,0,Charlotte,KCLT,KCLT4156713,KCLT,O,20-Oct-13,EST,35.214,-80.949,748,68,45,55,67,45,52,37,42,100,35,67,54,45,49,16,4,328,24,6,9.6,3943,410,4353,610,667,0,0,30.1,29.95,30.04,1019.4,1014.2,1017.5,45,CLR,Mostly Clear,KCLT,O,EST,35.214,-80.949,748,62,62,37,40,50,100,5,25,55,SCT,10,572,63,635,625,688,893,0,0,0,30.06,1018,45,CLR,Mostly Clear,20-Oct-13,13
KCLT 20/Sep/2015 13,534,CAR2015,20-Sep-15,20-Sep-15,20-Sep-15,1:00,13,CAR,-3,HOU,41,P,41,2015,Week 2,73254,CAR,-3,3,BAL,24,17,Y,75419,0,19,88,0,Charlotte,KCLT,KCLT4226713,KCLT,O,20-Sep-15,EST,35.214,-80.949,748,91,59,76,90,60,64,56,60,90,32,62,70,58,66,14,4,51,24,62,10,4601,561,5162,267,732,0,0,29.98,29.88,29.92,1015.3,1012,1013.4,45,CLR,Mostly Clear,KCLT,O,EST,35.214,-80.949,748,86,86,59,40,69,350,3,90,55,BKN,10,547,79,626,793,872,1132,0,0,0,29.93,1013.6,44,PC,Partly Cloudy,20-Sep-15,13
KCLT 21/Dec/2014 13,535,CAR2014,21-Dec-14,21-Dec-14,21-Dec-14,1:00,13,CAR,-6,CLE,30,U,40,2014,Week 16,73810,CAR,-6,6,BUF,17,13,N,74455,0,18,50,0,Charlotte,KCLT,KCLT4199413,KCLT,O,21-Dec-14,EST,35.214,-80.949,748,51,42,46,50,39,36,33,35,73,57,66,43,38,41,9,4,58,24,100,10,1196,244,1441,0,587,0,0,30.29,30.18,30.23,1025.9,1021.9,1023.7,40,MC,Overcast,KCLT,O,EST,35.214,-80.949,748,48,48,34,58,42,40,3,100,22,OVC,10,216,43,259,432,475,618,0,0,0,30.23,1023.8,45,CLR,Mostly Clear,21-Dec-14,13
KCLT 21/Sep/2014 20,536,CAR2014,21-Sep-14,21-Sep-14,21-Sep-14,8:30,20,CAR,-3,PIT,56,O,42.5,2014,Week 3,73945,CAR,-3,3,LAC,19,37,Y,74455,0,18,74,0,Charlotte,KCLT,KCLT4190320,KCLT,O,21-Sep-14,EST,35.214,-80.949,748,85,57,73,87,58,65,57,61,93,46,70,71,58,65,9,5,267,24,30,9.6,5382,555,5937,621,730,0,0,29.98,29.83,29.91,1015.2,1010.2,1012.7,45,CLR,Mostly Clear,KCLT,O,EST,35.214,-80.949,748,76,79,64,67,68,210,6,100,120,BKN,10,0,0,0,0,0,0,0,0,0,29.85,1010.9,42,MC,Mostly Cloudy,21-Sep-14,20
KCLT 22/Dec/2013 13,537,CAR2013,22-Dec-13,22-Dec-13,22-Dec-13,1:00,13,CAR,-3,NO,30,U,44.5,2013,Week 16,73825,CAR,-3,3,GB,17,13,Y,73778,0,17,72,0,Charlotte,KCLT,KCLT4163013,KCLT,O,22-Dec-13,EST,35.214,-80.949,748,71,63,67,70,62,68,63,65,100,87,93,69,63,66,17,13,181,38,100,7.6,1045,244,1289,0,587,1.44,0,30.07,29.99,30.03,1018.3,1015.6,1016.9,42,MC,Mostly Cloudy,KCLT,O,EST,35.214,-80.949,748,70,70,66,87,67,190,17,100,15,OVC,10,216,43,259,432,475,618,0,0,0,30.02,1016.6,42,MC,Mostly Cloudy,22-Dec-13,13
KCLT 22/Nov/2015 13,538,CAR2015,22-Nov-15,22-Nov-15,22-Nov-15,1:00,13,CAR,-7,WAS,60,O,44.5,2015,Week 11,74418,CAR,-7,7,CHI,44,16,Y,75419,0,19,52,0,Charlotte,KCLT,KCLT4233013,KCLT,O,22-Nov-15,EST,35.214,-80.949,748,56,35,47,55,31,44,20,32,86,38,61,47,31,42,15,7,4,24,53,10,1753,282,2035,216,608,0,0,30.11,29.91,29.99,1019.6,1013,1015.6,45,CLR,Mostly Clear,KCLT,O,EST,35.214,-80.949,748,53,49,32,45,44,100,13,70,43,BKN,10,308,47,355,474,521,678,0,0,0,29.97,1014.8,42,MC,Mostly Cloudy,22-Nov-15,13
KCLT 22/Sep/2013 13,539,CAR2013,22-Sep-13,22-Sep-13,22-Sep-13,1:00,13,NYG,-2.5,CAR,38,U,47.5,2013,Week 3,73748,CAR,2.5,-2.5,GB,38,0,Y,73778,0,17,77,0,Charlotte,KCLT,KCLT4153913,KCLT,O,22-Sep-13,EST,35.214,-80.949,748,80,58,69,79,59,62,52,56,97,42,68,63,57,61,14,8,349,24,33,10,5248,550,5798,646,728,0,0,29.92,29.72,29.82,1013.1,1006.4,1009.7,45,CLR,Mostly Clear,KCLT,O,EST,35.214,-80.949,748,77,78,52,42,62,360,7,25,55,SCT,10,716,78,794,782,860,1117,0,0,0,29.82,1009.9,45,CLR,Mostly Clear,22-Sep-13,13
KCLT 23/Dec/2018 13,540,CAR2018,23-Dec-18,23-Dec-18,23-Dec-18,1:00,13,ATL,-3,CAR,34,U,46,2018,Week 16,73722,CAR,3,-3,ATL,10,24,Y,75523,0,22,71,0,Charlotte,KCLT,KCLT4345713,KCLT,O,23-Dec-18,EST,35.217,-80.95,722,55,27,44,55,29,47,28,37,100,45,79,49,29,40,13,4,213,24,40,9.4,1903,243,2146,297,587,0,0,30.21,30.07,30.13,1023.4,1018.3,1020.6,46,CLR,Fair,KCLT,O,EST,35.217,-80.95,722,52,50,34,50,44,190,6,25,250,SCT,10,396,43,439,433,476,619,0,0,0,30.12,1020,54,CLR,Few High Clouds,23-Dec-18,13
KCLT 23/Sep/2018 13,541,CAR2018,23-Sep-18,23-Sep-18,23-Sep-18,1:00,13,CAR,-2.5,CIN,52,O,44.5,2018,Week 3,72161,CAR,-2.5,2.5,CIN,31,21,Y,75523,0,22,61,0,Charlotte,KCLT,KCLT4336613,KCLT,O,23-Sep-18,EST,35.217,-80.95,722,87,68,76,91,69,73,68,70,97,59,82,76,68,72,13,6,76,22,74,8.3,3171,544,3715,20,725,0,0,30.17,30.07,30.11,1020.7,1017.2,1018.7,52,PC,High Clouds,KCLT,O,EST,35.217,-80.95,722,85,89,69,59,74,0,0,80,250,BKN,10,574,78,652,776,854,1109,0,0,0,30.11,1018.7,52,PC,High Clouds,23-Sep-18,13
KCLT 24/Dec/2016 13,542,CAR2016,24-Dec-16,24-Dec-16,24-Dec-16,1:00,13,ATL,-3,CAR,49,P,49,2016,Week 16,73549,CAR,3,-3,MIA,16,33,Y,75419,0,20,52,0,Charlotte,KCLT,KCLT4272813,KCLT,O,24-Dec-16,EST,35.214,-80.949,748,64,46,53,63,43,48,26,40,86,42,60,55,39,46,10,4,222,24,88,10,1015,243,1258,0,587,0,0,30.35,30.22,30.28,1027.6,1023.5,1025.6,42,MC,Mostly Cloudy,KCLT,O,EST,35.214,-80.949,748,58,57,43,58,50,220,6,100,70,BKN,10,165,43,208,434,477,620,0,0,0,30.26,1024.8,45,CLR,Mostly Clear,24-Dec-16,13
KCLT 24/Dec/2017 13,543,CAR2017,24-Dec-17,24-Dec-17,24-Dec-17,1:00,13,CAR,-10,TB,41,U,47,2017,Week 16,71463,CAR,-10,10,TB,22,19,N,75523,0,21,87,0,Charlotte,KCLT,KCLT4309313,KCLT,O,24-Dec-17,EST,35.214,-80.949,748,60,45,51,59,43,47,41,43,94,58,75,54,44,48,14,8,353,23,71,10,1066,243,1309,12,587,0,0,30.08,29.95,30.01,1018.2,1014,1016,42,MC,Mostly Cloudy,KCLT,O,EST,35.214,-80.949,748,55,55,43,64,49,370,3,100,250,BKN,10,191,43,234,434,477,619,0,0,0,30,1015.6,42,MC,Mostly Cloudy,24-Dec-17,13
KCLT 24/Sep/2017 13,544,CAR2017,24-Sep-17,24-Sep-17,24-Sep-17,1:00,13,CAR,-5,NO,47,O,46.5,2017,Week 3,73775,CAR,-5,5,NO,13,34,Y,75523,0,21,40,0,Charlotte,KCLT,KCLT4300213,KCLT,O,24-Sep-17,EST,35.214,-80.949,748,86,64,74,88,64,68,62,65,93,53,73,73,63,68,13,7,9,13,70,10,3751,541,4292,103,723,0,0,30.12,30.02,30.07,1019.3,1015.9,1017.3,52,PC,High Clouds,KCLT,O,EST,35.214,-80.949,748,85,88,66,53,72,30,13,90,250,BKN,10,532,77,609,771,848,1102,0,0,0,30.08,1017.5,52,PC,High Clouds,24-Sep-17,13
KCLT 25/Nov/2018 13,545,CAR2018,25-Nov-18,25-Nov-18,25-Nov-18,1:00,13,CAR,-3,SEA,57,O,46.5,2018,Week 12,74002,CAR,-3,3,SEA,27,30,N,75523,0,22,67,0,Charlotte,KCLT,KCLT4342913,KCLT,O,25-Nov-18,EST,35.217,-80.95,722,60,43,49,59,39,47,43,44,100,56,86,52,43,46,7,4,210,24,90,5.8,2043,276,2320,144,604,0,0,30.04,29.92,29.97,1017.3,1013.1,1014.8,34,FOG,Fog,KCLT,O,EST,35.217,-80.95,722,57,56,44,62,51,370,5,70,250,BKN,10,367,47,414,465,512,665,0,0,0,29.99,1015.6,52,PC,High Clouds,25-Nov-18,13
KCLT 25/Oct/2015 20,546,CAR2015,25-Oct-15,25-Oct-15,25-Oct-15,8:30,20,CAR,-2.5,PHI,43,U,46,2015,Week 7,74194,CAR,-2.5,2.5,HOU,27,16,Y,75419,0,19,64,0,Charlotte,KCLT,KCLT4230220,KCLT,O,25-Oct-15,EST,35.214,-80.949,748,75,58,67,78,59,61,55,58,90,55,76,65,57,62,14,3,212,24,99,9.7,2198,387,2585,0,657,0,0,30.19,30.11,30.16,1022.3,1019.5,1021.1,42,MC,Mostly Cloudy,KCLT,O,EST,35.214,-80.949,748,68,68,60,76,63,210,3,100,150,OVC,10,0,0,0,0,0,0,0,0,0,30.16,1021.3,42,MC,Mostly Cloudy,25-Oct-15,20
KCLT 25/Sep/2016 13,547,CAR2016,25-Sep-16,25-Sep-16,25-Sep-16,1:00,13,CAR,-6.5,MIN,32,U,42.5,2016,Week 3,73813,CAR,-6.5,6.5,CLE,10,22,Y,75419,0,20,84,0,Charlotte,KCLT,KCLT4263813,KCLT,O,25-Sep-16,EST,35.214,-80.949,748,90,66,78,93,66,69,63,66,90,46,68,74,64,70,10,5,81,24,35,10,4925,529,5454,586,721,0,0,30.14,30.05,30.1,1019.8,1016.8,1018.4,44,PC,Partly Cloudy,KCLT,O,EST,35.214,-80.949,748,85,88,66,53,72,0,0,20,36,SCT,10,684,76,760,760,836,1086,0,0,0,30.11,1018.8,44,PC,Partly Cloudy,25-Sep-16,13
KCLT 26/Oct/2014 13,548,CAR2014,26-Oct-14,26-Oct-14,26-Oct-14,1:00,13,SEA,-6,CAR,22,U,45,2014,Week 8,74042,CAR,6,-6,SF,9,13,N,74455,0,18,81,0,Charlotte,KCLT,KCLT4193813,KCLT,O,26-Oct-14,EST,35.214,-80.949,748,83,48,65,82,49,52,38,44,83,21,52,62,47,54,14,6,278,21,0,10,3808,380,4188,655,655,0,0,29.98,29.88,29.92,1015.2,1011.8,1013.1,46,CLR,Fair,KCLT,O,EST,35.214,-80.949,748,81,81,43,26,60,280,13,0,201,CLR,10,592,59,651,592,651,846,0,0,0,29.91,1012.7,46,CLR,Fair,26-Oct-14,13
KCLT 27/Sep/2015 13,549,CAR2015,27-Sep-15,27-Sep-15,27-Sep-15,1:00,13,CAR,-9.5,NO,49,O,43,2015,Week 3,73402,CAR,-9.5,9.5,NO,27,22,N,75419,0,19,67,0,Charlotte,KCLT,KCLT4227413,KCLT,O,27-Sep-15,EST,35.214,-80.949,748,71,63,66,70,62,68,60,64,96,87,91,69,61,64,10,9,214,24,100,3.3,2623,525,3148,0,717,0.15,0,30.18,30.07,30.12,1021.8,1018.4,1020.1,21,RAIN,Light Drizzle,KCLT,O,EST,35.214,-80.949,748,68,68,64,87,65,200,10,100,7,OVC,2,378,75,452,755,830,1078,0,0,0,30.14,1020.7,18,RAIN,Light Rain,27-Sep-15,13
KCLT 28/Oct/2018 13,550,CAR2018,28-Oct-18,28-Oct-18,28-Oct-18,1:00,13,BAL,-3,CAR,57,O,44.5,2018,Week 8,73843,CAR,3,-3,BAL,36,21,Y,75523,0,22,43,0,Charlotte,KCLT,KCLT4340113,KCLT,O,28-Oct-18,EST,35.217,-80.95,722,66,43,56,66,41,53,41,45,90,44,69,56,43,50,16,9,228,47,16,10,3542,371,3913,578,651,0,0,30.07,29.87,29.97,1018.1,1011.2,1014.5,45,CLR,Mostly Clear,KCLT,O,EST,35.217,-80.95,722,65,64,42,44,53,240,12,5,50,FEW,10,567,58,625,582,640,831,0,0,0,30.02,1016.2,45,CLR,Mostly Clear,28-Oct-18,13
KCLT 30/Oct/2014 20,551,CAR2014,30-Oct-14,30-Oct-14,30-Oct-14,8:25,20,NO,-3,CAR,38,U,49,2014,Week 9,73663,CAR,3,-3,WAS,10,28,Y,74455,0,18,53,0,Charlotte,KCLT,KCLT4194220,KCLT,O,30-Oct-14,EST,35.214,-80.949,748,68,45,56,67,42,42,32,36,77,27,50,50,43,47,12,5,6,24,9,10,3597,362,3959,637,647,0,0,30.07,29.96,30,1018.3,1014.4,1016.1,46,CLR,Fair,KCLT,O,EST,35.214,-80.949,748,52,52,34,50,44,200,3,0,201,CLR,10,0,0,0,0,0,0,0,0,0,29.97,1015,46,CLR,Fair,30-Oct-14,20
KCLT 30/Oct/2016 13,552,CAR2016,30-Oct-16,30-Oct-16,30-Oct-16,1:00,13,CAR,-2.5,ARI,50,O,45.5,2016,Week 8,74088,CAR,-2.5,2.5,TB,30,20,Y,75419,0,20,80,0,Charlotte,KCLT,KCLT4267313,KCLT,O,30-Oct-16,EST,35.214,-80.949,748,83,53,68,82,53,56,51,54,93,35,65,65,52,60,8,3,226,24,15,10,3355,360,3715,469,647,0,0,30.15,30,30.08,1020.9,1015.9,1018.6,45,CLR,Mostly Clear,KCLT,O,EST,35.214,-80.949,748,82,82,52,35,64,190,8,25,50,SCT,10,519,57,576,567,624,809,0,0,0,30.06,1018,45,CLR,Mostly Clear,30-Oct-16,13
KCPS 01/Nov/2015 13,553,LAR2015,1-Nov-15,1-Nov-15,1-Nov-15,1:00,13,LAR,-8,SF,33,U,41,2015,Week 8,51207,LAR,-8,8,NO,27,6,Y,67277,0,20,72,1,St. Louis,KCPS,KCPS4230913,KCPS,O,1-Nov-15,CST,38.571,-90.156,413,72,43,56,72,44,51,39,46,97,31,73,58,43,51,9,3,184,9,20,7.9,2976,315,3291,570,632,0,0,30.02,29.91,29.98,1016.7,1013,1015.4,46,CLR,Fair,KCPS,O,CST,38.571,-90.156,413,68,68,48,49,57,0,0,0,201,CLR,10,482,48,530,482,530,688,0,0,0,29.98,1015.3,46,CLR,Fair,1-Nov-15,13
KCPS 03/Nov/2013 13,554,LAR2013,3-Nov-13,3-Nov-13,3-Nov-13,1:00,13,TEN,-3,LAR,49,O,41,2013,Week 9,54617,LAR,3,-3,NE,21,28,Y,67277,0,18,72,1,St. Louis,KCPS,KCPS4158113,KCPS,O,3-Nov-13,CST,38.571,-90.156,413,58,28,44,57,29,37,28,33,100,37,70,46,29,39,12,5,146,12,18,7.8,3056,306,3362,619,628,0,0,30.32,30.17,30.23,1026.9,1021.8,1023.8,46,CLR,Fair,KCPS,O,CST,38.571,-90.156,413,56,53,31,39,45,160,12,0,201,CLR,10,471,47,518,471,518,674,0,0,0,30.23,1023.8,46,CLR,Fair,3-Nov-13,13
KCPS 06/Dec/2015 13,555,LAR2015,6-Dec-15,6-Dec-15,6-Dec-15,1:00,13,ARI,-3.5,LAR,30,U,43,2015,Week 13,51115,LAR,3.5,-3.5,DAL,3,27,Y,67277,0,20,72,1,St. Louis,KCPS,KCPS4234413,KCPS,O,6-Dec-15,CST,38.571,-90.156,413,52,29,42,51,25,39,28,35,92,54,75,45,29,39,6,3,217,6,86,9.1,1340,214,1553,131,575,0,0,30.43,30.24,30.32,1030.6,1024.2,1026.8,40,MC,Overcast,KCPS,O,CST,38.571,-90.156,413,51,49,35,54,44,230,5,100,75,OVC,10,181,36,217,362,398,518,0,0,0,30.28,1025.4,40,MC,Overcast,6-Dec-15,13
KCPS 06/Oct/2013 13,556,LAR2013,6-Oct-13,6-Oct-13,6-Oct-13,1:00,13,LAR,-11,JAX,54,O,41,2013,Week 5,54266,LAR,-11,11,NYJ,34,20,Y,67277,0,18,72,1,St. Louis,KCPS,KCPS4155313,KCPS,O,6-Oct-13,CST,38.571,-90.156,413,59,49,53,58,48,49,37,42,86,49,68,52,46,48,14,8,262,24,45,10,3482,443,3927,413,693,0,0,29.92,29.85,29.88,1013.1,1010.7,1011.9,46,CLR,Fair,KCPS,O,CST,38.571,-90.156,413,58,56,39,50,49,240,9,5,49,FEW,10,615,63,678,631,694,901,0,0,0,29.85,1010.7,45,CLR,Mostly Clear,6-Oct-13,13
KCPS 07/Sep/2014 13,557,LAR2014,7-Sep-14,7-Sep-14,7-Sep-14,1:00,13,LAR,-3,MIN,40,U,43.5,2014,Week 1,55919,LAR,-3,3,ATL,6,34,Y,67277,0,19,72,1,St. Louis,KCPS,KCPS4188913,KCPS,O,7-Sep-14,CST,38.571,-90.156,413,79,53,66,80,53,59,52,56,100,44,73,65,53,60,8,3,74,8,0,9.4,5980,598,6578,764,764,0,0,30.22,30.08,30.15,1023.2,1018.7,1021,46,CLR,Fair,KCPS,O,CST,38.571,-90.156,413,77,78,55,47,64,130,5,0,201,CLR,10,796,80,876,796,876,1137,0,0,0,30.16,1021.4,46,CLR,Fair,7-Sep-14,13
KCPS 08/Sep/2013 16,558,LAR2013,8-Sep-13,8-Sep-13,8-Sep-13,4:25,16,LAR,-4,ARI,51,O,42.5,2013,Week 1,55279,LAR,-4,4,BAL,27,24,N,67277,0,18,72,1,St. Louis,KCPS,KCPS4152516,KCPS,O,8-Sep-13,CST,38.571,-90.156,413,83,71,76,89,72,73,65,70,94,64,81,75,69,72,10,4,156,10,63,8.1,4258,593,4851,211,762,0.36,0,30.01,29.91,29.93,1016.3,1012.7,1013.5,46,CLR,Fair,KCPS,O,CST,38.571,-90.156,413,83,89,72,70,75,130,8,70,85,BKN,10,226,35,261,348,383,497,0,0,0,29.91,1012.8,42,MC,Mostly Cloudy,8-Sep-13,16
KCPS 11/Dec/2014 20,559,LAR2014,11-Dec-14,11-Dec-14,11-Dec-14,8:25,20,LAR,-6,ARI,18,U,40.5,2014,Week 15,55880,LAR,-6,6,HOU,6,12,N,67277,0,19,72,1,St. Louis,KCPS,KCPS4198420,KCPS,O,11-Dec-14,CST,38.571,-90.156,413,39,29,33,39,26,28,25,26,89,62,76,34,28,31,7,2,26,7,62,9.1,1318,209,1527,238,572,0,0,30.38,30.29,30.32,1028.7,1025.7,1026.8,40,MC,Overcast,KCPS,O,CST,38.571,-90.156,413,30,30,26,85,29,0,0,0,201,CLR,7,0,0,0,0,0,0,0,0,0,30.32,1026.9,46,CLR,Fair,11-Dec-14,20
KCPS 13/Dec/2015 13,560,LAR2015,13-Dec-15,13-Dec-15,13-Dec-15,1:00,13,DET,-3,LAR,35,U,41.5,2015,Week 14,51202,LAR,3,-3,SF,21,14,Y,67277,0,20,72,1,St. Louis,KCPS,KCPS4235113,KCPS,O,13-Dec-15,CST,38.571,-90.156,413,67,57,64,66,57,59,54,58,87,75,82,62,57,61,21,14,152,38,91,9.6,1038,207,1246,15,570,0.61,0,29.91,29.34,29.65,1012.9,993.5,1004.1,18,RAIN,Light Rain,KCPS,O,CST,38.571,-90.156,413,65,63,59,81,62,160,21,100,19,OVC,10,178,36,214,356,392,509,0,0,0,29.65,1003.9,44,PC,Partly Cloudy,13-Dec-15,13
KCPS 13/Oct/2014 20,561,LAR2014,13-Oct-14,13-Oct-14,13-Oct-14,8:30,20,SF,-3.5,LAR,48,O,44.5,2014,Week 6,56851,LAR,3.5,-3.5,CIN,17,31,Y,67277,0,19,72,1,St. Louis,KCPS,KCPS4192520,KCPS,O,13-Oct-14,CST,38.571,-90.156,413,70,61,65,69,61,67,59,63,100,84,92,68,60,64,16,10,149,26,90,7.2,2069,404,2472,8,676,0.92,0,29.81,29.48,29.62,1009.6,998.4,1003.2,18,RAIN,Light Rain,KCPS,O,CST,38.571,-90.156,413,64,63,60,87,62,170,12,35,19,FEW,10,0,0,0,0,0,0,0,0,0,29.5,999,45,CLR,Mostly Clear,13-Oct-14,20
KCPS 13/Sep/2015 13,562,LAR2015,13-Sep-15,13-Sep-15,13-Sep-15,1:00,13,SEA,-3.5,LAR,65,O,41,2015,Week 1,51792,LAR,3.5,-3.5,MIN,34,31,N,67277,0,20,72,1,St. Louis,KCPS,KCPS4226013,KCPS,O,13-Sep-15,CST,38.571,-90.156,413,75,46,61,75,46,50,40,46,93,29,62,57,45,53,8,3,203,8,0,9.8,5664,565,6229,750,750,0,0,30.14,30.01,30.07,1020.5,1016.4,1018.4,46,CLR,Fair,KCPS,O,CST,38.571,-90.156,413,71,71,42,35,56,0,0,0,201,CLR,10,765,76,841,765,841,1093,0,0,0,30.09,1018.8,46,CLR,Fair,13-Sep-15,13
KCPS 15/Dec/2013 16,563,LAR2013,15-Dec-13,15-Dec-13,15-Dec-13,4:25,16,NO,-7,LAR,43,U,48,2013,Week 15,58442,LAR,7,-7,NO,27,16,Y,67277,0,18,72,1,St. Louis,KCPS,KCPS4162316,KCPS,O,15-Dec-13,CST,38.571,-90.156,413,33,23,28,33,14,27,19,23,89,75,82,31,22,26,15,7,251,21,64,9.6,1592,206,1798,366,570,0,0,30.23,30.05,30.14,1023.8,1017.7,1020.8,40,MC,Overcast,KCPS,O,CST,38.571,-90.156,413,33,28,26,75,31,150,5,13,201,SCT,10,26,3,29,28,31,40,0,0,0,30.1,1019.3,46,CLR,Fair,15-Dec-13,16
KCPS 15/Nov/2015 13,564,LAR2015,15-Nov-15,15-Nov-15,15-Nov-15,1:00,13,LAR,-7,CHI,50,O,42.5,2015,Week 10,58653,LAR,-7,7,JAX,13,37,Y,67277,0,20,72,1,St. Louis,KCPS,KCPS4232313,KCPS,O,15-Nov-15,CST,38.571,-90.156,413,67,36,55,67,37,36,27,32,79,23,45,50,35,45,12,6,185,21,45,10,1998,262,2260,343,604,0,0,30.36,30.17,30.27,1028.2,1021.7,1025.2,46,CLR,Fair,KCPS,O,CST,38.571,-90.156,413,65,65,29,26,49,190,8,75,201,OVC,10,261,42,303,418,460,598,0,0,0,30.27,1025.1,46,CLR,Fair,15-Nov-15,13
KCPS 16/Nov/2014 13,565,LAR2014,16-Nov-14,16-Nov-14,16-Nov-14,1:00,13,DEN,-9,LAR,29,U,50,2014,Week 11,59401,LAR,9,-9,NYJ,22,7,Y,67277,0,19,72,1,St. Louis,KCPS,KCPS4195913,KCPS,O,16-Nov-14,CST,38.571,-90.156,413,36,26,31,35,15,31,20,28,96,76,89,33,25,31,15,4,295,23,96,5.4,1292,258,1550,0,602,0.19,2.5,30.21,30.03,30.11,1023.1,1017,1019.7,40,MC,Overcast,KCPS,O,CST,38.571,-90.156,413,32,26,31,96,32,310,7,100,24,VV,0.2,207,41,248,414,455,592,99,0.06,0.6,30.1,1019.7,10,SNOW,Moderate Snow,16-Nov-14,13
KCPS 17/Dec/2015 20,566,LAR2015,17-Dec-15,17-Dec-15,17-Dec-15,8:25,20,LAR,-1,TB,54,O,41,2015,Week 15,51295,LAR,-1,1,NYJ,31,23,Y,67277,0,20,72,1,St. Louis,KCPS,KCPS4235520,KCPS,O,17-Dec-15,CST,38.571,-90.156,413,37,31,35,37,23,25,22,23,67,57,62,33,29,31,16,11,310,21,75,10,1021,204,1227,0,568,0,0,30.12,29.89,30.02,1020,1012.2,1016.6,40,MC,Overcast,KCPS,O,CST,38.571,-90.156,413,35,28,24,64,31,300,10,100,28,OVC,10,0,0,0,0,0,0,0,0,0,30.09,1019,40,MC,Overcast,17-Dec-15,20
KCPS 19/Oct/2014 13,567,LAR2014,19-Oct-14,19-Oct-14,19-Oct-14,1:00,13,SEA,-6.5,LAR,54,O,43.5,2014,Week 7,57855,LAR,6.5,-6.5,NE,28,26,N,67277,0,19,72,1,St. Louis,KCPS,KCPS4193113,KCPS,O,19-Oct-14,CST,38.571,-90.156,413,64,37,52,64,38,47,37,43,100,50,76,54,38,47,8,4,200,8,26,8.2,3227,375,3602,513,662,0,0,30.27,30.01,30.15,1025.1,1016.4,1020.9,46,CLR,Fair,KCPS,O,CST,38.571,-90.156,413,61,61,45,56,53,370,6,38,301,BKN,10,448,55,503,553,608,789,0,0,0,30.16,1021.3,46,CLR,Fair,19-Oct-14,13
KCPS 21/Dec/2014 16,568,LAR2014,21-Dec-14,21-Dec-14,21-Dec-14,4:05,16,LAR,-6.5,NYG,64,O,43.5,2014,Week 16,55851,LAR,-6.5,6.5,LAR,27,37,Y,67277,0,19,72,1,St. Louis,KCPS,KCPS4199416,KCPS,O,21-Dec-14,CST,38.571,-90.156,413,44,38,41,44,32,34,32,33,83,65,73,39,36,38,16,10,142,20,100,10,1019,205,1224,0,568,0,0,30.25,29.94,30.12,1024.3,1013.8,1020,40,MC,Overcast,KCPS,O,CST,38.571,-90.156,413,43,38,32,65,38,140,9,100,32,OVC,10,16,3,19,32,35,46,0,0,0,30.05,1017.6,45,CLR,Mostly Clear,21-Dec-14,16
KCPS 21/Sep/2014 13,569,LAR2014,21-Sep-14,21-Sep-14,21-Sep-14,1:00,13,DAL,-2,LAR,65,O,45,2014,Week 3,58739,LAR,2,-2,WAS,31,34,Y,67277,0,19,72,1,St. Louis,KCPS,KCPS4190313,KCPS,O,21-Sep-14,CST,38.571,-90.156,413,80,58,71,79,59,70,44,53,91,29,57,71,55,62,20,12,327,30,10,9.9,5222,524,5746,703,730,0,0,30.17,29.89,30.03,1021.6,1012.1,1016.8,46,CLR,Fair,KCPS,O,CST,38.571,-90.156,413,79,79,47,32,61,320,20,0,201,CLR,10,720,72,792,720,792,1028,0,0,0,30.01,1016.2,46,CLR,Fair,21-Sep-14,13
KCPS 22/Dec/2013 13,570,LAR2013,22-Dec-13,22-Dec-13,22-Dec-13,1:00,13,LAR,-3.5,TB,36,U,43,2013,Week 16,54423,LAR,-3.5,3.5,BUF,23,13,Y,67277,0,18,72,1,St. Louis,KCPS,KCPS4163013,KCPS,O,22-Dec-13,CST,38.571,-90.156,413,36,28,33,36,18,34,23,29,100,78,89,34,27,32,16,10,285,23,100,9.4,1017,204,1221,0,569,0.04,0,30.29,29.68,29.97,1025.8,1005.2,1015,40,MC,Overcast,KCPS,O,CST,38.571,-90.156,413,34,26,29,82,32,290,10,100,19,OVC,10,178,36,214,356,392,509,0,0,0,29.99,1015.5,40,MC,Overcast,22-Dec-13,13
KCPS 24/Nov/2013 13,571,LAR2013,24-Nov-13,24-Nov-13,24-Nov-13,1:00,13,LAR,-2,CHI,63,O,46,2013,Week 12,66024,LAR,-2,2,MIA,42,21,Y,67277,0,18,72,1,St. Louis,KCPS,KCPS4160213,KCPS,O,24-Nov-13,CST,38.571,-90.156,413,30,16,23,30,6,13,1,8,77,29,56,22,14,18,8,5,44,8,26,10,2340,236,2576,527,589,0,0,30.79,30.48,30.67,1042.8,1032.1,1038.6,46,CLR,Fair,KCPS,O,CST,38.571,-90.156,413,28,22,1,31,21,50,5,2,301,SCT,10,385,39,424,389,428,555,0,0,0,30.67,1038.6,46,CLR,Fair,24-Nov-13,13
KCPS 25/Oct/2015 13,572,LAR2015,25-Oct-15,25-Oct-15,25-Oct-15,1:00,13,LAR,-6,CLE,30,U,44,2015,Week 7,51523,LAR,-6,6,IND,24,6,Y,67277,0,20,72,1,St. Louis,KCPS,KCPS4230213,KCPS,O,25-Oct-15,CST,38.571,-90.156,413,64,42,53,63,44,45,36,41,90,37,66,51,41,47,12,5,57,12,60,10,2436,346,2782,258,648,0,0,30.36,30.24,30.3,1028.1,1023.9,1026,46,CLR,Fair,KCPS,O,CST,38.571,-90.156,413,61,59,40,46,51,200,12,65,301,OVC,10,350,52,402,518,570,740,0,0,0,30.3,1026.2,46,CLR,Fair,25-Oct-15,13
KCPS 26/Sep/2013 20,573,LAR2013,26-Sep-13,26-Sep-13,26-Sep-13,8:25,20,SF,-3.5,LAR,46,O,43,2013,Week 4,56640,LAR,3.5,-3.5,HOU,11,35,Y,67277,0,18,72,1,St. Louis,KCPS,KCPS4154320,KCPS,O,26-Sep-13,CST,38.571,-90.156,413,85,56,70,84,57,64,56,58,100,40,71,69,56,63,9,4,119,9,1,8.2,4903,496,5399,706,718,0,0,30.01,29.88,29.97,1016.3,1011.9,1014.8,46,CLR,Fair,KCPS,O,CST,38.571,-90.156,413,69,69,57,66,62,120,3,0,201,CLR,10,0,0,0,0,0,0,0,0,0,29.98,1015.4,46,CLR,Fair,26-Sep-13,20
KCPS 27/Sep/2015 13,574,LAR2015,27-Sep-15,27-Sep-15,27-Sep-15,1:00,13,LAR,-1,PIT,18,U,48.5,2015,Week 3,52433,LAR,-1,1,BAL,6,12,Y,67277,0,20,72,1,St. Louis,KCPS,KCPS4227413,KCPS,O,27-Sep-15,CST,38.571,-90.156,413,78,67,71,80,67,67,62,64,90,66,79,69,63,67,8,4,120,8,88,9.8,2455,492,2946,0,716,0,0,30.08,29.98,30.03,1018.5,1015.1,1016.8,40,MC,Overcast,KCPS,O,CST,38.571,-90.156,413,75,78,64,69,68,120,6,100,20,OVC,10,342,68,410,685,753,978,0,0,0,30.02,1016.7,40,MC,Overcast,27-Sep-15,13
KCPS 28/Oct/2013 20,575,LAR2013,28-Oct-13,28-Oct-13,28-Oct-13,8:40,20,SEA,-14,LAR,23,U,43.5,2013,Week 8,55966,LAR,14,-14,TEN,9,14,N,67277,0,18,72,1,St. Louis,KCPS,KCPS4157520,KCPS,O,28-Oct-13,CST,38.571,-90.156,413,68,31,48,68,31,46,29,37,96,35,71,54,30,42,9,1,118,9,18,9.9,3226,331,3557,584,641,0,0,30.25,30.08,30.18,1024.3,1018.5,1022,46,CLR,Fair,KCPS,O,CST,38.571,-90.156,413,47,47,41,80,44,0,0,22,301,SCT,10,0,0,0,0,0,0,0,0,0,30.22,1023.4,46,CLR,Fair,28-Oct-13,20
KCPS 30/Nov/2014 13,576,LAR2014,30-Nov-14,30-Nov-14,30-Nov-14,1:00,13,LAR,-6,OAK,52,O,43,2014,Week 13,55650,LAR,-6,6,MIN,52,0,Y,67277,0,19,72,1,St. Louis,KCPS,KCPS4197313,KCPS,O,30-Nov-14,CST,38.571,-90.156,413,71,31,52,71,22,56,22,45,90,53,76,62,29,49,21,12,307,24,53,9.4,1673,223,1896,259,581,0,0,30.34,29.74,29.95,1027.5,1007.2,1014.3,46,CLR,Fair,KCPS,O,CST,38.571,-90.156,413,71,71,53,53,61,250,10,100,55,OVC,10,187,37,224,374,411,534,0,0,0,29.84,1010.4,40,MC,Overcast,30-Nov-14,13
KCQT 01/Jan/2017 16,577,LAR2016,1-Jan-17,1-Jan-17,1-Jan-17,4:25,16,ARI,-7,LAR,50,O,39,2016,Week 17,76005,LAR,7,-7,MIA,6,44,Y,93607,1,0,88,0,Los Angeles,KCQT,KCQT4273616,KCQT,O,1-Jan-17,PST,34.022,-118.291,184,62,43,52,60,44,45,40,43,89,49,73,52,43,47,6,1,69,6,26,9.8,2560,265,2825,484,597,0,0,30.02,29.86,29.93,1016.5,1011.3,1013.6,46,CLR,Fair,KCQT,O,PST,34.022,-118.291,184,59,59,44,58,51,0,0,20,37,SCT,10,59,7,66,66,73,94,0,0,0,29.93,1013.5,44,PC,Partly Cloudy,1-Jan-17,16
KCQT 01/Oct/2017 16,578,LAC2017,1-Oct-17,1-Oct-17,1-Oct-17,4:05,16,LAC,-2,PHI,50,O,48,2017,Week 4,25374,LAC,-2,2,PHI,24,26,N,30000,1,0,65,0,Los Angeles,KCQT,KCQT4300916,KCQT,O,1-Oct-17,PST,34.022,-118.291,184,78,66,70,79,67,60,57,59,79,50,67,66,62,64,5,2,25,5,49,10,4408,516,4923,473,711,0,0,29.86,29.73,29.79,1010.8,1006.6,1008.5,46,CLR,Fair,KCQT,O,PST,34.022,-118.291,184,74,77,60,62,65,370,5,0,201,CLR,10,218,22,240,218,240,311,0,0,0,29.74,1006.8,46,CLR,Fair,1-Oct-17,16
KCQT 03/Dec/2017 16,579,LAC2017,3-Dec-17,3-Dec-17,3-Dec-17,4:05,16,LAC,-13.5,CLE,29,U,44.5,2017,Week 13,25320,LAC,-13.5,13.5,ATL,19,10,N,30000,1,0,87,0,Los Angeles,KCQT,KCQT4307216,KCQT,O,3-Dec-17,PST,34.022,-118.291,184,69,52,59,68,52,55,49,52,97,51,79,60,51,55,6,1,284,6,10,7.2,2727,273,3000,575,601,0,0,30.04,29.93,29.99,1017.3,1013.3,1015.4,46,CLR,Fair,KCQT,O,PST,34.022,-118.291,184,65,65,50,59,57,370,5,11,301,SCT,10,40,4,44,42,46,59,0,0,0,29.93,1013.6,54,CLR,Few High Clouds,3-Dec-17,16
KCQT 03/Nov/2019 13,580,LAC2019,3-Nov-19,3-Nov-19,3-Nov-19,1:00,13,LAC,-3.5,GB,37,O,49,2019,Week 9,25435,LAC,-3.5,3.5,LAC,26,11,Y,30000,0,2,61,0,Los Angeles,KCQT,KCQT4377213,KCQT,O,3-Nov-19,PST,34.017,-118.283,184,81,52,65,80,52,54,25,39,80,14,42,58,44,52,7,1,297,7,0,9.6,3614,361,3975,636,643,0,0,29.99,29.91,29.95,1015.5,1012.6,1014,46,CLR,Fair,KCQT,O,PST,34.017,-118.283,184,80,80,36,20,57,250,3,0,201,CLR,10,533,53,586,533,586,761,0,0,0,29.92,1012.9,46,CLR,Fair,3-Nov-19,13
KCQT 06/Nov/2016 16,581,LAR2016,6-Nov-16,6-Nov-16,6-Nov-16,4:05,16,CAR,-3,LAR,23,U,44.5,2016,Week 9,86109,LAR,3,-3,CLE,10,13,N,93607,1,0,72,0,Los Angeles,KCQT,KCQT4268016,KCQT,O,6-Nov-16,PST,34.022,-118.291,184,76,56,63,77,56,60,54,58,100,48,84,64,55,60,6,1,304,6,19,6.7,2906,345,3250,396,637,0,0,30.09,30,30.04,1018.6,1015.6,1017.1,46,CLR,Fair,KCQT,O,PST,34.022,-118.291,184,69,69,59,70,63,0,0,10,301,SCT,10,67,7,74,71,78,101,0,0,0,30.02,1016.6,54,CLR,Few High Clouds,6-Nov-16,16
KCQT 06/Oct/2019 13,582,LAC2019,6-Oct-19,6-Oct-19,6-Oct-19,1:00,13,LAC,-7.5,DEN,33,O,33,2019,Week 5,25357,LAC,-7.5,7.5,DEN,13,20,N,30000,0,2,53,0,Los Angeles,KCQT,KCQT4374413,KCQT,O,6-Oct-19,PST,34.017,-118.283,184,89,58,72,88,59,60,42,53,79,20,55,67,55,61,6,1,273,7,0,10,4908,490,5398,698,698,0,0,30.13,29.94,30.01,1016.3,1013.6,1014.9,46,CLR,Fair,KCQT,O,PST,34.017,-118.283,184,86,86,56,36,67,250,3,0,201,CLR,10,683,68,751,683,751,976,0,0,0,29.96,1014.2,46,CLR,Fair,6-Oct-19,13
KCQT 07/Oct/2018 16,583,LAC2018,7-Oct-18,7-Oct-18,7-Oct-18,4:05,16,LAC,-5.5,OAK,36,U,51.5,2018,Week 5,25362,LAC,-5.5,5.5,OAK,26,10,Y,30000,0,1,58,0,Los Angeles,KCQT,KCQT4338016,KCQT,O,7-Oct-18,PST,34.017,-118.283,184,78,63,69,78,63,60,55,58,87,54,70,66,60,62,7,1,7,7,22,9.9,4422,486,4908,557,695,0,0,29.82,29.74,29.78,1009.6,1006.7,1008.2,46,CLR,Fair,KCQT,O,PST,34.017,-118.283,184,72,72,59,64,64,0,0,25,373,CLR,10,164,19,183,187,206,267,0,0,0,29.76,1007.6,46,CLR,Fair,7-Oct-18,16
KCQT 08/Dec/2019 13,584,LAR2019,8-Dec-19,8-Dec-19,8-Dec-19,1:00,13,LAR,-7.5,SEA,40,U,52.5,2019,Week 14,71501,LAR,-7.5,7.5,TB,28,12,Y,77500,0,3,46,0,Los Angeles,KCQT,KCQT4380713,KCQT,O,8-Dec-19,PST,34.017,-118.283,184,66,57,62,66,57,58,52,55,87,68,80,60,54,58,8,1,260,11,78,8.4,1370,267,1636,113,597,0.2,0,30.08,29.98,30.03,1018.6,1014.9,1016.7,18,RAIN,Light Rain,KCQT,O,PST,34.017,-118.283,184,64,64,58,81,60,250,5,100,25,OVC,5,214,43,257,428,471,612,99,0.02,0,29.99,1015.5,18,RAIN,Light Rain,8-Dec-19,13
KCQT 08/Oct/2017 16,585,LAR2017,8-Oct-17,8-Oct-17,8-Oct-17,4:05,16,LAR,-2,SEA,26,U,47,2017,Week 5,60745,LAR,-2,2,PHI,10,16,Y,93607,0,1,55,0,Los Angeles,KCQT,KCQT4301616,KCQT,O,8-Oct-17,PST,34.022,-118.291,184,82,63,71,81,63,62,55,59,93,45,68,67,60,64,7,3,58,7,32,8.9,4655,482,5137,603,694,0,0,29.8,29.7,29.74,1008.9,1005.5,1006.9,46,CLR,Fair,KCQT,O,PST,34.022,-118.291,184,75,78,61,62,66,270,7,0,201,CLR,10,181,18,199,181,199,259,0,0,0,29.71,1005.8,46,CLR,Fair,8-Oct-17,16
KCQT 08/Sep/2019 16,586,LAC2019,8-Sep-19,8-Sep-19,8-Sep-19,4:05,16,LAC,-6,IND,54,O,44.5,2019,Week 1,25363,LAC,-6,6,IND,30,24,N,30000,0,2,66,0,Los Angeles,KCQT,KCQT4371616,KCQT,O,8-Sep-19,PST,34.017,-118.283,184,81,65,73,81,65,61,52,58,76,40,61,67,60,64,7,1,305,7,0,10,6290,629,6919,756,757,0,0,29.9,29.82,29.86,1012.4,1009.4,1011,46,CLR,Fair,KCQT,O,PST,34.017,-118.283,184,78,79,53,42,63,250,5,0,201,CLR,10,341,34,375,341,375,487,0,0,0,29.83,1009.9,46,CLR,Fair,8-Sep-19,16
KCQT 09/Dec/2018 16,587,LAC2018,9-Dec-18,9-Dec-18,9-Dec-18,4:05,16,LAC,-16.5,CIN,47,U,48.5,2018,Week 14,25358,LAC,-16.5,16.5,CIN,26,21,N,30000,0,1,79,0,Los Angeles,KCQT,KCQT4344316,KCQT,O,9-Dec-18,PST,34.017,-118.283,184,72,53,61,71,53,51,43,47,78,39,62,59,48,53,5,1,20,5,43,10,2008,267,2275,332,597,0,0,30.29,30.14,30.21,1025.5,1020.5,1022.9,46,CLR,Fair,KCQT,O,PST,34.017,-118.283,184,68,68,51,55,58,0,0,71,301,OVC,10,26,4,30,41,45,58,0,0,0,30.15,1020.9,50,PC,High Overcast,9-Dec-18,16
KCQT 09/Oct/2016 16,588,LAR2016,9-Oct-16,9-Oct-16,9-Oct-16,4:25,16,BUF,-2.5,LAR,49,O,41.5,2016,Week 5,83679,LAR,2.5,-2.5,CIN,19,30,Y,93607,1,0,87,0,Los Angeles,KCQT,KCQT4265216,KCQT,O,9-Oct-16,PST,34.022,-118.291,184,91,61,73,89,61,59,34,47,81,16,46,63,52,59,7,2,291,7,8,10,4680,471,5151,634,692,0,0,29.96,29.9,29.93,1014.4,1012.3,1013.2,46,CLR,Fair,KCQT,O,PST,34.022,-118.291,184,80,80,44,28,60,270,5,22,176,CLR,10,154,17,171,173,190,248,0,0,0,29.9,1012.4,46,CLR,Fair,9-Oct-16,16
KCQT 09/Sep/2018 16,589,LAC2018,9-Sep-18,9-Sep-18,9-Sep-18,4:05,16,LAC,-3.5,KC,66,O,48.5,2018,Week 1,25351,LAC,-3.5,3.5,KC,28,38,Y,30000,0,1,57,0,Los Angeles,KCQT,KCQT4335216,KCQT,O,9-Sep-18,PST,34.017,-118.283,184,89,64,73,90,67,65,60,63,91,45,72,72,63,67,5,1,260,5,27,5.6,5743,624,6366,574,754,0,0,29.86,29.79,29.82,1011.2,1009.1,1010,35,HAZY,Haze,KCQT,O,PST,34.017,-118.283,184,80,82,64,58,70,0,0,0,400,CLR,10,335,34,369,335,369,479,0,0,0,29.79,1009.3,46,CLR,Fair,9-Sep-18,16
KCQT 10/Dec/2017 16,590,LAC2017,10-Dec-17,10-Dec-17,10-Dec-17,4:05,16,LAC,-6,WAS,43,U,46.5,2017,Week 14,25393,LAC,-6,6,PHI,30,13,Y,30000,1,0,81,0,Los Angeles,KCQT,KCQT4307916,KCQT,O,10-Dec-17,PST,34.022,-118.291,184,82,50,65,82,50,29,14,23,38,8,24,53,40,47,3,0,330,3,39,9.8,1992,264,2256,290,596,0,0,30.18,30.07,30.14,1021.8,1018,1020.3,50,PC,High Overcast,KCQT,O,PST,34.022,-118.291,184,78,78,20,11,52,0,0,80,301,OVC,10,25,4,29,41,45,58,0,0,0,30.07,1018,50,PC,High Overcast,10-Dec-17,16
KCQT 10/Dec/2017 16,591,LAR2017,10-Dec-17,10-Dec-17,10-Dec-17,4:25,16,PHI,-1.5,LAR,78,O,47.5,2017,Week 14,67752,LAR,1.5,-1.5,NO,35,43,Y,93607,0,1,40,0,Los Angeles,KCQT,KCQT4307916,KCQT,O,10-Dec-17,PST,34.022,-118.291,184,82,50,65,82,50,29,14,23,38,8,24,53,40,47,3,0,330,3,39,9.8,1992,264,2256,290,596,0,0,30.18,30.07,30.14,1021.8,1018,1020.3,50,PC,High Overcast,KCQT,O,PST,34.022,-118.291,184,78,78,20,11,52,0,0,80,301,OVC,10,25,4,29,41,45,58,0,0,0,30.07,1018,50,PC,High Overcast,10-Dec-17,16
KCQT 10/Sep/2017 16,592,LAR2017,10-Sep-17,10-Sep-17,10-Sep-17,4:05,16,LAR,-3.5,IND,55,O,41.5,2017,Week 1,60128,LAR,-3.5,3.5,DET,46,9,Y,93607,0,1,59,0,Los Angeles,KCQT,KCQT4298816,KCQT,O,10-Sep-17,PST,34.022,-118.291,184,91,67,76,92,67,67,55,62,84,33,65,73,64,67,6,1,279,6,26,9.7,5984,620,6604,651,753,0,0,29.94,29.83,29.88,1013.6,1009.7,1011.6,46,CLR,Fair,KCQT,O,PST,34.022,-118.291,184,80,81,61,52,68,260,6,43,301,BKN,10,258,33,291,329,362,471,0,0,0,29.83,1009.7,52,PC,High Clouds,10-Sep-17,16
KCQT 11/Dec/2016 16,593,LAR2016,11-Dec-16,11-Dec-16,11-Dec-16,4:25,16,ATL,-5,LAR,56,O,44,2016,Week 14,79088,LAR,5,-5,KC,14,42,Y,93607,1,0,64,0,Los Angeles,KCQT,KCQT4271516,KCQT,O,11-Dec-16,PST,34.022,-118.291,184,65,59,61,65,59,58,56,57,93,73,87,60,58,59,3,1,319,3,96,7.2,1312,262,1573,45,596,0,0,30.15,30.05,30.09,1020.9,1017.3,1018.8,40,MC,Overcast,KCQT,O,PST,34.022,-118.291,184,65,65,57,76,60,0,0,100,27,SCT,10,21,4,25,42,46,60,0,0,0,30.05,1017.3,40,MC,Overcast,11-Dec-16,16
KCQT 11/Nov/2018 16,594,LAR2018,11-Nov-18,11-Nov-18,11-Nov-18,4:25,16,LAR,-9.5,SEA,67,O,51,2018,Week 10,72755,LAR,-9.5,9.5,SEA,36,31,N,93607,0,2,62,0,Los Angeles,KCQT,KCQT4341516,KCQT,O,11-Nov-18,PST,34.017,-118.283,184,78,50,61,77,50,54,23,37,83,13,47,57,41,50,5,1,337,5,7,6.8,3045,331,3376,551,629,0,0,30.17,29.97,30.04,1021.5,1014.6,1017.3,35,HAZY,Haze,KCQT,O,PST,34.017,-118.283,184,75,75,33,22,54,270,3,0,399,CLR,10,64,6,70,64,70,91,0,0,0,30.03,1016.7,46,CLR,Fair,11-Nov-18,16
KCQT 12/Nov/2017 16,595,LAR2017,12-Nov-17,12-Nov-17,12-Nov-17,4:05,16,LAR,-13,HOU,40,U,45.5,2017,Week 10,60032,LAR,-13,13,NYG,33,7,Y,93607,0,1,59,0,Los Angeles,KCQT,KCQT4305116,KCQT,O,12-Nov-17,PST,34.022,-118.291,184,69,55,62,69,55,57,51,54,93,59,78,61,53,58,5,1,45,5,52,7.8,2034,327,2360,137,628,0,0,30.09,30.02,30.05,1018.8,1016.3,1017.4,35,HAZY,Haze,KCQT,O,PST,34.022,-118.291,184,66,66,57,73,61,0,0,87,301,OVC,7,34,6,40,61,67,86,0,0,0,30.03,1016.6,50,PC,High Overcast,12-Nov-17,16
KCQT 13/Oct/2019 13,596,LAR2019,13-Oct-19,13-Oct-19,13-Oct-19,1:00,13,LAR,-8.5,SF,27,O,35,2019,Week 6,75695,LAR,-8.5,8.5,GB,7,20,Y,77500,0,3,56,0,Los Angeles,KCQT,KCQT4375113,KCQT,O,13-Oct-19,PST,34.017,-118.283,184,78,57,67,79,57,58,46,53,81,40,64,65,51,59,7,1,285,7,3,9.7,4561,455,5016,684,684,0,0,29.89,29.82,29.85,1012,1009.6,1010.7,46,CLR,Fair,KCQT,O,PST,34.017,-118.283,184,76,78,56,50,64,370,3,0,201,CLR,10,643,64,707,643,707,919,0,0,0,29.83,1009.8,46,CLR,Fair,13-Oct-19,13
KCQT 13/Oct/2019 13,597,LAC2019,13-Oct-19,13-Oct-19,13-Oct-19,1:00,13,LAC,-4.5,PIT,41,U,53,2019,Week 6,25425,LAC,-4.5,4.5,LAC,17,24,Y,30000,0,2,30,0,Los Angeles,KCQT,KCQT4375113,KCQT,O,13-Oct-19,PST,34.017,-118.283,184,78,57,67,79,57,58,46,53,81,40,64,65,51,59,7,1,285,7,3,9.7,4561,455,5016,684,684,0,0,29.89,29.82,29.85,1012,1009.6,1010.7,46,CLR,Fair,KCQT,O,PST,34.017,-118.283,184,76,78,56,50,64,370,3,0,201,CLR,10,643,64,707,643,707,919,0,0,0,29.83,1009.8,46,CLR,Fair,13-Oct-19,13
KCQT 15/Dec/2019 13,598,LAC2019,15-Dec-19,15-Dec-19,15-Dec-19,1:00,13,LAC,-3.5,MIN,49,O,47,2019,Week 15,25446,LAC,-3.5,3.5,MIN,10,39,Y,30000,0,2,42,0,Los Angeles,KCQT,KCQT4381413,KCQT,O,15-Dec-19,PST,34.017,-118.283,184,64,53,58,63,54,38,28,32,78,31,39,53,43,47,10,4,345,20,6,10,2510,260,2771,534,594,0,0,30.13,29.93,30.03,1020.1,1013.2,1016.6,46,CLR,Fair,KCQT,O,PST,34.017,-118.283,184,63,63,32,31,49,370,7,0,354,CLR,10,425,42,467,425,467,607,0,0,0,30.02,1016.4,46,CLR,Fair,15-Dec-19,13
KCQT 15/Sep/2019 16,599,LAR2019,15-Sep-19,15-Sep-19,15-Sep-19,4:25,16,LAR,-1.5,NO,36,U,52.5,2019,Week 2,71460,LAR,-1.5,1.5,IND,27,9,Y,77500,0,3,52,0,Los Angeles,KCQT,KCQT4372316,KCQT,O,15-Sep-19,PST,34.017,-118.283,184,87,67,74,87,67,67,61,64,93,45,74,72,65,68,6,2,292,6,35,7.1,4519,597,5116,392,742,0,0,29.9,29.83,29.87,1012.3,1010,1011,54,CLR,Few High Clouds,KCQT,O,PST,34.017,-118.283,184,79,81,64,60,69,250,5,20,301,SCT,10,274,30,304,304,334,434,0,0,0,29.83,1010,54,CLR,Few High Clouds,15-Sep-19,16
KCQT 16/Dec/2018 20,600,LAR2018,16-Dec-18,16-Dec-18,16-Dec-18,8:20,20,LAR,-13.5,PHI,53,U,53.5,2018,Week 15,74210,LAR,-13.5,13.5,PHI,23,30,N,93607,0,2,89,0,Los Angeles,KCQT,KCQT4345020,KCQT,O,16-Dec-18,PST,34.017,-118.283,184,71,46,57,71,46,55,34,45,90,27,69,58,43,51,6,1,4,6,24,9.6,2570,260,2830,578,594,0,0,30.16,30.08,30.12,1021.2,1018.7,1019.8,46,CLR,Fair,KCQT,O,PST,34.017,-118.283,184,57,57,54,90,55,0,0,60,344,CLR,10,0,0,0,0,0,0,0,0,0,30.13,1020.4,46,CLR,Fair,16-Dec-18,20
KCQT 16/Sep/2018 16,601,LAR2018,16-Sep-18,16-Sep-18,16-Sep-18,4:05,16,LAR,-12.5,ARI,34,U,43.5,2018,Week 2,66515,LAR,-12.5,12.5,ARI,34,0,Y,93607,0,2,84,0,Los Angeles,KCQT,KCQT4335916,KCQT,O,16-Sep-18,PST,34.017,-118.283,184,87,64,73,86,64,60,53,57,84,34,59,68,61,64,5,1,343,5,0,10,5911,590,6501,739,739,0,0,29.92,29.84,29.87,1012.8,1010.2,1011.3,46,CLR,Fair,KCQT,O,PST,34.017,-118.283,184,81,81,53,38,64,370,5,0,400,CLR,10,298,30,328,298,328,425,0,0,0,29.85,1010.7,46,CLR,Fair,16-Sep-18,16
KCQT 17/Nov/2019 13,602,LAR2019,17-Nov-19,17-Nov-19,17-Nov-19,1:00,13,LAR,-5.5,CHI,24,U,51,2019,Week 11,70758,LAR,-5.5,5.5,IND,17,7,Y,77500,0,3,83,0,Los Angeles,KCQT,KCQT4378613,KCQT,O,17-Nov-19,PST,34.017,-118.283,184,92,55,73,92,55,53,27,38,78,10,38,60,51,56,5,1,329,5,0,9.9,3118,312,3430,615,620,0,0,29.98,29.9,29.94,1015.2,1012.2,1013.6,46,CLR,Fair,KCQT,O,PST,34.017,-118.283,184,90,90,34,14,60,0,0,0,201,CLR,10,475,48,523,475,523,679,0,0,0,29.91,1012.5,46,CLR,Fair,17-Nov-19,13
KCQT 17/Sep/2017 16,603,LAC2017,17-Sep-17,17-Sep-17,17-Sep-17,4:05,16,LAC,-3.5,MIA,36,U,46,2017,Week 2,25381,LAC,-3.5,3.5,MIA,17,19,N,30000,1,0,56,0,Los Angeles,KCQT,KCQT4299516,KCQT,O,17-Sep-17,PST,34.022,-118.291,184,76,66,70,78,66,61,58,60,81,60,71,66,61,64,5,1,306,5,51,10,3369,587,3955,235,738,0,0,29.97,29.9,29.93,1014.6,1012.1,1013.2,40,MC,Overcast,KCQT,O,PST,34.022,-118.291,184,74,77,61,64,66,0,0,1,301,SCT,10,291,29,320,292,321,417,0,0,0,29.9,1012.3,54,CLR,Few High Clouds,17-Sep-17,16
KCQT 17/Sep/2017 16,604,LAR2017,17-Sep-17,17-Sep-17,17-Sep-17,4:25,16,LAR,-3,WAS,47,O,46.5,2017,Week 2,56612,LAR,-3,3,WAS,20,27,Y,93607,0,1,81,0,Los Angeles,KCQT,KCQT4299516,KCQT,O,17-Sep-17,PST,34.022,-118.291,184,76,66,70,78,66,61,58,60,81,60,71,66,61,64,5,1,306,5,51,10,3369,587,3955,235,738,0,0,29.97,29.9,29.93,1014.6,1012.1,1013.2,40,MC,Overcast,KCQT,O,PST,34.022,-118.291,184,74,77,61,64,66,0,0,1,301,SCT,10,291,29,320,292,321,417,0,0,0,29.9,1012.3,54,CLR,Few High Clouds,17-Sep-17,16
KCQT 18/Nov/2018 16,605,LAC2018,18-Nov-18,18-Nov-18,18-Nov-18,4:05,16,LAC,-7,DEN,45,U,47,2018,Week 11,25462,LAC,-7,7,DEN,22,23,N,30000,0,1,53,0,Los Angeles,KCQT,KCQT4342216,KCQT,O,18-Nov-18,PST,34.017,-118.283,184,74,55,63,76,55,56,42,52,90,33,71,61,53,57,6,1,359,6,22,4.6,2834,309,3143,485,619,0,0,30.09,29.97,30.03,1018.9,1014.8,1016.8,35,HAZY,Haze,KCQT,O,PST,34.017,-118.283,184,69,69,53,57,60,370,5,20,301,OVC,4,47,5,52,52,57,74,0,0,0,29.98,1015,35,HAZY,Haze,18-Nov-18,16
KCQT 18/Nov/2019 13,606,LAC2019,18-Nov-19,18-Nov-19,18-Nov-19,1:00,13,KC,-2.5,LAC (Mexico),41,U,56,2019,Week 11,76252,LAC,2.5,-2.5,KC,17,24,Y,30000,0,2,77,0,Los Angeles,KCQT,KCQT4378713,KCQT,O,18-Nov-19,PST,34.017,-118.283,184,92,63,76,91,65,53,22,32,55,8,23,60,47,54,6,2,17,6,11,10,3045,309,3354,581,619,0,0,29.92,29.76,29.85,1012.9,1007.5,1010.6,46,CLR,Fair,KCQT,O,PST,34.017,-118.283,184,91,91,24,9,58,0,0,0,201,CLR,10,472,47,519,472,519,675,0,0,0,29.8,1008.8,46,CLR,Fair,18-Nov-19,13
KCQT 18/Sep/2016 16,607,LAR2016,18-Sep-16,18-Sep-16,18-Sep-16,4:05,16,SEA,-5.5,LAR,12,U,38,2016,Week 2,91046,LAR,5.5,-5.5,SEA,9,3,Y,93607,1,0,85,0,Los Angeles,KCQT,KCQT4263116,KCQT,O,18-Sep-16,PST,34.022,-118.291,184,90,61,71,90,61,63,60,62,97,43,76,72,60,66,6,1,318,6,0,7.3,5764,576,6340,736,736,0,0,29.94,29.86,29.9,1013.6,1010.8,1012.1,46,CLR,Fair,KCQT,O,PST,34.022,-118.291,184,78,80,63,60,69,370,3,0,201,CLR,9,284,28,312,284,312,405,0,0,0,29.86,1010.8,46,CLR,Fair,18-Sep-16,16
KCQT 19/Nov/2017 16,608,LAC2017,19-Nov-17,19-Nov-17,19-Nov-17,4:05,16,LAC,-7,BUF,78,O,41.5,2017,Week 11,25015,LAC,-7,7,BUF,54,24,Y,30000,1,0,89,0,Los Angeles,KCQT,KCQT4305816,KCQT,O,19-Nov-17,PST,34.022,-118.291,184,77,55,64,76,57,51,22,34,78,16,36,56,43,50,5,2,20,5,6,10,2816,306,3122,554,617,0,0,30.07,29.95,30.01,1018.2,1014,1016.3,46,CLR,Fair,KCQT,O,PST,34.022,-118.291,184,71,71,35,27,53,270,5,4,301,SCT,10,49,5,54,50,55,72,0,0,0,29.95,1014.1,54,CLR,Few High Clouds,19-Nov-17,16
KCQT 19/Nov/2018 20,609,LAR2018,19-Nov-18,19-Nov-18,19-Nov-18,8:15,20,LAR,-3,KC,105,O,63.5,2018,Week 11,68756,LAR,-3,3,KC,54,51,N,93607,0,2,66,0,Los Angeles,KCQT,KCQT4342320,KCQT,O,19-Nov-18,PST,34.017,-118.283,184,73,52,62,72,52,57,30,46,87,21,61,59,47,54,3,0,4,3,58,6.7,1779,306,2084,108,617,0,0,30.06,29.97,30.02,1017.9,1014.9,1016.3,35,HAZY,Haze,KCQT,O,PST,34.017,-118.283,184,62,62,56,81,59,0,0,26,301,BKN,5,0,0,0,0,0,0,0,0,0,30,1015.8,35,HAZY,Haze,19-Nov-18,20
KCQT 20/Nov/2016 16,610,LAR2016,20-Nov-16,20-Nov-16,20-Nov-16,4:05,16,MIA,-1,LAR,24,U,38.5,2016,Week 11,68756,LAR,1,-1,NO,10,14,Y,93607,1,0,63,0,Los Angeles,KCQT,KCQT4269416,KCQT,O,20-Nov-16,PST,34.022,-118.291,184,65,54,58,64,55,57,45,54,100,67,86,59,50,56,6,1,54,6,79,7.6,1689,299,1989,100,616,0.55,0,30.02,29.9,29.96,1016.3,1012.3,1014.5,18,RAIN,Light Rain,KCQT,O,PST,34.022,-118.291,184,58,58,56,93,57,0,0,100,44,OVC,4,24,5,29,48,53,68,99,0.01,0,29.93,1013.6,18,RAIN,Light Rain,20-Nov-16,16
KCQT 22/Dec/2018 20,611,LAC2018,22-Dec-18,22-Dec-18,22-Dec-18,8:20,20,LAC,-4,BAL,32,U,42.5,2018,Week 16,25571,LAC,-4,4,BAL,10,22,Y,30000,0,1,62,0,Los Angeles,KCQT,KCQT4345620,KCQT,O,22-Dec-18,PST,34.017,-118.283,184,70,49,57,69,50,55,45,51,100,42,82,60,49,54,5,0,270,5,15,4.7,2537,258,2795,556,593,0,0,30.11,29.98,30.05,1019.7,1015,1017.4,64,HAZY,Mist,KCQT,O,PST,34.017,-118.283,184,56,56,54,93,55,0,0,35,399,CLR,6,0,0,0,0,0,0,0,0,0,30.07,1018.2,64,HAZY,Mist,22-Dec-18,20
KCQT 22/Dec/2019 13,612,LAC2019,22-Dec-19,22-Dec-19,22-Dec-19,1:00,13,LAC,-9,OAK,41,O,59,2019,Week 16,25380,LAC,-9,9,ARI,17,24,N,30000,0,2,31,0,Los Angeles,KCQT,KCQT4382113,KCQT,O,22-Dec-19,PST,34.017,-118.283,184,69,54,61,69,53,52,26,39,81,27,45,56,45,51,12,5,50,17,72,8.8,2196,258,2454,338,593,0.8,0,29.99,29.86,29.92,1015.4,1010.8,1012.9,46,CLR,Fair,KCQT,O,PST,34.017,-118.283,184,69,69,44,41,56,0,5,5,120,FEW,10,420,43,463,427,470,609,0,0,0,29.91,1012.7,45,CLR,Mostly Clear,22-Dec-19,13
KCQT 22/Oct/2017 16,613,LAC2017,22-Oct-17,22-Oct-17,22-Oct-17,4:25,16,DEN,-1,LAC,21,U,41,2017,Week 7,25388,LAC,1,-1,DEN,21,0,Y,30000,1,0,23,0,Los Angeles,KCQT,KCQT4303016,KCQT,O,22-Oct-17,PST,34.022,-118.291,184,93,62,76,92,62,56,30,39,63,11,32,63,50,57,5,1,283,5,0,10,4135,413,4548,664,665,0,0,30.12,30.03,30.07,1019.6,1016.7,1018,46,CLR,Fair,KCQT,O,PST,34.022,-118.291,184,87,87,32,14,59,270,5,2,301,SCT,10,120,12,132,121,133,173,0,0,0,30.04,1016.9,54,CLR,Few High Clouds,22-Oct-17,16
KCQT 22/Sep/2019 16,614,LAC2019,22-Sep-19,22-Sep-19,22-Sep-19,4:25,16,LAC,-3,HOU,47,U,49,2019,Week 3,25349,LAC,-3,3,HOU,20,27,Y,30000,0,2,23,0,Los Angeles,KCQT,KCQT4373016,KCQT,O,22-Sep-19,PST,34.017,-118.283,184,94,67,77,91,67,65,51,59,76,26,56,71,61,66,3,1,23,3,17,10,4575,562,5137,511,727,0,0,29.9,29.82,29.86,1012.3,1009.5,1010.8,46,CLR,Fair,KCQT,O,PST,34.017,-118.283,184,88,89,61,40,71,370,3,1,201,SCT,10,265,27,292,266,293,380,0,0,0,29.83,1009.8,44,PC,Partly Cloudy,22-Sep-19,16
KCQT 23/Sep/2018 16,615,LAR2018,23-Sep-18,23-Sep-18,23-Sep-18,4:05,16,LAR,-7,LAC,58,O,49,2018,Week 3,68947,LAR,-7,7,LAC,35,23,Y,93607,0,2,49,0,Los Angeles,KCQT,KCQT4336616,KCQT,O,23-Sep-18,PST,34.017,-118.283,184,80,65,70,80,65,62,59,61,87,52,73,67,62,64,5,1,352,5,20,9.9,5405,556,5961,678,726,0,0,29.92,29.81,29.86,1012.9,1009.1,1011,46,CLR,Fair,KCQT,O,PST,34.017,-118.283,184,74,77,61,64,66,370,3,0,201,CLR,10,260,26,286,260,286,371,0,0,0,29.81,1009.2,46,CLR,Fair,23-Sep-18,16
KCQT 24/Dec/2016 16,616,LAR2016,24-Dec-16,24-Dec-16,24-Dec-16,4:25,16,LAR,-6,SF,43,O,39.5,2016,Week 16,70803,LAR,-6,6,MIN,21,22,N,93607,1,0,55,0,Los Angeles,KCQT,KCQT4272816,KCQT,O,24-Dec-16,PST,34.022,-118.291,184,61,47,53,59,49,52,27,36,96,34,57,53,41,46,7,3,329,7,40,10,1980,259,2239,338,594,0.14,0,29.94,29.71,29.79,1014,1006.1,1008.7,42,MC,Mostly Cloudy,KCQT,O,PST,34.022,-118.291,184,57,57,29,34,45,320,3,70,75,BKN,10,34,5,39,52,57,75,0,0,0,29.76,1007.7,42,MC,Mostly Cloudy,24-Dec-16,16
KCQT 24/Sep/2017 16,617,LAC2017,24-Sep-17,24-Sep-17,24-Sep-17,4:25,16,KC,-3,LAC,34,U,48,2017,Week 3,25386,LAC,3,-3,KC,10,24,Y,30000,1,0,42,0,Los Angeles,KCQT,KCQT4300216,KCQT,O,24-Sep-17,PST,34.022,-118.291,184,86,59,72,85,60,55,37,46,78,18,46,63,54,58,7,1,297,7,1,10,5514,550,6064,723,723,0,0,29.89,29.82,29.85,1011.8,1009.4,1010.5,46,CLR,Fair,KCQT,O,PST,34.022,-118.291,184,78,78,42,28,59,370,7,0,201,CLR,10,254,25,279,254,279,363,0,0,0,29.82,1009.5,46,CLR,Fair,24-Sep-17,16
KCQT 25/Nov/2018 16,618,LAC2018,25-Nov-18,25-Nov-18,25-Nov-18,4:05,16,LAC,-14,ARI,55,O,43.5,2018,Week 12,25343,LAC,-14,14,ARI,45,10,Y,30000,0,1,73,0,Los Angeles,KCQT,KCQT4342916,KCQT,O,25-Nov-18,PST,34.017,-118.283,184,76,56,64,77,56,57,45,53,90,39,73,62,53,58,5,0,326,5,23,9.4,2639,289,2930,490,609,0,0,30.06,29.93,29.99,1017.8,1013.2,1015.4,46,CLR,Fair,KCQT,O,PST,34.017,-118.283,184,71,71,56,59,62,370,3,0,386,CLR,10,45,4,49,45,49,64,0,0,0,29.97,1014.7,46,CLR,Fair,25-Nov-18,16
KCQT 25/Nov/2019 13,619,LAR2019,25-Nov-19,25-Nov-19,25-Nov-19,1:00,13,LAR,-7.5,BAL,51,O,48,2019,Week 12,72409,LAR,-7.5,7.5,IND,6,45,Y,77500,0,3,46,0,Los Angeles,KCQT,KCQT4379413,KCQT,O,25-Nov-19,PST,34.017,-118.283,184,71,51,61,70,51,53,22,46,78,19,59,60,46,53,7,2,45,20,11,9.9,2734,289,3023,557,609,0,0,29.96,29.76,29.86,1014.4,1007.6,1010.8,46,CLR,Fair,KCQT,O,PST,34.017,-118.283,184,68,68,52,57,59,0,0,70,33,BKN,10,294,45,339,452,497,646,0,0,0,29.81,1009.3,42,MC,Mostly Cloudy,25-Nov-19,13
KCQT 26/Nov/2017 16,620,LAR2017,26-Nov-17,26-Nov-17,26-Nov-17,4:25,16,LAR,-2.5,NO,46,U,54,2017,Week 12,62006,LAR,-2.5,2.5,IND,26,20,Y,93607,0,1,87,0,Los Angeles,KCQT,KCQT4306516,KCQT,O,26-Nov-17,PST,34.022,-118.291,184,71,58,62,69,58,58,55,56,93,61,83,61,56,58,7,1,345,7,59,4.3,2597,288,2885,399,608,0,0,30.11,29.98,30.04,1019.4,1015,1017.1,40,MC,Overcast,KCQT,O,PST,34.022,-118.291,184,63,63,56,78,59,370,5,14,301,OVC,5,29,4,33,45,49,64,0,0,0,30,1015.6,35,HAZY,Haze,26-Nov-17,16
KCQT 27/Oct/2019 13,621,LAR2019,27-Oct-19,27-Oct-19,27-Oct-19,1:00,13,LAR,-13,CIN,34,O,31,2019,Week 8,83720,LAR,-13,13,CIN,24,10,Y,77500,0,3,83,0,Los Angeles,KCQT,KCQT4376513,KCQT,O,27-Oct-19,PST,34.017,-118.283,184,74,62,68,77,63,61,53,56,81,53,66,64,58,61,8,2,68,8,42,10,2572,391,2964,194,656,0,0,29.92,29.73,29.79,1012.8,1006.6,1008.6,46,CLR,Fair,KCQT,O,PST,34.017,-118.283,184,73,76,55,53,62,0,0,70,31,BKN,10,369,57,426,568,625,811,0,0,0,29.77,1007.9,42,MC,Mostly Cloudy,27-Oct-19,13
KCQT 27/Sep/2018 20,622,LAR2018,27-Sep-18,27-Sep-18,27-Sep-18,8:20,20,LAR,-7,MIN,69,O,49,2018,Week 4,72027,LAR,-7,7,MIN,38,31,N,93607,0,2,79,0,Los Angeles,KCQT,KCQT4337020,KCQT,O,27-Sep-18,PST,34.017,-118.283,184,80,64,70,82,64,64,60,62,90,58,77,70,62,65,5,1,292,5,12,7.3,5039,536,5575,602,717,0,0,29.93,29.81,29.88,1013.4,1009.3,1011.6,46,CLR,Fair,KCQT,O,PST,34.017,-118.283,184,67,67,61,81,63,0,0,0,301,SCT,9,0,0,0,0,0,0,0,0,0,29.85,1010.7,54,CLR,Few High Clouds,27-Sep-18,20
KCQT 28/Oct/2018 16,623,LAR2018,28-Oct-18,28-Oct-18,28-Oct-18,4:25,16,LAR,-7.5,GB,56,U,57,2018,Week 8,75822,LAR,-7.5,7.5,GB,29,27,N,93607,0,2,41,0,Los Angeles,KCQT,KCQT4340116,KCQT,O,28-Oct-18,PST,34.017,-118.283,184,81,58,65,80,58,60,54,59,100,41,82,66,57,62,7,1,273,7,47,3.3,3506,386,3892,460,654,0,0,30.02,29.96,29.99,1016.5,1014.2,1015.3,35,HAZY,Haze,KCQT,O,PST,34.017,-118.283,184,71,71,59,66,64,0,0,60,266,CLR,5,70,10,80,100,110,143,0,0,0,29.96,1014.2,35,HAZY,Haze,28-Oct-18,16
KCQT 29/Sep/2019 16,624,LAR2019,29-Sep-19,29-Sep-19,29-Sep-19,4:05,16,LAR,-9.5,TB,95,O,48.5,2019,Week 4,68117,LAR,-9.5,9.5,TB,40,55,Y,77500,0,3,43,0,Los Angeles,KCQT,KCQT4373716,KCQT,O,29-Sep-19,PST,34.017,-118.283,184,76,60,67,76,60,53,48,50,75,41,57,62,55,58,7,1,250,7,9,10,5224,525,5749,706,712,0,0,29.87,29.81,29.84,1011.4,1009.1,1010.3,46,CLR,Fair,KCQT,O,PST,34.017,-118.283,184,71,71,50,47,59,250,7,0,201,CLR,10,228,23,251,228,251,326,0,0,0,29.82,1009.7,46,CLR,Fair,29-Sep-19,16
KCQT 30/Dec/2018 16,625,LAR2018,30-Dec-18,30-Dec-18,30-Dec-18,4:25,16,LAR,-11,SF,80,O,50,2018,Week 17,72161,LAR,-11,11,SF,48,32,Y,93607,0,2,25,0,Los Angeles,KCQT,KCQT4346416,KCQT,O,30-Dec-18,PST,34.017,-118.283,184,66,41,53,65,42,47,27,36,75,26,54,54,37,45,3,0,7,3,7,10,2566,263,2829,563,596,0,0,30.17,29.94,30.03,1021.8,1014,1017,46,CLR,Fair,KCQT,O,PST,34.017,-118.283,184,62,62,47,58,54,0,0,16,201,SCT,10,56,6,62,61,67,87,0,0,0,29.94,1014,44,PC,Partly Cloudy,30-Dec-18,16
KCQT 30/Sep/2018 16,626,LAC2018,30-Sep-18,30-Sep-18,30-Sep-18,4:25,16,LAC,-10,SF,56,O,46.5,2018,Week 4,25397,LAC,-10,10,SF,29,27,N,30000,0,1,60,0,Los Angeles,KCQT,KCQT4337316,KCQT,O,30-Sep-18,PST,34.017,-118.283,184,85,61,71,85,62,63,50,59,90,32,68,69,60,64,7,1,292,7,21,9.1,4769,521,5290,493,711,0,0,29.89,29.81,29.86,1011.9,1009.1,1010.8,46,CLR,Fair,KCQT,O,PST,34.017,-118.283,184,79,80,57,47,66,260,3,100,85,OVC,10,111,22,133,222,244,317,0,0,0,29.81,1009.3,40,MC,Overcast,30-Sep-18,16
KCQT 31/Dec/2017 16,627,LAR2017,31-Dec-17,31-Dec-17,31-Dec-17,4:25,16,SF,-6.5,LAR,47,O,44,2017,Week 17,66125,LAR,6.5,-6.5,HOU,13,34,Y,93607,0,1,82,0,Los Angeles,KCQT,KCQT4310016,KCQT,O,31-Dec-17,PST,34.022,-118.291,184,69,49,56,67,50,53,41,50,100,39,84,58,49,53,5,0,303,5,40,2.4,2380,264,2643,435,596,0,0,30.15,30.05,30.09,1021,1017.4,1018.9,34,FOG,Fog,KCQT,O,PST,34.022,-118.291,184,63,63,52,68,57,270,5,5,301,SCT,5,62,6,68,64,70,91,0,0,0,30.05,1017.6,35,HAZY,Haze,31-Dec-17,16
KCQT 31/Dec/2017 16,628,LAC2017,31-Dec-17,31-Dec-17,31-Dec-17,4:25,16,LAC,-7,OAK,40,U,43,2017,Week 17,25430,LAC,-7,7,SF,30,10,Y,30000,1,0,60,0,Los Angeles,KCQT,KCQT4310016,KCQT,O,31-Dec-17,PST,34.022,-118.291,184,69,49,56,67,50,53,41,50,100,39,84,58,49,53,5,0,303,5,40,2.4,2380,264,2643,435,596,0,0,30.15,30.05,30.09,1021,1017.4,1018.9,34,FOG,Fog,KCQT,O,PST,34.022,-118.291,184,63,63,52,68,57,270,5,5,301,SCT,5,62,6,68,64,70,91,0,0,0,30.05,1017.6,35,HAZY,Haze,31-Dec-17,16
KDAL 01/Nov/2015 16,629,DAL2015,1-Nov-15,1-Nov-15,1-Nov-15,4:25,16,SEA,-5,DAL,25,U,41.5,2015,Week 8,91486,DAL,5,-5,BUF,12,13,N,105000,0,6,63,1,Dallas,KDAL,KDAL4230916,KDAL,O,1-Nov-15,CST,32.847,-96.852,486,63,58,60,62,57,59,54,56,96,78,86,60,56,58,10,5,339,10,87,9.2,1289,383,1672,0,650,0.07,0,30,29.92,29.96,1016,1013.1,1014.4,45,CLR,Mostly Clear,KDAL,O,CST,32.847,-96.852,486,62,62,59,90,60,320,7,100,8,BKN,10,0,20,20,197,217,282,99,0.01,0,29.92,1013.1,18,RAIN,Light Rain,1-Nov-15,16
KDAL 01/Oct/2017 13,630,DAL2017,1-Oct-17,1-Oct-17,1-Oct-17,1:00,13,DAL,-5.5,LAR,65,O,50.5,2017,Week 4,91869,DAL,-5.5,5.5,LAR,30,35,N,105000,0,8,78,0,Dallas,KDAL,KDAL4300913,KDAL,O,1-Oct-17,CST,32.847,-96.852,486,89,67,77,88,67,62,50,54,61,27,45,68,59,63,13,8,143,13,33,10,5029,529,5558,571,712,0,0,30.03,29.85,29.94,1016.8,1010.8,1013.9,46,CLR,Fair,KDAL,O,CST,32.847,-96.852,486,85,85,50,30,64,150,7,5,150,FEW,10,754,77,831,767,844,1096,0,0,0,29.93,1013.7,45,CLR,Mostly Clear,1-Oct-17,13
KDAL 02/Nov/2014 13,631,DAL2014,2-Nov-14,2-Nov-14,2-Nov-14,1:00,13,DAL,-1.5,ARI,45,P,45,2014,Week 9,85688,DAL,-1.5,1.5,DAL,17,28,Y,105000,0,5,64,1,Dallas,KDAL,KDAL4194513,KDAL,O,2-Nov-14,CST,32.847,-96.852,486,68,45,56,67,39,46,32,39,63,42,53,55,40,47,20,16,148,26,75,10,1989,379,2368,24,648,0,0,30.35,30.17,30.25,1027.9,1021.8,1024.3,45,CLR,Mostly Clear,KDAL,O,CST,32.847,-96.852,486,64,63,41,43,52,160,12,100,170,OVC,10,388,60,448,597,657,853,0,0,0,30.24,1024,40,MC,Overcast,2-Nov-14,13
KDAL 03/Jan/2016 13,632,DAL2015,3-Jan-16,3-Jan-16,3-Jan-16,1:00,13,DAL,-3,WAS,57,O,41,2015,Week 17,90127,DAL,-3,3,KC,23,34,Y,105000,0,6,78,0,Dallas,KDAL,KDAL4237213,KDAL,O,3-Jan-16,CST,32.847,-96.852,486,59,33,45,59,31,33,21,30,85,26,57,46,32,39,15,5,332,15,7,10,2751,281,3032,567,603,0,0,30.31,30.21,30.27,1026.4,1023.1,1025,46,CLR,Fair,KDAL,O,CST,32.847,-96.852,486,55,54,31,40,44,300,6,5,300,FEW,10,482,49,531,489,538,699,0,0,0,30.24,1024.1,45,CLR,Mostly Clear,3-Jan-16,13
KDAL 03/Nov/2013 13,633,DAL2013,3-Nov-13,3-Nov-13,3-Nov-13,1:00,13,DAL,-9,MIN,50,U,51.5,2013,Week 9,85360,DAL,-9,9,DET,27,23,N,105000,0,4,72,1,Dallas,KDAL,KDAL4158113,KDAL,O,3-Nov-13,CST,32.847,-96.852,486,68,47,58,67,44,45,36,39,69,32,50,52,42,48,21,11,156,23,49,10,3235,375,3610,332,647,0,0,30.21,30,30.11,1023,1016,1019.7,45,CLR,Mostly Clear,KDAL,O,CST,32.847,-96.852,486,66,66,37,34,52,180,10,75,180,BKN,10,457,59,516,592,651,846,0,0,0,30.1,1019.4,45,CLR,Mostly Clear,3-Nov-13,13
KDAL 05/Nov/2017 16,634,DAL2017,5-Nov-17,5-Nov-17,5-Nov-17,4:25,16,DAL,-2.5,KC,45,U,53,2017,Week 9,93273,DAL,-2.5,2.5,KC,28,17,Y,105000,0,8,27,0,Dallas,KDAL,KDAL4304416,KDAL,O,5-Nov-17,CST,32.847,-96.852,486,92,73,80,94,73,69,64,67,82,41,67,74,69,71,15,11,195,23,46,10,3118,367,3485,395,643,0,0,29.92,29.8,29.86,1012.2,1008.4,1010.5,40,MC,Overcast,KDAL,O,CST,32.847,-96.852,486,90,94,66,45,74,200,13,10,250,FEW,10,175,18,193,182,200,260,0,0,0,29.8,1008.4,45,CLR,Mostly Clear,5-Nov-17,16
KDAL 05/Nov/2018 20,635,DAL2018,5-Nov-18,5-Nov-18,5-Nov-18,8:15,20,DAL,-5,TEN,42,O,40,2018,Week 9,90466,DAL,-5,5,TEN,14,28,Y,105000,0,9,86,0,Dallas,KDAL,KDAL4340920,KDAL,O,5-Nov-18,CST,32.85,-96.85,518,82,53,66,82,51,62,47,54,94,44,68,69,50,59,14,9,180,22,52,9.2,2478,367,2846,249,643,0,0,29.93,29.68,29.79,1013,1004.5,1008.3,54,CLR,Few High Clouds,KDAL,O,CST,32.85,-96.85,518,70,70,54,57,61,10,6,25,383,CLR,10,0,0,0,0,0,0,0,0,0,29.79,1008.2,46,CLR,Fair,5-Nov-18,20
KDAL 05/Oct/2014 13,636,DAL2014,5-Oct-14,5-Oct-14,5-Oct-14,1:00,13,DAL,-5.5,HOU,37,U,48,2014,Week 5,91159,DAL,-5.5,5.5,MIA,20,17,N,105000,0,5,72,1,Dallas,KDAL,KDAL4191713,KDAL,O,5-Oct-14,CST,32.847,-96.852,486,85,60,73,85,59,61,40,56,73,40,54,69,52,62,16,12,173,21,6,10,4821,509,5330,627,701,0,0,29.93,29.78,29.86,1013.7,1008.6,1011.4,45,CLR,Mostly Clear,KDAL,O,CST,32.847,-96.852,486,81,82,60,49,68,220,12,5,40,FEW,10,727,75,802,746,821,1065,0,0,0,29.85,1010.9,45,CLR,Mostly Clear,5-Oct-14,13
KDAL 06/Oct/2013 16,637,DAL2013,6-Oct-13,6-Oct-13,6-Oct-13,4:25,16,DEN,-8,DAL,99,O,57,2013,Week 5,92758,DAL,8,-8,MIN,48,51,N,105000,0,4,72,1,Dallas,KDAL,KDAL4155316,KDAL,O,6-Oct-13,CST,32.847,-96.852,486,77,51,63,76,52,50,28,40,86,17,51,54,51,52,15,7,325,22,1,10,5012,503,5515,689,700,0,0,30.13,30.02,30.07,1020.2,1016.5,1018.3,46,CLR,Fair,KDAL,O,CST,32.847,-96.852,486,76,76,28,17,53,320,12,0,201,CLR,10,315,32,347,315,347,450,0,0,0,30.02,1016.6,46,CLR,Fair,6-Oct-13,16
KDAL 06/Oct/2019 13,638,DAL2019,6-Oct-19,6-Oct-19,6-Oct-19,1:00,13,DAL,-4,GB,58,O,51,2019,Week 5,93024,DAL,-4,4,GB,24,34,Y,105000,0,10,73,0,Dallas,KDAL,KDAL4374413,KDAL,O,6-Oct-19,CST,32.85,-96.85,518,97,66,83,98,66,68,58,63,76,29,54,73,62,71,20,10,159,30,51,10,4057,503,4560,329,700,0,0,30.1,29.87,29.97,1018.7,1010.7,1013.9,44,PC,Partly Cloudy,KDAL,O,CST,32.85,-96.85,518,95,96,61,32,72,170,10,30,120,SCT,10,651,74,725,740,814,1057,0,0,0,29.94,1013,44,PC,Partly Cloudy,6-Oct-19,13
KDAL 07/Sep/2014 16,639,DAL2014,7-Sep-14,7-Sep-14,7-Sep-14,4:25,16,SF,-3.5,DAL,45,U,50,2014,Week 1,91174,DAL,3.5,-3.5,CIN,17,28,Y,105000,0,5,72,1,Dallas,KDAL,KDAL4188916,KDAL,O,7-Sep-14,CST,32.847,-96.852,486,89,70,78,91,70,70,66,68,87,53,71,74,67,71,10,6,20,10,77,10,2699,641,3341,34,758,0,0,30.09,29.96,30.03,1018.9,1014.6,1016.9,45,CLR,Mostly Clear,KDAL,O,CST,32.847,-96.852,486,84,88,69,61,74,70,7,100,39,OVC,10,236,47,284,473,520,676,0,0,0,29.97,1014.9,45,CLR,Mostly Clear,7-Sep-14,16
KDAL 08/Nov/2015 20,640,DAL2015,8-Nov-15,8-Nov-15,8-Nov-15,8:30,20,PHI,-3,DAL,60,O,44,2015,Week 9,91827,DAL,3,-3,NE,27,33,Y,105000,0,6,53,1,Dallas,KDAL,KDAL4231620,KDAL,O,8-Nov-15,CST,32.847,-96.852,486,67,44,56,67,45,44,35,39,80,31,55,51,42,48,13,5,58,23,15,10,3517,356,3873,614,638,0,0,30.33,30.17,30.25,1027.2,1021.6,1024.3,45,CLR,Mostly Clear,KDAL,O,CST,32.847,-96.852,486,55,54,42,62,49,370,5,20,120,SCT,10,0,0,0,0,0,0,0,0,0,30.17,1021.6,44,PC,Partly Cloudy,8-Nov-15,20
KDAL 08/Oct/2017 16,641,DAL2017,8-Oct-17,8-Oct-17,8-Oct-17,4:25,16,DAL,-2.5,GB,66,O,52.5,2017,Week 5,93329,DAL,-2.5,2.5,GB,31,35,Y,105000,0,8,55,0,Dallas,KDAL,KDAL4301616,KDAL,O,8-Oct-17,CST,32.847,-96.852,486,91,59,76,90,60,63,36,51,84,16,46,68,57,61,12,5,188,12,1,10,4899,495,5394,689,695,0,0,29.75,29.6,29.68,1007.4,1002.4,1005.2,46,CLR,Fair,KDAL,O,CST,32.847,-96.852,486,90,90,41,18,63,230,9,0,201,CLR,10,305,30,335,305,335,435,0,0,0,29.6,1002.5,46,CLR,Fair,8-Oct-17,16
KDAL 08/Sep/2013 20,642,DAL2013,8-Sep-13,8-Sep-13,8-Sep-13,8:30,20,DAL,-3.5,NYG,67,O,50,2013,Week 1,85348,DAL,-3.5,3.5,NO,36,31,Y,105000,0,4,72,1,Dallas,KDAL,KDAL4152520,KDAL,O,8-Sep-13,CST,32.847,-96.852,486,98,76,88,101,77,68,59,64,71,27,48,75,70,72,13,7,167,20,5,10,6099,639,6738,699,755,0,0,29.97,29.85,29.92,1014.9,1010.7,1013.2,46,CLR,Fair,KDAL,O,CST,32.847,-96.852,486,92,93,60,34,71,130,7,20,85,SCT,10,0,0,0,0,0,0,0,0,0,29.88,1011.7,44,PC,Partly Cloudy,8-Sep-13,20
KDAL 08/Sep/2019 16,643,DAL2019,8-Sep-19,8-Sep-19,8-Sep-19,4:25,16,DAL,-7,NYG,52,O,44.5,2019,Week 1,90353,DAL,-7,7,NYG,35,17,Y,105000,0,10,54,0,Dallas,KDAL,KDAL4371616,KDAL,O,8-Sep-19,CST,32.85,-96.85,518,101,79,90,101,79,68,57,62,62,25,41,74,69,71,17,9,168,28,5,10,6173,639,6812,688,755,0,0,30,29.87,29.94,1014.9,1010.7,1012.9,45,CLR,Mostly Clear,KDAL,O,CST,32.85,-96.85,518,100,101,58,25,72,150,16,10,300,FEW,10,449,47,496,468,515,668,0,0,0,29.89,1011.2,45,CLR,Mostly Clear,8-Sep-19,16
KDAL 09/Dec/2018 16,644,DAL2018,9-Dec-18,9-Dec-18,9-Dec-18,4:25,16,DAL,-3.5,PHI,52,O,45.5,2018,Week 14,93127,DAL,-3.5,3.5,PHI,29,23,Y,105000,0,9,84,0,Dallas,KDAL,KDAL4344316,KDAL,O,9-Dec-18,CST,32.85,-96.85,518,52,38,43,52,30,36,30,33,89,54,70,45,35,39,13,10,333,17,53,9.1,2085,280,2365,305,602,0,0,30.38,30.27,30.32,1028.7,1025.2,1026.8,40,MC,Overcast,KDAL,O,CST,32.85,-96.85,518,52,49,36,55,45,320,8,15,250,FEW,10,124,13,137,133,146,189,0,0,0,30.29,1025.8,45,CLR,Mostly Clear,9-Dec-18,16
KDAL 09/Oct/2016 16,645,DAL2016,9-Oct-16,9-Oct-16,9-Oct-16,4:25,16,CIN,-2.5,DAL,42,U,45.5,2016,Week 5,91653,DAL,2.5,-2.5,BUF,28,14,Y,105000,0,7,72,1,Dallas,KDAL,KDAL4265216,KDAL,O,9-Oct-16,CST,32.847,-96.852,486,77,54,66,76,54,52,40,46,80,28,53,58,52,56,12,4,81,12,57,10,3752,484,4236,194,693,0,0,30.33,30.19,30.25,1027.2,1022.3,1024.4,45,CLR,Mostly Clear,KDAL,O,CST,32.847,-96.852,486,75,75,41,30,57,300,7,100,220,OVC,10,207,30,237,296,326,423,0,0,0,30.21,1023.1,52,PC,High Clouds,9-Oct-16,16
KDAL 10/Nov/2019 13,646,DAL2019,10-Nov-19,10-Nov-19,10-Nov-19,1:00,13,DAL,-3,MIN,52,O,44,2019,Week 10,91188,DAL,-3,3,MIN,24,28,Y,105000,0,10,24,0,Dallas,KDAL,KDAL4377913,KDAL,O,10-Nov-19,CST,32.85,-96.85,518,74,49,63,76,47,53,45,48,86,43,61,61,47,54,16,10,162,23,74,10,2661,350,3011,141,635,0,0,30.13,29.9,30.02,1019.9,1012.2,1016.1,52,PC,High Clouds,KDAL,O,CST,32.85,-96.85,518,74,76,51,45,61,160,13,75,300,BKN,10,429,56,485,561,617,802,0,0,0,30,1015.3,52,PC,High Clouds,10-Nov-19,13
KDAL 10/Sep/2017 20,647,DAL2017,10-Sep-17,10-Sep-17,10-Sep-17,8:30,20,DAL,-6,NYG,22,U,46.5,2017,Week 1,93183,DAL,-6,6,NYG,19,3,Y,105000,0,8,38,0,Dallas,KDAL,KDAL4298820,KDAL,O,10-Sep-17,CST,32.847,-96.852,486,86,65,75,86,65,58,49,55,78,28,53,66,61,63,13,7,60,18,2,10,6173,628,6801,726,752,0,0,30.21,30.11,30.16,1022.3,1018.9,1020.5,46,CLR,Fair,KDAL,O,CST,32.847,-96.852,486,77,78,53,44,63,70,5,0,201,CLR,10,0,0,0,0,0,0,0,0,0,30.12,1019.5,46,CLR,Fair,10-Sep-17,20
KDAL 11/Oct/2015 16,648,DAL2015,11-Oct-15,11-Oct-15,11-Oct-15,4:25,16,NE,-8.5,DAL,36,U,50.5,2015,Week 5,93054,DAL,8.5,-8.5,PHI,6,30,Y,105000,0,6,72,1,Dallas,KDAL,KDAL4228816,KDAL,O,11-Oct-15,CST,32.847,-96.852,486,94,67,81,94,67,61,50,56,59,29,43,71,58,65,16,12,179,23,1,10,4755,478,5233,677,689,0,0,30.01,29.72,29.86,1016.4,1006.5,1011.3,46,CLR,Fair,KDAL,O,CST,32.847,-96.852,486,94,94,57,29,70,210,13,5,75,FEW,10,281,29,310,288,317,412,0,0,0,29.74,1007.1,45,CLR,Mostly Clear,11-Oct-15,16
KDAL 11/Sep/2016 16,649,DAL2016,11-Sep-16,11-Sep-16,11-Sep-16,4:25,16,NYG,-1,DAL,39,U,47.5,2016,Week 1,92867,DAL,1,-1,ARI,19,20,N,105000,0,7,72,1,Dallas,KDAL,KDAL4262416,KDAL,O,11-Sep-16,CST,32.847,-96.852,486,90,64,77,89,66,64,53,57,68,33,52,69,59,65,9,5,86,9,2,10,6076,620,6696,720,749,0,0,30.19,29.98,30.09,1022.3,1015.4,1019.1,46,CLR,Fair,KDAL,O,CST,32.847,-96.852,486,89,89,56,33,68,0,0,5,50,FEW,10,437,45,482,448,493,640,0,0,0,30.03,1016.9,45,CLR,Mostly Clear,11-Sep-16,16
KDAL 13/Oct/2013 20,650,DAL2013,13-Oct-13,13-Oct-13,13-Oct-13,8:30,20,DAL,-5.5,WAS,47,U,53,2013,Week 6,90239,DAL,-5.5,5.5,BUF,31,16,Y,105000,0,4,72,1,Dallas,KDAL,KDAL4156020,KDAL,O,13-Oct-13,CST,32.847,-96.852,486,78,70,73,80,71,69,66,67,87,71,80,71,68,69,13,7,103,20,98,8.4,2180,469,2649,0,686,0,0,30.2,30.05,30.13,1022.6,1017.6,1020.2,45,CLR,Mostly Clear,KDAL,O,CST,32.847,-96.852,486,74,77,66,76,69,110,7,100,21,OVC,7,0,0,0,0,0,0,0,0,0,30.15,1020.9,45,CLR,Mostly Clear,13-Oct-13,20
KDAL 13/Sep/2015 20,651,DAL2015,13-Sep-15,13-Sep-15,13-Sep-15,8:30,20,DAL,-7,NYG,53,O,52.5,2015,Week 1,93579,DAL,-7,7,NO,27,26,N,105000,0,6,72,1,Dallas,KDAL,KDAL4226020,KDAL,O,13-Sep-15,CST,32.847,-96.852,486,92,65,79,91,66,52,45,49,55,21,37,65,57,62,18,11,151,25,14,10,5855,614,6469,638,745,0,0,30.06,29.9,29.99,1017.9,1012.6,1015.5,45,CLR,Mostly Clear,KDAL,O,CST,32.847,-96.852,486,83,83,50,32,64,140,18,5,250,FEW,10,0,0,0,0,0,0,0,0,0,29.92,1013.6,45,CLR,Mostly Clear,13-Sep-15,20
KDAL 14/Oct/2018 16,652,DAL2018,14-Oct-18,14-Oct-18,14-Oct-18,4:25,16,JAX,-3,DAL,47,O,39.5,2018,Week 6,90767,DAL,3,-3,JAX,40,7,Y,105000,0,9,83,0,Dallas,KDAL,KDAL4338716,KDAL,O,14-Oct-18,CST,32.85,-96.85,518,82,51,66,84,49,71,49,61,94,71,84,74,53,63,21,9,336,30,94,9.8,2411,465,2875,75,684,0.13,0,30.09,29.82,29.9,1018.5,1009.4,1011.9,40,MC,Overcast,KDAL,O,CST,32.85,-96.85,518,79,83,71,77,74,220,6,100,37,BKN,10,70,27,97,274,301,391,0,0,0,29.84,1010,18,RAIN,Light Rain,14-Oct-18,16
KDAL 15/Dec/2013 16,653,DAL2013,15-Dec-13,15-Dec-13,15-Dec-13,4:25,16,DAL,-5.5,GB,73,O,50,2013,Week 15,91054,DAL,-5.5,5.5,WAS,36,37,N,105000,0,4,72,1,Dallas,KDAL,KDAL4162316,KDAL,O,15-Dec-13,CST,32.847,-96.852,486,62,28,44,61,30,32,24,28,82,26,58,46,28,37,7,2,186,7,1,8.4,2725,276,3001,584,600,0,0,30.37,30.22,30.29,1028.4,1023.5,1025.9,46,CLR,Fair,KDAL,O,CST,32.847,-96.852,486,61,61,26,26,46,280,3,5,250,FEW,10,134,14,148,136,150,194,0,0,0,30.24,1024.1,45,CLR,Mostly Clear,15-Dec-13,16
KDAL 15/Dec/2019 13,654,DAL2019,15-Dec-19,15-Dec-19,15-Dec-19,1:00,13,DAL,PK,LAR,65,O,55,2019,Week 15,90436,DAL,PK,PK,LAR,44,21,PK,105000,0,10,28,0,Dallas,KDAL,KDAL4381413,KDAL,O,15-Dec-19,CST,32.85,-96.85,518,76,47,58,76,44,54,41,48,100,36,70,60,46,53,13,9,62,18,60,8.4,2220,275,2496,313,601,0,0,29.88,29.71,29.77,1011.7,1006.1,1008,46,CLR,Fair,KDAL,O,CST,32.85,-96.85,518,72,72,50,47,59,230,10,75,300,CLR,10,368,48,416,475,523,679,0,0,0,29.73,1006.7,46,CLR,Fair,15-Dec-19,13
KDAL 16/Sep/2018 20,655,DAL2018,16-Sep-18,16-Sep-18,16-Sep-18,8:20,20,DAL,-3,NYG,33,U,42,2018,Week 2,90512,DAL,-3,3,NYG,20,13,Y,105000,0,9,76,0,Dallas,KDAL,KDAL4335920,KDAL,O,16-Sep-18,CST,32.85,-96.85,518,93,75,84,101,76,75,70,72,94,49,71,79,73,76,10,5,99,10,59,9.9,4795,599,5394,376,739,0.01,0,30.01,29.89,29.95,1015.4,1011.5,1013.4,52,PC,High Clouds,KDAL,O,CST,32.85,-96.85,518,85,90,70,61,75,120,7,75,250,BKN,10,0,0,0,0,0,0,0,0,0,29.93,1012.8,52,PC,High Clouds,16-Sep-18,20
KDAL 18/Dec/2016 20,656,DAL2016,18-Dec-16,18-Dec-16,18-Dec-16,8:30,20,DAL,-7,TB,46,U,46.5,2016,Week 15,93101,DAL,-7,7,TB,26,20,N,105000,0,7,26,1,Dallas,KDAL,KDAL4272220,KDAL,O,18-Dec-16,CST,32.847,-96.852,486,30,18,24,30,4,12,4,8,65,39,52,24,15,19,24,15,3,33,94,10,2032,273,2305,66,599,0,0,30.72,30.32,30.57,1040.2,1026.9,1035.1,45,CLR,Mostly Clear,KDAL,O,CST,32.847,-96.852,486,26,16,7,44,21,100,10,70,250,BKN,10,0,0,0,0,0,0,0,0,0,30.64,1037.6,52,PC,High Clouds,18-Dec-16,20
KDAL 19/Dec/2015 20,657,DAL2015,19-Dec-15,19-Dec-15,19-Dec-15,8:25,20,NYJ,-3.5,DAL,35,U,41,2015,Week 15,90345,DAL,3.5,-3.5,BAL,16,19,N,105000,0,6,50,1,Dallas,KDAL,KDAL4235720,KDAL,O,19-Dec-15,CST,32.847,-96.852,486,63,39,51,62,34,38,31,34,79,31,57,48,36,43,18,12,161,22,47,10,2569,273,2842,461,599,0,0,30.46,30.31,30.36,1031.4,1026.3,1028.3,45,CLR,Mostly Clear,KDAL,O,CST,32.847,-96.852,486,53,50,38,57,46,150,10,75,250,BKN,10,0,0,0,0,0,0,0,0,0,30.33,1027,45,CLR,Mostly Clear,19-Dec-15,20
KDAL 19/Nov/2017 20,658,DAL2017,19-Nov-17,19-Nov-17,19-Nov-17,8:30,20,PHI,-6.5,DAL,46,U,48.5,2017,Week 11,93247,DAL,6.5,-6.5,PHI,9,37,Y,105000,0,8,46,0,Dallas,KDAL,KDAL4305820,KDAL,O,19-Nov-17,CST,32.847,-96.852,486,63,42,52,63,40,37,25,32,76,24,51,47,39,43,9,4,356,9,29,10,2653,321,2974,335,622,0,0,30.41,30.22,30.3,1029.4,1023.1,1025.7,46,CLR,Fair,KDAL,O,CST,32.847,-96.852,486,51,51,34,52,44,0,0,0,201,CLR,10,0,0,0,0,0,0,0,0,0,30.24,1023.7,46,CLR,Fair,19-Nov-17,20
KDAL 19/Oct/2014 16,659,DAL2014,19-Oct-14,19-Oct-14,19-Oct-14,4:25,16,DAL,-5.5,NYG,52,O,47,2014,Week 7,91028,DAL,-5.5,5.5,DAL,31,21,Y,105000,0,5,72,1,Dallas,KDAL,KDAL4193116,KDAL,O,19-Oct-14,CST,32.847,-96.852,486,77,59,67,78,59,56,51,53,75,48,62,64,56,59,13,7,125,13,25,10,2814,439,3253,349,674,0,0,30.16,30.03,30.09,1021.5,1016.9,1018.9,45,CLR,Mostly Clear,KDAL,O,CST,32.847,-96.852,486,76,78,56,50,64,170,8,5,180,FEW,10,246,25,271,250,275,357,0,0,0,30.04,1017.2,45,CLR,Mostly Clear,19-Oct-14,16
KDAL 20/Nov/2016 13,660,DAL2016,20-Nov-16,20-Nov-16,20-Nov-16,1:00,13,DAL,-7,BAL,44,U,44.5,2016,Week 11,93056,DAL,-7,7,DEN,27,17,Y,105000,0,7,53,1,Dallas,KDAL,KDAL4269413,KDAL,O,20-Nov-16,CST,32.847,-96.852,486,65,37,51,65,34,32,23,28,73,20,45,47,34,41,16,8,166,23,30,10,3105,315,3420,595,620,0,0,30.45,30.14,30.3,1030.8,1020.8,1026.2,46,CLR,Fair,KDAL,O,CST,32.847,-96.852,486,61,60,25,25,46,180,8,5,300,FEW,10,512,52,564,520,572,742,0,0,0,30.3,1026.1,45,CLR,Mostly Clear,20-Nov-16,13
KDAL 20/Oct/2019 13,661,DAL2019,20-Oct-19,20-Oct-19,20-Oct-19,1:00,13,DAL,-3,PHI,47,O,46,2019,Week 7,91213,DAL,-3,3,PHI,37,10,Y,105000,0,10,24,0,Dallas,KDAL,KDAL4375813,KDAL,O,20-Oct-19,CST,32.85,-96.85,518,88,57,73,91,57,70,53,61,87,43,68,74,55,65,23,9,163,45,31,10,4241,436,4677,578,672,0.07,0,29.83,29.53,29.71,1009.6,999.2,1005.5,46,CLR,Fair,KDAL,O,CST,32.85,-96.85,518,84,84,59,43,68,190,8,5,40,FEW,10,647,66,713,664,730,948,0,0,0,29.71,1005.5,46,CLR,Fair,20-Oct-19,13
KDAL 21/Dec/2014 16,662,DAL2014,21-Dec-14,21-Dec-14,21-Dec-14,4:25,16,DAL,-3.5,IND,49,U,53.5,2014,Week 16,91899,DAL,-3.5,3.5,ARI,42,7,Y,105000,0,5,51,1,Dallas,KDAL,KDAL4199416,KDAL,O,21-Dec-14,CST,32.847,-96.852,486,53,48,50,52,42,48,42,45,89,75,82,50,45,47,16,13,158,21,100,8.1,1365,271,1635,0,599,0,0,30.16,29.72,29.97,1021.5,1006.4,1014.9,45,CLR,Mostly Clear,KDAL,O,CST,32.847,-96.852,486,52,48,44,75,48,160,12,100,18,OVC,10,70,14,84,141,155,201,0,0,0,29.86,1011.2,42,MC,Mostly Cloudy,21-Dec-14,16
KDAL 22/Nov/2018 16,663,DAL2018,22-Nov-18,22-Nov-18,22-Nov-18,4:30,16,DAL,-7,WAS,54,O,40.5,2018,Week 12,92076,DAL,-7,7,WAS,31,23,Y,105000,0,9,35,0,Dallas,KDAL,KDAL4342616,KDAL,O,22-Nov-18,CST,32.85,-96.85,518,64,40,54,64,38,43,36,40,82,44,61,53,39,47,14,8,144,14,56,10,2586,312,2898,260,618,0,0,30.32,30.04,30.21,1026.7,1016.9,1023,45,CLR,Mostly Clear,KDAL,O,CST,32.85,-96.85,518,63,62,42,47,52,140,9,95,300,BKN,10,102,14,116,144,158,206,0,0,0,30.13,1020.2,52,PC,High Clouds,22-Nov-18,16
KDAL 22/Sep/2013 13,664,DAL2013,22-Sep-13,22-Sep-13,22-Sep-13,1:00,13,DAL,-3,LAR,38,U,47.5,2013,Week 3,80848,DAL,-3,3,CLE,31,7,Y,105000,0,4,72,1,Dallas,KDAL,KDAL4153913,KDAL,O,22-Sep-13,CST,32.847,-96.852,486,84,60,73,84,61,54,47,51,75,27,48,64,57,60,10,5,93,10,0,10,5718,571,6289,726,727,0,0,29.94,29.79,29.86,1013.8,1008.8,1011.1,46,CLR,Fair,KDAL,O,CST,32.847,-96.852,486,82,82,49,32,63,0,0,0,201,CLR,10,814,81,895,814,895,1163,0,0,0,29.88,1011.7,46,CLR,Fair,22-Sep-13,13
KDAL 22/Sep/2019 13,665,DAL2019,22-Sep-19,22-Sep-19,22-Sep-19,1:00,13,DAL,-22.5,MIA,37,U,46.5,2019,Week 3,90127,DAL,-22.5,22.5,MIA,31,6,Y,105000,0,10,54,0,Dallas,KDAL,KDAL4373013,KDAL,O,22-Sep-19,CST,32.85,-96.85,518,95,77,85,98,77,72,64,68,82,38,58,75,72,74,17,11,168,25,62,10,2861,571,3432,75,727,0,0,30.02,29.91,29.98,1015.8,1012.2,1014.4,52,PC,High Clouds,KDAL,O,CST,32.85,-96.85,518,91,95,67,45,75,160,7,100,250,BKN,10,277,81,358,814,895,1163,0,0,0,29.97,1014.1,42,MC,Mostly Cloudy,22-Sep-19,13
KDAL 23/Dec/2018 13,666,DAL2018,23-Dec-18,23-Dec-18,23-Dec-18,1:00,13,DAL,-7,TB,47,U,48,2018,Week 16,92851,DAL,-7,7,TB,27,20,N,105000,0,9,72,0,Dallas,KDAL,KDAL4345713,KDAL,O,23-Dec-18,CST,32.85,-96.85,518,58,42,49,58,36,37,29,34,71,39,58,47,39,42,18,9,4,24,27,10,2700,272,2972,573,600,0,0,30.38,30.11,30.3,1028.6,1019.5,1025.9,45,CLR,Mostly Clear,KDAL,O,CST,32.85,-96.85,518,55,51,30,39,44,360,13,5,250,FEW,10,469,48,517,476,524,680,0,0,0,30.34,1027.2,45,CLR,Mostly Clear,23-Dec-18,13
KDAL 23/Nov/2017 16,667,DAL2017,23-Nov-17,23-Nov-17,23-Nov-17,4:30,16,LAC,-1.5,DAL,34,U,46.5,2017,Week 12,93012,DAL,1.5,-1.5,LAC,6,28,Y,105000,0,8,43,0,Dallas,KDAL,KDAL4306216,KDAL,O,23-Nov-17,CST,32.847,-96.852,486,68,37,52,68,37,33,22,29,82,21,49,50,35,42,8,4,157,8,9,10,3047,308,3355,586,617,0,0,30.25,30.03,30.13,1024.3,1016.8,1020.1,45,CLR,Mostly Clear,KDAL,O,CST,32.847,-96.852,486,68,68,28,22,50,150,7,5,250,FEW,10,139,14,153,141,155,201,0,0,0,30.06,1017.5,45,CLR,Mostly Clear,23-Nov-17,16
KDAL 24/Dec/2017 16,668,DAL2017,24-Dec-17,24-Dec-17,24-Dec-17,4:25,16,DAL,-4.5,SEA,33,U,47.5,2017,Week 16,92150,DAL,-4.5,4.5,MIA,12,21,Y,105000,0,8,25,0,Dallas,KDAL,KDAL4309316,KDAL,O,24-Dec-17,CST,32.847,-96.852,486,46,35,41,45,30,36,23,31,83,49,69,40,32,37,23,11,22,32,74,9.9,1459,274,1733,72,599,0,0,30.49,30.03,30.29,1032.7,1016.7,1025.7,52,PC,High Clouds,KDAL,O,CST,32.847,-96.852,486,45,38,28,52,38,360,14,100,300,BKN,10,112,15,127,146,161,209,0,0,0,30.4,1029.3,52,PC,High Clouds,24-Dec-17,16
KDAL 24/Nov/2016 16,669,DAL2016,24-Nov-16,24-Nov-16,24-Nov-16,4:30,16,DAL,-6,WAS,57,O,53.5,2016,Week 12,93099,DAL,-6,6,SEA,31,26,N,105000,0,7,69,1,Dallas,KDAL,KDAL4269816,KDAL,O,24-Nov-16,CST,32.847,-96.852,486,72,47,58,71,44,49,44,46,90,39,69,57,46,51,13,7,137,13,39,9.8,2689,306,2995,360,616,0,0,30.24,30.12,30.18,1023.7,1020,1022,45,CLR,Mostly Clear,KDAL,O,CST,32.847,-96.852,486,71,71,45,39,57,170,10,70,250,BKN,10,109,14,123,138,152,197,0,0,0,30.12,1020,52,PC,High Clouds,24-Nov-16,16
KDAL 25/Sep/2016 20,670,DAL2016,25-Sep-16,25-Sep-16,25-Sep-16,8:30,20,DAL,-6.5,CHI,48,O,45,2016,Week 3,90554,DAL,-6.5,6.5,NYJ,31,17,Y,105000,0,7,72,1,Dallas,KDAL,KDAL4263820,KDAL,O,25-Sep-16,CST,32.847,-96.852,486,80,73,77,85,74,74,67,72,89,74,83,76,70,74,14,7,26,14,100,9.9,1678,552,2232,0,721,0.04,0,30.09,29.97,30.02,1018.3,1014,1016,40,MC,Overcast,KDAL,O,CST,32.847,-96.852,486,77,81,72,85,74,0,0,100,250,OVC,10,0,0,0,0,0,0,0,0,0,30.06,1017.4,50,PC,High Overcast,25-Sep-16,20
KDAL 26/Dec/2016 20,671,DAL2016,26-Dec-16,26-Dec-16,26-Dec-16,8:30,20,DAL,-6.5,DET,63,O,46,2016,Week 16,92885,DAL,-6.5,6.5,JAX,42,21,Y,105000,0,7,65,1,Dallas,KDAL,KDAL4273020,KDAL,O,26-Dec-16,CST,32.847,-96.852,486,73,63,69,73,65,67,28,45,90,20,50,68,51,58,16,8,277,21,96,9.6,1247,275,1522,1,600,0,0,30.24,29.98,30.11,1023.9,1015.1,1019.5,42,MC,Mostly Cloudy,KDAL,O,CST,32.847,-96.852,486,65,65,37,36,51,60,3,90,55,BKN,10,0,0,0,0,0,0,0,0,0,30.18,1022,44,PC,Partly Cloudy,26-Dec-16,20
KDAL 26/Nov/2015 16,672,DAL2015,26-Nov-15,26-Nov-15,26-Nov-15,4:30,16,CAR,-1,DAL,47,O,44.5,2015,Week 12,90909,DAL,1,-1,NYG,14,33,Y,105000,0,6,68,1,Dallas,KDAL,KDAL4233416,KDAL,O,26-Nov-15,CST,32.847,-96.852,486,72,66,69,72,65,67,61,64,93,73,86,68,63,65,18,14,153,26,100,7.1,1041,303,1343,0,613,2.12,0,30.16,30.04,30.1,1021.1,1017.4,1019.2,18,RAIN,Light Rain,KDAL,O,CST,32.847,-96.852,486,69,69,66,90,67,140,15,100,15,OVC,6,27,14,41,137,151,196,99,0.04,0,30.04,1017.4,18,RAIN,Light Rain,26-Nov-15,16
KDAL 27/Nov/2014 16,673,DAL2014,27-Nov-14,27-Nov-14,27-Nov-14,4:30,16,DAL,-3.5,PHI,43,U,57,2014,Week 13,91379,DAL,-3.5,3.5,HOU,10,33,Y,105000,0,5,57,1,Dallas,KDAL,KDAL4197016,KDAL,O,27-Nov-14,CST,32.847,-96.852,486,59,38,48,58,34,32,20,26,67,23,44,43,35,39,10,4,85,10,3,10,2957,301,3258,580,612,0,0,30.55,30.35,30.45,1034.1,1027.8,1031,45,CLR,Mostly Clear,KDAL,O,CST,32.847,-96.852,486,58,58,21,24,43,0,0,5,250,FEW,10,135,14,149,137,151,195,0,0,0,30.42,1030.1,45,CLR,Mostly Clear,27-Nov-14,16
KDAL 27/Oct/2014 20,674,DAL2014,27-Oct-14,27-Oct-14,27-Oct-14,8:30,20,DAL,-9.5,WAS,37,U,49,2014,Week 8,87055,DAL,-9.5,9.5,NO,17,20,N,105000,0,5,72,1,Dallas,KDAL,KDAL4193920,KDAL,O,27-Oct-14,CST,32.847,-96.852,486,85,67,76,84,67,61,55,59,79,38,57,68,61,65,25,15,185,31,47,10,3483,405,3888,356,658,0,0,29.86,29.75,29.81,1011.3,1007.8,1009.7,45,CLR,Mostly Clear,KDAL,O,CST,32.847,-96.852,486,78,80,59,52,66,160,17,100,180,OVC,10,0,0,0,0,0,0,0,0,0,29.81,1009.4,44,PC,Partly Cloudy,27-Oct-14,20
KDAL 27/Sep/2015 13,675,DAL2015,27-Sep-15,27-Sep-15,27-Sep-15,1:00,13,DAL, PK,ATL,67,O,43.5,2015,Week 3,90345,DAL, PK,PK,DAL,28,39,PK,105000,0,6,72,1,Dallas,KDAL,KDAL4227413,KDAL,O,27-Sep-15,CST,32.847,-96.852,486,90,68,79,88,68,60,52,56,66,30,47,68,61,65,13,7,98,13,49,10,4637,548,5185,352,718,0,0,29.97,29.84,29.9,1014.9,1010.6,1012.6,45,CLR,Mostly Clear,KDAL,O,CST,32.847,-96.852,486,88,88,54,31,67,370,5,75,75,BKN,10,603,79,682,788,867,1126,0,0,0,29.91,1012.8,45,CLR,Mostly Clear,27-Sep-15,13
KDAL 28/Nov/2013 16,676,DAL2013,28-Nov-13,28-Nov-13,28-Nov-13,4:30,16,DAL,-9,OAK,55,O,49.5,2013,Week 13,87572,DAL,-9,9,NE,31,24,N,105000,0,4,72,1,Dallas,KDAL,KDAL4160616,KDAL,O,28-Nov-13,CST,32.847,-96.852,486,54,30,41,53,29,27,18,23,65,31,50,41,27,34,8,5,152,8,58,10,2153,298,2451,140,611,0,0,30.46,30.36,30.41,1031.4,1028.1,1029.6,52,PC,High Clouds,KDAL,O,CST,32.847,-96.852,486,53,51,23,31,41,160,8,25,210,SCT,10,126,14,140,136,150,195,0,0,0,30.37,1028.3,45,CLR,Mostly Clear,28-Nov-13,16
KDAL 28/Nov/2019 13,677,DAL2019,28-Nov-19,28-Nov-19,28-Nov-19,1:00,13,DAL,-7.5,BUF,41,U,44,2019,Week 13,90445,DAL,-7.5,7.5,SF,15,26,Y,105000,0,10,44,0,Dallas,KDAL,KDAL4379713,KDAL,O,28-Nov-19,CST,32.85,-96.85,518,51,44,47,51,39,43,30,40,90,45,77,45,42,44,13,7,61,20,100,8.3,1489,298,1786,0,611,0.47,0,30.34,30.2,30.26,1027.5,1022.5,1024.5,19,RAIN,Moderate Rain,KDAL,O,CST,32.85,-96.85,518,47,44,42,83,45,100,7,100,25,OVC,10,250,50,300,500,550,714,0,0,0,30.21,1023,40,MC,Overcast,28-Nov-19,13
KDAL 28/Sep/2014 20,678,DAL2014,28-Sep-14,28-Sep-14,28-Sep-14,8:30,20,NO,-3,DAL,55,O,54,2014,Week 4,91176,DAL,3,-3,NO,38,17,Y,105000,0,5,72,1,Dallas,KDAL,KDAL4191020,KDAL,O,28-Sep-14,CST,32.847,-96.852,486,90,67,78,89,67,64,57,61,84,39,58,70,64,67,8,6,76,17,32,10,4290,542,4832,418,715,0,0,30.06,29.96,30,1018.1,1014.5,1016,45,CLR,Mostly Clear,KDAL,O,CST,32.847,-96.852,486,81,82,59,47,67,80,7,70,100,BKN,10,0,0,0,0,0,0,0,0,0,29.98,1015.2,42,MC,Mostly Cloudy,28-Sep-14,20
KDAL 29/Dec/2013 20,679,DAL2013,29-Dec-13,29-Dec-13,29-Dec-13,8:30,20,PHI,-7,DAL,46,U,54.5,2013,Week 17,91166,DAL,7,-7,DEN,22,24,N,105000,0,4,72,1,Dallas,KDAL,KDAL4163720,KDAL,O,29-Dec-13,CST,32.847,-96.852,486,51,33,41,50,23,38,22,31,79,50,68,44,30,37,18,10,344,31,75,9.8,1360,276,1636,8,601,0,0,30.29,29.94,30.11,1025.9,1014,1019.7,40,MC,Overcast,KDAL,O,CST,32.847,-96.852,486,34,24,24,67,30,350,16,100,19,OVC,10,0,0,0,0,0,0,0,0,0,30.26,1024.6,42,MC,Mostly Cloudy,29-Dec-13,20
KDAL 29/Nov/2018 20,680,DAL2018,29-Nov-18,29-Nov-18,29-Nov-18,8:20,20,NO,-7.5,DAL,23,U,51.5,2018,Week 13,93004,DAL,7.5,-7.5,NO,13,10,N,105000,0,9,25,0,Dallas,KDAL,KDAL4343320,KDAL,O,29-Nov-18,CST,32.85,-96.85,518,79,52,65,79,50,63,50,56,93,42,73,65,51,59,14,10,188,21,10,10,2842,295,3137,559,610,0,0,29.83,29.73,29.79,1009.6,1006.2,1008.2,45,CLR,Mostly Clear,KDAL,O,CST,32.85,-96.85,518,70,70,62,76,65,190,14,0,201,CLR,10,0,0,0,0,0,0,0,0,0,29.78,1007.9,46,CLR,Fair,29-Nov-18,20
KDAL 30/Nov/2017 20,681,DAL2017,30-Nov-17,30-Nov-17,30-Nov-17,8:25,20,WAS,-1.5,DAL,52,O,47,2017,Week 13,91712,DAL,1.5,-1.5,SEA,38,14,Y,105000,0,8,73,0,Dallas,KDAL,KDAL4306920,KDAL,O,30-Nov-17,CST,32.847,-96.852,486,76,47,59,76,48,46,38,43,80,35,57,58,44,51,12,4,355,12,11,9.9,2860,295,3155,520,609,0,0,30.28,30.16,30.21,1025,1020.9,1022.8,45,CLR,Mostly Clear,KDAL,O,CST,32.847,-96.852,486,57,57,45,64,51,50,3,5,250,FEW,10,0,0,0,0,0,0,0,0,0,30.21,1022.9,45,CLR,Mostly Clear,30-Nov-17,20
KDAL 30/Oct/2016 20,682,DAL2016,30-Oct-16,30-Oct-16,30-Oct-16,8:30,20,DAL,-5,PHI,52,O,44,2016,Week 8,93103,DAL,-5,5,BUF,29,23,Y,105000,0,7,72,1,Dallas,KDAL,KDAL4267320,KDAL,O,30-Oct-16,CST,32.847,-96.852,486,88,65,76,88,65,64,56,60,84,37,59,71,62,66,13,7,186,13,35,10,3423,387,3810,367,654,0,0,30.16,30.04,30.08,1021.2,1017.4,1018.7,45,CLR,Mostly Clear,KDAL,O,CST,32.847,-96.852,486,80,81,60,51,67,160,13,100,60,BKN,10,0,0,0,0,0,0,0,0,0,30.07,1018.4,45,CLR,Mostly Clear,30-Oct-16,20
KDAL 30/Sep/2018 13,683,DAL2018,30-Sep-18,30-Sep-18,30-Sep-18,1:00,13,DAL,-2.5,DET,50,O,44,2018,Week 4,90155,DAL,-2.5,2.5,DET,26,24,N,105000,0,9,38,0,Dallas,KDAL,KDAL4337313,KDAL,O,30-Sep-18,CST,32.85,-96.85,518,86,73,78,90,73,70,68,69,90,59,77,75,71,72,15,10,147,17,72,9.9,2311,533,2844,102,712,0,0,30.16,30.05,30.1,1020.6,1016.9,1018.8,42,MC,Mostly Cloudy,KDAL,O,CST,32.85,-96.85,518,84,89,70,63,74,190,7,100,250,BKN,10,262,77,339,772,849,1103,0,0,0,30.12,1019.3,42,MC,Mostly Cloudy,30-Sep-18,13
KDCA 01/Dec/2013 20,684,WAS2013,1-Dec-13,1-Dec-13,1-Dec-13,8:30,20,WAS,-1,NYG,41,U,45,2013,Week 13,75220,WAS,-1,1,MIN,17,24,Y,79000,0,16,43,0,Washington,KDCA,KDCA4160920,KDCA,O,1-Dec-13,EST,38.852,-77.038,16,48,30,40,47,30,32,25,28,82,46,65,40,28,35,8,3,172,24,57,9.6,1655,219,1874,259,580,0,0,30.37,30.03,30.19,1028.5,1017.1,1022.2,45,CLR,Mostly Clear,KDCA,O,EST,38.852,-77.038,16,44,44,31,60,39,0,0,100,65,OVC,10,0,0,0,0,0,0,0,0,0,30.08,1018.5,40,MC,Overcast,1-Dec-13,20
KDCA 01/Jan/2017 16,685,WAS2016,1-Jan-17,1-Jan-17,1-Jan-17,4:25,16,WAS,-9,NYG,29,U,47,2016,Week 17,79471,WAS,-9,9,TB,10,19,N,82000,0,19,56,0,Washington,KDCA,KDCA4273616,KDCA,O,1-Jan-17,EST,38.852,-77.038,16,56,37,46,55,36,36,22,29,76,38,52,45,34,39,13,4,162,24,78,10,1468,207,1675,118,571,0,0,30.37,29.99,30.21,1028.5,1015.5,1022.9,45,CLR,Mostly Clear,KDCA,O,EST,38.852,-77.038,16,53,53,34,49,44,50,3,70,250,BKN,10,47,6,53,59,65,84,0,0,0,30.27,1024.9,52,PC,High Clouds,1-Jan-17,16
KDCA 02/Oct/2016 13,686,WAS2016,2-Oct-16,2-Oct-16,2-Oct-16,1:00,13,WAS,-7.5,CLE,51,O,48,2016,Week 4,76249,WAS,-7.5,7.5,IND,31,20,Y,82000,0,19,70,0,Washington,KDCA,KDCA4264513,KDCA,O,2-Oct-16,EST,38.852,-77.038,16,76,65,69,78,65,67,62,65,100,66,88,69,65,66,7,4,51,24,94,8.9,2003,457,2460,36,703,0.02,0,30.1,30.01,30.05,1019.2,1016.1,1017.7,42,MC,Mostly Cloudy,KDCA,O,EST,38.852,-77.038,16,73,77,64,74,67,370,3,100,30,BKN,10,190,65,255,654,719,934,0,0,0,30.04,1017.4,42,MC,Mostly Cloudy,2-Oct-16,13
KDCA 03/Nov/2013 13,687,WAS2013,3-Nov-13,3-Nov-13,3-Nov-13,1:00,13,WAS,-1.5,LAC,54,O,49.5,2013,Week 9,80115,WAS,-1.5,1.5,OAK,30,24,Y,79000,0,16,57,0,Washington,KDCA,KDCA4158113,KDCA,O,3-Nov-13,EST,38.852,-77.038,16,59,44,52,58,39,40,21,31,68,28,47,46,37,43,20,11,343,28,22,10,2561,303,2863,420,627,0,0,30.47,29.92,30.19,1031.8,1013.1,1022.4,46,CLR,Fair,KDCA,O,EST,38.852,-77.038,16,58,55,30,35,46,360,14,5,35,FEW,10,464,48,512,476,524,680,0,0,0,30.21,1022.9,45,CLR,Mostly Clear,3-Nov-13,13
KDCA 04/Nov/2018 13,688,WAS2018,4-Nov-18,4-Nov-18,4-Nov-18,1:00,13,WAS,-1.5,ATL,52,O,47,2018,Week 9,62386,WAS,-1.5,1.5,ATL,14,38,Y,82000,0,21,29,0,Washington,KDCA,KDCA4340813,KDCA,O,4-Nov-18,EST,38.85,-77.033,59,59,42,51,59,40,45,34,39,86,41,63,49,41,45,9,5,88,34,30,10,2934,299,3233,575,625,0,0,30.56,30.36,30.46,1034.8,1028.1,1031.5,45,CLR,Mostly Clear,KDCA,O,EST,38.85,-77.033,59,58,57,35,42,47,150,6,5,250,FEW,10,464,47,511,471,518,673,0,0,0,30.5,1032.7,45,CLR,Mostly Clear,4-Nov-18,13
KDCA 04/Oct/2015 13,689,WAS2015,4-Oct-15,4-Oct-15,4-Oct-15,1:00,13,PHI,-3,WAS,43,U,45.5,2015,Week 4,74767,WAS,3,-3,CLE,23,20,N,82000,0,18,59,0,Washington,KDCA,KDCA4228113,KDCA,O,4-Oct-15,EST,38.852,-77.038,16,59,54,57,59,51,54,48,52,96,72,84,56,51,54,23,15,23,30,100,9.8,2251,451,2701,0,698,0,0,30.21,30.16,30.19,1023.1,1021.3,1022.2,40,MC,Overcast,KDCA,O,EST,38.852,-77.038,16,59,55,53,81,56,300,21,100,20,OVC,10,324,65,388,647,712,925,0,0,0,30.19,1022.2,40,MC,Overcast,4-Oct-15,13
KDCA 06/Oct/2014 20,690,WAS2014,6-Oct-14,6-Oct-14,6-Oct-14,8:30,20,SEA,-7,WAS,44,U,46,2014,Week 5,79522,WAS,7,-7,PIT,17,27,Y,79000,0,17,63,0,Washington,KDCA,KDCA4191820,KDCA,O,6-Oct-14,EST,38.852,-77.038,16,77,49,64,77,47,49,40,45,74,32,52,60,46,53,20,12,183,32,34,10,4293,440,4733,597,693,0,0,30.04,29.94,29.99,1017.2,1013.8,1015.5,45,CLR,Mostly Clear,KDCA,O,EST,38.852,-77.038,16,69,69,48,47,58,170,14,100,180,BKN,10,0,0,0,0,0,0,0,0,0,29.97,1014.9,42,MC,Mostly Cloudy,6-Oct-14,20
KDCA 06/Oct/2019 13,691,WAS2019,6-Oct-19,6-Oct-19,6-Oct-19,1:00,13,NE,-6.5,WAS,40,O,37,2019,Week 5,76483,WAS,6.5,-6.5,NE,7,33,Y,82000,0,22,37,0,Washington,KDCA,KDCA4374413,KDCA,O,6-Oct-19,EST,38.85,-77.033,59,73,62,69,77,62,64,52,60,79,66,73,67,56,63,14,9,187,24,100,10,2194,440,2635,0,693,0,0,30.3,30.2,30.26,1026,1022.5,1024.5,40,MC,Overcast,KDCA,O,EST,38.85,-77.033,59,72,72,60,66,65,200,13,100,38,OVC,10,318,64,382,635,699,908,0,0,0,30.26,1024.7,40,MC,Overcast,6-Oct-19,13
KDCA 07/Dec/2014 13,692,WAS2014,7-Dec-14,7-Dec-14,7-Dec-14,1:00,13,LAR,-3,WAS,24,U,44.5,2014,Week 14,71120,WAS,3,-3,JAX,0,24,Y,79000,0,17,46,0,Washington,KDCA,KDCA4198013,KDCA,O,7-Dec-14,EST,38.852,-77.038,16,50,37,43,50,30,36,18,24,74,31,49,41,32,36,25,16,349,35,32,10,2039,207,2246,528,572,0,0,30.56,30.27,30.46,1035,1025,1031.5,45,CLR,Mostly Clear,KDCA,O,EST,38.852,-77.038,16,48,41,22,36,38,300,18,5,100,FEW,10,355,36,391,364,400,520,0,0,0,30.47,1032,45,CLR,Mostly Clear,7-Dec-14,13
KDCA 07/Dec/2015 20,693,WAS2015,7-Dec-15,7-Dec-15,7-Dec-15,8:30,20,WAS,-2,DAL,35,U,43.5,2015,Week 13,80444,WAS,-2,2,CHI,16,19,Y,82000,0,18,44,0,Washington,KDCA,KDCA4234520,KDCA,O,7-Dec-15,EST,38.852,-77.038,16,60,36,48,59,33,38,30,34,93,33,63,46,36,42,9,5,324,24,56,9.6,1985,207,2192,404,572,0,0,30.28,30.09,30.17,1025.4,1019.1,1021.8,45,CLR,Mostly Clear,KDCA,O,EST,38.852,-77.038,16,50,47,32,50,42,350,7,100,70,OVC,10,0,0,0,0,0,0,0,0,0,30.13,1020.4,40,MC,Overcast,7-Dec-15,20
KDCA 08/Dec/2013 13,694,WAS2013,8-Dec-13,8-Dec-13,8-Dec-13,1:00,13,KC,-3.5,WAS,55,O,44,2013,Week 14,56247,WAS,3.5,-3.5,SF,10,45,Y,79000,0,16,30,0,Washington,KDCA,KDCA4161613,KDCA,O,8-Dec-13,EST,38.852,-77.038,16,34,29,31,33,21,30,19,24,89,56,74,31,27,29,14,9,6,24,97,6.1,1045,207,1251,6,572,0.82,0.6,30.58,30.31,30.49,1035.7,1026.5,1032.7,9,SNOW,Light Snow,KDCA,O,EST,38.852,-77.038,16,30,24,25,82,28,70,6,100,14,BKN,0.8,182,36,218,363,399,518,99,0.05,0.1,30.52,1033.6,9,SNOW,Light Snow,8-Dec-13,13
KDCA 09/Dec/2018 13,695,WAS2018,9-Dec-18,9-Dec-18,9-Dec-18,1:00,13,NYG,-3,WAS,56,O,40,2018,Week 14,57437,WAS,3,-3,NYG,16,40,Y,82000,0,21,81,0,Washington,KDCA,KDCA4344313,KDCA,O,9-Dec-18,EST,38.85,-77.033,59,35,32,34,35,25,20,17,19,59,50,54,30,27,29,14,9,25,24,99,9.9,1276,207,1483,6,571,0,0,30.56,30.13,30.37,1034.8,1020.3,1028.3,40,MC,Overcast,KDCA,O,EST,38.85,-77.033,59,35,29,20,54,30,20,8,90,110,BKN,10,237,36,273,362,398,516,0,0,0,30.36,1028.1,42,MC,Mostly Cloudy,9-Dec-18,13
KDCA 09/Sep/2013 19,696,WAS2013,9-Sep-13,9-Sep-13,9-Sep-13,7:10,19,WAS,-4,PHI,60,O,52.5,2013,Week 1,82743,WAS,-4,4,PHI,27,33,Y,79000,0,16,80,0,Washington,KDCA,KDCA4152619,KDCA,O,9-Sep-13,EST,38.852,-77.038,16,81,65,73,82,65,68,48,57,79,50,57,70,56,64,12,7,187,24,94,10,2027,585,2612,3,760,0,0,30.21,30.09,30.16,1023,1019.1,1021.3,42,MC,Mostly Cloudy,KDCA,O,EST,38.852,-77.038,16,77,80,65,66,69,180,9,100,31,OVC,10,0,0,0,0,0,0,0,0,0,30.14,1020.5,42,MC,Mostly Cloudy,9-Sep-13,19
KDCA 10/Sep/2017 13,697,WAS2017,10-Sep-17,10-Sep-17,10-Sep-17,1:00,13,PHI,-1,WAS,47,U,49.5,2017,Week 1,78685,WAS,1,-1,PHI,17,30,Y,82000,0,20,81,0,Washington,KDCA,KDCA4298813,KDCA,O,10-Sep-17,EST,38.852,-77.038,16,74,53,64,77,51,56,48,52,84,48,65,62,51,57,12,8,16,12,36,10,4659,580,5239,447,757,0,0,30.42,30.34,30.37,1029.9,1027.4,1028.4,46,CLR,Fair,KDCA,O,EST,38.852,-77.038,16,72,72,53,52,61,20,9,70,50,BKN,10,511,79,590,786,865,1122,0,0,0,30.38,1028.7,42,MC,Mostly Cloudy,10-Sep-17,13
KDCA 12/Nov/2017 13,698,WAS2017,12-Nov-17,12-Nov-17,12-Nov-17,1:00,13,MIN,-1,WAS,68,O,42.5,2017,Week 10,74476,WAS,1,-1,MIN,30,38,Y,82000,0,20,69,0,Washington,KDCA,KDCA4305113,KDCA,O,12-Nov-17,EST,38.852,-77.038,16,47,31,41,47,32,34,22,28,76,46,62,40,29,35,8,3,153,8,99,10,1661,268,1929,12,608,0.02,0,30.5,30.37,30.44,1032.8,1028.2,1030.8,50,PC,High Overcast,KDCA,O,EST,38.852,-77.038,16,44,44,25,47,37,120,3,100,250,BKN,10,312,43,355,434,477,621,0,0,0,30.43,1030.2,52,PC,High Clouds,12-Nov-17,13
KDCA 12/Sep/2016 19,699,WAS2016,12-Sep-16,12-Sep-16,12-Sep-16,7:10,19,PIT,-2.5,WAS,54,O,49,2016,Week 1,79124,WAS,2.5,-2.5,TB,16,38,Y,82000,0,19,76,0,Washington,KDCA,KDCA4262519,KDCA,O,12-Sep-16,EST,38.852,-77.038,16,86,66,75,85,67,64,52,56,73,35,53,66,60,64,10,8,72,24,22,10,5160,563,5723,585,753,0,0,30.25,30.15,30.2,1024.4,1021.1,1022.6,45,CLR,Mostly Clear,KDCA,O,EST,38.852,-77.038,16,77,78,57,50,65,120,8,10,70,FEW,10,0,0,0,0,0,0,0,0,0,30.17,1021.7,45,CLR,Mostly Clear,12-Sep-16,19
KDCA 13/Nov/2016 13,700,WAS2016,13-Nov-16,13-Nov-16,13-Nov-16,1:00,13,WAS,-2.5,MIN,46,O,41.5,2016,Week 10,78216,WAS,-2.5,2.5,SF,26,20,Y,82000,0,19,55,0,Washington,KDCA,KDCA4268713,KDCA,O,13-Nov-16,EST,38.852,-77.038,16,64,33,47,62,29,40,25,31,76,25,57,48,31,40,9,6,189,24,1,10,2599,262,2861,597,607,0,0,30.29,30.15,30.22,1025.9,1020.9,1023.4,46,CLR,Fair,KDCA,O,EST,38.852,-77.038,16,59,58,30,33,46,160,6,0,201,CLR,10,426,43,469,426,469,609,0,0,0,30.22,1023.2,46,CLR,Fair,13-Nov-16,13
KDCA 13/Sep/2015 13,701,WAS2015,13-Sep-15,13-Sep-15,13-Sep-15,1:00,13,MIA,-4,WAS,27,U,45.5,2015,Week 1,76512,WAS,4,-4,HOU,10,17,Y,82000,0,18,71,0,Washington,KDCA,KDCA4226013,KDCA,O,13-Sep-15,EST,38.852,-77.038,16,74,60,67,76,60,54,44,49,68,38,54,62,53,58,18,11,307,27,61,10,3179,563,3742,237,751,0,0,30.03,29.73,29.86,1017,1006.9,1011.1,45,CLR,Mostly Clear,KDCA,O,EST,38.852,-77.038,16,74,76,50,43,60,330,18,100,50,BKN,10,312,77,389,770,847,1100,0,0,0,29.84,1010.6,42,MC,Mostly Cloudy,13-Sep-15,13
KDCA 14/Oct/2018 13,702,WAS2018,14-Oct-18,14-Oct-18,14-Oct-18,1:00,13,CAR,-1,WAS,40,U,44.5,2018,Week 6,60482,WAS,1,-1,CAR,23,17,Y,82000,0,21,88,0,Washington,KDCA,KDCA4338713,KDCA,O,14-Oct-18,EST,38.85,-77.033,59,60,48,55,60,45,54,39,46,87,63,70,56,44,50,9,4,214,24,92,9.8,1835,398,2231,13,673,0.01,0,30.29,30.19,30.23,1025.7,1022.4,1023.6,40,MC,Overcast,KDCA,O,EST,38.85,-77.033,59,57,56,46,67,51,160,5,100,100,OVC,10,294,59,352,587,646,839,0,0,0,30.24,1024.1,40,MC,Overcast,14-Oct-18,13
KDCA 14/Sep/2014 13,703,WAS2014,14-Sep-14,14-Sep-14,14-Sep-14,1:00,13,WAS,-5,JAX,51,O,43,2014,Week 2,80037,WAS,-5,5,CIN,41,10,Y,79000,0,17,67,0,Washington,KDCA,KDCA4189613,KDCA,O,14-Sep-14,EST,38.852,-77.038,16,74,56,65,76,55,54,45,48,75,38,56,59,51,56,12,6,339,24,44,10,4126,558,4684,220,748,0,0,30.33,30.22,30.26,1027.1,1023.2,1024.7,45,CLR,Mostly Clear,KDCA,O,EST,38.852,-77.038,16,71,71,45,39,57,50,6,90,45,BKN,10,527,76,603,764,840,1092,0,0,0,30.27,1025.2,44,PC,Partly Cloudy,14-Sep-14,13
KDCA 15/Dec/2019 13,704,WAS2019,15-Dec-19,15-Dec-19,15-Dec-19,1:00,13,PHI,-3.5,WAS,64,O,36,2019,Week 15,63246,WAS,3.5,-3.5,PHI,27,37,Y,82000,0,22,67,0,Washington,KDCA,KDCA4381413,KDCA,O,15-Dec-19,EST,38.85,-77.033,59,57,38,46,55,31,36,23,31,76,38,57,46,33,40,16,9,289,24,39,10,1648,202,1850,434,567,0,0,30.22,29.7,29.96,1023.6,1005.6,1014.9,46,CLR,Fair,KDCA,O,EST,38.85,-77.033,59,55,52,30,38,44,250,15,70,65,SCT,10,232,36,268,357,393,511,0,0,0,29.95,1014.3,42,MC,Mostly Cloudy,15-Dec-19,13
KDCA 15/Nov/2015 13,705,WAS2015,15-Nov-15,15-Nov-15,15-Nov-15,1:00,13,NO,-1,WAS,61,O,52,2015,Week 10,75086,WAS,1,-1,NE,47,14,Y,82000,0,18,62,0,Washington,KDCA,KDCA4232313,KDCA,O,15-Nov-15,EST,38.852,-77.038,16,64,36,50,62,32,38,30,32,76,33,53,50,34,42,14,8,195,24,25,10,2296,259,2555,413,603,0,0,30.42,30.29,30.35,1030.3,1025.9,1027.7,45,CLR,Mostly Clear,KDCA,O,EST,38.852,-77.038,16,59,57,36,42,48,170,12,25,100,SCT,10,386,42,428,422,464,603,0,0,0,30.34,1027.5,45,CLR,Mostly Clear,15-Nov-15,13
KDCA 15/Oct/2017 13,706,WAS2017,15-Oct-17,15-Oct-17,15-Oct-17,1:00,13,WAS,-11,SF,50,O,46.5,2017,Week 6,75568,WAS,-11,11,DET,26,24,N,82000,0,20,64,0,Washington,KDCA,KDCA4302313,KDCA,O,15-Oct-17,EST,38.852,-77.038,16,79,64,70,81,64,68,62,66,100,69,87,71,63,67,14,10,198,20,67,9.1,2274,391,2665,221,671,0,0,30.15,29.86,30,1021.1,1011.1,1015.8,40,MC,Overcast,KDCA,O,EST,38.852,-77.038,16,74,77,66,76,69,200,14,100,22,BKN,10,290,58,348,581,639,830,0,0,0,29.97,1014.9,40,MC,Overcast,15-Oct-17,13
KDCA 15/Sep/2019 13,707,WAS2019,15-Sep-19,15-Sep-19,15-Sep-19,1:00,13,DAL,-6,WAS,52,O,46.5,2019,Week 2,75128,WAS,6,-6,DAL,21,31,Y,82000,0,22,86,0,Washington,KDCA,KDCA4372313,KDCA,O,15-Sep-19,EST,38.85,-77.033,59,90,72,80,89,73,70,46,61,85,24,58,72,64,68,10,6,339,24,48,10,4459,552,5011,443,745,0,0,30.2,30.09,30.14,1022.5,1018.9,1020.6,45,CLR,Mostly Clear,KDCA,O,EST,38.85,-77.033,59,88,88,56,34,68,370,3,10,250,FEW,10,729,76,805,759,835,1084,0,0,0,30.14,1020.6,45,CLR,Mostly Clear,15-Sep-19,13
KDCA 16/Nov/2014 13,708,WAS2014,16-Nov-14,16-Nov-14,16-Nov-14,1:00,13,WAS,-7,TB,34,U,46,2014,Week 11,77442,WAS,-7,7,KC,7,27,Y,79000,0,17,46,0,Washington,KDCA,KDCA4195913,KDCA,O,16-Nov-14,EST,38.852,-77.038,16,48,37,44,48,33,33,21,26,63,34,50,40,32,36,13,7,192,24,96,10,1403,255,1656,54,601,0.01,0,30.39,30.04,30.26,1029,1017.4,1024.9,40,MC,Overcast,KDCA,O,EST,38.852,-77.038,16,47,43,22,37,37,220,9,100,75,OVC,10,209,42,251,418,460,598,0,0,0,30.24,1024.2,40,MC,Overcast,16-Nov-14,13
KDCA 16/Oct/2016 13,709,WAS2016,16-Oct-16,16-Oct-16,16-Oct-16,1:00,13,PHI,-3,WAS,47,O,45,2016,Week 6,78934,WAS,3,-3,CLE,27,20,Y,82000,0,19,69,0,Washington,KDCA,KDCA4265913,KDCA,O,16-Oct-16,EST,38.852,-77.038,16,73,53,63,77,52,63,52,58,100,64,85,66,53,60,14,7,186,24,21,10,3465,379,3845,530,668,0,0,30.29,30.06,30.16,1025.9,1017.8,1021.5,45,CLR,Mostly Clear,KDCA,O,EST,38.852,-77.038,16,71,71,59,66,64,170,10,5,80,FEW,10,555,57,612,569,626,813,0,0,0,30.14,1020.8,45,CLR,Mostly Clear,16-Oct-16,13
KDCA 16/Sep/2018 13,710,WAS2018,16-Sep-18,16-Sep-18,16-Sep-18,1:00,13,WAS,-6,IND,30,U,48,2018,Week 2,57013,WAS,-6,6,IND,9,21,Y,82000,0,21,71,0,Washington,KDCA,KDCA4335913,KDCA,O,16-Sep-18,EST,38.85,-77.033,59,83,69,75,86,70,69,64,68,90,64,78,73,66,70,15,9,66,24,80,9.4,2637,547,3184,19,743,0,0,30.21,30.14,30.17,1023,1020.4,1021.4,40,MC,Overcast,KDCA,O,EST,38.85,-77.033,59,79,83,69,72,72,30,9,70,24,BKN,10,489,75,564,753,828,1076,0,0,0,30.18,1022.1,42,MC,Mostly Cloudy,16-Sep-18,13
KDCA 17/Dec/2017 13,711,WAS2017,17-Dec-17,17-Dec-17,17-Dec-17,1:00,13,WAS,-4.5,ARI,35,U,40,2017,Week 15,71026,WAS,-4.5,4.5,ARI,20,15,Y,82000,0,20,56,0,Washington,KDCA,KDCA4308613,KDCA,O,17-Dec-17,EST,38.852,-77.038,16,50,30,41,50,28,35,26,31,85,50,67,42,29,36,8,3,182,8,79,10,1054,202,1256,12,567,0.05,0,30.28,30.16,30.22,1025.3,1021.4,1023.4,40,MC,Overcast,KDCA,O,EST,38.852,-77.038,16,49,46,31,50,41,190,7,100,250,OVC,10,162,36,198,357,393,510,0,0,0,30.23,1023.7,50,PC,High Overcast,17-Dec-17,13
KDCA 17/Nov/2019 13,712,WAS2019,17-Nov-19,17-Nov-19,17-Nov-19,1:00,13,WAS,-2.5,NYJ,51,O,49,2019,Week 11,56426,WAS,-2.5,2.5,NYJ,17,34,Y,82000,0,22,43,0,Washington,KDCA,KDCA4378613,KDCA,O,17-Nov-19,EST,38.85,-77.033,59,46,37,41,46,28,36,13,27,76,34,56,40,29,36,18,13,25,24,100,10,1264,251,1513,0,600,0,0,30.34,30.01,30.19,1027.2,1016,1022.2,40,MC,Overcast,KDCA,O,EST,38.85,-77.033,59,45,39,31,58,39,20,13,100,27,OVC,10,208,41,248,415,456,593,0,0,0,30.17,1021.7,40,MC,Overcast,17-Nov-19,13
KDCA 18/Nov/2018 13,713,WAS2018,18-Nov-18,18-Nov-18,18-Nov-18,1:00,13,HOU,-3,WAS,44,O,41,2018,Week 11,61593,WAS,3,-3,HOU,21,23,N,82000,0,21,47,0,Washington,KDCA,KDCA4342213,KDCA,O,18-Nov-18,EST,38.85,-77.033,59,52,34,44,51,35,40,31,36,86,56,74,46,33,40,9,4,190,24,80,9.5,1205,249,1454,62,597,0,0,30.39,30.19,30.3,1028.9,1022.4,1026.1,42,MC,Mostly Cloudy,KDCA,O,EST,38.85,-77.033,59,51,48,36,56,44,190,8,100,200,OVC,10,124,41,165,412,453,588,0,0,0,30.3,1026.1,40,MC,Overcast,18-Nov-18,13
KDCA 18/Sep/2016 13,714,WAS2016,18-Sep-16,18-Sep-16,18-Sep-16,1:00,13,WAS,-3,DAL,50,O,47,2016,Week 2,80612,WAS,-3,3,NYG,23,27,Y,82000,0,19,84,0,Washington,KDCA,KDCA4263113,KDCA,O,18-Sep-16,EST,38.852,-77.038,16,89,71,79,93,72,74,68,71,97,53,78,76,70,73,15,9,181,24,85,10,3579,531,4110,93,738,0,0,30.09,29.98,30.04,1018.9,1015.3,1017.1,52,PC,High Clouds,KDCA,O,EST,38.852,-77.038,16,88,93,69,54,75,180,15,95,250,BKN,10,512,74,586,737,811,1053,0,0,0,30.03,1016.9,52,PC,High Clouds,18-Sep-16,13
KDCA 19/Dec/2016 20,715,WAS2016,19-Dec-16,19-Dec-16,19-Dec-16,8:30,20,WAS,-7,CAR,41,U,50.5,2016,Week 15,76689,WAS,-7,7,GB,15,26,Y,82000,0,19,30,0,Washington,KDCA,KDCA4272320,KDCA,O,19-Dec-16,EST,38.852,-77.038,16,39,31,34,37,21,20,16,18,59,42,53,31,26,28,16,10,5,24,82,10,1744,200,1944,203,567,0,0,30.74,30.53,30.67,1040.9,1033.9,1038.6,45,CLR,Mostly Clear,KDCA,O,EST,38.852,-77.038,16,32,25,18,56,27,80,8,70,230,BKN,10,0,0,0,0,0,0,0,0,0,30.68,1039.1,52,PC,High Clouds,19-Dec-16,20
KDCA 19/Oct/2014 13,716,WAS2014,19-Oct-14,19-Oct-14,19-Oct-14,1:00,13,WAS,-6,TEN,36,U,46.5,2014,Week 7,75227,WAS,-6,6,CIN,19,17,N,79000,0,17,57,0,Washington,KDCA,KDCA4193113,KDCA,O,19-Oct-14,EST,38.852,-77.038,16,62,50,56,62,46,39,29,33,57,29,44,48,43,46,20,12,315,29,62,10,3302,371,3673,417,661,0,0,30.13,29.88,30.04,1020.3,1011.7,1017.1,45,CLR,Mostly Clear,KDCA,O,EST,38.852,-77.038,16,60,58,30,32,47,330,13,25,45,SCT,10,510,56,566,557,613,796,0,0,0,30.06,1017.8,45,CLR,Mostly Clear,19-Oct-14,13
KDCA 20/Dec/2014 16,717,WAS2014,20-Dec-14,20-Dec-14,20-Dec-14,4:30,16,PHI,-7,WAS,51,P,51,2014,Week 16,78897,WAS,7,-7,IND,27,24,N,79000,0,17,35,0,Washington,KDCA,KDCA4199316,KDCA,O,20-Dec-14,EST,38.852,-77.038,16,39,30,36,39,25,22,19,20,64,46,54,33,27,30,8,5,334,24,68,10,1173,200,1373,44,566,0,0,30.35,30.25,30.3,1027.6,1024.4,1025.9,42,MC,Mostly Cloudy,KDCA,O,EST,38.852,-77.038,16,39,39,20,46,32,370,3,100,110,OVC,10,16,4,20,42,46,60,0,0,0,30.27,1025.2,44,PC,Partly Cloudy,20-Dec-14,16
KDCA 20/Dec/2015 13,718,WAS2015,20-Dec-15,20-Dec-15,20-Dec-15,1:00,13,BUF,-2,WAS,60,O,46,2015,Week 15,80124,WAS,2,-2,GB,35,25,Y,82000,0,18,45,0,Washington,KDCA,KDCA4235813,KDCA,O,20-Dec-15,EST,38.852,-77.038,16,46,32,39,46,26,33,14,21,73,33,48,36,28,33,9,6,204,24,35,10,1871,200,2071,398,566,0,0,30.63,30.45,30.53,1037.1,1031.3,1033.7,46,CLR,Fair,KDCA,O,EST,38.852,-77.038,16,44,41,18,35,35,140,5,20,250,SCT,10,336,36,372,357,393,510,0,0,0,30.55,1034.7,54,CLR,Few High Clouds,20-Dec-15,13
KDCA 20/Nov/2016 20,719,WAS2016,20-Nov-16,20-Nov-16,20-Nov-16,8:30,20,WAS,-3,GB,66,O,48.5,2016,Week 11,77137,WAS,-3,3,ARI,42,24,Y,82000,0,19,38,0,Washington,KDCA,KDCA4269420,KDCA,O,20-Nov-16,EST,38.852,-77.038,16,47,37,41,46,26,25,16,20,57,34,44,36,31,34,30,20,291,47,51,10,1578,240,1819,146,594,0,0,29.92,29.84,29.88,1013.1,1010.6,1011.9,44,PC,Partly Cloudy,KDCA,O,EST,38.852,-77.038,16,39,30,18,43,32,300,18,5,70,FEW,10,0,0,0,0,0,0,0,0,0,29.92,1013.1,45,CLR,Mostly Clear,20-Nov-16,20
KDCA 20/Oct/2013 13,720,WAS2013,20-Oct-13,20-Oct-13,20-Oct-13,1:00,13,CHI,-1,WAS,86,O,48.5,2013,Week 7,83147,WAS,1,-1,BUF,45,41,Y,79000,0,16,62,0,Washington,KDCA,KDCA4156713,KDCA,O,20-Oct-13,EST,38.852,-77.038,16,66,49,56,65,46,42,32,36,69,31,47,51,43,47,18,9,309,39,3,10,3597,366,3963,623,659,0,0,30.12,29.9,30.05,1020,1012.5,1017.5,46,CLR,Fair,KDCA,O,EST,38.852,-77.038,16,64,64,35,34,50,320,8,0,201,CLR,10,552,55,607,552,607,788,0,0,0,30.06,1017.8,46,CLR,Fair,20-Oct-13,13
KDCA 20/Oct/2019 13,721,WAS2019,20-Oct-19,20-Oct-19,20-Oct-19,1:00,13,WAS,-1,SF,9,O,48,2019,Week 7,61459,WAS,-1,1,NE,0,9,Y,82000,0,22,43,0,Washington,KDCA,KDCA4375813,KDCA,O,20-Oct-19,EST,38.85,-77.033,59,58,55,57,58,52,56,50,54,97,78,90,57,53,55,18,11,16,25,100,6.8,1831,366,2196,0,659,1.6,0,30,29.85,29.94,1015.9,1010.7,1013.8,19,RAIN,Moderate Rain,KDCA,O,EST,38.85,-77.033,59,57,53,55,93,56,30,17,100,55,OVC,6,276,55,331,552,607,788,99,0.17,0,29.86,1011.1,18,RAIN,Light Rain,20-Oct-19,13
KDCA 20/Sep/2015 13,722,WAS2015,20-Sep-15,20-Sep-15,20-Sep-15,1:00,13,LAR,-3,WAS,34,U,41,2015,Week 2,72460,WAS,3,-3,TEN,24,10,Y,82000,0,18,75,0,Washington,KDCA,KDCA4226713,KDCA,O,20-Sep-15,EST,38.852,-77.038,16,82,68,73,81,69,67,48,56,87,41,58,69,58,64,15,11,323,24,76,10,3617,526,4142,242,732,0,0,30.08,29.87,30,1018.5,1011.6,1015.8,42,MC,Mostly Cloudy,KDCA,O,EST,38.852,-77.038,16,77,78,57,50,65,200,9,90,44,BKN,10,479,73,552,731,804,1044,0,0,0,30.02,1016.6,44,PC,Partly Cloudy,20-Sep-15,13
KDCA 21/Oct/2018 16,723,WAS2018,21-Oct-18,21-Oct-18,21-Oct-18,4:25,16,DAL,-2,WAS,37,U,40.5,2018,Week 7,66301,WAS,2,-2,DAL,20,17,Y,82000,0,21,43,0,Washington,KDCA,KDCA4339416,KDCA,O,21-Oct-18,EST,38.85,-77.033,59,56,42,50,54,40,40,29,31,62,40,49,48,38,42,23,15,311,43,44,10,2666,362,3028,320,657,0,0,30.29,29.78,30.09,1025.7,1008.4,1019,42,MC,Mostly Cloudy,KDCA,O,EST,38.85,-77.033,59,52,47,30,43,42,290,15,70,55,BKN,10,88,14,102,135,149,193,0,0,0,30.15,1021.1,42,MC,Mostly Cloudy,21-Oct-18,16
KDCA 22/Dec/2013 13,724,WAS2013,22-Dec-13,22-Dec-13,22-Dec-13,1:00,13,DAL,-3,WAS,47,U,52,2013,Week 16,80411,WAS,3,-3,DEN,23,24,N,79000,0,16,65,0,Washington,KDCA,KDCA4163013,KDCA,O,22-Dec-13,EST,38.852,-77.038,16,72,57,64,72,55,61,55,58,93,63,80,65,56,61,21,14,192,33,95,9.6,1042,200,1243,75,566,0.24,0,30.02,29.84,29.94,1016.7,1010.6,1013.8,42,MC,Mostly Cloudy,KDCA,O,EST,38.852,-77.038,16,61,60,58,90,59,190,8,100,65,BKN,10,179,36,215,358,394,512,0,0,0,29.96,1014.6,42,MC,Mostly Cloudy,22-Dec-13,13
KDCA 22/Dec/2019 13,725,WAS2019,22-Dec-19,22-Dec-19,22-Dec-19,1:00,13,WAS,-3,NYG,76,O,51,2019,Week 16,66083,WAS,-3,3,DAL,35,41,Y,82000,0,22,60,0,Washington,KDCA,KDCA4382113,KDCA,O,22-Dec-19,EST,38.85,-77.033,59,47,27,36,46,23,32,25,29,93,53,76,40,27,33,10,4,183,24,43,7.9,1523,200,1723,267,566,0,0,30.46,30.27,30.38,1031.7,1024.7,1028.6,46,CLR,Fair,KDCA,O,EST,38.85,-77.033,59,45,40,30,57,39,170,8,70,250,CLR,10,283,36,319,358,394,512,0,0,0,30.37,1028.4,46,CLR,Fair,22-Dec-19,13
KDCA 22/Sep/2013 13,726,WAS2013,22-Sep-13,22-Sep-13,22-Sep-13,1:00,13,DET,-1,WAS,47,U,49,2013,Week 3,80111,WAS,1,-1,WAS,20,27,Y,79000,0,16,72,0,Washington,KDCA,KDCA4153913,KDCA,O,22-Sep-13,EST,38.852,-77.038,16,76,58,67,77,60,60,47,52,90,40,62,63,54,59,16,10,341,24,45,10,3611,515,4126,335,728,0,0,29.96,29.74,29.85,1014.6,1007.2,1010.7,45,CLR,Mostly Clear,KDCA,O,EST,38.852,-77.038,16,75,77,51,43,61,320,13,100,55,BKN,10,360,72,432,719,791,1027,0,0,0,29.84,1010.4,42,MC,Mostly Cloudy,22-Sep-13,13
KDCA 23/Nov/2017 20,727,WAS2017,23-Nov-17,23-Nov-17,23-Nov-17,8:30,20,WAS,-7,NYG,30,U,44,2017,Week 12,73210,WAS,-7,7,NYG,20,10,Y,82000,0,20,40,0,Washington,KDCA,KDCA4306220,KDCA,O,23-Nov-17,EST,38.852,-77.038,16,47,32,38,46,25,28,21,24,69,38,56,37,29,33,10,5,320,10,17,10,2295,238,2533,482,589,0,0,30.22,30.07,30.14,1023.1,1018.1,1020.4,45,CLR,Mostly Clear,KDCA,O,EST,38.852,-77.038,16,39,39,27,62,34,190,3,0,201,CLR,10,0,0,0,0,0,0,0,0,0,30.07,1018.1,46,CLR,Fair,23-Nov-17,20
KDCA 23/Sep/2018 13,728,WAS2018,23-Sep-18,23-Sep-18,23-Sep-18,1:00,13,GB,-2.5,WAS,48,O,46,2018,Week 3,59827,WAS,2.5,-2.5,GB,31,17,Y,82000,0,21,83,0,Washington,KDCA,KDCA4336613,KDCA,O,23-Sep-18,EST,38.85,-77.033,59,66,61,63,66,60,62,54,59,94,66,86,63,58,61,13,9,27,24,100,6.8,2518,511,3028,0,726,0.71,0,30.26,30.18,30.21,1024.6,1021.8,1022.9,18,RAIN,Light Rain,KDCA,O,EST,38.85,-77.033,59,65,64,61,87,63,40,12,100,11,OVC,6,357,71,428,714,785,1019,99,0.01,0,30.21,1022.8,18,RAIN,Light Rain,23-Sep-18,13
KDCA 23/Sep/2019 20,729,WAS2019,23-Sep-19,23-Sep-19,23-Sep-19,8:15,20,CHI,-5,WAS,46,O,41,2019,Week 3,67327,WAS,5,-5,CHI,15,31,Y,82000,0,22,79,0,Washington,KDCA,KDCA4373120,KDCA,O,23-Sep-19,EST,38.85,-77.033,59,94,72,82,94,73,68,55,64,81,27,58,73,69,70,16,11,208,22,69,10,3706,511,4217,121,726,0,0,30,29.81,29.9,1015.9,1009.5,1012.5,52,PC,High Clouds,KDCA,O,EST,38.85,-77.033,59,83,85,63,51,70,340,16,100,100,OVC,10,0,0,0,0,0,0,0,0,0,29.83,1009.9,40,MC,Overcast,23-Sep-19,20
KDCA 24/Dec/2017 13,730,WAS2017,24-Dec-17,24-Dec-17,24-Dec-17,1:00,13,WAS,-3,DEN,38,U,39,2017,Week 16,72889,WAS,-3,3,DEN,27,11,Y,82000,0,20,63,0,Washington,KDCA,KDCA4309313,KDCA,O,24-Dec-17,EST,38.852,-77.038,16,46,39,42,46,34,37,30,33,83,60,72,42,36,39,17,8,9,17,94,10,1138,201,1338,19,567,0,0,30.23,29.87,30.1,1023.5,1011.3,1019.1,40,MC,Overcast,KDCA,O,EST,38.852,-77.038,16,44,39,33,65,39,50,10,100,65,OVC,10,180,36,216,360,396,514,0,0,0,30.13,1020.4,40,MC,Overcast,24-Dec-17,13
KDCA 24/Nov/2019 13,731,WAS2019,24-Nov-19,24-Nov-19,24-Nov-19,1:00,13,WAS,-2,DET,35,O,32,2019,Week 12,57754,WAS,-2,2,KC,19,16,Y,82000,0,22,37,0,Washington,KDCA,KDCA4379313,KDCA,O,24-Nov-19,EST,38.85,-77.033,59,54,40,46,53,34,40,27,34,96,38,67,43,38,41,24,10,302,46,58,9.6,1382,233,1615,230,588,0.28,0,29.76,29.47,29.6,1007.7,997.8,1002.3,45,CLR,Mostly Clear,KDCA,O,EST,38.85,-77.033,59,52,47,27,38,42,300,18,70,90,BKN,10,255,39,294,392,431,560,0,0,0,29.58,1001.6,42,MC,Mostly Cloudy,24-Nov-19,13
KDCA 24/Sep/2017 20,732,WAS2017,24-Sep-17,24-Sep-17,24-Sep-17,8:30,20,OAK,-3.5,WAS,37,U,53.5,2017,Week 3,77123,WAS,3.5,-3.5,OAK,27,10,Y,82000,0,20,87,0,Washington,KDCA,KDCA4300220,KDCA,O,24-Sep-17,EST,38.852,-77.038,16,92,67,79,94,67,71,61,65,84,42,64,74,63,69,10,5,29,10,37,10,4478,504,4982,492,723,0,0,30.11,30.03,30.07,1019.7,1016.9,1018.1,54,CLR,Few High Clouds,KDCA,O,EST,38.852,-77.038,16,80,84,70,71,73,0,0,5,250,FEW,10,0,0,0,0,0,0,0,0,0,30.05,1017.6,45,CLR,Mostly Clear,24-Sep-17,20
KDCA 25/Nov/2013 20,733,WAS2013,25-Nov-13,25-Nov-13,25-Nov-13,8:40,20,SF,-5.5,WAS,33,U,45.5,2013,Week 12,79773,WAS,5.5,-5.5,CHI,6,27,Y,79000,0,16,35,0,Washington,KDCA,KDCA4160320,KDCA,O,25-Nov-13,EST,38.852,-77.038,16,38,24,32,37,15,13,5,8,46,30,38,29,19,24,14,9,214,24,65,10,1671,231,1902,87,586,0,0,30.6,30.36,30.49,1036.2,1028.2,1032.4,45,CLR,Mostly Clear,KDCA,O,EST,38.852,-77.038,16,35,27,10,35,27,200,12,90,170,BKN,10,0,0,0,0,0,0,0,0,0,30.41,1029.8,44,PC,Partly Cloudy,25-Nov-13,20
KDCA 25/Oct/2015 13,734,WAS2015,25-Oct-15,25-Oct-15,25-Oct-15,1:00,13,WAS,-3,TB,61,O,41.5,2015,Week 7,72912,WAS,-3,3,CIN,31,30,N,82000,0,18,70,0,Washington,KDCA,KDCA4230213,KDCA,O,25-Oct-15,EST,38.852,-77.038,16,71,54,60,70,53,57,41,50,93,47,71,61,48,55,17,10,305,24,88,10,1510,342,1852,80,647,0.03,0,30.33,30.08,30.16,1027,1018.5,1021.3,18,RAIN,Light Rain,KDCA,O,EST,38.852,-77.038,16,68,68,56,66,61,320,8,100,45,BKN,10,217,52,269,523,575,747,0,0,0,30.11,1019.6,45,CLR,Mostly Clear,25-Oct-15,13
KDCA 25/Sep/2014 20,735,WAS2014,25-Sep-14,25-Sep-14,25-Sep-14,8:25,20,WAS,-3,NYG,59,O,44.5,2014,Week 4,80573,WAS,-3,3,TEN,14,45,Y,79000,0,17,63,0,Washington,KDCA,KDCA4190720,KDCA,O,25-Sep-14,EST,38.852,-77.038,16,69,63,66,69,61,63,57,59,90,73,80,64,60,62,18,13,195,24,100,7.8,2496,499,2994,0,720,0.64,0,30.32,30.23,30.26,1026.9,1023.6,1024.8,18,RAIN,Light Rain,KDCA,O,EST,38.852,-77.038,16,67,67,59,76,62,300,9,100,18,OVC,10,0,0,0,0,0,0,0,0,0,30.24,1024.1,40,MC,Overcast,25-Sep-14,20
KDCA 28/Dec/2014 13,736,WAS2014,28-Dec-14,28-Dec-14,28-Dec-14,1:00,13,DAL,-6,WAS,61,O,47.5,2014,Week 17,80897,WAS,6,-6,PHI,17,44,Y,79000,0,17,57,0,Washington,KDCA,KDCA4200113,KDCA,O,28-Dec-14,EST,38.852,-77.038,16,58,45,53,57,44,46,36,41,77,53,65,50,42,47,9,5,184,24,100,9.9,947,203,1150,0,568,0.08,0,30.12,29.93,30,1019.9,1013.5,1015.9,18,RAIN,Light Rain,KDCA,O,EST,38.852,-77.038,16,57,56,40,53,49,170,6,100,60,OVC,10,228,36,264,364,400,519,0,0,0,29.95,1014.3,45,CLR,Mostly Clear,28-Dec-14,13
KDCA 29/Nov/2015 13,737,WAS2015,29-Nov-15,29-Nov-15,29-Nov-15,1:00,13,NYG,-1.5,WAS,34,U,48,2015,Week 12,77367,WAS,1.5,-1.5,OAK,20,14,Y,82000,0,18,46,0,Washington,KDCA,KDCA4233713,KDCA,O,29-Nov-15,EST,38.852,-77.038,16,59,45,49,59,41,53,34,45,93,68,88,56,42,48,15,9,358,24,100,8.1,1112,223,1336,0,581,0.17,0,30.32,30.17,30.23,1026.9,1021.6,1023.7,18,RAIN,Light Rain,KDCA,O,EST,38.852,-77.038,16,48,44,45,89,47,300,8,100,9,OVC,10,190,38,228,379,417,541,0,0,0,30.23,1023.6,40,MC,Overcast,29-Nov-15,13
KDCA 29/Oct/2017 16,738,WAS2017,29-Oct-17,29-Oct-17,29-Oct-17,4:25,16,DAL,-3,WAS,52,O,46.5,2017,Week 8,78428,WAS,3,-3,SEA,19,33,Y,82000,0,20,77,0,Washington,KDCA,KDCA4303716,KDCA,O,29-Oct-17,EST,38.852,-77.038,16,68,47,60,68,39,65,42,57,93,86,91,66,46,59,33,13,314,46,100,8.9,1615,324,1938,0,638,0.97,0,29.76,29.18,29.47,1007.7,988,997.9,18,RAIN,Light Rain,KDCA,O,EST,38.852,-77.038,16,60,58,58,93,59,360,13,100,19,OVC,10,52,10,62,104,114,149,99,0.05,0,29.33,993,18,RAIN,Light Rain,29-Oct-17,16
KDCA 30/Dec/2018 16,739,WAS2018,30-Dec-18,30-Dec-18,30-Dec-18,4:25,16,PHI,-6,WAS,24,U,42.5,2018,Week 17,63188,WAS,6,-6,PHI,0,24,Y,82000,0,21,71,0,Washington,KDCA,KDCA4346416,KDCA,O,30-Dec-18,EST,38.85,-77.033,59,47,39,43,47,36,37,28,32,83,60,66,42,36,38,9,4,169,47,79,10,1374,204,1578,89,570,0,0,30.28,30.18,30.24,1025.3,1022,1023.8,52,PC,High Clouds,KDCA,O,EST,38.85,-77.033,59,47,44,35,63,42,180,6,75,270,BKN,10,42,5,47,54,59,78,0,0,0,30.21,1023,52,PC,High Clouds,30-Dec-18,16
KDMH 01/Dec/2019 13,740,BAL2019,1-Dec-19,1-Dec-19,1-Dec-19,1:00,13,BAL,-4,SF,37,O,32,2019,Week 13,71029,BAL,-4,4,OAK,20,17,N,71008,0,21,26,0,Baltimore,KDMH,KDMH4380013,KDMH,O,1-Dec-19,EST,39.283,-76.617,16,45,38,41,44,31,42,27,36,93,55,81,43,35,39,13,7,70,13,98,6.1,1068,214,1285,2,577,0.63,0,29.98,29.48,29.7,1015.3,998.4,1005.6,19,RAIN,Moderate Rain,KDMH,O,EST,39.283,-76.617,16,41,36,39,93,40,83,8,100,6,OVC,7,182,37,220,365,402,522,99,0.04,0,29.63,1003.2,18,RAIN,Light Rain,1-Dec-19,13
KDMH 01/Nov/2015 13,741,BAL2015,1-Nov-15,1-Nov-15,1-Nov-15,1:00,13,BAL,-4.5,LAC,55,O,50.5,2015,Week 8,70829,BAL,-4.5,4.5,CLE,29,26,N,71008,0,17,65,0,Baltimore,KDMH,KDMH4230913,KDMH,O,1-Nov-15,EST,39.281,-76.611,20,67,54,60,67,52,56,44,52,93,63,76,60,49,55,10,5,190,10,80,9.3,1984,307,2291,157,630,0,0,30.06,29.93,29.99,1017.8,1013.4,1015.4,50,PC,High Overcast,KDMH,O,EST,39.281,-76.611,20,64,64,54,70,58,210,9,44,301,BKN,10,372,48,420,477,525,682,0,0,0,29.93,1013.6,52,PC,High Clouds,1-Nov-15,13
KDMH 01/Oct/2017 13,742,BAL2017,1-Oct-17,1-Oct-17,1-Oct-17,1:00,13,PIT,-3.5,BAL,35,U,42,2017,Week 4,71126,BAL,3.5,-3.5,CAR,9,26,Y,71008,0,19,43,0,Baltimore,KDMH,KDMH4300913,KDMH,O,1-Oct-17,EST,39.281,-76.611,20,70,53,61,69,52,48,42,44,69,41,56,57,48,52,8,4,17,8,2,9.8,4616,463,5079,708,708,0,0,30.42,30.31,30.36,1029.9,1026.3,1028,46,CLR,Fair,KDMH,O,EST,39.281,-76.611,20,68,68,46,45,56,90,5,0,201,CLR,10,658,66,724,658,724,940,0,0,0,30.36,1028.2,46,CLR,Fair,1-Oct-17,13
KDMH 02/Oct/2016 13,743,BAL2016,2-Oct-16,2-Oct-16,2-Oct-16,1:00,13,BAL,-3.5,OAK,55,O,45,2016,Week 4,71152,BAL,-3.5,3.5,WAS,27,28,N,71008,0,18,67,0,Baltimore,KDMH,KDMH4264513,KDMH,O,2-Oct-16,EST,39.281,-76.611,20,72,64,67,72,64,62,61,62,93,71,84,66,62,64,6,2,82,6,40,6.1,3200,452,3652,400,703,0,0,30.1,30,30.06,1019.2,1016,1017.8,54,CLR,Few High Clouds,KDMH,O,EST,39.281,-76.611,20,69,69,62,78,65,130,6,100,301,OVC,10,323,65,388,646,711,923,0,0,0,30.06,1017.9,50,PC,High Overcast,2-Oct-16,13
KDMH 03/Dec/2017 13,744,BAL2017,3-Dec-17,3-Dec-17,3-Dec-17,1:00,13,BAL,-2.5,DET,64,O,43,2017,Week 13,70500,BAL,-2.5,2.5,MIN,44,20,Y,71008,0,19,87,0,Baltimore,KDMH,KDMH4307213,KDMH,O,3-Dec-17,EST,39.281,-76.611,20,57,42,48,56,42,43,31,37,90,39,69,49,39,43,6,1,122,6,24,5.9,2094,210,2304,561,574,0.12,0,30.31,30.17,30.22,1026.2,1021.6,1023.2,46,CLR,Fair,KDMH,O,EST,39.281,-76.611,20,55,54,40,57,48,130,6,0,201,CLR,5,361,36,397,361,397,516,0,0,0,30.18,1021.9,46,CLR,Fair,3-Dec-17,13
KDMH 03/Nov/2019 13,745,BAL2019,3-Nov-19,3-Nov-19,3-Nov-19,1:00,13,NE,-2.5,BAL,57,O,46,2019,Week 9,71157,BAL,2.5,-2.5,NE,37,20,Y,71008,0,21,50,0,Baltimore,KDMH,KDMH4377213,KDMH,O,3-Nov-19,EST,39.283,-76.617,16,54,40,48,54,38,33,24,28,65,32,49,42,36,40,15,6,275,15,15,10.1,2683,298,2981,528,625,0,0,30.28,30.1,30.2,1025.4,1019.3,1022.4,47,CLR,Clear,KDMH,O,EST,39.283,-76.617,16,53,49,27,37,42,280,15,23,400,SCT,10,413,47,460,467,514,667,0,0,0,30.2,1022.4,44,PC,Partly Cloudy,3-Nov-19,13
KDMH 04/Dec/2016 13,746,BAL2016,4-Dec-16,4-Dec-16,4-Dec-16,1:00,13,BAL,-3.5,MIA,44,O,41.5,2016,Week 13,70916,BAL,-3.5,3.5,DET,38,6,Y,71008,0,18,45,0,Baltimore,KDMH,KDMH4270813,KDMH,O,4-Dec-16,EST,39.281,-76.611,20,48,40,44,48,35,34,27,29,68,46,54,40,35,38,13,6,266,13,90,9.8,1109,206,1314,32,573,0.04,0,30.31,30.08,30.22,1026.3,1018.6,1023.4,40,MC,Overcast,KDMH,O,EST,39.281,-76.611,20,47,44,28,48,39,340,6,100,301,OVC,10,178,36,214,357,393,510,0,0,0,30.24,1024.1,50,PC,High Overcast,4-Dec-16,13
KDMH 04/Nov/2018 13,747,BAL2018,4-Nov-18,4-Nov-18,4-Nov-18,1:00,13,BAL,-1.5,PIT,39,U,47,2018,Week 9,70997,BAL,-1.5,1.5,PIT,16,23,Y,71008,0,20,74,0,Baltimore,KDMH,KDMH4340813,KDMH,O,4-Nov-18,EST,39.283,-76.617,16,56,42,50,56,43,44,33,37,76,45,60,49,40,44,9,3,67,9,32,9.9,2685,294,2979,520,623,0,0,30.61,30.4,30.47,1036.6,1029.3,1031.8,45,CLR,Mostly Clear,KDMH,O,EST,39.283,-76.617,16,56,55,35,46,46,84,5,23,400,FEW,10,409,46,455,462,508,660,0,0,0,30.51,1033.1,45,CLR,Mostly Clear,4-Nov-18,13
KDMH 06/Nov/2016 13,748,BAL2016,6-Nov-16,6-Nov-16,6-Nov-16,1:00,13,PIT,-3,BAL,35,U,46,2016,Week 9,71286,BAL,3,-3,SEA,21,14,Y,71008,0,18,63,0,Baltimore,KDMH,KDMH4268013,KDMH,O,6-Nov-16,EST,39.281,-76.611,20,66,51,58,65,49,40,26,32,59,23,39,50,42,46,21,10,297,21,15,10,2306,283,2587,465,619,0,0,30.42,30.22,30.29,1030.1,1023.4,1025.7,46,CLR,Fair,KDMH,O,EST,39.281,-76.611,20,65,63,28,25,48,270,21,100,201,OVC,10,224,45,268,447,492,639,0,0,0,30.27,1024.9,40,MC,Overcast,6-Nov-16,13
KDMH 07/Sep/2014 13,749,BAL2014,7-Sep-14,7-Sep-14,7-Sep-14,1:00,13,BAL,-1,CIN,39,U,43.5,2014,Week 1,70925,BAL,-1,1,DET,16,23,Y,71008,0,16,78,0,Baltimore,KDMH,KDMH4188913,KDMH,O,7-Sep-14,EST,39.281,-76.611,20,80,69,74,80,69,68,48,55,79,34,54,71,60,63,8,5,321,8,26,10,5748,590,6338,686,766,0,0,30.17,29.98,30.1,1021.8,1015.1,1019.4,54,CLR,Few High Clouds,KDMH,O,EST,39.281,-76.611,20,77,78,52,42,62,330,6,4,301,SCT,10,778,79,857,794,873,1135,0,0,0,30.12,1019.9,54,CLR,Few High Clouds,7-Sep-14,13
KDMH 08/Dec/2013 13,750,BAL2013,8-Dec-13,8-Dec-13,8-Dec-13,1:00,13,BAL,-6,MIN,55,O,41.5,2013,Week 14,70921,BAL,-6,6,DEN,29,26,N,71008,0,15,33,0,Baltimore,KDMH,KDMH4161613,KDMH,O,8-Dec-13,EST,39.281,-76.611,20,35,29,32,36,25,30,16,23,89,49,70,33,27,29,6,1,353,6,60,5.6,1324,202,1526,185,569,0.61,3.9,30.61,30.3,30.49,1036.5,1026.2,1032.6,9,SNOW,Light Snow,KDMH,O,EST,39.281,-76.611,20,29,29,25,85,28,0,0,78,301,OVC,2,216,35,251,354,389,505,99,0.07,0.6,30.58,1035.5,9,SNOW,Light Snow,8-Dec-13,13
KDMH 09/Nov/2014 13,751,BAL2014,9-Nov-14,9-Nov-14,9-Nov-14,1:00,13,BAL,-10.5,TEN,28,U,44,2014,Week 10,70914,BAL,-10.5,10.5,CLE,21,7,Y,71008,0,16,57,0,Baltimore,KDMH,KDMH4195213,KDMH,O,9-Nov-14,EST,39.281,-76.611,20,58,44,50,57,44,36,31,33,68,37,53,45,40,43,7,1,287,7,24,10,2445,274,2719,482,612,0,0,30.04,29.91,29.97,1017.2,1012.7,1014.9,46,CLR,Fair,KDMH,O,EST,39.281,-76.611,20,57,57,31,37,45,0,0,28,234,BKN,10,377,44,421,438,482,626,0,0,0,29.96,1014.7,52,PC,High Clouds,9-Nov-14,13
KDMH 09/Oct/2016 13,752,BAL2016,9-Oct-16,9-Oct-16,9-Oct-16,1:00,13,BAL,-4,WAS,26,U,44.5,2016,Week 5,71318,BAL,-4,4,SF,10,16,Y,71008,0,18,61,0,Baltimore,KDMH,KDMH4265213,KDMH,O,9-Oct-16,EST,39.281,-76.611,20,67,56,61,67,53,58,37,43,84,36,54,63,49,53,25,13,331,25,43,9.8,3489,411,3899,448,685,0,0,30.2,29.96,30.05,1022.5,1014.4,1017.4,46,CLR,Fair,KDMH,O,EST,39.281,-76.611,20,64,62,42,45,53,320,17,0,201,CLR,10,604,60,664,604,664,862,0,0,0,30.02,1016.5,46,CLR,Fair,9-Oct-16,13
KDMH 09/Sep/2018 13,753,BAL2018,9-Sep-18,9-Sep-18,9-Sep-18,1:00,13,BAL,-8,BUF,50,O,38.5,2018,Week 1,70591,BAL,-8,8,BUF,47,3,Y,71008,0,20,67,0,Baltimore,KDMH,KDMH4335213,KDMH,O,9-Sep-18,EST,39.283,-76.617,16,64,60,62,63,58,62,59,60,97,90,94,62,60,61,17,10,59,20,100,4.8,2924,581,3504,7,761,1.9,0,30.13,30.07,30.1,1020.2,1018.1,1019.1,18,RAIN,Light Rain,KDMH,O,EST,39.283,-76.617,16,63,62,62,97,62,70,12,99,11,OVC,4,396,78,474,784,862,1120,99,0.1,0,30.08,1018.5,19,RAIN,Moderate Rain,9-Sep-18,13
KDMH 10/Nov/2013 13,754,BAL2013,10-Nov-13,10-Nov-13,10-Nov-13,1:00,13,BAL,-1,CIN,37,U,44,2013,Week 10,70992,BAL,-1,1,HOU,20,17,Y,71008,0,15,62,0,Baltimore,KDMH,KDMH4158813,KDMH,O,10-Nov-13,EST,39.281,-76.611,20,65,44,53,64,42,32,25,28,54,25,39,47,38,42,26,11,268,26,3,10,2683,270,2953,599,611,0,0,30.22,29.95,30.05,1023.2,1014.3,1017.8,46,CLR,Fair,KDMH,O,EST,39.281,-76.611,20,64,62,27,25,47,280,23,0,201,CLR,10,434,43,477,434,477,621,0,0,0,29.95,1014.3,46,CLR,Fair,10-Nov-13,13
KDMH 10/Nov/2016 20,755,BAL2016,10-Nov-16,10-Nov-16,10-Nov-16,8:25,20,BAL,-7.5,CLE,35,U,44,2016,Week 10,70921,BAL,-7.5,7.5,NE,28,7,Y,71008,0,18,52,0,Baltimore,KDMH,KDMH4268420,KDMH,O,10-Nov-16,EST,39.281,-76.611,20,60,45,52,59,42,35,29,32,61,36,49,47,39,43,14,6,296,14,0,10,2671,267,2938,611,611,0,0,30.12,29.83,30.01,1019.8,1010.1,1016.1,46,CLR,Fair,KDMH,O,EST,39.281,-76.611,20,54,54,34,47,45,0,0,0,201,CLR,10,0,0,0,0,0,0,0,0,0,29.91,1012.9,46,CLR,Fair,10-Nov-16,20
KDMH 11/Oct/2015 13,756,BAL2015,11-Oct-15,11-Oct-15,11-Oct-15,1:00,13,BAL,-6.5,CLE,63,O,43,2015,Week 5,71046,BAL,-6.5,6.5,SF,30,33,N,71008,0,17,68,0,Baltimore,KDMH,KDMH4228813,KDMH,O,11-Oct-15,EST,39.281,-76.611,20,71,49,60,70,49,51,42,46,80,39,63,58,46,53,8,2,157,8,0,10,4071,409,4480,680,680,0,0,30.06,29.9,29.98,1017.8,1012.3,1015,46,CLR,Fair,KDMH,O,EST,39.281,-76.611,20,67,67,44,44,55,120,8,0,201,CLR,10,597,60,657,597,657,853,0,0,0,29.95,1014.3,46,CLR,Fair,11-Oct-15,13
KDMH 11/Sep/2014 20,757,BAL2014,11-Sep-14,11-Sep-14,11-Sep-14,8:25,20,BAL,-2.5,PIT,32,U,44.5,2014,Week 2,71181,BAL,-2.5,2.5,CLE,26,6,Y,71008,0,16,80,0,Baltimore,KDMH,KDMH4189320,KDMH,O,11-Sep-14,EST,39.281,-76.611,20,90,71,79,94,71,69,58,66,87,48,67,75,65,71,12,7,178,12,22,10,5223,570,5793,600,755,0,0,29.99,29.85,29.91,1015.7,1010.9,1013,44,PC,Partly Cloudy,KDMH,O,EST,39.281,-76.611,20,82,85,68,63,73,0,0,0,201,CLR,10,0,0,0,0,0,0,0,0,0,29.92,1013.2,46,CLR,Fair,11-Sep-14,20
KDMH 11/Sep/2016 13,758,BAL2016,11-Sep-16,11-Sep-16,11-Sep-16,1:00,13,BAL,-3,BUF,20,U,44.5,2016,Week 1,71104,BAL,-3,3,SF,13,7,Y,71008,0,18,82,0,Baltimore,KDMH,KDMH4262413,KDMH,O,11-Sep-16,EST,39.281,-76.611,20,84,73,80,87,75,72,51,59,74,34,51,75,62,68,12,7,292,12,44,10,3858,563,4421,338,755,0,0,30.15,29.88,30.03,1021,1011.7,1016.8,54,CLR,Few High Clouds,KDMH,O,EST,39.281,-76.611,20,82,82,53,37,65,340,6,100,301,OVC,10,384,77,461,768,845,1098,0,0,0,30.06,1017.7,50,PC,High Overcast,11-Sep-16,13
KDMH 12/Dec/2019 13,759,BAL2019,12-Dec-19,12-Dec-19,12-Dec-19,1:00,13,BAL,-5.5,NYJ,63,O,44,2019,Week 15,69134,BAL,-5.5,5.5,NYJ,42,21,Y,71008,0,21,89,0,Baltimore,KDMH,KDMH4381113,KDMH,O,12-Dec-19,EST,39.283,-76.617,16,39,29,34,37,26,26,12,17,70,39,49,31,25,28,7,3,46,10,22,10.1,1954,198,2153,548,567,0,0,30.8,30.56,30.67,1042.9,1034.7,1038.4,47,CLR,Clear,KDMH,O,EST,39.283,-76.617,16,36,32,15,42,29,51,5,2,396,SKC,10,346,35,382,350,385,500,0,0,0,30.73,1040.7,47,CLR,Clear,12-Dec-19,13
KDMH 13/Dec/2015 13,760,BAL2015,13-Dec-15,13-Dec-15,13-Dec-15,1:00,13,SEA,-10.5,BAL,41,U,42,2015,Week 14,71179,BAL,10.5,-10.5,WAS,6,35,Y,71008,0,17,66,0,Baltimore,KDMH,KDMH4235113,KDMH,O,13-Dec-15,EST,39.281,-76.611,20,68,51,59,67,52,55,49,53,90,66,82,60,50,55,5,1,86,5,60,7.3,1321,198,1519,164,566,0,0,30.19,30.04,30.13,1022.4,1017.1,1020.1,42,MC,Mostly Cloudy,KDMH,O,EST,39.281,-76.611,20,66,66,55,68,60,120,3,70,149,BKN,10,227,35,262,350,385,499,0,0,0,30.13,1020.4,42,MC,Mostly Cloudy,13-Dec-15,13
KDMH 13/Oct/2013 13,761,BAL2013,13-Oct-13,13-Oct-13,13-Oct-13,1:00,13,GB,-2,BAL,36,U,49,2013,Week 6,71319,BAL,2,-2,ATL,17,19,N,71008,0,15,68,0,Baltimore,KDMH,KDMH4156013,KDMH,O,13-Oct-13,EST,39.281,-76.611,20,69,60,64,69,60,58,51,54,84,55,71,60,56,59,13,5,38,13,1,9.7,3966,398,4364,675,675,0.03,0,30.34,30.18,30.28,1027.4,1021.9,1025.3,46,CLR,Fair,KDMH,O,EST,39.281,-76.611,20,66,66,55,68,60,40,3,0,201,CLR,10,585,59,644,585,644,836,0,0,0,30.31,1026.4,46,CLR,Fair,13-Oct-13,13
KDMH 13/Oct/2019 13,762,BAL2019,13-Oct-19,13-Oct-19,13-Oct-19,1:00,13,BAL,-7,CIN,40,O,45,2019,Week 6,70051,BAL,-7,7,CIN,23,17,N,71008,0,21,60,0,Baltimore,KDMH,KDMH4375113,KDMH,O,13-Oct-19,EST,39.283,-76.617,16,65,54,60,64,53,55,37,44,81,43,56,58,47,52,7,2,35,9,82,10.1,2166,398,2565,64,675,0,0,30.15,30,30.07,1020.8,1015.9,1018.2,40,MC,Overcast,KDMH,O,EST,39.283,-76.617,16,63,63,44,50,53,47,0,99,71,OVC,10,295,59,354,585,644,836,0,0,0,30.08,1018.4,40,MC,Overcast,13-Oct-19,13
KDMH 14/Dec/2014 13,763,BAL2014,14-Dec-14,14-Dec-14,14-Dec-14,1:00,13,BAL,-14,JAX,32,U,44.5,2014,Week 15,70801,BAL,-14,14,NYJ,20,12,N,71008,0,16,49,0,Baltimore,KDMH,KDMH4198713,KDMH,O,14-Dec-14,EST,39.281,-76.611,20,52,35,44,52,36,38,27,33,76,56,66,45,33,39,3,0,240,3,38,9.1,1117,199,1316,136,565,0,0,30.03,29.93,29.98,1016.8,1013.5,1015.1,46,CLR,Fair,KDMH,O,EST,39.281,-76.611,20,49,49,36,61,43,0,0,96,157,OVC,10,181,35,216,349,384,499,0,0,0,29.94,1014,40,MC,Overcast,14-Dec-14,13
KDMH 15/Nov/2015 13,764,BAL2015,15-Nov-15,15-Nov-15,15-Nov-15,1:00,13,BAL,-5,JAX,42,U,47,2015,Week 10,70837,BAL,-5,5,PHI,20,22,N,71008,0,17,63,0,Baltimore,KDMH,KDMH4232313,KDMH,O,15-Nov-15,EST,39.281,-76.611,20,65,38,52,65,39,33,28,30,70,25,46,48,35,42,10,4,230,10,3,10,2504,252,2756,581,600,0,0,30.4,30.27,30.32,1029.2,1024.8,1026.7,46,CLR,Fair,KDMH,O,EST,39.281,-76.611,20,63,62,28,27,47,220,10,1,236,SCT,10,411,41,452,413,454,591,0,0,0,30.31,1026.4,54,CLR,Few High Clouds,15-Nov-15,13
KDMH 15/Oct/2017 13,765,BAL2017,15-Oct-17,15-Oct-17,15-Oct-17,1:00,13,BAL,-5.5,CHI,51,O,39,2017,Week 6,70616,BAL,-5.5,5.5,WAS,24,27,N,71008,0,19,84,0,Baltimore,KDMH,KDMH4302313,KDMH,O,15-Oct-17,EST,39.281,-76.611,20,77,65,70,80,65,67,63,65,97,69,84,70,64,67,12,7,178,16,10,7.4,3860,386,4246,670,670,0,0,30.15,29.84,29.99,1020.9,1010.5,1015.5,46,CLR,Fair,KDMH,O,EST,39.281,-76.611,20,72,72,65,79,67,180,8,0,201,CLR,10,573,57,630,573,630,819,0,0,0,29.97,1014.7,46,CLR,Fair,15-Oct-17,13
KDMH 15/Sep/2013 13,766,BAL2013,15-Sep-13,15-Sep-13,15-Sep-13,1:00,13,BAL,-6.5,CLE,20,U,43.5,2013,Week 2,71098,BAL,-6.5,6.5,MIA,14,6,Y,71008,0,15,78,0,Baltimore,KDMH,KDMH4153213,KDMH,O,15-Sep-13,EST,39.281,-76.611,20,78,57,69,78,57,57,48,52,75,37,56,63,53,59,10,4,151,10,21,10,5139,549,5688,640,746,0,0,30.24,30.09,30.16,1024.1,1019,1021.4,52,PC,High Clouds,KDMH,O,EST,39.281,-76.611,20,76,77,50,40,61,130,10,14,301,SCT,10,698,75,773,751,826,1074,0,0,0,30.18,1022,54,CLR,Few High Clouds,15-Sep-13,13
KDMH 15/Sep/2019 13,767,BAL2019,15-Sep-19,15-Sep-19,15-Sep-19,1:00,13,BAL,-13,ARI,40,U,46,2019,Week 2,70126,BAL,-13,13,ARI,23,17,N,71008,0,21,35,0,Baltimore,KDMH,KDMH4372313,KDMH,O,15-Sep-19,EST,39.283,-76.617,16,86,71,78,86,73,68,50,60,84,30,57,71,64,67,8,2,348,8,37,10.1,5044,549,5593,591,746,0,0,30.2,30.09,30.14,1022.5,1019,1020.4,44,PC,Partly Cloudy,KDMH,O,EST,39.283,-76.617,16,85,85,53,34,66,305,0,10,339,SCT,10,713,75,788,751,826,1074,0,0,0,30.14,1020.4,44,PC,Partly Cloudy,15-Sep-19,13
KDMH 16/Dec/2018 13,768,BAL2018,16-Dec-18,16-Dec-18,16-Dec-18,1:00,13,BAL,-8.5,TB,32,U,44.5,2018,Week 15,70031,BAL,-8.5,8.5,TB,20,12,N,71008,0,20,23,0,Baltimore,KDMH,KDMH4345013,KDMH,O,16-Dec-18,EST,39.283,-76.617,16,49,42,45,49,36,46,36,40,93,76,85,47,40,43,17,11,3,17,98,5.2,1001,196,1197,14,565,0.58,0,29.92,29.81,29.88,1013.1,1009.5,1011.8,18,RAIN,Light Rain,KDMH,O,EST,39.283,-76.617,16,44,39,40,85,42,354,10,99,8,OVC,4,176,35,211,348,383,498,99,0.09,0,29.81,1009.6,18,RAIN,Light Rain,16-Dec-18,13
KDMH 17/Nov/2019 13,769,BAL2019,17-Nov-19,17-Nov-19,17-Nov-19,1:00,13,BAL,-2.5,HOU,48,O,38,2019,Week 11,70731,BAL,-2.5,2.5,HOU,41,7,Y,71008,0,21,66,0,Baltimore,KDMH,KDMH4378613,KDMH,O,17-Nov-19,EST,39.283,-76.617,16,46,35,40,45,29,34,9,25,73,31,53,40,28,34,12,6,36,16,95,10,1253,249,1501,10,597,0,0,30.35,30,30.19,1027.6,1015.8,1022.4,40,MC,Overcast,KDMH,O,EST,39.283,-76.617,16,44,39,30,58,38,60,9,100,25,OVC,10,203,41,244,406,447,580,0,0,0,30.18,1021.8,40,MC,Overcast,17-Nov-19,13
KDMH 17/Sep/2017 13,770,BAL2017,17-Sep-17,17-Sep-17,17-Sep-17,1:00,13,BAL,-7.5,CLE,34,U,39.5,2017,Week 2,70605,BAL,-7.5,7.5,NYJ,24,10,Y,71008,0,19,44,0,Baltimore,KDMH,KDMH4299513,KDMH,O,17-Sep-17,EST,39.281,-76.611,20,83,71,77,86,72,70,66,69,91,62,77,73,69,71,9,3,103,9,0,8.8,5375,539,5914,737,741,0,0,30.16,30.07,30.11,1021.3,1018.4,1019.7,46,CLR,Fair,KDMH,O,EST,39.281,-76.611,20,82,86,69,65,73,90,8,0,201,CLR,10,741,74,815,741,815,1058,0,0,0,30.11,1019.6,46,CLR,Fair,17-Sep-17,13
KDMH 18/Dec/2016 13,771,BAL2016,18-Dec-16,18-Dec-16,18-Dec-16,1:00,13,BAL,-5,PHI,53,O,40.5,2016,Week 15,71223,BAL,-5,5,LAC,27,26,N,71008,0,18,58,0,Baltimore,KDMH,KDMH4272213,KDMH,O,18-Dec-16,EST,39.281,-76.611,20,63,37,48,63,31,57,19,38,89,51,71,59,32,44,17,10,271,17,83,8.1,1197,194,1390,82,565,0.06,0,30.5,29.77,30.05,1032.8,1008.1,1017.6,50,PC,High Overcast,KDMH,O,EST,39.281,-76.611,20,62,62,57,84,59,0,0,43,301,SCT,10,273,35,308,348,383,497,0,0,0,29.9,1012.5,54,CLR,Few High Clouds,18-Dec-16,13
KDMH 18/Nov/2018 13,772,BAL2018,18-Nov-18,18-Nov-18,18-Nov-18,1:00,13,BAL,-6.5,CIN,45,O,43.5,2018,Week 11,70077,BAL,-6.5,6.5,CIN,24,21,N,71008,0,20,46,0,Baltimore,KDMH,KDMH4342213,KDMH,O,18-Nov-18,EST,39.283,-76.617,16,49,37,44,49,37,40,29,34,83,57,68,44,34,40,7,1,127,7,70,8.9,1423,244,1667,120,595,0,0,30.43,30.18,30.3,1030.4,1021.9,1026,42,MC,Mostly Cloudy,KDMH,O,EST,39.283,-76.617,16,48,45,34,58,42,123,7,94,65,OVC,10,213,40,253,402,442,574,0,0,0,30.33,1027,50,PC,High Overcast,18-Nov-18,13
KDMH 19/Oct/2014 13,773,BAL2014,19-Oct-14,19-Oct-14,19-Oct-14,1:00,13,BAL,-7,ATL,36,U,50,2014,Week 7,71184,BAL,-7,7,IND,29,7,Y,71008,0,16,57,0,Baltimore,KDMH,KDMH4193113,KDMH,O,19-Oct-14,EST,39.281,-76.611,20,58,48,53,58,45,40,24,32,64,28,47,47,41,44,22,10,299,22,17,10,3640,366,4006,650,660,0,0,30.12,29.85,30.01,1019.9,1010.8,1016.3,46,CLR,Fair,KDMH,O,EST,39.281,-76.611,20,55,51,27,34,43,300,17,0,201,CLR,10,549,55,604,549,604,784,0,0,0,30.05,1017.5,46,CLR,Fair,19-Oct-14,13
KDMH 20/Dec/2015 13,774,BAL2015,20-Dec-15,20-Dec-15,20-Dec-15,1:00,13,KC,-6.5,BAL,48,O,41,2015,Week 15,70791,BAL,6.5,-6.5,LAR,14,34,Y,71008,0,17,43,0,Baltimore,KDMH,KDMH4235813,KDMH,O,20-Dec-15,EST,39.281,-76.611,20,47,31,38,47,26,26,13,19,62,26,48,36,26,31,8,3,244,8,4,10,1863,195,2058,519,564,0,0,30.63,30.43,30.52,1037.1,1030.4,1033.3,47,CLR,Clear,KDMH,O,EST,39.281,-76.611,20,44,41,15,31,34,200,5,20,214,SCT,10,313,35,348,348,383,497,0,0,0,30.58,1035.4,44,PC,Partly Cloudy,20-Dec-15,13
KDMH 21/Oct/2018 16,775,BAL2018,21-Oct-18,21-Oct-18,21-Oct-18,4:05,16,BAL,-2.5,NO,47,U,49.5,2018,Week 7,70639,BAL,-2.5,2.5,NO,23,24,N,71008,0,20,24,0,Baltimore,KDMH,KDMH4339416,KDMH,O,21-Oct-18,EST,39.283,-76.617,16,54,43,49,54,37,42,26,31,73,35,52,48,38,42,28,15,300,28,65,10,2233,357,2590,219,655,0,0,30.26,29.74,30.06,1024.8,1007.1,1017.9,45,CLR,Mostly Clear,KDMH,O,EST,39.283,-76.617,16,52,47,26,37,41,305,15,53,283,FEW,10,93,13,106,127,140,181,0,0,0,30.12,1019.8,45,CLR,Mostly Clear,21-Oct-18,16
KDMH 22/Dec/2013 16,776,BAL2013,22-Dec-13,22-Dec-13,22-Dec-13,4:25,16,NE,-1,BAL,48,O,45.5,2013,Week 16,71433,BAL,1,-1,DAL,7,41,Y,71008,0,15,65,0,Baltimore,KDMH,KDMH4163016,KDMH,O,22-Dec-13,EST,39.281,-76.611,20,72,55,64,72,53,62,53,59,93,71,84,66,54,61,16,9,156,16,85,7.8,1105,195,1300,86,564,0.11,0,30.01,29.84,29.93,1016.3,1010.5,1013.5,50,PC,High Overcast,KDMH,O,EST,39.281,-76.611,20,64,63,59,84,61,190,14,94,121,OVC,7,20,4,24,37,41,54,0,0,0,29.93,1013.4,50,PC,High Overcast,22-Dec-13,16
KDMH 22/Nov/2015 13,777,BAL2015,22-Nov-15,22-Nov-15,22-Nov-15,1:00,13,BAL,-3,LAR,29,U,41.5,2015,Week 11,71105,BAL,-3,3,DEN,16,13,N,71008,0,17,47,0,Baltimore,KDMH,KDMH4233013,KDMH,O,22-Nov-15,EST,39.281,-76.611,20,51,38,46,51,29,46,19,27,86,37,52,49,32,39,21,13,296,21,60,10,1486,233,1719,127,589,0,0,30.05,29.9,29.99,1017.4,1012.5,1015.4,42,MC,Mostly Cloudy,KDMH,O,EST,39.281,-76.611,20,47,41,24,41,38,310,13,70,172,BKN,10,253,39,292,389,428,555,0,0,0,29.99,1015.4,42,MC,Mostly Cloudy,22-Nov-15,13
KDMH 22/Sep/2013 13,778,BAL2013,22-Sep-13,22-Sep-13,22-Sep-13,1:00,13,BAL,-1,HOU,39,U,44.5,2013,Week 3,71168,BAL,-1,1,HOU,30,9,Y,71008,0,15,73,0,Baltimore,KDMH,KDMH4153913,KDMH,O,22-Sep-13,EST,39.281,-76.611,20,74,61,67,76,62,61,46,51,87,40,60,64,54,59,10,6,304,10,4,10,5035,512,5547,702,728,0,0,29.95,29.73,29.84,1014.1,1006.9,1010.4,46,CLR,Fair,KDMH,O,EST,39.281,-76.611,20,72,72,49,44,59,310,8,8,201,SCT,10,684,71,755,712,783,1017,0,0,0,29.83,1010.1,44,PC,Partly Cloudy,22-Sep-13,13
KDMH 23/Dec/2017 16,779,BAL2017,23-Dec-17,23-Dec-17,23-Dec-17,4:30,16,BAL,-13.5,IND,39,U,41,2017,Week 16,70590,BAL,-13.5,13.5,BUF,23,16,N,71008,0,19,38,0,Baltimore,KDMH,KDMH4309216,KDMH,O,23-Dec-17,EST,39.281,-76.611,20,65,46,53,65,46,59,37,47,93,68,83,61,44,50,18,7,239,18,78,7.1,1018,196,1214,38,564,0.51,0,30.06,29.66,29.87,1018,1004.2,1011.5,19,RAIN,Moderate Rain,KDMH,O,EST,39.281,-76.611,20,64,64,57,78,60,180,8,83,94,BKN,10,23,4,27,39,43,56,99,0.01,0,29.67,1004.6,18,RAIN,Light Rain,23-Dec-17,16
KDMH 23/Sep/2018 13,780,BAL2018,23-Sep-18,23-Sep-18,23-Sep-18,1:00,13,BAL,-5.5,DEN,41,U,46,2018,Week 3,70156,BAL,-5.5,5.5,DEN,27,14,Y,71008,0,20,78,0,Baltimore,KDMH,KDMH4336613,KDMH,O,23-Sep-18,EST,39.283,-76.617,16,64,61,63,64,61,62,54,59,100,70,88,63,58,61,8,4,45,11,98,6.6,2547,508,3056,7,725,0.98,0,30.27,30.19,30.22,1024.9,1022.1,1023.3,18,RAIN,Light Rain,KDMH,O,EST,39.283,-76.617,16,64,64,62,93,63,55,3,100,13,OVC,5,353,71,424,706,777,1009,99,0.07,0,30.22,1023.4,18,RAIN,Light Rain,23-Sep-18,13
KDMH 24/Nov/2013 13,781,BAL2013,24-Nov-13,24-Nov-13,24-Nov-13,1:00,13,BAL,-4,NYJ,22,U,38.5,2013,Week 12,71148,BAL,-4,4,CIN,19,3,Y,71008,0,15,34,0,Baltimore,KDMH,KDMH4160213,KDMH,O,24-Nov-13,EST,39.281,-76.611,20,35,28,31,35,14,11,1,6,42,25,34,27,22,24,29,18,287,29,1,8.4,2274,230,2504,582,586,0,0,30.5,30.19,30.36,1033,1022.5,1028.3,46,CLR,Fair,KDMH,O,EST,39.281,-76.611,20,33,20,6,32,25,300,26,0,201,CLR,10,383,38,421,383,421,547,0,0,0,30.35,1027.7,46,CLR,Fair,24-Nov-13,13
KDMH 25/Nov/2018 13,782,BAL2018,25-Nov-18,25-Nov-18,25-Nov-18,1:00,13,BAL,-13,OAK,51,O,42,2018,Week 12,70035,BAL,-13,13,OAK,34,17,Y,71008,0,20,27,0,Baltimore,KDMH,KDMH4342913,KDMH,O,25-Nov-18,EST,39.283,-76.617,16,62,42,51,61,37,43,38,40,89,46,70,51,41,46,14,2,277,20,56,8,1712,225,1937,307,584,0,0,29.96,29.74,29.88,1014.5,1007.1,1011.9,64,HAZY,Mist,KDMH,O,EST,39.283,-76.617,16,61,60,40,46,51,270,9,38,397,BKN,10,308,38,346,380,418,544,0,0,0,29.9,1012.4,42,MC,Mostly Cloudy,25-Nov-18,13
KDMH 26/Oct/2017 20,783,BAL2017,26-Oct-17,26-Oct-17,26-Oct-17,8:25,20,BAL,-3,MIA,40,O,38,2017,Week 8,70408,BAL,-3,3,HOU,40,0,Y,71008,0,19,86,0,Baltimore,KDMH,KDMH4303420,KDMH,O,26-Oct-17,EST,39.281,-76.611,20,60,49,54,60,46,39,33,36,64,36,52,49,44,46,18,10,285,18,46,9.9,2322,333,2657,324,644,0,0,30.01,29.78,29.87,1016.2,1008.6,1011.6,46,CLR,Fair,KDMH,O,EST,39.281,-76.611,20,54,54,35,49,45,0,0,0,201,CLR,10,0,0,0,0,0,0,0,0,0,29.96,1014.5,46,CLR,Fair,26-Oct-17,20
KDMH 27/Dec/2015 13,784,BAL2015,27-Dec-15,27-Dec-15,27-Dec-15,1:00,13,PIT,-11.5,BAL,37,U,47.5,2015,Week 16,71261,BAL,11.5,-11.5,NYJ,20,17,N,71008,0,17,63,0,Baltimore,KDMH,KDMH4236513,KDMH,O,27-Dec-15,EST,39.281,-76.611,20,70,50,59,70,49,61,45,54,96,71,86,64,49,56,13,6,239,13,86,6.5,1057,195,1252,104,566,0,0,30.23,29.85,30.02,1023.8,1010.9,1016.4,40,MC,Overcast,KDMH,O,EST,39.281,-76.611,20,62,61,58,86,60,210,12,100,123,OVC,10,177,35,212,354,389,505,0,0,0,29.91,1012.9,40,MC,Overcast,27-Dec-15,13
KDMH 27/Nov/2016 13,785,BAL2016,27-Nov-16,27-Nov-16,27-Nov-16,1:00,13,BAL,-3.5,CIN,33,U,42,2016,Week 12,70903,BAL,-3.5,3.5,CIN,19,14,Y,71008,0,18,49,0,Baltimore,KDMH,KDMH4270113,KDMH,O,27-Nov-16,EST,39.281,-76.611,20,52,38,45,51,34,28,25,26,60,38,49,41,34,37,18,7,277,18,24,10,2195,220,2415,581,581,0,0,30.23,30.16,30.19,1023.5,1021.3,1022.4,46,CLR,Fair,KDMH,O,EST,39.281,-76.611,20,50,45,25,38,40,290,13,0,201,CLR,10,372,37,409,372,409,532,0,0,0,30.18,1022,46,CLR,Fair,27-Nov-16,13
KDMH 27/Nov/2017 20,786,BAL2017,27-Nov-17,27-Nov-17,27-Nov-17,8:30,20,BAL,-8,HOU,39,U,39.5,2017,Week 12,70357,BAL,-8,8,TB,23,16,N,71008,0,19,64,0,Baltimore,KDMH,KDMH4306620,KDMH,O,27-Nov-17,EST,39.281,-76.611,20,59,44,51,59,40,35,20,29,59,33,44,46,37,42,12,5,251,12,15,9.9,2210,223,2433,575,581,0,0,30.26,30.06,30.15,1024.7,1017.4,1020.7,46,CLR,Fair,KDMH,O,EST,39.281,-76.611,20,53,53,34,49,44,0,0,0,201,CLR,10,0,0,0,0,0,0,0,0,0,30.22,1023.4,46,CLR,Fair,27-Nov-17,20
KDMH 27/Sep/2015 13,787,BAL2015,27-Sep-15,27-Sep-15,27-Sep-15,1:00,13,BAL,-1.5,CIN,52,O,45.5,2015,Week 3,70970,BAL,-1.5,1.5,MIA,24,28,Y,71008,0,17,73,0,Baltimore,KDMH,KDMH4227413,KDMH,O,27-Sep-15,EST,39.281,-76.611,20,73,61,67,77,60,61,52,57,81,61,70,65,56,61,13,5,30,13,40,10,4091,483,4574,439,716,0,0,30.4,30.27,30.34,1029.3,1025.1,1027.3,42,MC,Mostly Cloudy,KDMH,O,EST,39.281,-76.611,20,72,72,58,61,64,20,7,0,201,CLR,10,682,68,750,682,750,974,0,0,0,30.34,1027.5,46,CLR,Fair,27-Sep-15,13
KDMH 28/Dec/2014 13,788,BAL2014,28-Dec-14,28-Dec-14,28-Dec-14,1:00,13,BAL,-14,CLE,30,U,40,2014,Week 17,71070,BAL,-14,14,SEA,20,10,N,71008,0,16,56,0,Baltimore,KDMH,KDMH4200113,KDMH,O,28-Dec-14,EST,39.281,-76.611,20,59,42,50,58,43,48,36,40,83,54,71,51,40,45,6,1,80,6,78,9.3,1159,197,1356,92,565,0.06,0,30.11,29.94,29.99,1019.5,1013.8,1015.6,50,PC,High Overcast,KDMH,O,EST,39.281,-76.611,20,58,58,41,54,50,0,3,81,301,OVC,10,211,36,247,355,391,507,0,0,0,29.94,1013.8,50,PC,High Overcast,28-Dec-14,13
KDMH 28/Nov/2013 20,789,BAL2013,28-Nov-13,28-Nov-13,28-Nov-13,8:30,20,BAL,-3,PIT,42,O,40.5,2013,Week 13,71005,BAL,-3,3,MIA,22,20,N,71008,0,15,37,0,Baltimore,KDMH,KDMH4160620,KDMH,O,28-Nov-13,EST,39.281,-76.611,20,41,31,36,39,21,16,9,13,48,30,40,30,26,28,22,10,273,22,10,9.2,2195,220,2415,579,579,0,0,30.49,30.03,30.33,1032.6,1017,1027,46,CLR,Fair,KDMH,O,EST,39.281,-76.611,20,37,37,14,39,29,0,0,7,201,SCT,10,0,0,0,0,0,0,0,0,0,30.45,1031.2,44,PC,Partly Cloudy,28-Nov-13,20
KDMH 28/Sep/2014 13,790,BAL2014,28-Sep-14,28-Sep-14,28-Sep-14,1:00,13,BAL,-3,CAR,48,O,42,2014,Week 4,71218,BAL,-3,3,OAK,38,10,Y,71008,0,16,79,0,Baltimore,KDMH,KDMH4191013,KDMH,O,28-Sep-14,EST,39.281,-76.611,20,81,62,71,81,63,61,55,58,78,45,63,67,58,63,7,2,131,7,36,9.4,4284,480,4764,529,713,0,0,30.19,30.03,30.13,1022.5,1017.1,1020.2,52,PC,High Clouds,KDMH,O,EST,39.281,-76.611,20,80,81,57,45,66,130,7,50,301,BKN,10,507,68,575,676,744,966,0,0,0,30.12,1019.9,52,PC,High Clouds,28-Sep-14,13
KDMH 29/Sep/2019 13,791,BAL2019,29-Sep-19,29-Sep-19,29-Sep-19,1:00,13,BAL,-7,CLE,65,O,47.5,2019,Week 4,70686,BAL,-7,7,NYJ,25,40,Y,71008,0,21,39,0,Baltimore,KDMH,KDMH4373713,KDMH,O,29-Sep-19,EST,39.283,-76.617,16,87,73,78,86,73,71,61,65,88,51,68,74,66,70,7,3,61,7,47,8.5,3745,472,4217,432,710,0,0,30.27,30.11,30.2,1025.1,1019.5,1022.7,44,PC,Partly Cloudy,KDMH,O,EST,39.283,-76.617,16,84,86,65,53,71,47,3,66,309,SCT,10,449,67,516,670,737,957,0,0,0,30.21,1023,44,PC,Partly Cloudy,29-Sep-19,13
KDMH 30/Dec/2018 16,792,BAL2018,30-Dec-18,30-Dec-18,30-Dec-18,4:25,16,BAL,-7,CLE,50,O,40.5,2018,Week 17,70925,BAL,-7,7,CLE,26,24,N,71008,0,20,30,0,Baltimore,KDMH,KDMH4346416,KDMH,O,30-Dec-18,EST,39.283,-76.617,16,48,38,42,47,38,34,28,31,76,54,65,40,34,37,9,2,170,9,73,9.5,1160,199,1359,117,567,0,0,30.29,30.17,30.23,1025.5,1021.5,1023.6,42,MC,Mostly Cloudy,KDMH,O,EST,39.283,-76.617,16,43,39,34,71,39,120,6,52,253,BKN,10,36,5,41,48,53,69,0,0,0,30.19,1022.1,42,MC,Mostly Cloudy,30-Dec-18,16
KDMH 30/Nov/2014 13,793,BAL2014,30-Nov-14,30-Nov-14,30-Nov-14,1:00,13,BAL,-6.5,LAC,67,O,46,2014,Week 13,71060,BAL,-6.5,6.5,TEN,33,34,N,71008,0,16,58,0,Baltimore,KDMH,KDMH4197313,KDMH,O,30-Nov-14,EST,39.281,-76.611,20,60,40,49,58,37,43,29,35,69,44,58,49,36,42,8,4,149,8,10,10,1996,215,2211,517,577,0,0,30.18,30.04,30.13,1021.9,1017.3,1020.2,46,CLR,Fair,KDMH,O,EST,39.281,-76.611,20,55,54,35,47,46,130,5,13,201,SCT,10,344,37,381,368,405,525,0,0,0,30.09,1019.1,44,PC,Partly Cloudy,30-Nov-14,13
KDMH 31/Dec/2017 16,794,BAL2017,31-Dec-17,31-Dec-17,31-Dec-17,4:25,16,BAL,-8,CIN,58,O,39.5,2017,Week 17,70507,BAL,-8,8,HOU,27,31,N,71008,0,19,53,0,Baltimore,KDMH,KDMH4310016,KDMH,O,31-Dec-17,EST,39.281,-76.611,20,23,17,20,23,4,3,-5,0,47,31,42,18,14,15,21,11,294,21,37,9.9,1082,200,1282,147,568,0,0,30.43,30.21,30.35,1030.3,1022.8,1027.5,46,CLR,Fair,KDMH,O,EST,39.281,-76.611,20,20,9,1,43,16,310,10,43,88,BKN,10,39,5,44,50,55,71,0,0,0,30.36,1027.9,52,PC,High Clouds,31-Dec-17,16
KFRG 01/Dec/2013 13,795,NYJ2013,1-Dec-13,1-Dec-13,1-Dec-13,1:00,13,NYJ,PK,MIA,26,U,40,2013,Week 13,76957,NYJ,PK,PK,MIA,3,23,PK,82550,0,3,49,0,New York,KFRG,KFRG4160913,KFRG,O,1-Dec-13,EST,40.729,-73.413,82,52,39,44,50,36,39,34,36,89,57,74,44,36,40,7,3,328,7,85,10,1446,196,1642,180,569,0,0,30.35,30.02,30.15,1027.7,1016.5,1021,40,MC,Overcast,KFRG,O,EST,40.729,-73.413,82,50,50,38,63,44,350,3,70,120,BKN,10,247,33,280,327,360,467,0,0,0,30.11,1019.5,42,MC,Mostly Cloudy,1-Dec-13,13
KFRG 01/Dec/2014 20,796,NYJ2014,1-Dec-14,1-Dec-14,1-Dec-14,8:30,20,MIA,-7,NYJ,29,U,41.5,2014,Week 13,78160,NYJ,7,-7,KC,13,16,N,82550,0,4,43,0,New York,KFRG,KFRG4197420,KFRG,O,1-Dec-14,EST,40.729,-73.413,82,64,41,52,63,36,47,27,42,86,54,71,54,38,48,17,9,264,22,83,10,1246,196,1442,113,569,0.08,0,30.45,30.08,30.18,1031.1,1018.5,1022.2,40,MC,Overcast,KFRG,O,EST,40.729,-73.413,82,45,38,39,80,42,100,16,100,70,OVC,10,0,0,0,0,0,0,99,0.03,0,30.32,1026.9,18,RAIN,Light Rain,1-Dec-14,20
KFRG 01/Dec/2019 13,797,NYG2019,1-Dec-19,1-Dec-19,1-Dec-19,1:00,13,GB,-3.5,NYG,44,O,31,2019,Week 13,75950,NYG,3.5,-3.5,PIT,13,31,Y,82550,0,9,52,0,New York,KFRG,KFRG4380013,KFRG,O,1-Dec-19,EST,40.733,-73.417,69,42,29,34,41,22,37,14,26,93,47,70,39,25,31,21,11,55,37,63,7.5,1112,196,1307,110,569,0.39,0.8,30.03,29.45,29.81,1016.8,997.2,1009.3,7,R/S,Rain and Snow,KFRG,O,EST,40.733,-73.417,69,34,26,27,76,31,50,10,100,50,OVC,9,164,33,196,327,360,467,0,0,0.1,29.84,1010.6,18,RAIN,Light Rain,1-Dec-19,13
KFRG 01/Jan/2017 13,798,NYJ2016,1-Jan-17,1-Jan-17,1-Jan-17,1:00,13,BUF,-4,NYJ,40,U,43,2016,Week 17,78160,NYJ,4,-4,JAX,30,10,Y,82550,0,6,45,0,New York,KFRG,KFRG4273613,KFRG,O,1-Jan-17,EST,40.729,-73.413,82,49,29,42,48,27,28,17,24,67,29,49,39,28,35,15,8,283,24,23,10,1837,184,2021,559,559,0,0,30.46,29.9,30.17,1031.3,1012.6,1021.8,46,CLR,Fair,KFRG,O,EST,40.729,-73.413,82,47,43,22,37,37,310,9,0,201,CLR,10,326,33,359,326,359,465,0,0,0,30.17,1021.7,46,CLR,Fair,1-Jan-17,13
KFRG 01/Oct/2017 13,799,NYJ2017,1-Oct-17,1-Oct-17,1-Oct-17,1:00,13,JAX,-4,NYJ,43,O,38.5,2017,Week 4,77562,NYJ,4,-4,JAX,23,20,N,82550,0,7,81,0,New York,KFRG,KFRG4300913,KFRG,O,1-Oct-17,EST,40.729,-73.413,82,67,50,58,66,49,48,40,45,86,40,66,54,49,51,10,5,0,10,6,10,4434,444,4878,697,707,0,0,30.4,30.28,30.34,1029.4,1025.4,1027.2,46,CLR,Fair,KFRG,O,EST,40.729,-73.413,82,65,65,42,44,53,290,8,0,201,CLR,10,622,62,684,622,684,889,0,0,0,30.34,1027.3,46,CLR,Fair,1-Oct-17,13
KFRG 02/Dec/2018 13,800,NYG2018,2-Dec-18,2-Dec-18,2-Dec-18,1:00,13,CHI,-3.5,NYG,57,O,43.5,2018,Week 13,76465,NYG,3.5,-3.5,CHI,30,27,N,82550,0,8,66,0,New York,KFRG,KFRG4343613,KFRG,O,2-Dec-18,EST,40.733,-73.417,69,56,42,51,56,37,56,41,51,100,89,98,56,42,50,14,8,149,22,100,1.9,972,195,1165,0,567,0.81,0,30.06,29.61,29.76,1017.8,1002.6,1007.6,18,RAIN,Light Rain,KFRG,O,EST,40.733,-73.417,69,55,52,55,100,55,220,12,100,2,VV,0.2,163,33,196,326,359,465,0,0,0,29.68,1005.2,34,FOG,Fog,2-Dec-18,13
KFRG 02/Nov/2017 20,801,NYJ2017,2-Nov-17,2-Nov-17,2-Nov-17,8:25,20,BUF,-3,NYJ,55,O,42.5,2017,Week 9,77562,NYJ,3,-3,DAL,34,21,Y,82550,0,7,87,0,New York,KFRG,KFRG4304120,KFRG,O,2-Nov-17,EST,40.729,-73.413,82,72,60,64,71,60,62,59,60,97,68,87,65,60,62,15,8,193,15,54,8.9,2115,283,2399,330,622,0,0,30.29,30.17,30.24,1025.6,1021.4,1023.9,46,CLR,Fair,KFRG,O,EST,40.729,-73.413,82,62,62,61,96,61,170,8,0,201,CLR,10,0,0,0,0,0,0,0,0,0,30.2,1022.7,46,CLR,Fair,2-Nov-17,20
KFRG 02/Oct/2016 13,802,NYJ2016,2-Oct-16,2-Oct-16,2-Oct-16,1:00,13,SEA,-1,NYJ,44,O,40,2016,Week 4,78160,NYJ,1,-1,DEN,17,27,Y,82550,0,6,61,0,New York,KFRG,KFRG4264513,KFRG,O,2-Oct-16,EST,40.729,-73.413,82,63,58,61,63,57,60,56,58,97,84,90,61,57,59,7,4,47,7,99,9.4,2172,435,2606,0,701,0,0,30.14,30.03,30.08,1020.4,1016.7,1018.5,40,MC,Overcast,KFRG,O,EST,40.729,-73.413,82,63,63,58,84,60,360,3,100,11,OVC,10,304,61,366,609,670,870,0,0,0,30.07,1018.1,40,MC,Overcast,2-Oct-16,13
KFRG 03/Dec/2017 13,803,NYJ2017,3-Dec-17,3-Dec-17,3-Dec-17,1:00,13,KC,-4,NYJ,69,O,44,2017,Week 13,77562,NYJ,4,-4,CHI,38,31,Y,82550,0,7,28,0,New York,KFRG,KFRG4307213,KFRG,O,3-Dec-17,EST,40.729,-73.413,82,49,34,42,49,33,39,31,35,89,66,77,44,33,39,7,4,71,7,88,9.9,1049,192,1244,22,565,0,0,30.3,30.18,30.23,1026,1021.9,1023.6,40,MC,Overcast,KFRG,O,EST,40.729,-73.413,82,49,46,38,66,44,120,7,100,65,OVC,10,162,32,194,323,355,462,0,0,0,30.18,1022.1,40,MC,Overcast,3-Dec-17,13
KFRG 03/Jan/2016 13,804,NYG2015,3-Jan-16,3-Jan-16,3-Jan-16,1:00,13,NYG,-3.5,PHI,65,O,51,2015,Week 17,78023,NYG,-3.5,3.5,WAS,30,35,Y,82550,0,5,67,0,New York,KFRG,KFRG4237213,KFRG,O,3-Jan-16,EST,40.729,-73.413,82,48,32,40,48,27,26,22,24,70,36,54,38,29,33,20,9,268,28,39,10,1791,186,1977,495,560,0,0,29.95,29.78,29.86,1014.1,1008.5,1011.2,46,CLR,Fair,KFRG,O,EST,40.729,-73.413,82,47,41,22,37,37,270,14,10,169,CLR,10,313,33,346,329,362,470,0,0,0,29.78,1008.5,46,CLR,Fair,3-Jan-16,13
KFRG 03/Nov/2013 13,805,NYJ2013,3-Nov-13,3-Nov-13,3-Nov-13,1:00,13,NO,-6,NYJ,46,P,46,2013,Week 9,76957,NYJ,6,-6,IND,26,20,N,82550,0,3,53,0,New York,KFRG,KFRG4158113,KFRG,O,3-Nov-13,EST,40.729,-73.413,82,53,37,45,53,32,42,17,31,80,44,60,46,33,40,16,11,349,24,32,10,1797,279,2077,243,620,0,0,30.43,29.8,30.12,1030.5,1009.2,1020.1,46,CLR,Fair,KFRG,O,EST,40.729,-73.413,82,50,45,29,44,41,340,14,70,70,BKN,10,278,43,321,428,471,611,0,0,0,30.12,1020,42,MC,Mostly Cloudy,3-Nov-13,13
KFRG 03/Nov/2014 20,806,NYG2014,3-Nov-14,3-Nov-14,3-Nov-14,8:30,20,IND,-3,NYG,64,O,51.5,2014,Week 9,77975,NYG,3,-3,CHI,24,40,Y,82550,0,4,53,0,New York,KFRG,KFRG4194620,KFRG,O,3-Nov-14,EST,40.729,-73.413,82,60,38,50,59,32,30,22,26,62,25,43,44,34,40,18,11,273,31,20,10,2798,279,3077,620,620,0,0,30.14,30.01,30.1,1020.7,1016.3,1019.2,46,CLR,Fair,KFRG,O,EST,40.729,-73.413,82,53,51,28,38,42,240,8,70,100,BKN,10,0,0,0,0,0,0,0,0,0,30.14,1020.5,42,MC,Mostly Cloudy,3-Nov-14,20
KFRG 04/Nov/2019 13,807,NYG2019,4-Nov-19,4-Nov-19,4-Nov-19,1:00,13,DAL,-2,NYG,55,O,45,2019,Week 9,76107,NYG,2,-2,DAL,18,37,Y,82550,0,9,57,0,New York,KFRG,KFRG4377313,KFRG,O,4-Nov-19,EST,40.733,-73.417,69,55,34,48,55,34,43,28,34,85,41,59,49,33,41,16,7,189,16,3,10,2758,276,3034,618,618,0,0,30.39,30.28,30.33,1029,1025.4,1027,46,CLR,Fair,KFRG,O,EST,40.733,-73.417,69,54,50,33,45,45,200,12,0,400,CLR,10,423,42,465,423,465,604,0,0,0,30.35,1027.7,46,CLR,Fair,4-Nov-19,13
KFRG 05/Dec/2016 20,808,NYJ2016,5-Dec-16,5-Dec-16,5-Dec-16,8:30,20,NYJ,-1,IND,51,O,48.5,2016,Week 13,78160,NYJ,-1,1,SF,10,41,Y,82550,0,6,43,0,New York,KFRG,KFRG4270920,KFRG,O,5-Dec-16,EST,40.729,-73.413,82,51,36,43,50,32,41,26,33,97,52,70,44,32,39,15,8,285,26,54,8.9,1380,188,1568,302,563,0.14,0,30.12,29.94,30.03,1019.9,1013.9,1016.8,46,CLR,Fair,KFRG,O,EST,40.729,-73.413,82,44,41,28,53,38,330,5,100,201,OVC,10,0,0,0,0,0,0,0,0,0,30.05,1017.6,40,MC,Overcast,5-Dec-16,20
KFRG 05/Nov/2017 13,809,NYG2017,5-Nov-17,5-Nov-17,5-Nov-17,1:00,13,LAR,-6,NYG,68,O,42.5,2017,Week 9,76877,NYG,6,-6,TEN,17,51,Y,82550,0,7,76,0,New York,KFRG,KFRG4304413,KFRG,O,5-Nov-17,EST,40.729,-73.413,82,62,50,57,62,47,61,46,54,100,77,91,61,48,55,12,7,104,12,100,6.9,1357,273,1632,0,616,0.02,0,30.33,30.04,30.19,1027.1,1017,1022.4,40,MC,Overcast,KFRG,O,EST,40.729,-73.413,82,59,57,57,94,58,110,9,100,7,OVC,1.8,209,42,251,418,460,597,0,0,0,30.19,1022.2,40,MC,Overcast,5-Nov-17,13
KFRG 05/Oct/2014 13,810,NYG2014,5-Oct-14,5-Oct-14,5-Oct-14,1:00,13,NYG,-4,ATL,50,U,51,2014,Week 5,80307,NYG,-4,4,PHI,30,20,Y,82550,0,4,61,0,New York,KFRG,KFRG4191713,KFRG,O,5-Oct-14,EST,40.729,-73.413,82,61,46,53,61,42,39,32,35,71,35,51,48,40,45,12,8,282,21,3,10,4228,422,4650,693,693,0,0,30.01,29.7,29.86,1016.4,1005.6,1011,46,CLR,Fair,KFRG,O,EST,40.729,-73.413,82,58,55,33,39,47,250,12,0,201,CLR,10,596,60,656,596,656,852,0,0,0,29.84,1010.5,46,CLR,Fair,5-Oct-14,13
KFRG 06/Dec/2015 13,811,NYG2015,6-Dec-15,6-Dec-15,6-Dec-15,1:00,13,NYJ,-2.5,NYG,43,U,46,2015,Week 13,80898,NYG,2.5,-2.5,TB,20,23,Y,82550,0,5,52,0,New York,KFRG,KFRG4234413,KFRG,O,6-Dec-15,EST,40.729,-73.413,82,54,31,43,53,32,38,29,35,88,52,74,46,31,39,10,4,235,10,6,9.8,1833,188,2021,534,562,0,0,30.6,30.25,30.44,1036.3,1024.4,1030.7,46,CLR,Fair,KFRG,O,EST,40.729,-73.413,82,53,50,37,55,46,220,9,5,168,CLR,10,311,32,343,319,351,456,0,0,0,30.42,1030,46,CLR,Fair,6-Dec-15,13
KFRG 06/Nov/2016 13,812,NYG2016,6-Nov-16,6-Nov-16,6-Nov-16,1:00,13,NYG,-3,PHI,51,O,43,2016,Week 9,80309,NYG,-3,3,NYJ,28,23,Y,82550,0,6,57,0,New York,KFRG,KFRG4268013,KFRG,O,6-Nov-16,EST,40.729,-73.413,82,58,43,52,56,38,44,27,35,75,38,54,50,38,45,23,13,356,37,12,10,2403,264,2667,535,613,0,0,30.39,30.09,30.22,1029,1018.8,1023.4,46,CLR,Fair,KFRG,O,EST,40.729,-73.413,82,56,51,32,40,45,10,20,70,55,BKN,10,266,41,307,409,450,584,0,0,0,30.19,1022.5,42,MC,Mostly Cloudy,6-Nov-16,13
KFRG 06/Oct/2013 13,813,NYG2013,6-Oct-13,6-Oct-13,6-Oct-13,1:00,13,PHI,-1,NYG,57,O,54,2013,Week 5,80738,NYG,1,-1,CHI,21,36,Y,82550,0,3,69,0,New York,KFRG,KFRG4155313,KFRG,O,6-Oct-13,EST,40.729,-73.413,82,67,63,64,67,63,67,63,64,100,96,99,67,63,64,10,8,120,10,100,2.2,2086,417,2504,0,691,0,0,30.11,30.04,30.08,1019.8,1017.4,1018.8,40,MC,Overcast,KFRG,O,EST,40.729,-73.413,82,64,64,64,100,64,110,9,100,4,OVC,1,295,59,354,590,649,843,0,0,0,30.09,1019.1,40,MC,Overcast,6-Oct-13,13
KFRG 06/Oct/2019 13,814,NYG2019,6-Oct-19,6-Oct-19,6-Oct-19,1:00,13,MIN,-3,NYG,38,O,45,2019,Week 5,75041,NYG,3,-3,MIN,10,28,Y,82550,0,9,53,0,New York,KFRG,KFRG4374413,KFRG,O,6-Oct-19,EST,40.733,-73.417,69,69,51,65,69,51,62,45,56,81,66,74,65,49,59,17,12,190,25,98,10,2086,417,2504,0,691,0,0,30.36,30.24,30.3,1028.3,1024,1026.1,40,MC,Overcast,KFRG,O,EST,40.733,-73.417,69,69,69,60,73,64,190,16,100,55,OVC,10,295,59,354,590,649,843,0,0,0,30.3,1025.9,40,MC,Overcast,6-Oct-19,13
KFRG 07/Oct/2018 13,815,NYJ2018,7-Oct-18,7-Oct-18,7-Oct-18,1:00,13,DEN,-1,NYJ,50,O,43,2018,Week 5,77982,NYJ,1,-1,DEN,34,16,Y,82550,0,8,33,0,New York,KFRG,KFRG4338013,KFRG,O,7-Oct-18,EST,40.733,-73.417,69,79,68,71,82,68,69,64,68,96,69,88,72,66,69,13,6,240,13,67,9.7,2182,411,2592,139,688,0,0,30.27,30.14,30.2,1025,1020.6,1022.4,40,MC,Overcast,KFRG,O,EST,40.733,-73.417,69,76,79,69,79,71,270,6,100,22,OVC,10,292,58,350,584,642,834,0,0,0,30.18,1021.8,40,MC,Overcast,7-Oct-18,13
KFRG 07/Sep/2014 13,816,NYJ2014,7-Sep-14,7-Sep-14,7-Sep-14,1:00,13,NYJ,-6.5,OAK,33,U,41.5,2014,Week 1,78160,NYJ,-6.5,6.5,CLE,19,14,N,82550,0,4,80,0,New York,KFRG,KFRG4188913,KFRG,O,7-Sep-14,EST,40.729,-73.413,82,80,65,71,80,66,62,53,58,84,42,65,67,60,63,16,7,344,22,29,10,5452,580,6032,671,768,0,0,30.19,29.95,30.08,1021.9,1013.1,1017.8,46,CLR,Fair,KFRG,O,EST,40.729,-73.413,82,76,78,57,52,65,360,8,20,45,SCT,10,686,76,762,762,838,1089,0,0,0,30.1,1018.4,44,PC,Partly Cloudy,7-Sep-14,13
KFRG 08/Dec/2013 13,817,NYJ2013,8-Dec-13,8-Dec-13,8-Dec-13,1:00,13,NYJ,-3,OAK,64,O,39,2013,Week 14,76957,NYJ,-3,3,NYJ,37,27,Y,82550,0,3,34,0,New York,KFRG,KFRG4161613,KFRG,O,8-Dec-13,EST,40.729,-73.413,82,32,27,30,32,22,29,16,20,92,52,67,29,24,27,12,5,39,16,69,8.6,1082,187,1269,58,561,0,0,30.6,30.38,30.52,1036.2,1028.7,1033.6,46,CLR,Fair,KFRG,O,EST,40.729,-73.413,82,32,26,17,54,27,60,6,100,70,OVC,10,158,32,190,316,348,451,0,0,0,30.54,1034.1,40,MC,Overcast,8-Dec-13,13
KFRG 08/Dec/2019 13,818,NYJ2019,8-Dec-19,8-Dec-19,8-Dec-19,1:00,13,MIA,-3,NYJ,43,O,37,2019,Week 14,78523,NYJ,3,-3,MIA,22,21,N,82550,0,9,71,0,New York,KFRG,KFRG4380713,KFRG,O,8-Dec-19,EST,40.733,-73.417,69,46,21,33,45,17,39,14,24,87,51,69,41,20,29,13,5,174,17,20,10,1823,187,2010,524,560,0,0,30.56,30.32,30.47,1035,1026.9,1032,46,CLR,Fair,KFRG,O,EST,40.733,-73.417,69,37,29,21,52,32,180,13,0,301,CLR,10,317,32,349,317,349,452,0,0,0,30.48,1032.3,46,CLR,Fair,8-Dec-19,13
KFRG 08/Nov/2015 13,819,NYJ2015,8-Nov-15,8-Nov-15,8-Nov-15,1:00,13,NYJ,-8,JAX,51,O,42.5,2015,Week 9,78160,NYJ,-8,8,MIN,28,23,N,82550,0,5,57,0,New York,KFRG,KFRG4231613,KFRG,O,8-Nov-15,EST,40.729,-73.413,82,58,41,50,57,43,34,31,33,71,37,51,46,39,43,13,6,323,22,5,10,2598,259,2857,608,609,0,0,30.43,30.16,30.33,1030.5,1021.2,1027.2,46,CLR,Fair,KFRG,O,EST,40.729,-73.413,82,57,55,32,39,46,300,10,0,201,CLR,10,404,40,444,404,444,577,0,0,0,30.35,1027.9,46,CLR,Fair,8-Nov-15,13
KFRG 08/Oct/2017 13,820,NYG2017,8-Oct-17,8-Oct-17,8-Oct-17,1:00,13,NYG,-3,LAC,49,O,45.5,2017,Week 5,77373,NYG,-3,3,NE,22,27,Y,82550,0,7,56,0,New York,KFRG,KFRG4301613,KFRG,O,8-Oct-17,EST,40.729,-73.413,82,74,71,72,78,71,72,67,70,97,87,92,73,68,70,20,13,211,30,98,8.1,2055,409,2468,6,685,0.23,0,30.04,29.94,29.98,1017,1013.6,1015,40,MC,Overcast,KFRG,O,EST,40.729,-73.413,82,74,78,72,94,73,210,13,100,6,OVC,3,288,58,346,577,635,825,0,0,0,29.94,1013.7,40,MC,Overcast,8-Oct-17,13
KFRG 08/Sep/2013 13,821,NYJ2013,8-Sep-13,8-Sep-13,8-Sep-13,1:00,13,TB,-4,NYJ,35,U,39.5,2013,Week 1,76957,NYJ,4,-4,CAR,18,17,N,82550,0,3,82,0,New York,KFRG,KFRG4152513,KFRG,O,8-Sep-13,EST,40.729,-73.413,82,83,60,71,83,62,61,45,54,84,37,57,68,54,62,18,10,287,24,34,10,4361,573,4933,475,766,0,0,30.09,29.82,29.89,1019,1009.7,1012.2,46,CLR,Fair,KFRG,O,EST,40.729,-73.413,82,81,82,60,49,68,320,10,75,42,BKN,10,473,76,549,757,833,1082,0,0,0,29.82,1009.7,45,CLR,Mostly Clear,8-Sep-13,13
KFRG 08/Sep/2019 13,822,NYJ2019,8-Sep-19,8-Sep-19,8-Sep-19,1:03,13,NYJ,-2.5,BUF,33,U,41,2019,Week 1,78523,NYJ,-2.5,2.5,BUF,16,17,N,82550,0,9,51,0,New York,KFRG,KFRG4371613,KFRG,O,8-Sep-19,EST,40.733,-73.417,69,77,59,68,77,59,62,52,56,83,45,67,65,56,61,12,5,292,12,36,10,5023,573,5595,543,766,0,0,30.16,29.93,30.04,1021.1,1013.4,1017.2,46,CLR,Fair,KFRG,O,EST,40.733,-73.417,69,74,77,53,48,62,370,5,0,247,CLR,10,757,76,833,757,833,1082,0,0,0,30.04,1017.2,46,CLR,Fair,8-Sep-19,13
KFRG 09/Nov/2014 13,823,NYJ2014,9-Nov-14,9-Nov-14,9-Nov-14,1:00,13,PIT,-4.5,NYJ,33,U,47,2014,Week 10,78160,NYJ,4.5,-4.5,NYG,20,13,Y,82550,0,4,57,0,New York,KFRG,KFRG4195213,KFRG,O,9-Nov-14,EST,40.729,-73.413,82,58,42,50,57,43,40,33,36,77,41,60,47,40,44,14,5,256,18,51,10,1869,257,2125,268,607,0,0,30.02,29.91,29.95,1016.6,1012.7,1014.2,46,CLR,Fair,KFRG,O,EST,40.729,-73.413,82,56,54,34,44,46,290,7,50,168,CLR,10,299,40,339,399,439,571,0,0,0,29.91,1013,46,CLR,Fair,9-Nov-14,13
KFRG 09/Sep/2018 13,824,NYG2018,9-Sep-18,9-Sep-18,9-Sep-18,1:00,13,JAX,-3,NYG,35,U,42.5,2018,Week 1,77992,NYG,3,-3,JAX,15,20,Y,82550,0,8,53,0,New York,KFRG,KFRG4335213,KFRG,O,9-Sep-18,EST,40.733,-73.417,69,62,56,60,62,53,58,52,55,90,72,84,60,54,57,13,9,53,21,90,9.9,2983,570,3554,7,763,0.23,0,30.27,30.16,30.21,1024.9,1021.4,1022.9,18,RAIN,Light Rain,KFRG,O,EST,40.733,-73.417,69,61,61,57,87,59,40,6,100,100,OVC,10,376,75,451,752,827,1074,99,0.03,0,30.22,1023.3,18,RAIN,Light Rain,9-Sep-18,13
KFRG 10/Dec/2017 13,825,NYG2017,10-Dec-17,10-Dec-17,10-Dec-17,1:00,13,DAL,-4,NYG,40,U,42.5,2017,Week 14,78125,NYG,4,-4,JAX,10,30,Y,82550,0,7,41,0,New York,KFRG,KFRG4307913,KFRG,O,10-Dec-17,EST,40.729,-73.413,82,38,30,34,38,21,29,21,24,93,55,70,33,28,30,14,9,271,21,53,7.9,1825,184,2009,516,559,0,0,30.02,29.7,29.89,1016.5,1005.9,1012.3,40,MC,Overcast,KFRG,O,EST,40.729,-73.413,82,37,28,25,62,33,270,14,0,201,CLR,10,314,31,345,314,345,449,0,0,0,29.9,1012.6,46,CLR,Fair,10-Dec-17,13
KFRG 10/Nov/2013 13,826,NYG2013,10-Nov-13,10-Nov-13,10-Nov-13,1:00,13,NYG,-7,OAK,44,O,41.5,2013,Week 10,80366,NYG,-7,7,SEA,24,20,N,82550,0,3,53,0,New York,KFRG,KFRG4158813,KFRG,O,10-Nov-13,EST,40.729,-73.413,82,61,43,50,61,41,38,27,32,71,30,53,47,39,42,24,12,276,33,56,10,2272,251,2522,388,605,0,0,30.04,29.81,29.93,1017.4,1009.4,1013.5,40,MC,Overcast,KFRG,O,EST,40.729,-73.413,82,60,56,31,33,47,260,23,13,90,FEW,10,385,39,424,395,434,564,0,0,0,29.81,1009.4,45,CLR,Mostly Clear,10-Nov-13,13
KFRG 10/Nov/2019 13,827,NYJ2019,10-Nov-19,10-Nov-19,10-Nov-19,1:00,13,NYJ,-3.5,NYG,61,O,45,2019,Week 10,78523,NYJ,-3.5,3.5,NYG,34,27,Y,82550,0,9,39,0,New York,KFRG,KFRG4377913,KFRG,O,10-Nov-19,EST,40.733,-73.417,69,51,30,43,51,31,34,19,29,73,46,59,43,28,37,16,5,240,18,55,10,1390,251,1638,57,605,0,0,30.16,30.01,30.08,1021.5,1016.2,1018.6,46,CLR,Fair,KFRG,O,EST,40.733,-73.417,69,49,45,33,55,42,230,10,100,80,OVC,10,198,39,236,395,434,564,0,0,0,30.03,1016.9,40,MC,Overcast,10-Nov-19,13
KFRG 11/Dec/2016 20,828,NYG2016,11-Dec-16,11-Dec-16,11-Dec-16,8:30,20,DAL,-3.5,NYG,17,U,47,2016,Week 14,80874,NYG,3.5,-3.5,WAS,10,7,N,82550,0,6,30,0,New York,KFRG,KFRG4271520,KFRG,O,11-Dec-16,EST,40.729,-73.413,82,35,26,31,35,20,31,16,21,92,49,68,31,23,27,9,4,249,9,73,7.7,1350,182,1532,210,558,0.01,0.1,30.58,30.23,30.46,1035.4,1023.6,1031.3,40,MC,Overcast,KFRG,O,EST,40.729,-73.413,82,31,31,28,89,30,60,3,100,65,OVC,2.5,0,0,0,0,0,0,0,0,0.1,30.38,1028.8,9,SNOW,Light Snow,11-Dec-16,20
KFRG 11/Nov/2018 13,829,NYJ2018,11-Nov-18,11-Nov-18,11-Nov-18,1:00,13,NYJ,-7,BUF,51,O,37.5,2018,Week 10,77982,NYJ,-7,7,BUF,10,41,Y,82550,0,8,54,0,New York,KFRG,KFRG4341513,KFRG,O,11-Nov-18,EST,40.733,-73.417,69,46,32,38,46,27,26,20,22,73,35,52,36,29,32,13,6,305,23,0,10,2489,250,2739,603,603,0,0,30.4,30.23,30.33,1029.4,1023.8,1027.1,46,CLR,Fair,KFRG,O,EST,40.733,-73.417,69,44,38,20,38,35,300,12,0,400,CLR,10,390,39,429,390,429,558,0,0,0,30.31,1026.6,46,CLR,Fair,11-Nov-18,13
KFRG 11/Oct/2015 20,830,NYG2015,11-Oct-15,11-Oct-15,11-Oct-15,8:30,20,NYG,-7.5,SF,57,O,44,2015,Week 5,78515,NYG,-7.5,7.5,PHI,30,27,N,82550,0,5,57,0,New York,KFRG,KFRG4228820,KFRG,O,11-Oct-15,EST,40.729,-73.413,82,67,45,57,67,46,53,41,47,87,45,70,56,44,51,14,6,225,14,1,10,3863,390,4253,666,678,0,0,30.05,29.88,29.95,1017.6,1011.6,1014.2,46,CLR,Fair,KFRG,O,EST,40.729,-73.413,82,60,59,52,75,56,220,7,0,201,CLR,10,0,0,0,0,0,0,0,0,0,29.88,1011.6,46,CLR,Fair,11-Oct-15,20
KFRG 11/Oct/2018 20,831,NYG2018,11-Oct-18,11-Oct-18,11-Oct-18,8:20,20,PHI,-2,NYG,47,O,45,2018,Week 6,77167,NYG,2,-2,PHI,13,34,Y,82550,0,8,85,0,New York,KFRG,KFRG4338420,KFRG,O,11-Oct-18,EST,40.733,-73.417,69,75,69,71,78,69,72,68,70,100,91,95,73,68,71,22,10,202,33,94,7.6,1769,390,2157,0,678,0.86,0,29.91,29.51,29.71,1012.7,999.2,1005.9,40,MC,Overcast,KFRG,O,EST,40.733,-73.417,69,70,70,69,97,69,110,5,100,120,BKN,9,0,0,0,0,0,0,99,0.04,0,29.58,1001.6,19,RAIN,Moderate Rain,11-Oct-18,20
KFRG 11/Sep/2016 13,832,NYJ2016,11-Sep-16,11-Sep-16,11-Sep-16,1:00,13,CIN,-1,NYJ,45,O,42,2016,Week 1,78160,NYJ,1,-1,MIA,22,23,N,82550,0,6,80,0,New York,KFRG,KFRG4262413,KFRG,O,11-Sep-16,EST,40.729,-73.413,82,84,67,77,88,69,73,45,59,91,34,59,76,56,67,17,11,287,29,60,10,4318,553,4872,309,757,0,0,30.17,29.88,29.99,1021.4,1011.9,1015.5,40,MC,Overcast,KFRG,O,EST,40.729,-73.413,82,81,81,55,41,65,340,15,100,201,OVC,10,368,74,442,735,809,1050,0,0,0,29.99,1015.6,40,MC,Overcast,11-Sep-16,13
KFRG 12/Nov/2015 20,833,NYJ2015,12-Nov-15,12-Nov-15,12-Nov-15,8:25,20,NYJ,-2.5,BUF,39,U,42,2015,Week 10,78160,NYJ,-2.5,2.5,JAX,17,22,Y,82550,0,5,56,0,New York,KFRG,KFRG4232020,KFRG,O,12-Nov-15,EST,40.729,-73.413,82,61,51,56,60,49,56,46,51,94,81,86,58,49,53,17,8,202,26,89,9.2,1228,245,1471,0,600,0.04,0,29.97,29.54,29.77,1014.9,1000.1,1008.1,40,MC,Overcast,KFRG,O,EST,40.729,-73.413,82,59,56,56,90,57,220,13,20,10,FEW,10,0,0,0,0,0,0,0,0,0,29.55,1000.7,44,PC,Partly Cloudy,12-Nov-15,20
KFRG 12/Oct/2014 13,834,NYJ2014,12-Oct-14,12-Oct-14,12-Oct-14,1:00,13,DEN,-10,NYJ,48,O,47.5,2014,Week 6,78160,NYJ,10,-10,NE,17,31,Y,82550,0,4,64,0,New York,KFRG,KFRG4192413,KFRG,O,12-Oct-14,EST,40.729,-73.413,82,63,45,54,62,44,46,37,42,90,41,66,51,44,48,10,6,291,10,1,10,3849,382,4231,675,675,0,0,30.33,30.17,30.26,1026.9,1021.6,1024.7,46,CLR,Fair,KFRG,O,EST,40.729,-73.413,82,62,62,39,43,51,200,8,0,201,CLR,10,552,55,607,552,607,789,0,0,0,30.26,1024.8,46,CLR,Fair,12-Oct-14,13
KFRG 13/Dec/2015 13,835,NYJ2015,13-Dec-15,13-Dec-15,13-Dec-15,1:00,13,NYJ,-8,TEN,38,U,43,2015,Week 14,78160,NYJ,-8,8,CIN,30,8,Y,82550,0,5,65,0,New York,KFRG,KFRG4235113,KFRG,O,13-Dec-15,EST,40.729,-73.413,82,69,51,56,68,49,53,45,49,93,59,78,60,49,52,13,5,111,13,67,8.3,1398,181,1579,215,557,0,0,30.17,30.1,30.14,1021.7,1019.2,1020.6,46,CLR,Fair,KFRG,O,EST,40.729,-73.413,82,68,68,53,59,60,110,6,40,165,CLR,10,250,31,281,313,344,447,0,0,0,30.14,1020.4,46,CLR,Fair,13-Dec-15,13
KFRG 13/Nov/2016 13,836,NYJ2016,13-Nov-16,13-Nov-16,13-Nov-16,1:00,13,LAR,-1,NYJ,15,U,38.5,2016,Week 10,78160,NYJ,1,-1,HOU,6,9,Y,82550,0,6,55,0,New York,KFRG,KFRG4268713,KFRG,O,13-Nov-16,EST,40.729,-73.413,82,59,37,48,59,32,29,23,26,68,27,46,45,33,39,12,8,262,12,15,10,2222,240,2462,491,598,0,0,30.16,30.03,30.09,1021.2,1017,1019.1,46,CLR,Fair,KFRG,O,EST,40.729,-73.413,82,57,55,25,29,44,250,10,0,201,CLR,10,378,38,416,378,416,540,0,0,0,30.07,1018.1,46,CLR,Fair,13-Nov-16,13
KFRG 13/Oct/2013 13,837,NYJ2013,13-Oct-13,13-Oct-13,13-Oct-13,1:00,13,PIT,-1.5,NYJ,25,U,41,2013,Week 6,76957,NYJ,1.5,-1.5,LAR,6,19,Y,82550,0,3,65,0,New York,KFRG,KFRG4156013,KFRG,O,13-Oct-13,EST,40.729,-73.413,82,65,51,58,65,51,50,45,48,83,56,72,57,49,53,14,9,62,23,32,10,2934,380,3314,404,673,0,0,30.38,30.29,30.35,1028.9,1025.6,1027.7,42,MC,Mostly Cloudy,KFRG,O,EST,40.729,-73.413,82,63,62,49,60,55,70,10,70,32,BKN,10,356,55,411,547,602,781,0,0,0,30.36,1028.2,42,MC,Mostly Cloudy,13-Oct-13,13
KFRG 13/Oct/2019 13,838,NYJ2019,13-Oct-19,13-Oct-19,13-Oct-19,1:00,13,DAL,-2,NYJ,46,O,54,2019,Week 6,78523,NYJ,2,-2,DAL,24,22,N,82550,0,9,37,0,New York,KFRG,KFRG4375113,KFRG,O,13-Oct-19,EST,40.733,-73.417,69,66,54,59,66,52,55,42,48,90,43,69,56,51,53,14,5,339,14,32,10,3662,380,4042,585,673,0.03,0,30.12,29.98,30.06,1019.9,1015.3,1017.7,46,CLR,Fair,KFRG,O,EST,40.733,-73.417,69,62,62,42,48,52,370,3,0,242,CLR,10,547,55,602,547,602,781,0,0,0,30.08,1018.6,46,CLR,Fair,13-Oct-19,13
KFRG 13/Sep/2015 13,839,NYJ2015,13-Sep-15,13-Sep-15,13-Sep-15,1:00,13,NYJ,-3.5,CLE,41,O,38.5,2015,Week 1,78160,NYJ,-3.5,3.5,TEN,31,10,Y,82550,0,5,76,0,New York,KFRG,KFRG4226013,KFRG,O,13-Sep-15,EST,40.729,-73.413,82,79,62,70,79,63,66,50,61,90,50,74,68,56,65,15,8,245,20,54,9.9,4859,546,5406,389,752,0.06,0,29.86,29.66,29.73,1011.2,1004.2,1006.8,40,MC,Overcast,KFRG,O,EST,40.729,-73.413,82,78,79,58,50,66,210,10,18,301,SCT,10,663,73,736,729,802,1042,0,0,0,29.72,1006.2,54,CLR,Few High Clouds,13-Sep-15,13
KFRG 14/Dec/2014 13,840,NYG2014,14-Dec-14,14-Dec-14,14-Dec-14,1:00,13,NYG,-7,WAS,37,U,46.5,2014,Week 15,77628,NYG,-7,7,TEN,24,13,Y,82550,0,4,43,0,New York,KFRG,KFRG4198713,KFRG,O,14-Dec-14,EST,40.729,-73.413,82,44,33,38,43,29,32,28,30,82,62,71,38,32,35,14,6,334,22,38,10,962,180,1141,121,557,0,0,29.97,29.86,29.9,1015,1011.2,1012.5,46,CLR,Fair,KFRG,O,EST,40.729,-73.413,82,42,36,30,62,37,340,10,100,26,OVC,10,156,31,187,312,343,445,0,0,0,29.87,1011.4,40,MC,Overcast,14-Dec-14,13
KFRG 14/Nov/2016 20,841,NYG2016,14-Nov-16,14-Nov-16,14-Nov-16,8:30,20,NYG,PK,CIN,41,U,49.5,2016,Week 10,76218,NYG,PK,PK,NYJ,21,20,PK,82550,0,6,54,0,New York,KFRG,KFRG4268820,KFRG,O,14-Nov-16,EST,40.729,-73.413,82,61,38,50,60,33,45,21,32,77,22,52,49,33,42,14,5,233,14,39,10,2285,235,2520,466,596,0,0,30.05,29.98,30.03,1017.7,1015.2,1016.9,46,CLR,Fair,KFRG,O,EST,40.729,-73.413,82,54,52,44,69,49,190,7,100,301,OVC,10,0,0,0,0,0,0,0,0,0,30.04,1017.2,50,PC,High Overcast,14-Nov-16,20
KFRG 14/Oct/2018 13,842,NYJ2018,14-Oct-18,14-Oct-18,14-Oct-18,1:00,13,NYJ,-2.5,IND,76,O,48,2018,Week 6,77982,NYJ,-2.5,2.5,IND,42,34,Y,82550,0,8,23,0,New York,KFRG,KFRG4338713,KFRG,O,14-Oct-18,EST,40.733,-73.417,69,58,40,51,58,42,45,38,41,90,49,70,49,41,46,14,4,255,14,9,10,3524,373,3897,585,670,0,0,30.26,30.14,30.22,1024.7,1020.6,1023.2,46,CLR,Fair,KFRG,O,EST,40.733,-73.417,69,57,55,38,49,48,250,10,0,200,CLR,10,540,54,594,540,594,771,0,0,0,30.23,1023.8,46,CLR,Fair,14-Oct-18,13
KFRG 14/Sep/2014 13,843,NYG2014,14-Sep-14,14-Sep-14,14-Sep-14,1:00,13,NYG,-2,ARI,39,U,41.5,2014,Week 2,78344,NYG,-2,2,OAK,14,25,Y,82550,0,4,71,0,New York,KFRG,KFRG4189613,KFRG,O,14-Sep-14,EST,40.729,-73.413,82,70,53,61,70,51,54,42,47,87,38,64,59,50,54,14,7,32,14,25,10,5181,541,5722,621,749,0,0,30.27,30.15,30.21,1024.9,1021.1,1023,46,CLR,Fair,KFRG,O,EST,40.729,-73.413,82,68,68,44,42,55,100,9,0,201,CLR,10,724,72,796,724,796,1034,0,0,0,30.22,1023.2,46,CLR,Fair,14-Sep-14,13
KFRG 15/Dec/2013 13,844,NYG2013,15-Dec-13,15-Dec-13,15-Dec-13,1:00,13,SEA,-9,NYG,23,U,43,2013,Week 15,79691,NYG,9,-9,GB,0,23,Y,82550,0,3,40,0,New York,KFRG,KFRG4162313,KFRG,O,15-Dec-13,EST,40.729,-73.413,82,45,31,36,45,23,44,19,30,100,59,80,45,29,35,24,11,306,35,84,8.4,991,180,1169,110,556,0.94,0,29.85,29.45,29.64,1010.7,997.4,1003.8,40,MC,Overcast,KFRG,O,EST,40.729,-73.413,82,37,28,29,73,34,290,14,70,21,BKN,10,202,31,233,311,342,445,0,0,0,29.58,1001.8,42,MC,Mostly Cloudy,15-Dec-13,13
KFRG 15/Dec/2018 16,845,NYJ2018,15-Dec-18,15-Dec-18,15-Dec-18,4:30,16,HOU,-7,NYJ,51,O,44.5,2018,Week 15,77982,NYJ,7,-7,HOU,22,29,N,82550,0,8,31,0,New York,KFRG,KFRG4344916,KFRG,O,15-Dec-18,EST,40.733,-73.417,69,52,45,49,51,42,49,36,45,100,71,88,50,44,47,15,8,54,30,80,6.6,900,180,1076,2,556,0.05,0,30.23,30.08,30.14,1023.7,1018.5,1020.7,40,MC,Overcast,KFRG,O,EST,40.733,-73.417,69,50,46,45,83,47,40,10,100,43,OVC,10,4,1,5,8,9,12,0,0,0,30.08,1018.8,40,MC,Overcast,15-Dec-18,16
KFRG 15/Dec/2019 13,846,NYG2019,15-Dec-19,15-Dec-19,15-Dec-19,1:00,13,NYG,-3,MIA,56,O,39,2019,Week 15,72894,NYG,-3,3,MIA,36,20,Y,82550,0,9,80,0,New York,KFRG,KFRG4381413,KFRG,O,15-Dec-19,EST,40.733,-73.417,69,50,36,44,48,29,34,19,26,71,37,52,42,31,37,22,15,280,40,49,10,1298,180,1478,282,556,0,0,30.14,29.4,29.8,1021.2,996.1,1009.3,40,MC,Overcast,KFRG,O,EST,40.733,-73.417,69,48,41,27,43,39,290,22,70,60,SCT,10,202,31,233,311,342,445,0,0,0,29.78,1008.6,42,MC,Mostly Cloudy,15-Dec-19,13
KFRG 15/Nov/2015 16,847,NYG2015,15-Nov-15,15-Nov-15,15-Nov-15,4:25,16,NE,-7,NYG,53,O,52.5,2015,Week 10,81061,NYG,7,-7,NYG,26,27,N,82550,0,5,54,0,New York,KFRG,KFRG4232316,KFRG,O,15-Nov-15,EST,40.729,-73.413,82,58,36,48,58,30,36,25,31,73,36,53,46,33,40,15,9,261,15,0,10,2351,235,2586,591,594,0,0,30.31,30.17,30.23,1026.3,1021.5,1023.5,46,CLR,Fair,KFRG,O,EST,40.729,-73.413,82,58,55,31,36,46,270,15,0,192,CLR,10,19,2,21,19,21,28,0,0,0,30.17,1021.5,46,CLR,Fair,15-Nov-15,16
KFRG 15/Oct/2017 13,848,NYJ2017,15-Oct-17,15-Oct-17,15-Oct-17,1:00,13,NE,-9.5,NYJ,41,U,48.5,2017,Week 6,77562,NYJ,9.5,-9.5,DEN,17,24,N,82550,0,7,36,0,New York,KFRG,KFRG4302313,KFRG,O,15-Oct-17,EST,40.729,-73.413,82,71,66,68,71,66,66,64,65,100,81,92,67,65,66,15,10,216,22,97,6.8,1861,370,2230,18,668,0,0,30.15,29.81,29.97,1020.8,1009.3,1014.9,40,MC,Overcast,KFRG,O,EST,40.729,-73.413,82,70,70,66,87,67,210,10,100,21,OVC,10,267,53,320,534,587,763,0,0,0,29.95,1014.1,40,MC,Overcast,15-Oct-17,13
KFRG 15/Sep/2013 16,849,NYG2013,15-Sep-13,15-Sep-13,15-Sep-13,4:25,16,DEN,-3.5,NYG,64,O,54,2013,Week 2,81285,NYG,3.5,-3.5,DEN,23,41,Y,82550,0,3,70,0,New York,KFRG,KFRG4153216,KFRG,O,15-Sep-13,EST,40.729,-73.413,82,73,49,61,74,49,55,37,47,90,29,64,59,47,54,12,5,266,12,21,10,4847,535,5382,619,747,0,0,30.21,30.09,30.14,1023.1,1019.1,1020.7,46,CLR,Fair,KFRG,O,EST,40.729,-73.413,82,71,71,44,38,57,240,9,24,301,SCT,10,241,27,268,274,301,391,0,0,0,30.11,1019.5,46,CLR,Fair,15-Sep-13,16
KFRG 15/Sep/2019 13,850,NYG2019,15-Sep-19,15-Sep-19,15-Sep-19,1:00,13,BUF,-1.5,NYG,42,U,44.5,2019,Week 2,74569,NYG,1.5,-1.5,BUF,14,28,Y,82550,0,9,79,0,New York,KFRG,KFRG4372313,KFRG,O,15-Sep-19,EST,40.733,-73.417,69,79,67,73,81,68,68,61,65,93,58,77,70,65,68,10,4,224,10,46,10,3959,535,4495,397,747,0,0,30.16,30.06,30.11,1021.4,1017.9,1019.7,46,CLR,Fair,KFRG,O,EST,40.733,-73.417,69,78,81,65,64,70,180,10,75,41,BKN,10,449,72,521,718,790,1026,0,0,0,30.11,1019.5,42,MC,Mostly Cloudy,15-Sep-19,13
KFRG 16/Dec/2018 13,851,NYG2018,16-Dec-18,16-Dec-18,16-Dec-18,1:00,13,TEN,-2,NYG,17,U,42.5,2018,Week 15,74538,NYG,2,-2,TEN,0,17,Y,82550,0,8,69,0,New York,KFRG,KFRG4345013,KFRG,O,16-Dec-18,EST,40.733,-73.417,69,45,38,41,45,29,39,34,37,93,66,87,41,37,40,18,15,46,33,92,6,892,179,1074,0,556,0.52,0,30.08,29.73,29.9,1018.7,1006.7,1012.5,18,RAIN,Light Rain,KFRG,O,EST,40.733,-73.417,69,42,34,39,89,41,70,16,100,14,OVC,3,156,31,187,312,343,445,0,0,0,29.84,1010.6,18,RAIN,Light Rain,16-Dec-18,13
KFRG 16/Nov/2014 13,852,NYG2014,16-Nov-14,16-Nov-14,16-Nov-14,1:00,13,SF,-4,NYG,26,U,45,2014,Week 11,80352,NYG,4,-4,ARI,10,16,Y,82550,0,4,43,0,New York,KFRG,KFRG4195913,KFRG,O,16-Nov-14,EST,40.729,-73.413,82,45,28,39,45,28,34,21,26,75,43,60,39,26,34,12,4,246,12,82,10,1180,232,1411,17,592,0,0,30.39,30.12,30.28,1029.2,1020.1,1025.6,40,MC,Overcast,KFRG,O,EST,40.729,-73.413,82,44,38,23,43,36,250,12,100,90,OVC,10,185,37,222,370,407,529,0,0,0,30.28,1025.4,40,MC,Overcast,16-Nov-14,13
KFRG 16/Oct/2016 13,853,NYG2016,16-Oct-16,16-Oct-16,16-Oct-16,1:00,13,NYG,-3.5,BAL,50,O,42.5,2016,Week 6,78487,NYG,-3.5,3.5,ARI,27,23,Y,82550,0,6,66,0,New York,KFRG,KFRG4265913,KFRG,O,16-Oct-16,EST,40.729,-73.413,82,68,45,59,68,45,60,42,53,93,61,80,62,44,55,15,8,224,23,30,10,3230,360,3590,508,664,0,0,30.31,30.01,30.14,1026.4,1016.1,1020.8,46,CLR,Fair,KFRG,O,EST,40.729,-73.413,82,66,66,53,63,59,200,12,70,110,BKN,10,395,52,447,523,575,747,0,0,0,30.12,1019.9,42,MC,Mostly Cloudy,16-Oct-16,13
KFRG 16/Sep/2018 13,854,NYJ2018,16-Sep-18,16-Sep-18,16-Sep-18,1:00,13,NYJ,-3,MIA,32,U,43,2018,Week 2,77982,NYJ,-3,3,MIA,12,20,Y,82550,0,8,71,0,New York,KFRG,KFRG4335913,KFRG,O,16-Sep-18,EST,40.733,-73.417,69,81,64,71,84,64,69,63,65,100,65,83,73,63,68,10,4,191,10,13,10,5015,530,5545,662,744,0,0,30.23,30.18,30.2,1023.5,1022,1022.7,46,CLR,Fair,KFRG,O,EST,40.733,-73.417,69,79,82,67,67,71,150,8,35,400,CLR,10,587,71,658,712,783,1018,0,0,0,30.21,1022.8,46,CLR,Fair,16-Sep-18,13
KFRG 16/Sep/2019 20,855,NYJ2019,16-Sep-19,16-Sep-19,16-Sep-19,8:15,20,CLE,-6.5,NYJ,26,U,45,2019,Week 2,78523,NYJ,6.5,-6.5,CLE,3,23,Y,82550,0,9,89,0,New York,KFRG,KFRG4372420,KFRG,O,16-Sep-19,EST,40.733,-73.417,69,77,62,70,79,64,64,50,61,87,58,75,67,57,65,8,4,24,8,58,10,3268,530,3797,126,744,0,0,30.08,30.01,30.05,1018.5,1016.1,1017.4,46,CLR,Fair,KFRG,O,EST,40.733,-73.417,69,68,68,62,81,64,100,3,0,97,CLR,10,0,0,0,0,0,0,0,0,0,30.04,1017.2,46,CLR,Fair,16-Sep-19,20
KFRG 17/Dec/2016 20,856,NYJ2016,17-Dec-16,17-Dec-16,17-Dec-16,8:25,20,MIA,-2.5,NYJ,47,O,41.5,2016,Week 15,78160,NYJ,2.5,-2.5,TEN,13,34,Y,82550,0,6,34,0,New York,KFRG,KFRG4272120,KFRG,O,17-Dec-16,EST,40.729,-73.413,82,40,25,33,39,19,39,9,29,100,45,84,38,22,31,8,5,256,8,100,6.5,822,179,1001,0,556,0.61,3.1,30.37,29.9,30.04,1028.4,1012.5,1017.2,40,MC,Overcast,KFRG,O,EST,40.729,-73.413,82,38,32,35,89,37,210,8,100,90,OVC,10,0,0,0,0,0,0,0,0,0,29.94,1013.7,40,MC,Overcast,17-Dec-16,20
KFRG 17/Dec/2017 13,857,NYG2017,17-Dec-17,17-Dec-17,17-Dec-17,1:00,13,PHI,-7.5,NYG,63,O,41,2017,Week 15,76896,NYG,7.5,-7.5,PHI,29,34,N,82550,0,7,71,0,New York,KFRG,KFRG4308613,KFRG,O,17-Dec-17,EST,40.729,-73.413,82,35,29,32,34,26,25,20,22,73,61,68,30,27,29,5,2,85,5,87,10,1028,179,1208,86,556,0,0,30.31,30.21,30.26,1026.4,1023,1024.7,40,MC,Overcast,KFRG,O,EST,40.729,-73.413,82,33,33,22,64,29,110,3,100,45,OVC,10,156,31,186,311,342,445,0,0,0,30.26,1024.6,40,MC,Overcast,17-Dec-17,13
KFRG 17/Nov/2013 16,858,NYG2013,17-Nov-13,17-Nov-13,17-Nov-13,4:25,16,NYG,-3.5,GB,40,U,41.5,2013,Week 11,79114,NYG,-3.5,3.5,OAK,27,13,Y,82550,0,3,61,0,New York,KFRG,KFRG4159516,KFRG,O,17-Nov-13,EST,40.729,-73.413,82,61,42,54,60,43,59,42,53,100,89,96,59,43,53,10,7,141,10,98,5.1,1148,229,1374,0,591,0,0,30.28,29.82,30.11,1025.4,1009.8,1019.6,40,MC,Overcast,KFRG,O,EST,40.729,-73.413,82,59,58,58,96,58,140,7,100,2,OVC,1,8,2,10,17,19,24,0,0,0,30.06,1017.8,40,MC,Overcast,17-Nov-13,16
KFRG 18/Dec/2016 13,859,NYG2016,18-Dec-16,18-Dec-16,18-Dec-16,1:00,13,NYG,-4,DET,23,U,41,2016,Week 15,79434,NYG,-4,4,CAR,17,6,Y,82550,0,6,48,0,New York,KFRG,KFRG4272213,KFRG,O,18-Dec-16,EST,40.729,-73.413,82,61,32,47,61,24,55,12,38,100,40,79,58,27,44,23,14,265,33,100,6.7,897,179,1075,0,555,0.04,0,30.46,29.76,29.99,1031.4,1007.7,1015.5,40,MC,Overcast,KFRG,O,EST,40.729,-73.413,82,59,57,55,87,57,260,12,100,60,OVC,10,156,31,186,311,342,444,0,0,0,29.84,1010.5,40,MC,Overcast,18-Dec-16,13
KFRG 18/Nov/2018 13,860,NYG2018,18-Nov-18,18-Nov-18,18-Nov-18,1:00,13,NYG,-3,TB,73,O,54,2018,Week 11,75863,NYG,-3,3,TB,38,35,N,82550,0,8,57,0,New York,KFRG,KFRG4342213,KFRG,O,18-Nov-18,EST,40.733,-73.417,69,43,37,41,43,33,34,24,29,79,55,62,38,33,36,9,4,358,9,73,10,1609,227,1835,167,588,0,0,30.4,30.21,30.32,1029.4,1023,1026.6,40,MC,Overcast,KFRG,O,EST,40.733,-73.417,69,43,43,29,58,37,0,0,35,101,SCT,10,299,36,335,363,399,519,0,0,0,30.34,1027.3,43,PC,Partly Cloudy,18-Nov-18,13
KFRG 18/Oct/2015 13,861,NYJ2015,18-Oct-15,18-Oct-15,18-Oct-15,1:00,13,NYJ,-7.5,WAS,54,O,40,2015,Week 6,78160,NYJ,-7.5,7.5,SF,34,20,Y,82550,0,5,48,0,New York,KFRG,KFRG4229513,KFRG,O,18-Oct-15,EST,40.729,-73.413,82,49,34,42,49,31,30,20,24,73,34,49,39,32,35,13,7,334,22,20,10,2687,355,3044,401,659,0,0,30.38,30.2,30.28,1028.9,1022.8,1025.4,44,PC,Partly Cloudy,KFRG,O,EST,40.729,-73.413,82,49,45,23,36,39,340,9,95,90,BKN,10,271,52,323,516,568,738,0,0,0,30.24,1024.2,42,MC,Mostly Cloudy,18-Oct-15,13
KFRG 18/Sep/2016 13,862,NYG2016,18-Sep-16,18-Sep-16,18-Sep-16,1:00,13,NYG,-4,NO,29,U,54.5,2016,Week 2,77727,NYG,-4,4,ATL,16,13,N,82550,0,6,79,0,New York,KFRG,KFRG4263113,KFRG,O,18-Sep-16,EST,40.729,-73.413,82,81,70,75,84,70,71,68,71,94,74,86,74,69,72,16,9,208,16,65,10,3701,513,4215,124,739,0,0,30.1,30.02,30.06,1019,1016.6,1017.9,50,PC,High Overcast,KFRG,O,EST,40.729,-73.413,82,79,83,71,77,74,190,10,100,14,BKN,10,678,70,748,695,765,993,0,0,0,30.06,1017.9,50,PC,High Overcast,18-Sep-16,13
KFRG 18/Sep/2017 20,863,NYG2017,18-Sep-17,18-Sep-17,18-Sep-17,8:30,20,NYG,-3,DET,34,U,42.5,2017,Week 2,77004,NYG,-3,3,NYJ,10,24,Y,82550,0,7,60,0,New York,KFRG,KFRG4299620,KFRG,O,18-Sep-17,EST,40.729,-73.413,82,73,65,70,72,65,67,64,66,97,82,89,69,64,67,13,8,54,13,97,9.4,2624,522,3145,48,739,0,0,30.14,30.06,30.1,1020.4,1017.9,1019.3,40,MC,Overcast,KFRG,O,EST,40.729,-73.413,82,70,70,67,90,68,50,8,100,26,OVC,10,0,0,0,0,0,0,0,0,0,30.1,1019.1,40,MC,Overcast,18-Sep-17,20
KFRG 19/Nov/2017 13,864,NYG2017,19-Nov-17,19-Nov-17,19-Nov-17,1:00,13,KC,-10,NYG,21,U,45,2017,Week 11,76363,NYG,10,-10,MIA,12,9,N,82550,0,7,73,0,New York,KFRG,KFRG4305813,KFRG,O,19-Nov-17,EST,40.729,-73.413,82,59,39,51,59,38,56,25,38,96,45,65,57,35,46,26,17,264,44,77,9.3,1712,224,1935,248,586,0.26,0,29.79,29.24,29.49,1008.8,990.1,998.6,40,MC,Overcast,KFRG,O,EST,40.729,-73.413,82,49,42,30,48,41,310,23,20,45,SCT,10,324,36,360,360,396,514,0,0,0,29.48,998.2,44,PC,Partly Cloudy,19-Nov-17,13
KFRG 20/Dec/2015 13,865,NYG2015,20-Dec-15,20-Dec-15,20-Dec-15,1:00,13,CAR,-5,NYG,73,O,46.5,2015,Week 15,79436,NYG,5,-5,IND,35,38,N,82550,0,5,41,0,New York,KFRG,KFRG4235813,KFRG,O,20-Dec-15,EST,40.729,-73.413,82,43,34,38,43,27,26,16,20,62,38,47,35,29,32,14,8,300,32,49,10,1580,178,1758,401,555,0,0,30.52,30.29,30.45,1033.4,1025.7,1031.2,46,CLR,Fair,KFRG,O,EST,40.729,-73.413,82,42,35,19,40,34,290,12,45,171,CLR,10,242,31,273,312,343,445,0,0,0,30.48,1032.2,46,CLR,Fair,20-Dec-15,13
KFRG 20/Nov/2016 13,866,NYG2016,20-Nov-16,20-Nov-16,20-Nov-16,1:00,13,NYG,-7,CHI,38,U,41.5,2016,Week 11,78898,NYG,-7,7,CLE,22,16,N,82550,0,6,40,0,New York,KFRG,KFRG4269413,KFRG,O,20-Nov-16,EST,40.729,-73.413,82,47,36,39,49,27,37,20,28,93,45,66,47,32,36,26,19,288,39,100,9.6,1046,218,1265,0,585,0.31,0,29.57,29.5,29.54,1001.4,999.1,1000.4,40,MC,Overcast,KFRG,O,EST,40.729,-73.413,82,42,34,28,58,36,270,16,100,47,OVC,10,176,35,212,353,388,505,0,0,0,29.51,999.2,40,MC,Overcast,20-Nov-16,13
KFRG 20/Oct/2013 13,867,NYJ2013,20-Oct-13,20-Oct-13,20-Oct-13,1:00,13,NE,-3.5,NYJ,57,O,43,2013,Week 7,76957,NYJ,3.5,-3.5,BUF,30,27,N,82550,0,3,65,0,New York,KFRG,KFRG4156713,KFRG,O,20-Oct-13,EST,40.729,-73.413,82,63,46,55,62,47,52,31,38,90,31,56,57,42,47,14,7,304,23,1,10,3442,345,3787,654,654,0,0,30.07,29.76,29.93,1018.4,1007.8,1013.7,46,CLR,Fair,KFRG,O,EST,40.729,-73.413,82,60,58,33,36,48,290,14,0,201,CLR,10,504,50,554,504,554,720,0,0,0,29.93,1013.6,46,CLR,Fair,20-Oct-13,13
KFRG 20/Oct/2019 13,868,NYG2019,20-Oct-19,20-Oct-19,20-Oct-19,1:00,13,NYG,-4.5,ARI,48,O,40,2019,Week 7,73577,NYG,-4.5,4.5,CLE,21,27,Y,82550,0,9,89,0,New York,KFRG,KFRG4375813,KFRG,O,20-Oct-19,EST,40.733,-73.417,69,62,41,52,61,39,52,38,47,94,65,83,55,40,49,13,6,65,13,54,8.8,2552,345,2897,286,654,0.66,0,30.07,29.97,30.02,1018.2,1014.6,1016.7,46,CLR,Fair,KFRG,O,EST,40.733,-73.417,69,60,59,51,72,55,130,7,100,100,OVC,10,252,50,302,504,554,720,0,0,0,30.04,1017.3,40,MC,Overcast,20-Oct-19,13
KFRG 20/Sep/2015 13,869,NYG2015,20-Sep-15,20-Sep-15,20-Sep-15,1:00,13,NYG,-2,ATL,44,U,50,2015,Week 2,77678,NYG,-2,2,GB,20,24,Y,82550,0,5,77,0,New York,KFRG,KFRG4226713,KFRG,O,20-Sep-15,EST,40.729,-73.413,82,78,63,71,78,63,70,47,55,90,35,60,71,55,63,17,12,2,26,34,10,3930,508,4438,484,733,0,0,30.1,29.87,29.99,1019.3,1011.4,1015.4,46,CLR,Fair,KFRG,O,EST,40.729,-73.413,82,76,77,50,40,61,10,17,0,201,CLR,10,689,69,758,689,758,984,0,0,0,29.99,1015.5,46,CLR,Fair,20-Sep-15,13
KFRG 21/Dec/2014 13,870,NYJ2014,21-Dec-14,21-Dec-14,21-Dec-14,1:00,13,NE,-9.5,NYJ,33,U,47,2014,Week 16,78160,NYJ,9.5,-9.5,DAL,16,17,N,82550,0,4,35,0,New York,KFRG,KFRG4199413,KFRG,O,21-Dec-14,EST,40.729,-73.413,82,37,33,35,36,27,33,23,28,89,67,77,35,29,32,9,6,324,9,100,9.8,889,179,1068,0,556,0,0,30.33,30.27,30.3,1027.1,1025.1,1025.9,40,MC,Overcast,KFRG,O,EST,40.729,-73.413,82,36,29,29,76,33,340,9,100,13,OVC,10,156,31,187,312,343,446,0,0,0,30.27,1025.1,42,MC,Mostly Cloudy,21-Dec-14,13
KFRG 21/Oct/2013 20,871,NYG2013,21-Oct-13,21-Oct-13,21-Oct-13,8:40,20,NYG,-4,MIN,30,U,48,2013,Week 7,79314,NYG,-4,4,CHI,23,7,Y,82550,0,3,57,0,New York,KFRG,KFRG4156820,KFRG,O,21-Oct-13,EST,40.729,-73.413,82,66,42,55,65,42,47,33,39,79,32,57,52,39,47,15,7,210,21,6,10,3391,338,3729,652,652,0,0,30.16,29.99,30.08,1021.2,1015.5,1018.8,46,CLR,Fair,KFRG,O,EST,40.729,-73.413,82,58,55,46,65,52,200,14,0,201,CLR,10,0,0,0,0,0,0,0,0,0,30.05,1017.7,46,CLR,Fair,21-Oct-13,20
KFRG 21/Oct/2018 13,872,NYJ2018,21-Oct-18,21-Oct-18,21-Oct-18,1:00,13,MIN,-3.5,NYJ,54,O,45,2018,Week 7,77982,NYJ,3.5,-3.5,MIN,17,37,Y,82550,0,8,40,0,New York,KFRG,KFRG4339413,KFRG,O,21-Oct-18,EST,40.733,-73.417,69,51,36,46,51,34,43,23,30,80,39,56,47,33,40,23,13,325,40,38,10,2898,338,3235,460,652,0,0,30.18,29.59,29.91,1022,1001.9,1012.9,46,CLR,Fair,KFRG,O,EST,40.733,-73.417,69,48,40,24,39,38,330,23,5,48,FEW,10,487,50,537,499,549,712,0,0,0,29.92,1013.3,45,CLR,Mostly Clear,21-Oct-18,13
KFRG 21/Oct/2019 13,873,NYJ2019,21-Oct-19,21-Oct-19,21-Oct-19,1:00,13,NE,-4.5,NYJ,33,U,47.5,2019,Week 7,78523,NYJ,4.5,-4.5,NE,0,33,Y,82550,0,9,68,0,New York,KFRG,KFRG4375913,KFRG,O,21-Oct-19,EST,40.733,-73.417,69,66,50,57,66,49,50,44,47,90,45,70,55,49,52,15,9,35,23,38,10,3217,338,3555,466,652,0,0,30.14,29.95,30.05,1020.5,1014.2,1017.7,46,CLR,Fair,KFRG,O,EST,40.733,-73.417,69,65,64,44,47,54,40,12,0,318,CLR,10,499,50,549,499,549,712,0,0,0,30.05,1017.7,46,CLR,Fair,21-Oct-19,13
KFRG 21/Sep/2014 13,874,NYG2014,21-Sep-14,21-Sep-14,21-Sep-14,1:00,13,NYG,-1,HOU,47,O,41.5,2014,Week 3,77462,NYG,-1,1,KC,30,17,Y,82550,0,4,76,0,New York,KFRG,KFRG4190313,KFRG,O,21-Sep-14,EST,40.729,-73.413,82,77,67,72,80,67,70,66,68,97,77,87,72,66,69,12,6,183,21,76,9.2,3659,501,4161,171,731,1.06,0,30.01,29.61,29.77,1016.2,1002.7,1008.3,46,CLR,Fair,KFRG,O,EST,40.729,-73.413,82,76,79,69,79,71,0,0,87,14,SCT,10,615,68,683,683,751,976,0,0,0,29.74,1007.2,44,PC,Partly Cloudy,21-Sep-14,13
KFRG 22/Dec/2013 13,875,NYJ2013,22-Dec-13,22-Dec-13,22-Dec-13,1:00,13,NYJ,-2,CLE,37,U,41.5,2013,Week 16,76957,NYJ,-2,2,TEN,24,13,Y,82550,0,3,70,0,New York,KFRG,KFRG4163013,KFRG,O,22-Dec-13,EST,40.729,-73.413,82,60,51,55,59,47,55,51,53,100,83,92,56,50,54,24,14,213,33,90,8.4,1013,179,1192,50,555,0,0,29.98,29.86,29.92,1015.3,1011.1,1013.3,40,MC,Overcast,KFRG,O,EST,40.729,-73.413,82,57,55,53,87,55,210,8,100,80,OVC,10,156,31,188,313,344,447,0,0,0,29.92,1013.3,40,MC,Overcast,22-Dec-13,13
KFRG 22/Dec/2019 13,876,NYJ2019,22-Dec-19,22-Dec-19,22-Dec-19,1:00,13,PIT,-1.5,NYJ,26,O,52,2019,Week 16,78523,NYJ,1.5,-1.5,SEA,16,10,Y,82550,0,9,33,0,New York,KFRG,KFRG4382113,KFRG,O,22-Dec-19,EST,40.733,-73.417,69,47,23,36,46,19,28,19,25,86,46,66,38,22,32,12,5,249,12,5,9.9,1769,179,1948,549,555,0,0.1,30.43,30.19,30.3,1030.5,1022,1026.1,46,CLR,Fair,KFRG,O,EST,40.733,-73.417,69,46,42,27,46,38,240,10,0,392,CLR,10,313,31,344,313,344,447,0,0,0,30.28,1025.1,46,CLR,Fair,22-Dec-19,13
KFRG 22/Oct/2017 16,877,NYG2017,22-Oct-17,22-Oct-17,22-Oct-17,4:05,16,SEA,-4,NYG,31,U,39,2017,Week 7,78527,NYG,4,-4,NYJ,7,24,Y,82550,0,7,89,0,New York,KFRG,KFRG4303016,KFRG,O,22-Oct-17,EST,40.729,-73.413,82,72,49,60,72,50,57,46,51,97,42,75,60,48,55,9,3,174,9,14,9.8,3105,336,3441,540,649,0,0,30.42,30.35,30.38,1030.1,1027.7,1028.8,46,CLR,Fair,KFRG,O,EST,40.729,-73.413,82,67,67,48,51,57,200,8,25,301,SCT,10,69,8,77,79,87,114,0,0,0,30.38,1028.7,54,CLR,Few High Clouds,22-Oct-17,16
KFRG 22/Sep/2013 16,878,NYJ2013,22-Sep-13,22-Sep-13,22-Sep-13,4:25,16,NYJ,-2.5,BUF,47,O,41,2013,Week 3,76957,NYJ,-2.5,2.5,TB,27,20,Y,82550,0,3,67,0,New York,KFRG,KFRG4153916,KFRG,O,22-Sep-13,EST,40.729,-73.413,82,71,54,64,70,53,66,40,50,97,41,67,68,49,57,15,9,317,23,39,9.4,4776,496,5272,598,728,0.39,0,29.91,29.66,29.76,1012.9,1004.5,1007.9,46,CLR,Fair,KFRG,O,EST,40.729,-73.413,82,67,67,44,44,55,340,13,70,50,BKN,10,151,23,174,233,256,332,0,0,0,29.76,1007.9,42,MC,Mostly Cloudy,22-Sep-13,16
KFRG 22/Sep/2014 20,879,NYJ2014,22-Sep-14,22-Sep-14,22-Sep-14,8:35,20,NYJ,-1.5,CHI,46,O,45,2014,Week 3,78160,NYJ,-1.5,1.5,OAK,19,27,Y,82550,0,4,56,0,New York,KFRG,KFRG4190420,KFRG,O,22-Sep-14,EST,40.729,-73.413,82,73,54,65,72,54,67,39,49,90,42,59,69,48,58,16,10,307,24,11,10,4595,496,5091,652,728,0,0,30.17,29.64,29.9,1021.8,1003.7,1012.4,46,CLR,Fair,KFRG,O,EST,40.729,-73.413,82,59,57,40,49,50,310,10,20,301,SCT,10,0,0,0,0,0,0,0,0,0,30.09,1018.9,46,CLR,Fair,22-Sep-14,20
KFRG 23/Dec/2018 13,880,NYJ2018,23-Dec-18,23-Dec-18,23-Dec-18,1:00,13,GB,-3,NYJ,82,O,47,2018,Week 16,77982,NYJ,3,-3,GB,38,44,Y,82550,0,8,80,0,New York,KFRG,KFRG4345713,KFRG,O,23-Dec-18,EST,40.733,-73.417,69,43,35,38,43,29,29,22,24,73,47,57,36,31,33,12,7,334,20,42,10,1661,178,1839,478,556,0,0,30.16,29.98,30.09,1021.2,1015.3,1019.1,46,CLR,Fair,KFRG,O,EST,40.733,-73.417,69,42,37,24,49,35,300,9,0,359,CLR,10,313,31,344,313,344,448,0,0,0,30.1,1019.4,46,CLR,Fair,23-Dec-18,13
KFRG 23/Nov/2014 20,881,NYG2014,23-Nov-14,23-Nov-14,23-Nov-14,8:30,20,DAL,-4.5,NYG,59,O,49,2014,Week 12,80520,NYG,4.5,-4.5,PHI,28,31,N,82550,0,4,48,0,New York,KFRG,KFRG4196620,KFRG,O,23-Nov-14,EST,40.729,-73.413,82,55,44,48,54,39,48,23,31,90,37,52,47,36,40,13,7,226,13,66,9.8,1593,212,1806,300,580,0,0,30.22,30.02,30.16,1023.4,1016.6,1021.3,46,CLR,Fair,KFRG,O,EST,40.729,-73.413,82,50,48,45,83,47,200,6,52,301,BKN,10,0,0,0,0,0,0,0,0,0,30.13,1020.2,46,CLR,Fair,23-Nov-14,20
KFRG 23/Oct/2016 13,882,NYJ2016,23-Oct-16,23-Oct-16,23-Oct-16,1:00,13,NYJ,-2,BAL,40,U,40.5,2016,Week 7,78160,NYJ,-2,2,LAR,24,16,Y,82550,0,6,58,0,New York,KFRG,KFRG4266613,KFRG,O,23-Oct-16,EST,40.729,-73.413,82,62,45,53,62,40,45,29,35,67,36,49,49,39,45,24,14,286,36,10,10,3198,324,3521,632,647,0,0,29.89,29.68,29.81,1012.1,1005.1,1009.4,46,CLR,Fair,KFRG,O,EST,40.729,-73.413,82,60,57,36,41,49,300,17,5,60,FEW,10,469,48,517,481,529,687,0,0,0,29.8,1009.1,46,CLR,Fair,23-Oct-16,13
KFRG 24/Dec/2017 13,883,NYJ2017,24-Dec-17,24-Dec-17,24-Dec-17,1:00,13,LAC,-7,NYJ,21,U,42.5,2017,Week 16,77562,NYJ,7,-7,DET,7,14,N,82550,0,7,80,0,New York,KFRG,KFRG4309313,KFRG,O,24-Dec-17,EST,40.729,-73.413,82,43,35,38,43,28,37,25,29,93,55,70,42,33,35,20,10,29,29,93,9.4,913,178,1090,29,555,0,0,30.22,29.85,30.1,1023.4,1010.9,1019.2,46,CLR,Fair,KFRG,O,EST,40.729,-73.413,82,40,33,25,55,34,30,12,100,173,CLR,10,157,31,188,314,345,449,0,0,0,30.17,1021.7,46,CLR,Fair,24-Dec-17,13
KFRG 24/Nov/2013 16,884,NYG2013,24-Nov-13,24-Nov-13,24-Nov-13,4:25,16,NYG,-2.5,DAL,45,P,45,2013,Week 12,80499,NYG,-2.5,2.5,ATL,21,24,Y,82550,0,3,26,0,New York,KFRG,KFRG4160216,KFRG,O,24-Nov-13,EST,40.729,-73.413,82,30,22,26,31,6,5,-8,1,45,19,35,25,17,20,29,18,317,44,11,10,1808,210,2018,473,578,0,0,30.36,29.98,30.16,1028.1,1015.3,1021.4,46,CLR,Fair,KFRG,O,EST,40.729,-73.413,82,29,16,-3,25,21,320,20,5,75,FEW,10,11,1,12,11,12,15,0,0,0,30.22,1023.4,45,CLR,Mostly Clear,24-Nov-13,16
KFRG 24/Nov/2019 13,885,NYJ2019,24-Nov-19,24-Nov-19,24-Nov-19,1:00,13,NYJ,-3,OAK,37,O,47,2019,Week 12,78523,NYJ,-3,3,NYG,34,3,Y,82550,0,9,61,0,New York,KFRG,KFRG4379313,KFRG,O,24-Nov-19,EST,40.733,-73.417,69,51,40,44,51,33,49,31,39,93,65,84,50,37,42,17,12,336,30,78,7.9,1051,210,1262,0,578,0.55,0,29.68,29.17,29.4,1005.2,987.8,995.6,18,RAIN,Light Rain,KFRG,O,EST,40.733,-73.417,69,42,34,39,89,41,320,16,100,12,OVC,2.5,172,34,206,344,378,491,0,0,0,29.19,988.6,18,RAIN,Light Rain,24-Nov-19,13
KFRG 24/Sep/2015 20,886,NYG2015,24-Sep-15,24-Sep-15,24-Sep-15,8:25,20,NYG,-3,WAS,53,O,45,2015,Week 3,76081,NYG,-3,3,CIN,32,21,Y,82550,0,5,66,0,New York,KFRG,KFRG4227120,KFRG,O,24-Sep-15,EST,40.729,-73.413,82,80,57,68,80,57,59,52,55,84,39,66,65,55,60,14,7,52,14,3,10,4818,484,5302,702,723,0,0,30.35,30.22,30.28,1027.6,1023.3,1025.5,46,CLR,Fair,KFRG,O,EST,40.729,-73.413,82,68,68,58,70,62,80,5,1,301,SCT,10,0,0,0,0,0,0,0,0,0,30.32,1026.6,54,CLR,Few High Clouds,24-Sep-15,20
KFRG 24/Sep/2017 13,887,NYJ2017,24-Sep-17,24-Sep-17,24-Sep-17,1:00,13,MIA,-5.5,NYJ,26,U,43,2017,Week 3,77562,NYJ,5.5,-5.5,MIA,20,6,Y,82550,0,7,51,0,New York,KFRG,KFRG4300213,KFRG,O,24-Sep-17,EST,40.729,-73.413,82,88,63,74,90,63,66,60,63,93,46,70,72,61,67,10,4,61,10,0,10,4846,484,5330,723,723,0,0,30.08,30.03,30.05,1018.4,1016.7,1017.5,46,CLR,Fair,KFRG,O,EST,40.729,-73.413,82,87,90,65,48,72,30,5,0,201,CLR,10,665,66,731,665,731,950,0,0,0,30.05,1017.5,46,CLR,Fair,24-Sep-17,13
KFRG 25/Nov/2018 13,888,NYJ2018,25-Nov-18,25-Nov-18,25-Nov-18,1:00,13,NE,-12.5,NYJ,40,U,46.5,2018,Week 12,77982,NYJ,12.5,-12.5,NE,13,27,Y,82550,0,8,88,0,New York,KFRG,KFRG4342913,KFRG,O,25-Nov-18,EST,40.733,-73.417,69,55,42,49,54,40,48,36,41,93,59,76,49,43,46,25,10,358,47,69,9.6,1761,208,1968,324,576,0.36,0,29.95,29.53,29.8,1014.2,999.8,1009.2,40,MC,Overcast,KFRG,O,EST,40.733,-73.417,69,53,50,42,66,48,330,10,70,28,SCT,10,222,34,256,342,376,488,0,0,0,29.82,1009.8,42,MC,Mostly Cloudy,25-Nov-18,13
KFRG 25/Oct/2015 16,889,NYG2015,25-Oct-15,25-Oct-15,25-Oct-15,4:25,16,NYG,-3,DAL,47,O,44.5,2015,Week 7,80319,NYG,-3,3,TEN,27,20,Y,82550,0,5,59,0,New York,KFRG,KFRG4230216,KFRG,O,25-Oct-15,EST,40.729,-73.413,82,66,51,59,66,49,55,36,48,87,50,68,58,46,54,15,11,278,25,60,9.1,1837,320,2157,170,641,0.02,0,30.26,30.04,30.12,1024.7,1017.2,1019.8,40,MC,Overcast,KFRG,O,EST,40.729,-73.413,82,66,66,51,59,58,330,9,36,301,BKN,10,57,7,64,69,76,99,0,0,0,30.05,1017.6,52,PC,High Clouds,25-Oct-15,16
KFRG 25/Sep/2016 13,890,NYG2016,25-Sep-16,25-Sep-16,25-Sep-16,1:00,13,NYG,-3.5,WAS,56,O,47,2016,Week 3,78368,NYG,-3.5,3.5,DAL,27,29,N,82550,0,6,67,0,New York,KFRG,KFRG4263813,KFRG,O,25-Sep-16,EST,40.729,-73.413,82,69,52,60,69,51,42,32,38,66,25,46,51,47,49,14,7,346,17,0,10,4734,472,5206,720,720,0,0,30.2,30.12,30.17,1022.5,1019.8,1021.5,46,CLR,Fair,KFRG,O,EST,40.729,-73.413,82,67,67,33,29,51,20,12,0,201,CLR,10,653,65,718,653,718,933,0,0,0,30.16,1021.2,46,CLR,Fair,25-Sep-16,13
KFRG 26/Nov/2017 13,891,NYJ2017,26-Nov-17,26-Nov-17,26-Nov-17,1:00,13,CAR,-6,NYJ,62,O,39.5,2017,Week 12,77562,NYJ,6,-6,CAR,27,35,Y,82550,0,7,53,0,New York,KFRG,KFRG4306513,KFRG,O,26-Nov-17,EST,40.729,-73.413,82,51,35,44,51,31,36,24,28,70,41,54,44,31,38,25,9,301,37,41,10,1861,205,2066,373,574,0,0,29.99,29.74,29.91,1015.5,1007.1,1012.8,46,CLR,Fair,KFRG,O,EST,40.729,-73.413,82,48,42,25,41,39,320,16,0,201,CLR,10,339,34,373,339,373,484,0,0,0,29.92,1013.3,46,CLR,Fair,26-Nov-17,13
KFRG 26/Oct/2014 13,892,NYJ2014,26-Oct-14,26-Oct-14,26-Oct-14,1:00,13,NYJ,-3,BUF,66,O,40.5,2014,Week 8,78160,NYJ,-3,3,NYJ,23,43,Y,82550,0,4,61,0,New York,KFRG,KFRG4193813,KFRG,O,26-Oct-14,EST,40.729,-73.413,82,63,53,57,62,50,48,35,38,72,38,50,53,46,49,18,11,306,29,34,10,2373,314,2686,374,639,0,0,29.83,29.53,29.67,1010.2,1000.1,1004.6,46,CLR,Fair,KFRG,O,EST,40.729,-73.413,82,61,59,35,38,49,320,15,70,60,BKN,10,306,47,352,470,517,672,0,0,0,29.62,1002.9,42,MC,Mostly Cloudy,26-Oct-14,13
KFRG 27/Dec/2015 13,893,NYJ2015,27-Dec-15,27-Dec-15,27-Dec-15,1:00,13,NE,-2.5,NYJ,46,O,45.5,2015,Week 16,78160,NYJ,2.5,-2.5,DAL,26,20,Y,82550,0,5,56,0,New York,KFRG,KFRG4236513,KFRG,O,27-Dec-15,EST,40.729,-73.413,82,62,48,55,62,47,58,36,51,96,74,88,60,47,53,21,11,276,29,100,6.6,898,179,1078,0,556,0.05,0,30.24,29.79,29.97,1024,1008.8,1014.8,40,MC,Overcast,KFRG,O,EST,40.729,-73.413,82,58,54,55,90,56,250,18,100,6,OVC,10,159,32,191,318,350,454,0,0,0,29.85,1010.7,40,MC,Overcast,27-Dec-15,13
KFRG 27/Nov/2016 16,894,NYJ2016,27-Nov-16,27-Nov-16,27-Nov-16,4:25,16,NE,-9.5,NYJ,39,U,48.5,2016,Week 12,78160,NYJ,9.5,-9.5,GB,17,22,N,82550,0,6,48,0,New York,KFRG,KFRG4270116,KFRG,O,27-Nov-16,EST,40.729,-73.413,82,51,34,42,50,33,34,26,30,89,43,65,41,33,37,16,7,319,23,23,10,1809,202,2011,367,573,0,0,30.13,30.05,30.09,1020.2,1017.5,1018.9,46,CLR,Fair,KFRG,O,EST,40.729,-73.413,82,47,43,28,48,39,310,9,10,301,SCT,10,9,1,10,9,10,13,0,0,0,30.07,1018.4,54,CLR,Few High Clouds,27-Nov-16,16
KFRG 27/Sep/2015 13,895,NYJ2015,27-Sep-15,27-Sep-15,27-Sep-15,1:00,13,NYJ,-3,PHI,41,U,47,2015,Week 3,78160,NYJ,-3,3,SEA,17,24,Y,82550,0,5,70,0,New York,KFRG,KFRG4227413,KFRG,O,27-Sep-15,EST,40.729,-73.413,82,71,53,62,71,51,58,48,54,90,59,75,63,51,57,10,7,54,10,33,10,3053,468,3520,299,715,0,0,30.47,30.31,30.4,1031.8,1026.2,1029.4,54,CLR,Few High Clouds,KFRG,O,EST,40.729,-73.413,82,68,68,56,66,61,30,10,100,41,OVC,10,324,65,388,647,712,924,0,0,0,30.4,1029.3,40,MC,Overcast,27-Sep-15,13
KFRG 28/Dec/2014 13,896,NYG2014,28-Dec-14,28-Dec-14,28-Dec-14,1:00,13,NYG,-1,PHI,60,O,52,2014,Week 17,79150,NYG,-1,1,GB,26,34,Y,82550,0,4,51,0,New York,KFRG,KFRG4200113,KFRG,O,28-Dec-14,EST,40.729,-73.413,82,53,42,47,53,38,43,30,39,90,56,74,48,39,44,14,8,273,17,83,9.8,1079,181,1259,65,557,0.06,0,30.06,29.88,29.95,1018,1011.8,1014.3,45,CLR,Mostly Clear,KFRG,O,EST,40.729,-73.413,82,52,49,43,72,48,270,9,100,85,OVC,10,160,32,192,319,351,455,0,0,0,29.88,1011.8,40,MC,Overcast,28-Dec-14,13
KFRG 28/Oct/2018 13,897,NYG2018,28-Oct-18,28-Oct-18,28-Oct-18,1:00,13,WAS,-1,NYG,33,U,44,2018,Week 8,77537,NYG,1,-1,WAS,13,20,Y,82550,0,8,31,0,New York,KFRG,KFRG4340113,KFRG,O,28-Oct-18,EST,40.733,-73.417,69,54,46,50,53,41,48,41,44,97,66,82,49,45,47,15,8,253,20,99,9.8,1576,305,1882,21,634,0,0,29.82,29.63,29.76,1009.7,1003.7,1007.8,40,MC,Overcast,KFRG,O,EST,40.733,-73.417,69,52,47,41,66,47,260,15,100,28,OVC,10,230,46,276,459,505,655,0,0,0,29.77,1008.2,40,MC,Overcast,28-Oct-18,13
KFRG 28/Sep/2014 13,898,NYJ2014,28-Sep-14,28-Sep-14,28-Sep-14,1:00,13,NYJ,-1.5,DET,41,U,44,2014,Week 4,78160,NYJ,-1.5,1.5,BAL,17,24,Y,82550,0,4,85,0,New York,KFRG,KFRG4191013,KFRG,O,28-Sep-14,EST,40.729,-73.413,82,78,60,69,79,60,63,56,60,90,56,74,68,58,64,12,5,209,12,17,9.9,4255,463,4718,617,712,0,0,30.18,30.01,30.11,1021.9,1016.3,1019.5,46,CLR,Fair,KFRG,O,EST,40.729,-73.413,82,76,78,62,62,67,210,12,34,301,BKN,10,531,64,595,640,704,915,0,0,0,30.1,1019.4,46,CLR,Fair,28-Sep-14,13
KFRG 29/Dec/2013 13,899,NYG2013,29-Dec-13,29-Dec-13,29-Dec-13,1:00,13,NYG,-3.5,WAS,26,U,44.5,2013,Week 17,80177,NYG,-3.5,3.5,NE,20,6,Y,82550,0,3,42,0,New York,KFRG,KFRG4163713,KFRG,O,29-Dec-13,EST,40.729,-73.413,82,51,37,42,50,34,50,28,38,100,58,83,50,35,40,18,7,233,25,87,7.9,909,181,1087,3,558,1.13,0,30.07,29.38,29.79,1018.3,994.9,1008.9,46,CLR,Fair,KFRG,O,EST,40.729,-73.413,82,41,37,40,96,40,90,6,100,38,OVC,5,160,32,192,320,352,458,99,0.08,0,29.83,1010.3,18,RAIN,Light Rain,29-Dec-13,13
KFRG 29/Nov/2015 13,900,NYJ2015,29-Nov-15,29-Nov-15,29-Nov-15,1:00,13,NYJ,-4.5,MIA,58,O,43.5,2015,Week 12,78160,NYJ,-4.5,4.5,MIA,38,20,Y,82550,0,5,48,0,New York,KFRG,KFRG4233713,KFRG,O,29-Nov-15,EST,40.729,-73.413,82,49,38,42,49,31,36,20,28,74,33,58,42,33,37,14,9,11,14,44,10,1459,199,1658,285,570,0,0,30.39,30.2,30.25,1029,1022.5,1024.4,46,CLR,Fair,KFRG,O,EST,40.729,-73.413,82,47,43,26,44,38,360,9,45,190,CLR,10,257,33,290,331,364,473,0,0,0,30.21,1023.1,46,CLR,Fair,29-Nov-15,13
KFRG 29/Oct/2017 13,901,NYJ2017,29-Oct-17,29-Oct-17,29-Oct-17,1:00,13,ATL,-6.5,NYJ,45,O,44,2017,Week 8,77562,NYJ,6.5,-6.5,TB,20,25,N,82550,0,7,89,0,New York,KFRG,KFRG4303713,KFRG,O,29-Oct-17,EST,40.729,-73.413,82,68,61,64,67,60,65,58,62,97,84,93,66,60,63,30,16,141,45,95,3.9,1505,303,1812,0,632,2.42,0,29.89,28.97,29.55,1012.1,981,1000.6,19,RAIN,Moderate Rain,KFRG,O,EST,40.729,-73.413,82,64,62,63,96,63,140,18,100,14,OVC,1.8,226,45,272,453,498,648,99,0.11,0,29.62,1002.9,19,RAIN,Moderate Rain,29-Oct-17,13
KFRG 29/Sep/2019 13,902,NYG2019,29-Sep-19,29-Sep-19,29-Sep-19,1:00,13,NYG,-3,WAS,27,U,48,2019,Week 4,74149,NYG,-3,3,WAS,24,3,Y,82550,0,9,27,0,New York,KFRG,KFRG4373713,KFRG,O,29-Sep-19,EST,40.733,-73.417,69,78,63,71,78,63,68,50,57,94,40,65,70,56,64,20,9,16,30,3,10,4495,455,4950,681,709,0,0,30.29,30.08,30.21,1025.7,1018.5,1023,46,CLR,Fair,KFRG,O,EST,40.733,-73.417,69,77,78,54,45,63,360,9,0,317,CLR,10,634,63,697,634,697,905,0,0,0,30.23,1023.5,46,CLR,Fair,29-Sep-19,13
KFRG 30/Dec/2018 13,903,NYG2018,30-Dec-18,30-Dec-18,30-Dec-18,1:00,13,NYG,-7,DAL,71,O,38.5,2018,Week 17,77750,NYG,-7,7,DAL,35,36,N,82550,0,8,24,0,New York,KFRG,KFRG4346413,KFRG,O,30-Dec-18,EST,40.733,-73.417,69,37,30,34,37,23,29,22,26,89,59,72,33,29,31,13,6,78,13,75,9.9,915,181,1096,48,558,0,0,30.29,30.16,30.23,1025.8,1021.5,1023.7,40,MC,Overcast,KFRG,O,EST,40.733,-73.417,69,33,33,26,75,31,0,0,100,38,OVC,10,161,32,193,322,354,460,0,0,0,30.2,1022.6,40,MC,Overcast,30-Dec-18,13
KFRG 30/Sep/2018 16,904,NYG2018,30-Sep-18,30-Sep-18,30-Sep-18,4:25,16,NO,-3,NYG,51,U,52,2018,Week 4,78213,NYG,3,-3,NO,18,33,Y,82550,0,8,25,0,New York,KFRG,KFRG4337316,KFRG,O,30-Sep-18,EST,40.733,-73.417,69,69,52,62,69,50,57,48,52,93,49,73,60,50,56,12,6,131,12,0,10,4499,453,4952,705,707,0,0,30.37,30.27,30.32,1028.3,1024.9,1026.6,46,CLR,Fair,KFRG,O,EST,40.733,-73.417,69,66,66,52,61,58,190,7,0,275,CLR,10,187,19,206,187,206,268,0,0,0,30.31,1026.3,46,CLR,Fair,30-Sep-18,16
KFRG 31/Dec/2017 13,905,NYG2017,31-Dec-17,31-Dec-17,31-Dec-17,1:00,13,WAS,-5,NYG,28,U,41,2017,Week 17,76269,NYG,5,-5,WAS,18,10,Y,82550,0,7,28,0,New York,KFRG,KFRG4310013,KFRG,O,31-Dec-17,EST,40.729,-73.413,82,20,9,15,20,-2,9,-4,0,78,42,53,18,7,12,18,11,322,26,17,10,1459,181,1640,323,558,0,0,30.31,30.04,30.22,1026.4,1017.4,1023.3,46,CLR,Fair,KFRG,O,EST,40.729,-73.413,82,16,4,-2,45,12,320,10,100,201,OVC,10,162,32,194,323,355,462,0,0,0,30.21,1023.1,40,MC,Overcast,31-Dec-17,13
KFXE 01/Dec/2019 13,906,MIA2019,1-Dec-19,1-Dec-19,1-Dec-19,1:00,13,PHI,-4,MIA,68,O,59,2019,Week 13,65545,MIA,4,-4,PHI,37,31,Y,64767,0,32,61,0,Florida,KFXE,KFXE4380013,KFXE,O,1-Dec-19,EST,26.2,-80.183,20,84,63,73,85,64,67,62,64,93,55,75,71,63,67,15,5,216,20,12,10,3489,374,3864,554,637,0,0,30.04,29.92,29.98,1017.5,1013.4,1015.3,44,PC,Partly Cloudy,KFXE,O,EST,26.2,-80.183,20,82,84,64,55,70,180,9,5,40,FEW,10,580,60,640,595,655,851,0,0,0,29.95,1014.3,45,CLR,Mostly Clear,1-Dec-19,13
KFXE 01/Jan/2017 13,907,MIA2016,1-Jan-17,1-Jan-17,1-Jan-17,1:00,13,NE,-8,MIA,49,O,47,2016,Week 17,66163,MIA,8,-8,WAS,14,35,Y,64767,0,29,45,0,Florida,KFXE,KFXE4273613,KFXE,O,1-Jan-17,EST,26.197,-80.171,13,82,71,76,84,71,68,59,64,74,59,66,71,64,68,17,12,120,23,53,10,2616,362,2979,342,633,0,0,30.2,30.14,30.17,1022.8,1020.6,1021.6,44,PC,Partly Cloudy,KFXE,O,EST,26.197,-80.171,13,81,84,66,61,71,120,17,90,30,BKN,10,326,59,385,592,651,846,0,0,0,30.17,1021.7,44,PC,Partly Cloudy,1-Jan-17,13
KFXE 02/Dec/2018 13,908,MIA2018,2-Dec-18,2-Dec-18,2-Dec-18,1:00,13,MIA,-3.5,BUF,38,U,40,2018,Week 13,65155,MIA,-3.5,3.5,BUF,21,17,Y,64767,0,31,83,0,Florida,KFXE,KFXE4343613,KFXE,O,2-Dec-18,EST,26.2,-80.183,20,88,74,80,96,74,77,71,74,100,65,82,78,72,76,14,8,162,22,46,9.9,2389,372,2760,257,636,0,0,30.03,29.96,29.99,1017,1014.6,1015.7,46,CLR,Fair,KFXE,O,EST,26.2,-80.183,20,87,96,74,65,78,160,10,90,36,BKN,10,327,59,386,594,653,848,0,0,0,29.98,1015.5,42,MC,Mostly Cloudy,2-Dec-18,13
KFXE 02/Nov/2014 13,909,MIA2014,2-Nov-14,2-Nov-14,2-Nov-14,1:00,13,MIA,-2.5,LAC,37,U,45,2014,Week 9,70222,MIA,-2.5,2.5,BAL,37,0,Y,75540,0,27,69,0,Florida,KFXE,KFXE4194513,KFXE,O,2-Nov-14,EST,26.197,-80.171,13,71,51,60,71,49,49,33,40,67,28,49,55,45,50,12,8,333,18,13,10,4544,457,5001,659,667,0,0,30.26,30.17,30.21,1024.7,1021.6,1023.1,46,CLR,Fair,KFXE,O,EST,26.197,-80.171,13,68,68,34,28,51,340,9,0,201,CLR,10,690,69,759,690,759,985,0,0,0,30.2,1022.7,46,CLR,Fair,2-Nov-14,13
KFXE 03/Dec/2017 13,910,MIA2017,3-Dec-17,3-Dec-17,3-Dec-17,1:00,13,DEN,-1.5,MIA,44,O,41,2017,Week 13,65092,MIA,1.5,-1.5,DEN,35,9,Y,64767,0,30,27,0,Florida,KFXE,KFXE4307213,KFXE,O,3-Dec-17,EST,26.197,-80.171,13,81,65,72,82,65,67,62,65,100,56,79,70,65,67,13,5,36,13,13,10,3392,371,3762,538,635,0,0,30.13,30.05,30.09,1020.4,1017.9,1019.2,46,CLR,Fair,KFXE,O,EST,26.197,-80.171,13,78,80,62,58,68,70,9,5,37,FEW,10,577,59,636,592,651,846,0,0,0,30.08,1018.7,46,CLR,Fair,3-Dec-17,13
KFXE 03/Jan/2016 13,911,MIA2015,3-Jan-16,3-Jan-16,3-Jan-16,1:00,13,NE,-10,MIA,30,U,46.5,2015,Week 17,62918,MIA,10,-10,CAR,20,10,N,64767,0,28,75,0,Florida,KFXE,KFXE4237213,KFXE,O,3-Jan-16,EST,26.197,-80.171,13,79,63,70,82,63,70,61,65,96,67,85,71,63,67,14,7,335,23,72,9.4,3055,365,3420,345,633,0.67,0,30.02,29.88,29.95,1016.6,1011.8,1014.3,44,PC,Partly Cloudy,KFXE,O,EST,26.197,-80.171,13,78,81,66,67,70,0,0,20,30,SCT,10,536,60,596,596,656,851,0,0,0,29.93,1013.6,44,PC,Partly Cloudy,3-Jan-16,13
KFXE 03/Nov/2019 13,912,MIA2019,3-Nov-19,3-Nov-19,3-Nov-19,1:00,13,MIA,PK,NYJ,44,O,39,2019,Week 9,59229,MIA,PK,PK,BUF,26,18,PK,64767,0,32,86,0,Florida,KFXE,KFXE4377213,KFXE,O,3-Nov-19,EST,26.2,-80.183,20,83,72,77,87,72,74,70,72,97,72,85,75,71,73,14,8,11,23,84,8.5,2423,453,2876,48,666,0.35,0,30.03,29.95,30,1017.1,1014.5,1016,18,RAIN,Light Rain,KFXE,O,EST,26.2,-80.183,20,82,87,72,72,75,350,10,100,90,OVC,10,342,68,410,685,753,978,0,0,0,29.99,1015.7,40,MC,Overcast,3-Nov-19,13
KFXE 04/Nov/2018 13,913,MIA2018,4-Nov-18,4-Nov-18,4-Nov-18,1:00,13,MIA,-3,NYJ,19,U,43,2018,Week 9,65533,MIA,-3,3,NYJ,13,6,Y,64767,0,31,71,0,Florida,KFXE,KFXE4340813,KFXE,O,4-Nov-18,EST,26.2,-80.183,20,87,75,81,94,75,77,69,74,100,67,82,78,74,77,16,10,115,22,37,9.8,3682,449,4130,445,664,0.23,0,30.13,30.04,30.09,1020.5,1017.6,1019.1,44,PC,Partly Cloudy,KFXE,O,EST,26.2,-80.183,20,86,94,74,67,78,150,13,40,29,SCT,10,545,68,613,681,749,972,0,0,0,30.09,1019.2,44,PC,Partly Cloudy,4-Nov-18,13
KFXE 05/Nov/2017 20,914,MIA2017,5-Nov-17,5-Nov-17,5-Nov-17,8:30,20,OAK,-3,MIA,51,O,44.5,2017,Week 9,65139,MIA,3,-3,CAR,24,27,N,64767,0,30,45,0,Florida,KFXE,KFXE4304420,KFXE,O,5-Nov-17,EST,26.197,-80.171,13,85,69,75,89,69,74,69,71,100,63,88,75,69,72,12,6,10,12,22,9.9,3781,448,4229,465,663,0,0,30.03,29.95,29.99,1017,1014.6,1015.8,44,PC,Partly Cloudy,KFXE,O,EST,26.197,-80.171,13,75,80,73,94,74,280,3,40,42,SCT,10,0,0,0,0,0,0,0,0,0,30.01,1016.5,44,PC,Partly Cloudy,5-Nov-17,20
KFXE 06/Dec/2015 13,915,MIA2015,6-Dec-15,6-Dec-15,6-Dec-15,1:00,13,MIA,-3.5,BAL,28,U,43,2015,Week 13,64519,MIA,-3.5,3.5,ATL,15,13,N,64767,0,28,78,0,Florida,KFXE,KFXE4234413,KFXE,O,6-Dec-15,EST,26.197,-80.171,13,80,73,77,84,74,72,67,70,91,71,80,74,70,72,18,14,59,30,69,9.7,2427,367,2794,147,634,0.04,0,30.21,30.1,30.16,1023.1,1019.3,1021.2,45,CLR,Mostly Clear,KFXE,O,EST,26.197,-80.171,13,79,83,70,74,73,50,17,100,26,BKN,10,326,59,385,588,647,840,0,0,0,30.15,1021,44,PC,Partly Cloudy,6-Dec-15,13
KFXE 06/Nov/2016 13,916,MIA2016,6-Nov-16,6-Nov-16,6-Nov-16,1:00,13,MIA,-4,NYJ,50,O,45,2016,Week 9,65722,MIA,-4,4,LAR,27,23,N,64767,0,29,79,0,Florida,KFXE,KFXE4268013,KFXE,O,6-Nov-16,EST,26.197,-80.171,13,82,67,75,83,67,66,58,62,84,54,65,69,63,67,16,11,58,23,53,10,3186,439,3626,204,662,0.01,0,30.14,30.06,30.1,1020.4,1018,1019.2,44,PC,Partly Cloudy,KFXE,O,EST,26.197,-80.171,13,79,81,64,60,69,70,14,51,35,SCT,10,534,67,601,668,735,955,0,0,0,30.09,1018.9,44,PC,Partly Cloudy,6-Nov-16,13
KFXE 06/Oct/2013 13,917,MIA2013,6-Oct-13,6-Oct-13,6-Oct-13,1:00,13,MIA,-2.5,BAL,49,O,43,2013,Week 5,68342,MIA,-2.5,2.5,NE,23,26,Y,75540,0,26,87,0,Florida,KFXE,KFXE4155313,KFXE,O,6-Oct-13,EST,26.197,-80.171,13,89,75,82,94,75,74,66,70,96,48,69,76,72,74,10,4,123,10,18,10,4975,566,5540,546,705,0.02,0,29.97,29.88,29.92,1014.9,1012,1013.4,45,CLR,Mostly Clear,KFXE,O,EST,26.197,-80.171,13,88,94,70,55,76,150,8,20,50,SCT,10,735,82,817,817,899,1167,0,0,0,29.92,1013.2,44,PC,Partly Cloudy,6-Oct-13,13
KFXE 07/Dec/2014 13,918,MIA2014,7-Dec-14,7-Dec-14,7-Dec-14,1:00,13,MIA,-3,BAL,41,U,45,2014,Week 14,70244,MIA,-3,3,SEA,13,28,Y,75540,0,27,77,0,Florida,KFXE,KFXE4198013,KFXE,O,7-Dec-14,EST,26.197,-80.171,13,78,65,69,80,65,66,60,64,93,66,82,69,62,66,10,5,322,17,9,10,3238,367,3605,516,633,0,0,30.1,30,30.05,1019.3,1016,1017.7,46,CLR,Fair,KFXE,O,EST,26.197,-80.171,13,75,78,66,74,69,320,10,40,26,SCT,10,470,59,529,587,646,838,0,0,0,30.04,1017.2,44,PC,Partly Cloudy,7-Dec-14,13
KFXE 07/Sep/2014 13,919,MIA2014,7-Sep-14,7-Sep-14,7-Sep-14,1:00,13,NE,-4,MIA,53,O,47.5,2014,Week 1,70630,MIA,4,-4,DET,33,20,Y,75540,0,27,89,0,Florida,KFXE,KFXE4188913,KFXE,O,7-Sep-14,EST,26.197,-80.171,13,90,79,84,100,79,78,73,76,97,61,78,80,76,78,17,7,117,23,54,10,5437,683,6120,364,750,0,0,30.03,29.96,29.99,1017.3,1014.7,1015.9,52,PC,High Clouds,KFXE,O,EST,26.197,-80.171,13,88,98,75,66,79,110,12,51,150,SCT,10,849,94,943,938,1032,1340,0,0,0,30,1016.1,52,PC,High Clouds,7-Sep-14,13
KFXE 08/Oct/2017 13,920,MIA2017,8-Oct-17,8-Oct-17,8-Oct-17,1:00,13,MIA,-1,TEN,26,U,41.5,2017,Week 5,65135,MIA,-1,1,TEN,16,10,Y,64767,0,30,65,0,Florida,KFXE,KFXE4301613,KFXE,O,8-Oct-17,EST,26.197,-80.171,13,89,79,83,101,79,79,75,77,94,70,82,81,77,79,14,8,128,14,28,10,4785,561,5346,478,702,0,0,29.98,29.91,29.95,1015.4,1012.9,1014.4,44,PC,Partly Cloudy,KFXE,O,EST,26.197,-80.171,13,88,101,78,73,81,130,14,20,23,SCT,10,726,81,807,807,888,1153,0,0,0,29.95,1014.3,44,PC,Partly Cloudy,8-Oct-17,13
KFXE 08/Sep/2019 13,921,MIA2019,8-Sep-19,8-Sep-19,8-Sep-19,1:03,13,BAL,-7,MIA,69,O,40.5,2019,Week 1,65012,MIA,7,-7,BAL,10,59,Y,64767,0,32,33,0,Florida,KFXE,KFXE4371613,KFXE,O,8-Sep-19,EST,26.2,-80.183,20,92,79,85,103,80,77,69,74,88,54,71,80,75,78,13,7,139,21,28,10,6316,677,6993,615,748,0,0,30.07,29.97,30.02,1018.4,1015,1016.6,46,CLR,Fair,KFXE,O,EST,26.2,-80.183,20,91,101,74,57,79,150,10,5,36,FEW,10,912,93,1005,935,1028,1335,0,0,0,30.02,1016.7,45,CLR,Mostly Clear,8-Sep-19,13
KFXE 09/Dec/2018 13,922,MIA2018,9-Dec-18,9-Dec-18,9-Dec-18,1:00,13,NE,-9,MIA,67,O,49.5,2018,Week 14,66087,MIA,9,-9,NE,34,33,N,64767,0,31,50,0,Florida,KFXE,KFXE4344313,KFXE,O,9-Dec-18,EST,26.2,-80.183,20,84,71,76,90,71,76,69,72,100,67,87,77,70,74,18,11,210,29,45,9.6,2444,361,2805,368,632,0.12,0,30.09,29.93,29.99,1019.1,1013.8,1015.6,44,PC,Partly Cloudy,KFXE,O,EST,26.2,-80.183,20,83,90,74,74,77,230,18,90,32,BKN,10,321,58,379,584,642,835,0,0,0,29.95,1014.5,42,MC,Mostly Cloudy,9-Dec-18,13
KFXE 09/Oct/2016 13,923,MIA2016,9-Oct-16,9-Oct-16,9-Oct-16,1:00,13,MIA,-2.5,TEN,47,O,44,2016,Week 5,64425,MIA,-2.5,2.5,CHI,17,30,Y,64767,0,29,87,0,Florida,KFXE,KFXE4265213,KFXE,O,9-Oct-16,EST,26.197,-80.171,13,88,75,81,92,76,73,62,68,85,51,67,76,69,72,16,9,350,25,25,10,4697,552,5249,521,701,0,0,30.04,29.88,29.96,1017.4,1011.8,1014.6,45,CLR,Mostly Clear,KFXE,O,EST,26.197,-80.171,13,87,91,67,51,74,50,15,5,40,FEW,10,778,80,858,798,878,1139,0,0,0,29.96,1014.5,45,CLR,Mostly Clear,9-Oct-16,13
KFXE 09/Sep/2018 13,924,MIA2018,9-Sep-18,9-Sep-18,9-Sep-18,1:00,13,MIA, PK,TEN,47,O,43.5,2018,Week 1,65184,MIA, PK,PK,TEN,27,20,PK,64767,0,31,35,0,Florida,KFXE,KFXE4335213,KFXE,O,9-Sep-18,EST,26.2,-80.183,20,91,75,80,98,76,78,73,76,100,59,86,80,75,77,12,4,194,18,40,9.9,5891,676,6567,532,747,0.63,0,29.97,29.89,29.92,1015,1012.3,1013.6,46,CLR,Fair,KFXE,O,EST,26.2,-80.183,20,87,98,77,72,80,160,7,40,70,SCT,10,745,93,838,931,1024,1330,0,0,0,29.92,1013.3,44,PC,Partly Cloudy,9-Sep-18,13
KFXE 11/Dec/2016 13,925,MIA2016,11-Dec-16,11-Dec-16,11-Dec-16,1:00,13,ARI,-2,MIA,49,O,44,2016,Week 14,65750,MIA,2,-2,BAL,26,23,Y,64767,0,29,75,0,Florida,KFXE,KFXE4271513,KFXE,O,11-Dec-16,EST,26.197,-80.171,13,78,71,74,80,71,70,63,67,94,69,79,72,66,69,21,16,82,30,89,8.9,1869,361,2230,48,632,1.26,0,30.23,30.12,30.17,1023.6,1020.2,1021.7,44,PC,Partly Cloudy,KFXE,O,EST,26.197,-80.171,13,77,80,67,71,70,90,20,100,28,OVC,10,290,58,348,581,639,831,0,0,0,30.17,1021.6,44,PC,Partly Cloudy,11-Dec-16,13
KFXE 11/Dec/2017 20,926,MIA2017,11-Dec-17,11-Dec-17,11-Dec-17,8:30,20,NE,-10.5,MIA,47,U,48,2017,Week 14,65548,MIA,10.5,-10.5,NE,27,20,N,64767,0,30,85,0,Florida,KFXE,KFXE4308020,KFXE,O,11-Dec-17,EST,26.197,-80.171,13,68,48,56,67,46,46,27,37,80,25,53,51,44,47,9,5,331,9,5,10,3508,361,3869,608,632,0,0,30.29,30.15,30.21,1025.8,1021.1,1023.3,46,CLR,Fair,KFXE,O,EST,26.197,-80.171,13,55,54,42,62,49,310,5,0,347,CLR,10,0,0,0,0,0,0,0,0,0,30.18,1022.1,46,CLR,Fair,11-Dec-17,20
KFXE 12/Oct/2014 13,927,MIA2014,12-Oct-14,12-Oct-14,12-Oct-14,1:00,13,GB,-2,MIA,51,O,47,2014,Week 6,70875,MIA,2,-2,PIT,24,27,Y,75540,0,27,88,0,Florida,KFXE,KFXE4192413,KFXE,O,12-Oct-14,EST,26.197,-80.171,13,88,77,82,92,77,72,69,71,82,61,69,76,72,74,17,12,85,17,28,10,4455,543,4999,441,697,0,0,30.07,29.98,30.02,1018.2,1015.4,1016.7,44,PC,Partly Cloudy,KFXE,O,EST,26.197,-80.171,13,86,92,71,61,76,90,12,40,31,SCT,10,630,79,709,787,866,1125,0,0,0,30.03,1017,44,PC,Partly Cloudy,12-Oct-14,13
KFXE 13/Nov/2014 20,928,MIA2014,13-Nov-14,13-Nov-14,13-Nov-14,8:25,20,MIA,-4,BUF,31,U,41,2014,Week 11,71573,MIA,-4,4,TB,22,9,Y,75540,0,27,71,0,Florida,KFXE,KFXE4195620,KFXE,O,13-Nov-14,EST,26.197,-80.171,13,83,65,73,83,66,65,63,64,91,54,74,70,64,67,12,4,28,12,7,10,3864,420,4284,559,654,0,0,30.04,29.95,30,1017.4,1014.2,1015.8,46,CLR,Fair,KFXE,O,EST,26.197,-80.171,13,73,77,64,74,67,200,3,5,80,FEW,10,0,0,0,0,0,0,0,0,0,30.01,1016.1,45,CLR,Mostly Clear,13-Nov-14,20
KFXE 13/Oct/2019 13,929,MIA2019,13-Oct-19,13-Oct-19,13-Oct-19,1:00,13,MIA,-1,WAS,33,O,38,2019,Week 6,59808,MIA,-1,1,TB,16,17,N,64767,0,32,77,0,Florida,KFXE,KFXE4375113,KFXE,O,13-Oct-19,EST,26.2,-80.183,20,86,76,80,93,77,74,67,71,90,63,75,77,71,74,16,10,94,16,67,9.6,3143,538,3683,105,695,0.34,0,30.03,29.95,30,1017.2,1014.6,1016,42,MC,Mostly Cloudy,KFXE,O,EST,26.2,-80.183,20,84,89,71,65,75,120,9,90,48,BKN,10,431,78,509,783,861,1118,0,0,0,30,1016.1,42,MC,Mostly Cloudy,13-Oct-19,13
KFXE 14/Dec/2015 20,930,MIA2015,14-Dec-15,14-Dec-15,14-Dec-15,8:30,20,NYG,-2,MIA,55,O,48,2015,Week 14,65408,MIA,2,-2,WAS,24,31,Y,64767,0,28,75,0,Florida,KFXE,KFXE4235220,KFXE,O,14-Dec-15,EST,26.197,-80.171,13,83,73,77,87,75,72,70,71,88,65,80,74,72,73,15,7,145,21,28,10,2829,358,3187,314,631,0.01,0,29.99,29.91,29.94,1015.6,1012.8,1014,45,CLR,Mostly Clear,KFXE,O,EST,26.197,-80.171,13,76,80,70,82,72,130,3,5,181,CLR,10,0,0,0,0,0,0,0,0,0,29.94,1013.8,46,CLR,Fair,14-Dec-15,20
KFXE 14/Oct/2018 13,931,MIA2018,14-Oct-18,14-Oct-18,14-Oct-18,1:00,13,CHI,-7,MIA,59,O,40.5,2018,Week 6,65791,MIA,7,-7,CHI,31,28,N,64767,0,31,89,0,Florida,KFXE,KFXE4338713,KFXE,O,14-Oct-18,EST,26.2,-80.183,20,90,77,83,100,77,78,73,76,100,63,81,80,76,78,15,7,95,15,29,10,4669,535,5204,528,694,0,0,30.06,29.95,30,1018.1,1014.5,1016.1,44,PC,Partly Cloudy,KFXE,O,EST,26.2,-80.183,20,88,98,75,66,79,80,10,20,29,SCT,10,700,78,778,778,856,1111,0,0,0,29.99,1015.7,44,PC,Partly Cloudy,14-Oct-18,13
KFXE 15/Dec/2013 13,932,MIA2013,15-Dec-13,15-Dec-13,15-Dec-13,1:00,13,MIA,-2.5,NE,44,U,47,2013,Week 15,71863,MIA,-2.5,2.5,DAL,24,20,Y,75540,0,26,85,0,Florida,KFXE,KFXE4162313,KFXE,O,15-Dec-13,EST,26.197,-80.171,13,86,72,77,91,73,75,70,72,97,67,84,77,71,74,16,7,236,22,40,10,2481,357,2838,233,630,0,0,30.07,29.95,30,1018.2,1014.1,1015.9,46,CLR,Fair,KFXE,O,EST,26.197,-80.171,13,84,90,72,67,76,230,14,90,30,BKN,10,320,58,378,581,639,829,0,0,0,29.97,1014.9,44,PC,Partly Cloudy,15-Dec-13,13
KFXE 15/Sep/2019 13,933,MIA2019,15-Sep-19,15-Sep-19,15-Sep-19,1:00,13,NE,-18.5,MIA,43,U,48.5,2019,Week 2,65513,MIA,18.5,-18.5,NE,0,43,Y,64767,0,32,69,0,Florida,KFXE,KFXE4372313,KFXE,O,15-Sep-19,EST,26.2,-80.183,20,93,77,83,103,77,78,72,75,94,52,78,80,76,78,17,8,269,22,32,10,5434,654,6088,511,737,0.06,0,29.94,29.86,29.9,1014,1011.3,1012.9,46,CLR,Fair,KFXE,O,EST,26.2,-80.183,20,91,101,74,57,79,270,17,20,35,SCT,10,818,91,909,909,1000,1299,0,0,0,29.9,1012.8,44,PC,Partly Cloudy,15-Sep-19,13
KFXE 16/Oct/2016 13,934,MIA2016,16-Oct-16,16-Oct-16,16-Oct-16,1:00,13,PIT,-7.5,MIA,45,U,49.5,2016,Week 6,65351,MIA,7.5,-7.5,CLE,30,15,Y,64767,0,29,82,0,Florida,KFXE,KFXE4265913,KFXE,O,16-Oct-16,EST,26.197,-80.171,13,85,73,79,89,73,75,70,72,94,67,80,76,72,74,20,12,71,31,65,9.4,3823,522,4345,230,690,0.97,0,30.01,29.91,29.96,1016.2,1013,1014.7,44,PC,Partly Cloudy,KFXE,O,EST,26.197,-80.171,13,83,89,72,70,75,80,20,100,22,BKN,10,382,76,458,764,840,1091,0,0,0,29.96,1014.5,44,PC,Partly Cloudy,16-Oct-16,13
KFXE 17/Nov/2013 16,935,MIA2013,17-Nov-13,17-Nov-13,17-Nov-13,4:05,16,LAC,-2.5,MIA,36,U,45,2013,Week 11,60256,MIA,2.5,-2.5,ATL,20,16,Y,75540,0,26,81,0,Florida,KFXE,KFXE4159516,KFXE,O,17-Nov-13,EST,26.197,-80.171,13,84,74,79,88,76,72,68,70,82,63,74,75,71,73,15,9,113,22,14,10,3550,406,3956,514,649,0,0,30.09,30.02,30.05,1018.9,1016.5,1017.4,45,CLR,Mostly Clear,KFXE,O,EST,26.197,-80.171,13,82,86,69,65,73,130,9,0,201,CLR,10,193,19,212,193,212,276,0,0,0,30.02,1016.5,46,CLR,Fair,17-Nov-13,16
KFXE 17/Nov/2019 13,936,MIA2019,17-Nov-19,17-Nov-19,17-Nov-19,1:00,13,MIA,-2.5,BUF,57,O,56,2019,Week 11,64187,MIA,-2.5,2.5,BUF,20,37,Y,64767,0,32,43,0,Florida,KFXE,KFXE4378613,KFXE,O,17-Nov-19,EST,26.2,-80.183,20,62,56,59,62,53,55,51,53,87,78,82,59,53,56,12,8,312,18,95,10,2033,406,2439,0,649,0,0,29.92,29.83,29.87,1013.5,1010.4,1011.8,40,MC,Overcast,KFXE,O,EST,26.2,-80.183,20,60,58,54,80,57,320,12,100,13,OVC,10,316,63,379,632,695,903,0,0,0,29.87,1011.5,40,MC,Overcast,17-Nov-19,13
KFXE 19/Nov/2017 13,937,MIA2017,19-Nov-17,19-Nov-17,19-Nov-17,1:00,13,TB,-1.5,MIA,50,O,44,2017,Week 11,65089,MIA,1.5,-1.5,TB,20,30,Y,64767,0,30,65,0,Florida,KFXE,KFXE4305813,KFXE,O,19-Nov-17,EST,26.197,-80.171,13,81,62,72,82,63,68,59,64,100,50,76,69,63,67,12,4,274,12,1,10,4011,400,4411,645,647,0,0,29.98,29.88,29.94,1015.6,1012.1,1014.1,46,CLR,Fair,KFXE,O,EST,26.197,-80.171,13,80,81,61,52,68,240,9,0,201,CLR,10,626,63,689,626,689,894,0,0,0,29.92,1013.4,46,CLR,Fair,19-Nov-17,13
KFXE 20/Oct/2013 13,938,MIA2013,20-Oct-13,20-Oct-13,20-Oct-13,1:00,13,MIA,-6,BUF,44,P,44,2013,Week 7,60592,MIA,-6,6,SEA,21,23,N,75540,0,26,87,0,Florida,KFXE,KFXE4156713,KFXE,O,20-Oct-13,EST,26.197,-80.171,13,88,77,82,96,77,77,71,75,97,59,81,78,75,77,12,5,133,12,63,9.6,3608,510,4119,312,685,0.26,0,29.98,29.89,29.93,1015.1,1012.2,1013.7,45,CLR,Mostly Clear,KFXE,O,EST,26.197,-80.171,13,86,95,75,70,78,100,10,100,30,BKN,10,374,75,450,749,824,1071,0,0,0,29.93,1013.4,44,PC,Partly Cloudy,20-Oct-13,13
KFXE 21/Dec/2014 13,939,MIA2014,21-Dec-14,21-Dec-14,21-Dec-14,1:00,13,MIA,-4.5,MIN,72,O,42.5,2014,Week 16,66203,MIA,-4.5,4.5,NYJ,37,35,N,75540,0,27,78,0,Florida,KFXE,KFXE4199413,KFXE,O,21-Dec-14,EST,26.197,-80.171,13,81,62,71,83,63,65,61,63,93,56,77,70,62,66,14,5,135,14,53,10,2697,356,3053,216,630,0,0,30.12,30.03,30.06,1019.9,1016.8,1018.1,44,PC,Partly Cloudy,KFXE,O,EST,26.197,-80.171,13,80,82,63,56,69,130,9,90,35,BKN,10,401,58,459,581,639,830,0,0,0,30.07,1018.3,44,PC,Partly Cloudy,21-Dec-14,13
KFXE 21/Oct/2018 13,940,MIA2018,21-Oct-18,21-Oct-18,21-Oct-18,1:00,13,DET,-3,MIA,53,O,47,2018,Week 7,65265,MIA,3,-3,DET,21,32,Y,64767,0,31,65,0,Florida,KFXE,KFXE4339413,KFXE,O,21-Oct-18,EST,26.2,-80.183,20,91,76,81,96,76,77,65,72,100,45,77,78,73,75,16,9,16,22,29,10,4491,505,4996,521,684,0,0,30.04,29.96,30,1017.4,1014.6,1015.9,46,CLR,Fair,KFXE,O,EST,26.2,-80.183,20,89,92,65,45,73,320,9,36,400,CLR,10,610,74,684,744,818,1063,0,0,0,29.97,1015.2,46,CLR,Fair,21-Oct-18,13
KFXE 21/Sep/2014 16,941,MIA2014,21-Sep-14,21-Sep-14,21-Sep-14,4:25,16,MIA,-5.5,KC,49,O,42.5,2014,Week 3,70313,MIA,-5.5,5.5,PIT,15,34,Y,75540,0,27,84,0,Florida,KFXE,KFXE4190316,KFXE,O,21-Sep-14,EST,26.197,-80.171,13,88,71,78,95,72,76,71,74,100,59,88,78,72,75,12,4,149,48,56,9.6,5257,630,5887,312,729,2.69,0,30.05,29.93,29.99,1017.6,1013.7,1015.6,42,MC,Mostly Cloudy,KFXE,O,EST,26.197,-80.171,13,85,93,75,72,78,110,12,25,110,SCT,10,373,41,414,412,453,588,0,0,0,29.96,1014.8,44,PC,Partly Cloudy,21-Sep-14,16
KFXE 22/Dec/2019 13,942,MIA2019,22-Dec-19,22-Dec-19,22-Dec-19,1:00,13,MIA,-1.5,CIN,73,O,40,2019,Week 16,60968,MIA,-1.5,1.5,CIN,38,35,Y,64767,0,32,54,0,Florida,KFXE,KFXE4382113,KFXE,O,22-Dec-19,EST,26.2,-80.183,20,77,72,74,80,73,72,63,66,89,65,74,72,67,69,20,16,107,25,78,10,1974,356,2330,127,631,0.11,0,30.11,29.94,30.03,1020,1013.9,1017.4,42,MC,Mostly Cloudy,KFXE,O,EST,26.2,-80.183,20,75,78,64,69,68,120,10,30,110,BKN,10,511,58,569,581,639,830,99,0,0,30.05,1017.9,43,PC,Partly Cloudy,22-Dec-19,13
KFXE 22/Nov/2015 13,943,MIA2015,22-Nov-15,22-Nov-15,22-Nov-15,1:00,13,DAL,-2,MIA,38,U,45,2015,Week 11,65115,MIA,2,-2,NE,14,24,Y,64767,0,28,75,0,Florida,KFXE,KFXE4233013,KFXE,O,22-Nov-15,EST,26.197,-80.171,13,78,68,72,81,69,73,66,70,100,77,94,73,67,71,17,7,273,31,47,9.4,1977,392,2368,286,644,0.58,0,29.96,29.78,29.86,1014.4,1008.6,1011.3,18,RAIN,Light Rain,KFXE,O,EST,26.197,-80.171,13,70,70,70,100,70,260,13,100,20,SCT,7,93,62,155,617,679,881,99,0.35,0,29.83,1010.2,18,RAIN,Light Rain,22-Nov-15,13
KFXE 22/Oct/2017 13,944,MIA2017,22-Oct-17,22-Oct-17,22-Oct-17,1:00,13,MIA,-3,NYJ,59,O,39.5,2017,Week 7,65025,MIA,-3,3,LAC,31,28,N,64767,0,30,86,0,Florida,KFXE,KFXE4303013,KFXE,O,22-Oct-17,EST,26.197,-80.171,13,87,76,82,96,77,76,73,74,94,65,79,79,75,77,20,14,107,25,57,9.8,4118,501,4620,311,682,0.14,0,30.11,30.03,30.07,1020,1017.2,1018.6,44,PC,Partly Cloudy,KFXE,O,EST,26.197,-80.171,13,86,93,73,65,77,110,18,92,47,FEW,10,703,74,777,740,814,1057,0,0,0,30.08,1018.8,52,PC,High Clouds,22-Oct-17,13
KFXE 22/Sep/2013 16,945,MIA2013,22-Sep-13,22-Sep-13,22-Sep-13,4:05,16,MIA,-2.5,ATL,50,O,45.5,2013,Week 3,70660,MIA,-2.5,2.5,PHI,27,23,Y,75540,0,26,89,0,Florida,KFXE,KFXE4153916,KFXE,O,22-Sep-13,EST,26.197,-80.171,13,91,76,83,99,77,77,72,75,94,57,77,79,75,77,12,5,178,12,35,10,5047,625,5672,440,727,0.12,0,29.89,29.78,29.83,1012.2,1008.3,1010.1,44,PC,Partly Cloudy,KFXE,O,EST,26.197,-80.171,13,87,96,74,65,78,160,9,40,35,SCT,10,335,40,375,404,444,578,0,0,0,29.78,1008.3,44,PC,Partly Cloudy,22-Sep-13,16
KFXE 23/Dec/2018 13,946,MIA2018,23-Dec-18,23-Dec-18,23-Dec-18,1:00,13,MIA,-3,JAX,24,U,39,2018,Week 16,65798,MIA,-3,3,JAX,7,17,Y,64767,0,31,42,0,Florida,KFXE,KFXE4345713,KFXE,O,23-Dec-18,EST,26.2,-80.183,20,75,51,62,77,51,58,47,53,96,53,74,63,49,57,10,4,15,10,24,10,3274,357,3631,511,630,0,0,30.27,30.19,30.21,1025.1,1022.4,1023.3,46,CLR,Fair,KFXE,O,EST,26.2,-80.183,20,73,76,55,53,62,40,6,5,30,FEW,10,567,58,625,582,640,831,0,0,0,30.2,1022.9,45,CLR,Mostly Clear,23-Dec-18,13
KFXE 23/Oct/2016 13,947,MIA2016,23-Oct-16,23-Oct-16,23-Oct-16,1:00,13,BUF,-2.5,MIA,53,O,46,2016,Week 7,65658,MIA,2.5,-2.5,LAC,28,25,Y,64767,0,29,80,0,Florida,KFXE,KFXE4266613,KFXE,O,23-Oct-16,EST,26.197,-80.171,13,81,63,72,80,63,58,53,56,78,44,57,66,57,62,14,9,28,23,30,10,4591,493,5084,569,681,0,0,30.17,30.06,30.12,1021.6,1018,1020.1,46,CLR,Fair,KFXE,O,EST,26.197,-80.171,13,79,80,57,47,66,100,8,20,48,SCT,10,657,73,730,730,803,1043,0,0,0,30.13,1020.3,44,PC,Partly Cloudy,23-Oct-16,13
KFXE 23/Sep/2018 13,948,MIA2018,23-Sep-18,23-Sep-18,23-Sep-18,1:00,13,MIA,-3,OAK,48,O,45.5,2018,Week 3,65667,MIA,-3,3,OAK,28,20,Y,64767,0,31,50,0,Florida,KFXE,KFXE4336613,KFXE,O,23-Sep-18,EST,26.2,-80.183,20,92,75,84,98,76,77,70,74,97,50,74,79,75,77,13,6,76,20,32,10,5614,621,6235,537,725,0,0,30.01,29.93,29.96,1016.4,1013.6,1014.8,46,CLR,Fair,KFXE,O,EST,26.2,-80.183,20,91,98,70,50,76,60,10,20,30,SCT,10,788,88,876,876,964,1251,0,0,0,29.97,1015.2,44,PC,Partly Cloudy,23-Sep-18,13
KFXE 24/Nov/2013 13,949,MIA2013,24-Nov-13,24-Nov-13,24-Nov-13,1:00,13,CAR,-5,MIA,36,U,40.5,2013,Week 12,60156,MIA,5,-5,BUF,16,20,N,75540,0,26,82,0,Florida,KFXE,KFXE4160213,KFXE,O,24-Nov-13,EST,26.197,-80.171,13,82,69,74,84,69,72,64,68,100,57,82,72,67,70,17,8,38,25,48,9.4,3163,388,3551,353,643,0.31,0,30.14,30,30.07,1020.9,1015.8,1018.1,44,PC,Partly Cloudy,KFXE,O,EST,26.197,-80.171,13,81,84,67,62,72,300,9,45,33,SCT,10,474,61,535,612,673,874,0,0,0,30.05,1017.5,45,CLR,Mostly Clear,24-Nov-13,13
KFXE 25/Oct/2015 13,950,MIA2015,25-Oct-15,25-Oct-15,25-Oct-15,1:00,13,MIA,-4.5,HOU,70,O,45.5,2015,Week 7,65251,MIA,-4.5,4.5,KC,44,26,Y,64767,0,28,82,0,Florida,KFXE,KFXE4230213,KFXE,O,25-Oct-15,EST,26.197,-80.171,13,86,75,80,89,77,71,65,68,82,59,67,74,70,72,20,13,88,20,49,10,3830,488,4318,358,677,0.05,0,30.06,29.98,30.01,1018.1,1015.1,1016.4,44,PC,Partly Cloudy,KFXE,O,EST,26.197,-80.171,13,84,88,69,61,74,70,15,40,30,SCT,10,580,73,653,725,798,1036,0,0,0,30.01,1016.4,44,PC,Partly Cloudy,25-Oct-15,13
KFXE 25/Sep/2016 13,951,MIA2016,25-Sep-16,25-Sep-16,25-Sep-16,1:00,13,MIA,-10,CLE,54,O,42.5,2016,Week 3,65176,MIA,-10,10,BAL,30,24,N,64767,0,29,85,0,Florida,KFXE,KFXE4263813,KFXE,O,25-Sep-16,EST,26.197,-80.171,13,86,74,79,93,74,75,70,72,94,68,80,78,72,74,15,6,84,22,46,10,4333,610,4943,233,722,1.18,0,30.05,29.96,30,1017.9,1014.6,1016,46,CLR,Fair,KFXE,O,EST,26.197,-80.171,13,83,90,75,77,77,110,8,100,150,BKN,10,630,86,716,863,949,1233,0,0,0,30,1016.1,50,PC,High Overcast,25-Sep-16,13
KFXE 27/Dec/2015 13,952,MIA2015,27-Dec-15,27-Dec-15,27-Dec-15,1:00,13,MIA,-2.5,IND,30,U,44,2015,Week 16,65482,MIA,-2.5,2.5,DET,12,18,Y,64767,0,28,81,0,Florida,KFXE,KFXE4236513,KFXE,O,27-Dec-15,EST,26.197,-80.171,13,82,76,79,87,77,72,67,70,82,60,74,74,71,73,16,14,109,23,51,10,2830,359,3188,380,630,0,0,30.13,30.01,30.07,1020.3,1016.1,1018.2,44,PC,Partly Cloudy,KFXE,O,EST,26.197,-80.171,13,82,87,71,69,74,110,16,40,24,SCT,10,468,59,527,585,644,836,0,0,0,30.07,1018.2,44,PC,Partly Cloudy,27-Dec-15,13
KFXE 27/Nov/2016 13,953,MIA2016,27-Nov-16,27-Nov-16,27-Nov-16,1:00,13,MIA,-7,SF,55,O,45,2016,Week 12,65856,MIA,-7,7,KC,31,24,N,64767,0,29,79,0,Florida,KFXE,KFXE4270113,KFXE,O,27-Nov-16,EST,26.197,-80.171,13,81,63,72,80,63,60,53,58,87,41,64,66,60,64,16,9,39,23,23,9.8,3360,379,3739,478,639,0,0,30.09,30.01,30.04,1019.1,1016.1,1017.3,44,PC,Partly Cloudy,KFXE,O,EST,26.197,-80.171,13,79,79,53,41,64,70,14,5,40,FEW,10,587,60,647,602,662,860,0,0,0,30.03,1016.9,45,CLR,Mostly Clear,27-Nov-16,13
KFXE 27/Sep/2015 16,954,MIA2015,27-Sep-15,27-Sep-15,27-Sep-15,4:25,16,MIA,-1,BUF,55,O,43.5,2015,Week 3,64869,MIA,-1,1,CHI,14,41,Y,64767,0,28,80,0,Florida,KFXE,KFXE4227416,KFXE,O,27-Sep-15,EST,26.197,-80.171,13,88,77,82,96,77,77,72,75,97,59,81,78,75,77,10,2,127,16,59,10,4663,605,5268,181,719,0.66,0,29.96,29.88,29.92,1014.5,1011.8,1013.2,44,PC,Partly Cloudy,KFXE,O,EST,26.197,-80.171,13,86,94,74,67,78,330,5,95,30,BKN,10,201,38,239,383,421,547,0,0,0,29.9,1012.4,45,CLR,Mostly Clear,27-Sep-15,16
KFXE 28/Dec/2014 13,955,MIA2014,28-Dec-14,28-Dec-14,28-Dec-14,1:00,13,MIA,-7,NYJ,61,O,41,2014,Week 17,70220,MIA,-7,7,BUF,24,37,Y,75540,0,27,80,0,Florida,KFXE,KFXE4200113,KFXE,O,28-Dec-14,EST,26.197,-80.171,13,82,64,73,80,64,66,25,37,96,15,39,68,48,57,13,4,131,13,28,10,2960,361,3321,435,631,0,0,30.18,30.1,30.14,1022.1,1019.2,1020.6,44,PC,Partly Cloudy,KFXE,O,EST,26.197,-80.171,13,80,80,30,16,55,140,8,20,32,SCT,10,527,59,586,586,645,838,0,0,0,30.12,1020,44,PC,Partly Cloudy,28-Dec-14,13
KFXE 29/Dec/2013 13,956,MIA2013,29-Dec-13,29-Dec-13,29-Dec-13,1:00,13,MIA,-7,NYJ,27,U,41,2013,Week 17,70296,MIA,-7,7,PIT,7,20,Y,75540,0,26,79,0,Florida,KFXE,KFXE4163713,KFXE,O,29-Dec-13,EST,26.197,-80.171,13,83,74,78,87,75,75,72,73,96,77,86,76,73,75,14,9,175,20,82,10,1905,361,2265,61,632,0,0,30.05,29.94,30,1017.5,1014,1015.9,44,PC,Partly Cloudy,KFXE,O,EST,26.197,-80.171,13,81,87,73,77,76,190,14,100,20,OVC,10,309,59,368,588,647,840,0,0,0,29.98,1015.2,45,CLR,Mostly Clear,29-Dec-13,13
KFXE 29/Sep/2019 13,957,MIA2019,29-Sep-19,29-Sep-19,29-Sep-19,1:00,13,LAC,-14.5,MIA,40,U,44,2019,Week 4,64278,MIA,14.5,-14.5,LAC,10,30,Y,64767,0,32,42,0,Florida,KFXE,KFXE4373713,KFXE,O,29-Sep-19,EST,26.2,-80.183,20,89,79,82,93,79,72,67,70,79,55,67,76,71,74,20,12,54,25,29,10,4974,596,5570,494,717,0,0,30.08,29.99,30.03,1018.9,1015.8,1017,44,PC,Partly Cloudy,KFXE,O,EST,26.2,-80.183,20,86,92,71,61,76,60,20,40,47,SCT,10,679,85,764,849,934,1213,0,0,0,30.03,1017.2,44,PC,Partly Cloudy,29-Sep-19,13
KFXE 31/Dec/2017 16,958,MIA2017,31-Dec-17,31-Dec-17,31-Dec-17,4:25,16,BUF,-2.5,MIA,38,U,41.5,2017,Week 17,65571,MIA,2.5,-2.5,PIT,16,22,Y,64767,0,30,27,0,Florida,KFXE,KFXE4310016,KFXE,O,31-Dec-17,EST,26.197,-80.171,13,72,50,61,71,51,61,48,56,100,51,85,64,51,58,10,3,9,10,7,9.8,3413,361,3774,564,632,0,0,30.21,30.1,30.14,1023.1,1019.5,1020.8,46,CLR,Fair,KFXE,O,EST,26.197,-80.171,13,70,70,60,71,64,40,8,20,35,SCT,10,191,21,212,212,233,303,0,0,0,30.1,1019.5,44,PC,Partly Cloudy,31-Dec-17,16
KGRB 02/Dec/2018 13,959,GBP2018,2-Dec-18,2-Dec-18,2-Dec-18,1:00,13,GB,-13.5,ARI,37,U,41,2018,Week 13,77234,GB,-13.5,13.5,ARI,17,20,N,81441,0,61,71,0,Green Bay,KGRB,KGRB4343613,KGRB,O,2-Dec-18,CST,44.483,-88.133,682,35,33,34,35,22,33,27,31,97,78,90,34,31,33,23,17,18,33,100,5.1,753,150,905,0,544,0.34,1.6,29.78,29.46,29.55,1009.1,997.3,1000.8,18,SHWR,Light Rain,KGRB,O,CST,44.483,-88.133,682,34,24,32,92,33,20,16,100,10,OVC,2,130,26,156,261,287,373,99,0.02,0,29.49,998.6,9,SNOW,Light Snow,2-Dec-18,13
KGRB 02/Oct/2014 20,960,GBP2014,2-Oct-14,2-Oct-14,2-Oct-14,8:25,20,GB,-9.5,MIN,52,O,46.5,2014,Week 5,78054,GB,-9.5,9.5,MIN,42,10,Y,80750,0,57,63,0,Green Bay,KGRB,KGRB4191420,KGRB,O,2-Oct-14,CST,44.485,-88.13,696,67,56,62,66,56,63,55,60,97,81,91,63,56,60,10,4,137,24,95,5.3,2131,397,2528,35,698,0.2,0,29.89,29.51,29.76,1012.1,999.4,1007.9,40,MC,Overcast,KGRB,O,CST,44.485,-88.13,696,63,63,62,97,62,150,7,100,7,OVC,3,0,0,0,0,0,0,0,0,0,29.64,1003.8,18,RAIN,Light Rain,2-Oct-14,20
KGRB 03/Dec/2017 13,961,GBP2017,3-Dec-17,3-Dec-17,3-Dec-17,1:00,13,GB,-3,TB,46,O,45,2017,Week 13,77684,GB,-3,3,TB,26,20,Y,81441,0,60,65,0,Green Bay,KGRB,KGRB4307213,KGRB,O,3-Dec-17,CST,44.485,-88.13,696,50,24,37,50,19,38,22,29,100,44,76,42,23,33,12,5,165,12,61,9.9,916,150,1067,120,541,0,0,30.17,29.92,30.08,1022.5,1013.7,1019.3,40,MC,Overcast,KGRB,O,CST,44.485,-88.13,696,47,45,32,56,41,180,5,100,301,OVC,10,130,26,156,259,285,371,0,0,0,30.1,1020,50,PC,High Overcast,3-Dec-17,13
KGRB 03/Jan/2016 20,962,GBP2015,3-Jan-16,3-Jan-16,3-Jan-16,8:30,20,GB,-3,MIN,33,U,44,2015,Week 17,78412,GB,-3,3,MIN,13,20,Y,81435,0,58,68,0,Green Bay,KGRB,KGRB4237220,KGRB,O,3-Jan-16,CST,44.485,-88.13,696,30,22,26,30,14,22,16,18,78,61,71,27,21,24,15,10,314,15,89,9.7,713,141,855,0,536,0,0,30.27,29.93,30.16,1025.1,1013.4,1021.3,40,MC,Overcast,KGRB,O,CST,44.485,-88.13,696,23,14,16,74,21,270,8,100,80,OVC,10,0,0,0,0,0,0,0,0,0,30.26,1024.8,40,MC,Overcast,3-Jan-16,20
KGRB 04/Dec/2016 13,963,GBP2016,4-Dec-16,4-Dec-16,4-Dec-16,1:00,13,GB,-7,HOU,34,U,44.5,2016,Week 13,77867,GB,-7,7,HOU,21,13,Y,81435,0,59,31,0,Green Bay,KGRB,KGRB4270813,KGRB,O,4-Dec-16,CST,44.485,-88.13,696,34,31,32,34,24,33,26,30,100,72,91,34,30,31,10,6,181,24,100,4.9,733,147,880,0,540,0.32,3.7,30.26,29.82,30.03,1024.8,1009.8,1016.9,9,SNOW,Light Snow,KGRB,O,CST,44.485,-88.13,696,32,26,32,100,32,170,7,100,14,OVC,0.8,128,26,154,256,282,365,99,0.04,0.5,30.01,1016.1,9,SNOW,Light Snow,4-Dec-16,13
KGRB 04/Nov/2013 20,964,GBP2013,4-Nov-13,4-Nov-13,4-Nov-13,8:40,20,GB,-10,CHI,47,U,51,2013,Week 9,78122,GB,-10,10,CHI,20,27,N,80750,0,56,49,0,Green Bay,KGRB,KGRB4158220,KGRB,O,4-Nov-13,CST,44.485,-88.13,696,52,44,48,51,36,45,40,41,89,69,78,47,42,45,25,16,164,33,81,9.7,1834,229,2063,137,602,0,0,30.25,30.05,30.14,1024.4,1017.7,1020.7,46,CLR,Fair,KGRB,O,CST,44.485,-88.13,696,48,45,43,83,46,190,7,100,26,OVC,6,0,0,0,0,0,0,0,0,0,30.1,1019.3,18,RAIN,Light Rain,4-Nov-13,20
KGRB 06/Nov/2016 16,965,GBP2016,6-Nov-16,6-Nov-16,6-Nov-16,4:25,16,GB,-7.5,IND,57,O,52,2016,Week 9,78437,GB,-7.5,7.5,IND,26,31,N,81435,0,59,67,0,Green Bay,KGRB,KGRB4268016,KGRB,O,6-Nov-16,CST,44.485,-88.13,696,69,40,53,69,41,53,40,47,100,55,84,59,40,50,8,3,190,24,0,7.1,2181,217,2398,597,597,0,0,30.33,30.25,30.29,1027.2,1024.3,1025.6,46,CLR,Fair,KGRB,O,CST,44.485,-88.13,696,67,67,53,61,59,200,5,0,201,CLR,10,13,1,14,13,14,19,0,0,0,30.25,1024.3,46,CLR,Fair,6-Nov-16,16
KGRB 06/Nov/2017 20,966,GBP2017,6-Nov-17,6-Nov-17,6-Nov-17,8:30,20,DET,-2.5,GB,47,O,43,2017,Week 9,77575,GB,2.5,-2.5,DET,17,30,Y,81441,0,60,38,0,Green Bay,KGRB,KGRB4304520,KGRB,O,6-Nov-17,CST,44.485,-88.13,696,40,28,34,39,21,26,21,23,78,50,66,33,26,30,13,8,290,13,55,10,2074,222,2296,504,597,0,0,30.33,30.09,30.24,1027.9,1019.5,1024.9,40,MC,Overcast,KGRB,O,CST,44.485,-88.13,696,34,29,25,70,31,290,6,100,100,OVC,10,0,0,0,0,0,0,0,0,0,30.29,1026.6,40,MC,Overcast,6-Nov-17,20
KGRB 06/Oct/2013 13,967,GBP2013,6-Oct-13,6-Oct-13,6-Oct-13,1:00,13,GB,-10,DET,31,U,53.5,2013,Week 5,78200,GB,-10,10,DET,22,9,Y,80750,0,56,61,0,Green Bay,KGRB,KGRB4155313,KGRB,O,6-Oct-13,CST,44.485,-88.13,696,64,49,56,64,46,61,40,47,96,46,74,63,46,52,15,9,256,24,58,9.8,3432,373,3804,491,686,0.02,0,29.71,29.65,29.68,1006.2,1004,1005.2,46,CLR,Fair,KGRB,O,CST,44.485,-88.13,696,61,59,40,46,51,250,14,0,201,CLR,10,532,53,585,532,585,760,0,0,0,29.66,1004.5,46,CLR,Fair,6-Oct-13,13
KGRB 08/Dec/2013 13,968,GBP2013,8-Dec-13,8-Dec-13,8-Dec-13,1:00,13,GB,-3.5,ATL,43,U,47,2013,Week 14,77550,GB,-3.5,3.5,ATL,22,21,N,80750,0,56,9,0,Green Bay,KGRB,KGRB4161613,KGRB,O,8-Dec-13,CST,44.485,-88.13,696,14,3,9,14,-9,11,-6,3,88,63,77,13,2,7,14,8,36,24,93,4.6,713,142,857,0,536,0.13,2.2,30.63,30.01,30.37,1037.1,1016.2,1028.4,9,SNOW,Light Snow,KGRB,O,CST,44.485,-88.13,696,10,-3,5,80,9,40,10,100,35,OVC,3,126,25,152,253,278,361,0,0,0,30.4,1029.5,9,SNOW,Light Snow,8-Dec-13,13
KGRB 08/Dec/2014 20,969,GBP2014,8-Dec-14,8-Dec-14,8-Dec-14,8:30,20,GB,-13.5,ATL,80,O,55,2014,Week 14,77512,GB,-13.5,13.5,ATL,43,37,N,80750,0,57,32,0,Green Bay,KGRB,KGRB4198120,KGRB,O,8-Dec-14,CST,44.485,-88.13,696,35,32,33,34,24,33,26,31,97,73,91,34,31,32,13,7,208,24,100,3.8,713,142,857,0,536,0.25,2.1,30.2,29.96,30.06,1022.6,1014.5,1017.9,40,MC,Overcast,KGRB,O,CST,44.485,-88.13,696,33,28,32,96,33,310,6,100,6,OVC,5,0,0,0,0,0,0,0,0,0,30.03,1017.9,44,PC,Partly Cloudy,8-Dec-14,20
KGRB 08/Dec/2019 13,970,GBP2019,8-Dec-19,8-Dec-19,8-Dec-19,1:00,13,GB,-9,WAS,35,O,46,2019,Week 14,77296,GB,-9,9,LAR,20,15,N,81441,0,62,43,0,Green Bay,KGRB,KGRB4380713,KGRB,O,8-Dec-19,CST,44.483,-88.133,682,39,26,34,37,21,30,23,28,93,65,77,35,26,32,21,9,197,33,16,8.6,1402,142,1544,502,536,0,0,29.88,29.75,29.79,1012.9,1008.1,1009.5,46,CLR,Fair,KGRB,O,CST,44.483,-88.133,682,37,31,30,75,35,210,9,0,193,CLR,10,252,25,277,252,277,359,0,0,0,29.75,1008.1,46,CLR,Fair,8-Dec-19,13
KGRB 09/Dec/2018 13,971,GBP2018,9-Dec-18,9-Dec-18,9-Dec-18,1:00,13,GB,-4,ATL,54,O,50.5,2018,Week 14,77329,GB,-4,4,ATL,34,20,Y,81441,0,61,85,0,Green Bay,KGRB,KGRB4344313,KGRB,O,9-Dec-18,CST,44.483,-88.133,682,28,15,21,28,7,19,12,16,88,69,81,25,14,20,14,7,240,47,37,8.8,1066,142,1208,298,536,0,0,30.42,30.25,30.33,1031.3,1025.7,1028.4,46,CLR,Fair,KGRB,O,CST,44.483,-88.133,682,27,16,19,72,24,240,14,35,13,CLR,10,207,25,232,251,276,359,0,0,0,30.31,1027.7,46,CLR,Fair,9-Dec-18,13
KGRB 09/Nov/2014 20,972,GBP2014,9-Nov-14,9-Nov-14,9-Nov-14,8:30,20,GB,-9.5,CHI,69,O,54,2014,Week 10,78292,GB,-9.5,9.5,CHI,55,14,Y,80750,0,57,32,0,Green Bay,KGRB,KGRB4195220,KGRB,O,9-Nov-14,CST,44.485,-88.13,696,38,32,34,38,24,34,25,31,97,70,88,36,30,33,12,8,246,24,87,7.8,1105,210,1314,67,590,0.11,0.3,29.89,29.72,29.79,1012.1,1006.7,1008.9,9,SNOW,Light Snow,KGRB,O,CST,44.485,-88.13,696,32,27,29,88,31,330,5,64,301,OVC,10,0,0,0,0,0,0,0,0,0,29.85,1010.7,46,CLR,Fair,9-Nov-14,20
KGRB 09/Oct/2016 20,973,GBP2016,9-Oct-16,9-Oct-16,9-Oct-16,8:30,20,GB,-7,NYG,39,U,50,2016,Week 5,78401,GB,-7,7,NYG,23,16,N,81435,0,59,48,0,Green Bay,KGRB,KGRB4265220,KGRB,O,9-Oct-16,CST,44.485,-88.13,696,58,37,47,58,32,45,36,41,100,62,81,51,36,44,8,6,46,24,10,10,3085,353,3438,581,677,0,0,30.44,30.34,30.39,1030.7,1027.5,1029,46,CLR,Fair,KGRB,O,CST,44.485,-88.13,696,47,45,43,86,45,90,5,0,201,CLR,10,0,0,0,0,0,0,0,0,0,30.38,1028.8,46,CLR,Fair,9-Oct-16,20
KGRB 09/Sep/2018 20,974,GBP2018,9-Sep-18,9-Sep-18,9-Sep-18,8:20,20,GB,-7,CHI,47,O,45,2018,Week 1,78282,GB,-7,7,CHI,24,23,N,81441,0,61,47,0,Green Bay,KGRB,KGRB4335220,KGRB,O,9-Sep-18,CST,44.483,-88.133,682,70,47,58,68,45,51,45,48,93,44,72,57,46,53,13,7,77,25,2,10,5142,533,5675,735,768,0,0,30.22,30.09,30.16,1023.5,1018.9,1021.5,46,CLR,Fair,KGRB,O,CST,44.483,-88.133,682,55,54,49,80,52,40,5,0,366,CLR,10,0,0,0,0,0,0,0,0,0,30.11,1019.8,46,CLR,Fair,9-Sep-18,20
KGRB 10/Nov/2013 13,975,GBP2013,10-Nov-13,10-Nov-13,10-Nov-13,1:00,13,PHI,-1,GB,40,U,47,2013,Week 10,78011,GB,1,-1,PHI,13,27,Y,80750,0,56,46,0,Green Bay,KGRB,KGRB4158813,KGRB,O,10-Nov-13,CST,44.485,-88.13,696,47,37,42,46,29,34,28,30,74,51,64,39,34,37,17,11,271,24,66,10,1741,207,1948,391,587,0,0,30.27,30.01,30.17,1025,1016.2,1021.7,40,MC,Overcast,KGRB,O,CST,44.485,-88.13,696,46,41,29,51,39,250,10,20,43,SCT,10,299,33,332,332,365,474,0,0,0,30.24,1024.2,44,PC,Partly Cloudy,10-Nov-13,13
KGRB 10/Nov/2019 13,976,GBP2019,10-Nov-19,10-Nov-19,10-Nov-19,1:00,13,GB,-5.5,CAR,40,O,56,2019,Week 10,78090,GB,-5.5,5.5,WAS,24,16,Y,81441,0,62,25,0,Green Bay,KGRB,KGRB4377913,KGRB,O,10-Nov-19,CST,44.483,-88.133,682,36,22,31,36,11,32,12,24,89,59,75,34,19,29,16,9,346,24,99,8.6,1038,207,1244,0,587,0.04,1.1,30.28,29.87,30.07,1026.3,1012.2,1019,40,MC,Overcast,KGRB,O,CST,44.483,-88.133,682,34,27,21,59,29,20,9,100,36,OVC,10,166,33,199,332,365,474,0,0,0,30.06,1018.6,40,MC,Overcast,10-Nov-19,13
KGRB 10/Sep/2017 16,977,GBP2017,10-Sep-17,10-Sep-17,10-Sep-17,4:25,16,GB,-2.5,SEA,26,U,49.5,2017,Week 1,78381,GB,-2.5,2.5,SEA,17,9,Y,81441,0,60,42,0,Green Bay,KGRB,KGRB4298816,KGRB,O,10-Sep-17,CST,44.485,-88.13,696,71,41,56,71,38,56,41,49,100,49,81,60,41,52,15,6,172,15,0,9.8,5277,528,5805,765,765,0,0,30.47,30.33,30.4,1032.2,1027.3,1029.8,46,CLR,Fair,KGRB,O,CST,44.485,-88.13,696,70,70,52,53,60,160,9,0,400,CLR,10,279,28,307,279,307,399,0,0,0,30.36,1028.4,46,CLR,Fair,10-Sep-17,16
KGRB 11/Dec/2016 16,978,GBP2016,11-Dec-16,11-Dec-16,11-Dec-16,4:25,16,SEA,-3,GB,48,O,47,2016,Week 14,78057,GB,3,-3,SEA,38,10,Y,81435,0,59,27,0,Green Bay,KGRB,KGRB4271516,KGRB,O,11-Dec-16,CST,44.485,-88.13,696,30,19,24,29,8,27,16,21,96,85,90,28,18,22,13,7,33,24,100,4.3,694,139,832,0,534,0.28,5.3,30.3,29.76,29.97,1026.1,1007.9,1015,9,SNOW,Light Snow,KGRB,O,CST,44.485,-88.13,696,26,26,23,88,25,0,0,100,90,OVC,10,0,0,0,0,0,0,0,0,0,29.83,1010.3,40,MC,Overcast,11-Dec-16,16
KGRB 11/Nov/2018 16,979,GBP2018,11-Nov-18,11-Nov-18,11-Nov-18,4:25,16,GB,-12.5,MIA,43,U,49,2018,Week 10,78076,GB,-12.5,12.5,MIA,31,12,Y,81441,0,61,53,0,Green Bay,KGRB,KGRB4341516,KGRB,O,11-Nov-18,CST,44.483,-88.133,682,33,25,30,33,16,25,21,22,86,64,75,30,24,27,13,6,229,34,100,9.1,1020,204,1221,0,585,0.04,0.9,30.25,30.14,30.18,1025.4,1021.6,1023.2,40,MC,Overcast,KGRB,O,CST,44.483,-88.133,682,33,28,23,67,29,220,5,100,48,OVC,10,4,1,6,9,10,13,0,0,0,30.15,1022.1,40,MC,Overcast,11-Nov-18,16
KGRB 11/Oct/2015 13,980,GBP2015,11-Oct-15,11-Oct-15,11-Oct-15,1:00,13,GB,-9,LAR,34,U,46,2015,Week 5,78432,GB,-9,9,LAR,24,10,Y,81435,0,58,73,0,Green Bay,KGRB,KGRB4228813,KGRB,O,11-Oct-15,CST,44.485,-88.13,696,80,53,65,80,50,59,46,53,80,47,66,66,50,58,16,11,216,24,1,10,3458,346,3804,671,671,0,0,29.75,29.45,29.6,1007.3,997.3,1002.5,46,CLR,Fair,KGRB,O,CST,44.485,-88.13,696,75,78,57,54,64,210,12,0,201,CLR,10,499,50,549,499,549,713,0,0,0,29.57,1001.3,46,CLR,Fair,11-Oct-15,13
KGRB 13/Dec/2015 16,981,GBP2015,13-Dec-15,13-Dec-15,13-Dec-15,4:25,16,GB,-6.5,DAL,35,U,42.5,2015,Week 14,78369,GB,-6.5,6.5,DAL,28,7,Y,81435,0,58,52,0,Green Bay,KGRB,KGRB4235116,KGRB,O,13-Dec-15,CST,44.485,-88.13,696,55,41,48,55,34,54,40,48,100,96,98,54,40,48,17,9,101,24,100,3.7,690,138,830,0,532,1.6,0,30,29.48,29.73,1016,998.3,1006.9,18,RAIN,Light Rain,KGRB,O,CST,44.485,-88.13,696,55,52,54,96,54,170,12,100,47,OVC,6,0,0,0,0,0,0,99,0.01,0,29.63,1003.3,18,RAIN,Light Rain,13-Dec-15,16
KGRB 14/Oct/2019 13,982,GBP2019,14-Oct-19,14-Oct-19,14-Oct-19,1:00,13,GB,-7.5,DET,45,U,48.5,2019,Week 6,76947,GB,-7.5,7.5,DET,23,22,N,81441,0,62,36,0,Green Bay,KGRB,KGRB4375213,KGRB,O,14-Oct-19,CST,44.483,-88.133,682,50,33,41,50,27,34,30,32,89,48,73,42,32,37,14,7,249,47,13,10,2729,330,3059,470,662,0,0,30.02,29.87,29.98,1017.3,1012.3,1016,46,CLR,Fair,KGRB,O,CST,44.483,-88.133,682,49,44,32,52,42,230,13,35,28,CLR,10,397,48,445,481,529,687,0,0,0,30,1016.5,46,CLR,Fair,14-Oct-19,13
KGRB 14/Sep/2014 16,983,GBP2014,14-Sep-14,14-Sep-14,14-Sep-14,4:25,16,GB,-7.5,NYJ,55,O,46.5,2014,Week 2,78041,GB,-7.5,7.5,NYJ,31,24,N,80750,0,57,63,0,Green Bay,KGRB,KGRB4189616,KGRB,O,14-Sep-14,CST,44.485,-88.13,696,65,45,56,65,42,51,42,46,93,51,72,55,45,50,18,9,208,26,62,9.9,4366,503,4870,498,753,0,0,30.3,30.08,30.18,1026.2,1018.7,1021.9,40,MC,Overcast,KGRB,O,CST,44.485,-88.13,696,65,64,46,51,55,210,13,4,201,SCT,10,251,26,277,256,282,366,0,0,0,30.09,1019,46,CLR,Fair,14-Sep-14,16
KGRB 15/Dec/2019 13,984,GBP2019,15-Dec-19,15-Dec-19,15-Dec-19,1:00,13,GB,-3,CHI,34,O,49,2019,Week 15,78266,GB,-3,3,CHI,21,13,Y,81441,0,62,54,0,Green Bay,KGRB,KGRB4381413,KGRB,O,15-Dec-19,CST,44.483,-88.133,682,17,4,11,18,-5,9,0,3,79,67,72,16,4,10,13,6,255,24,20,10,1339,138,1477,486,531,0,0,30.12,29.87,30.05,1021.8,1013,1019.3,46,CLR,Fair,KGRB,O,CST,44.483,-88.133,682,12,1,3,67,10,210,8,0,197,CLR,10,247,25,272,247,272,353,0,0,0,30.1,1020.8,46,CLR,Fair,15-Dec-19,13
KGRB 15/Nov/2015 13,985,GBP2015,15-Nov-15,15-Nov-15,15-Nov-15,1:00,13,GB,-10.5,DET,34,U,50,2015,Week 10,78526,GB,-10.5,10.5,DET,16,18,N,81435,0,58,57,0,Green Bay,KGRB,KGRB4232313,KGRB,O,15-Nov-15,CST,44.485,-88.13,696,59,36,47,59,35,41,34,38,93,51,71,50,36,43,14,6,209,24,9,10,1907,189,2096,574,574,0,0,30.14,30.08,30.11,1020.7,1018.6,1019.5,46,CLR,Fair,KGRB,O,CST,44.485,-88.13,696,57,55,41,55,49,210,9,0,210,CLR,10,311,31,342,311,342,444,0,0,0,30.1,1019.2,46,CLR,Fair,15-Nov-15,13
KGRB 15/Oct/2018 20,986,GBP2018,15-Oct-18,15-Oct-18,15-Oct-18,8:15,20,GB,-9.5,SF,63,O,46,2018,Week 6,77642,GB,-9.5,9.5,SF,33,30,N,81441,0,61,27,0,Green Bay,KGRB,KGRB4338820,KGRB,O,15-Oct-18,CST,44.483,-88.133,682,41,34,37,40,26,34,24,28,93,55,73,35,31,34,23,12,273,36,69,9.9,1865,323,2190,84,659,0,0,30.15,30.02,30.09,1021.9,1017.1,1019.8,40,MC,Overcast,KGRB,O,CST,44.483,-88.133,682,34,29,26,73,31,200,6,0,125,CLR,10,0,0,0,0,0,0,0,0,0,30.14,1021.5,46,CLR,Fair,15-Oct-18,20
KGRB 15/Sep/2013 13,987,GBP2013,15-Sep-13,15-Sep-13,15-Sep-13,1:00,13,GB,-7,WAS,58,O,49,2013,Week 2,78020,GB,-7,7,WAS,38,20,Y,80750,0,56,62,0,Green Bay,KGRB,KGRB4153213,KGRB,O,15-Sep-13,CST,44.485,-88.13,696,66,43,56,63,41,56,39,51,97,74,86,59,42,54,17,6,199,24,86,8.8,2278,499,2777,15,750,0.38,0,30.31,29.99,30.1,1026.4,1015.5,1019.4,40,MC,Overcast,KGRB,O,CST,44.485,-88.13,696,62,62,55,78,58,370,3,100,14,OVC,10,333,67,400,666,733,952,0,0,0,30.06,1017.8,44,PC,Partly Cloudy,15-Sep-13,13
KGRB 15/Sep/2019 13,988,GBP2019,15-Sep-19,15-Sep-19,15-Sep-19,1:00,13,GB,-3,MIN,37,U,43,2019,Week 2,78416,GB,-3,3,CIN,21,16,Y,81441,0,62,42,0,Green Bay,KGRB,KGRB4372313,KGRB,O,15-Sep-19,CST,44.483,-88.133,682,76,59,66,78,59,66,57,62,96,71,87,69,58,64,10,4,45,47,86,8.1,2488,499,2988,0,750,0,0,30.06,29.98,30.02,1017.6,1015.1,1016.6,40,MC,Overcast,KGRB,O,CST,44.483,-88.133,682,75,78,65,71,69,170,7,100,22,OVC,10,333,67,400,666,733,952,0,0,0,30,1015.6,40,MC,Overcast,15-Sep-19,13
KGRB 16/Nov/2014 16,989,GBP2014,16-Nov-14,16-Nov-14,16-Nov-14,4:25,16,GB,-5.5,PHI,73,O,55.5,2014,Week 11,78270,GB,-5.5,5.5,PHI,53,20,Y,80750,0,57,27,0,Green Bay,KGRB,KGRB4195916,KGRB,O,16-Nov-14,CST,44.485,-88.13,696,28,16,23,28,9,21,7,17,89,71,80,25,17,22,14,9,221,24,76,7.2,1307,188,1494,152,573,0,0.2,30.17,29.83,29.98,1021.8,1010.1,1015.2,40,MC,Overcast,KGRB,O,CST,44.485,-88.13,696,27,17,21,78,25,220,12,100,22,OVC,5,2,0,2,4,4,6,0,0,0,29.91,1013,35,HAZY,Haze,16-Nov-14,16
KGRB 16/Oct/2016 16,990,GBP2016,16-Oct-16,16-Oct-16,16-Oct-16,4:25,16,GB,-5,DAL,46,U,47,2016,Week 6,78481,GB,-5,5,DAL,16,30,Y,81435,0,59,67,0,Green Bay,KGRB,KGRB4265916,KGRB,O,16-Oct-16,CST,44.485,-88.13,696,70,57,62,69,56,64,48,56,100,59,81,64,53,59,10,7,61,34,52,8.9,3127,312,3439,580,656,0,0,29.92,29.78,29.87,1013.1,1008.5,1011.5,46,CLR,Fair,KGRB,O,CST,44.485,-88.13,696,64,64,56,75,59,50,8,8,301,SCT,10,74,8,82,77,85,109,0,0,0,29.89,1012.2,46,CLR,Fair,16-Oct-16,16
KGRB 16/Sep/2018 13,991,GBP2018,16-Sep-18,16-Sep-18,16-Sep-18,1:00,13,MIN,-2,GB,58,O,44.5,2018,Week 2,78461,GB,2,-2,MIN,29,29,N,81441,0,61,33,0,Green Bay,KGRB,KGRB4335913,KGRB,O,16-Sep-18,CST,44.483,-88.133,682,86,58,72,88,59,69,58,65,96,53,80,73,58,67,13,5,167,24,20,9.4,3679,492,4171,476,747,0,0,30.17,29.97,30.08,1021.5,1014.5,1018.4,46,CLR,Fair,KGRB,O,CST,44.483,-88.133,682,82,85,68,63,73,170,8,10,41,FEW,10,627,66,693,660,726,943,0,0,0,30.07,1018.1,45,CLR,Mostly Clear,16-Sep-18,13
KGRB 18/Oct/2015 16,992,GBP2015,18-Oct-15,18-Oct-15,18-Oct-15,4:25,16,GB,-10.5,LAC,47,U,50.5,2015,Week 6,78434,GB,-10.5,10.5,LAC,27,20,N,81435,0,58,49,0,Green Bay,KGRB,KGRB4229516,KGRB,O,18-Oct-15,CST,44.485,-88.13,696,54,24,40,53,25,37,21,27,88,32,63,42,24,35,10,6,184,24,0,10,3086,310,3396,650,650,0,0,30.5,30.17,30.38,1033,1021.8,1028.9,46,CLR,Fair,KGRB,O,CST,44.485,-88.13,696,52,49,23,32,40,210,8,0,201,CLR,10,71,7,78,71,78,101,0,0,0,30.35,1027.9,46,CLR,Fair,18-Oct-15,16
KGRB 19/Nov/2017 13,993,GBP2017,19-Nov-17,19-Nov-17,19-Nov-17,1:00,13,BAL,-2.5,GB,23,U,38.5,2017,Week 11,77945,GB,2.5,-2.5,BAL,0,23,Y,81441,0,60,49,0,Green Bay,KGRB,KGRB4305813,KGRB,O,19-Nov-17,CST,44.485,-88.13,696,32,25,29,32,12,25,14,18,79,51,64,30,22,26,21,13,281,26,77,10,1606,179,1785,276,566,0,0,29.98,29.83,29.92,1016,1010.9,1014.2,40,MC,Overcast,KGRB,O,CST,44.485,-88.13,696,31,20,17,56,26,280,16,0,201,CLR,10,296,30,326,296,326,423,0,0,0,29.95,1015.2,46,CLR,Fair,19-Nov-17,13
KGRB 19/Oct/2014 13,994,GBP2014,19-Oct-14,19-Oct-14,19-Oct-14,1:00,13,GB,-6.5,CAR,55,O,49.5,2014,Week 7,78106,GB,-6.5,6.5,CAR,38,17,Y,80750,0,57,53,0,Green Bay,KGRB,KGRB4193113,KGRB,O,19-Oct-14,CST,44.485,-88.13,696,55,31,45,55,29,44,30,39,96,62,81,49,31,42,18,7,200,25,48,9.6,2464,304,2768,164,648,0,0,30.17,29.77,29.98,1021.6,1008.1,1015.2,46,CLR,Fair,KGRB,O,CST,44.485,-88.13,696,53,49,42,66,48,200,13,84,110,FEW,10,441,45,486,449,494,642,0,0,0,29.97,1014.8,45,CLR,Mostly Clear,19-Oct-14,13
KGRB 20/Oct/2013 16,995,GBP2013,20-Oct-13,20-Oct-13,20-Oct-13,4:25,16,GB,-8.5,CLE,44,U,45.5,2013,Week 7,77804,GB,-8.5,8.5,CLE,31,13,Y,80750,0,56,46,0,Green Bay,KGRB,KGRB4156716,KGRB,O,20-Oct-13,CST,44.485,-88.13,696,48,31,40,47,27,44,31,37,100,66,90,46,31,38,14,6,210,24,71,8,1448,297,1744,45,644,0.04,0,29.85,29.67,29.76,1011.1,1004.6,1007.9,40,MC,Overcast,KGRB,O,CST,44.485,-88.13,696,44,40,38,79,41,130,8,100,40,OVC,10,32,6,38,63,69,90,0,0,0,29.73,1006.9,42,MC,Mostly Cloudy,20-Oct-13,16
KGRB 20/Oct/2016 20,996,GBP2016,20-Oct-16,20-Oct-16,20-Oct-16,8:25,20,GB,-7.5,CHI,36,U,46.5,2016,Week 7,78217,GB,-7.5,7.5,CHI,26,10,Y,81435,0,59,47,0,Green Bay,KGRB,KGRB4266320,KGRB,O,20-Oct-16,CST,44.485,-88.13,696,52,39,46,51,34,41,34,36,93,54,70,48,38,42,16,10,345,29,64,10,2283,294,2577,263,644,0,0,30.27,30.17,30.24,1024.9,1021.8,1023.9,40,MC,Overcast,KGRB,O,CST,44.485,-88.13,696,46,40,35,66,41,310,12,100,50,OVC,10,0,0,0,0,0,0,0,0,0,30.24,1024,40,MC,Overcast,20-Oct-16,20
KGRB 20/Oct/2019 13,997,GBP2019,20-Oct-19,20-Oct-19,20-Oct-19,1:00,13,GB,-8.5,OAK,66,O,34,2019,Week 7,78160,GB,-8.5,8.5,TEN,42,24,Y,81441,0,62,54,0,Green Bay,KGRB,KGRB4375813,KGRB,O,20-Oct-19,CST,44.483,-88.133,682,64,46,52,63,42,49,40,45,93,52,80,54,45,49,12,4,251,24,40,9.1,2596,297,2894,446,644,0,0,29.94,29.77,29.89,1014.4,1008.1,1012.4,46,CLR,Fair,KGRB,O,CST,44.483,-88.133,682,62,62,46,56,54,190,3,0,204,CLR,6,444,44,488,444,488,634,0,0,0,29.91,1013,35,HAZY,Haze,20-Oct-19,13
KGRB 20/Sep/2015 20,998,GBP2015,20-Sep-15,20-Sep-15,20-Sep-15,8:30,20,GB,-3,SEA,44,U,49.5,2015,Week 2,78433,GB,-3,3,SEA,27,17,Y,81435,0,58,54,0,Green Bay,KGRB,KGRB4226720,KGRB,O,20-Sep-15,CST,44.485,-88.13,696,71,47,59,71,48,52,45,48,93,42,71,58,47,53,10,5,197,47,23,9.8,3913,468,4381,582,735,0,0,30.2,30.11,30.15,1022.8,1019.6,1021,46,CLR,Fair,KGRB,O,CST,44.485,-88.13,696,57,56,50,78,53,160,5,0,201,CLR,10,0,0,0,0,0,0,0,0,0,30.14,1020.7,46,CLR,Fair,20-Sep-15,20
KGRB 22/Dec/2013 16,999,GBP2013,22-Dec-13,22-Dec-13,22-Dec-13,4:25,16,PIT,-1,GB,69,O,44,2013,Week 16,77999,GB,1,-1,PIT,31,38,Y,80750,0,56,23,0,Green Bay,KGRB,KGRB4163016,KGRB,O,22-Dec-13,CST,44.485,-88.13,696,26,20,22,26,5,22,17,19,92,78,87,25,19,21,21,13,34,32,100,3.6,677,134,811,0,530,0.37,6,30.13,29.77,29.94,1020.2,1008.8,1013.8,9,SNOW,Light Snow,KGRB,O,CST,44.485,-88.13,696,22,13,18,85,21,200,8,100,16,OVC,2,0,0,0,1,1,1,99,0.02,0.3,29.99,1015.7,9,SNOW,Light Snow,22-Dec-13,16
KGRB 22/Oct/2017 13,1000,GBP2017,22-Oct-17,22-Oct-17,22-Oct-17,1:00,13,NO,-4,GB,43,U,45.5,2017,Week 7,78380,GB,4,-4,NO,17,26,Y,81441,0,60,67,0,Green Bay,KGRB,KGRB4303013,KGRB,O,22-Oct-17,CST,44.485,-88.13,696,67,45,55,67,46,61,46,53,100,76,92,62,47,55,16,7,216,24,97,8.8,1440,287,1725,0,639,0.25,0,30.04,29.85,29.95,1017.4,1010.8,1014.2,40,MC,Overcast,KGRB,O,CST,44.485,-88.13,696,52,52,52,100,52,0,0,100,55,OVC,8,216,43,258,431,474,616,99,0.01,0,29.96,1014.9,18,RAIN,Light Rain,22-Oct-17,13
KGRB 22/Sep/2019 13,1001,GBP2019,22-Sep-19,22-Sep-19,22-Sep-19,1:00,13,GB,-7,DEN,43,O,41.5,2019,Week 3,78078,GB,-7,7,GB,27,16,Y,81441,0,62,62,0,Green Bay,KGRB,KGRB4373013,KGRB,O,22-Sep-19,CST,44.483,-88.133,682,73,60,69,78,60,70,56,65,94,81,88,71,59,67,17,8,221,33,85,9.5,2501,456,2957,69,729,0.61,0,29.87,29.76,29.8,1011.1,1007.5,1009,19,RAIN,Moderate Rain,KGRB,O,CST,44.483,-88.133,682,70,70,66,87,67,230,7,100,49,OVC,10,312,62,374,623,685,889,0,0,0,29.77,1007.8,40,MC,Overcast,22-Sep-19,13
KGRB 23/Dec/2017 20,1002,GBP2017,23-Dec-17,23-Dec-17,23-Dec-17,8:30,20,MIN,-9,GB,16,U,41,2017,Week 16,78092,GB,9,-9,MIN,0,16,Y,81441,0,60,60,0,Green Bay,KGRB,KGRB4309220,KGRB,O,23-Dec-17,CST,44.485,-88.13,696,19,-2,13,19,-7,12,-5,5,81,54,69,18,3,12,14,8,287,14,49,9.8,743,136,879,155,530,0,0,30.21,30.03,30.12,1024.5,1018.2,1021.2,46,CLR,Fair,KGRB,O,CST,44.485,-88.13,696,6,6,-1,73,5,220,3,0,275,CLR,10,0,0,0,0,0,0,0,0,0,30.2,1024.1,46,CLR,Fair,23-Dec-17,20
KGRB 24/Dec/2016 13,1003,GBP2016,24-Dec-16,24-Dec-16,24-Dec-16,1:00,13,GB,-6.5,MIN,63,O,44.5,2016,Week 16,77856,GB,-6.5,6.5,MIN,38,25,Y,81435,0,59,35,0,Green Bay,KGRB,KGRB4272813,KGRB,O,24-Dec-16,CST,44.485,-88.13,696,39,21,34,38,22,34,21,31,100,76,89,35,22,33,10,6,272,24,85,7.9,970,136,1105,175,531,0,0,30.4,29.91,30.2,1029.5,1012.7,1022.8,40,MC,Overcast,KGRB,O,CST,44.485,-88.13,696,37,30,31,79,35,270,9,9,301,SCT,10,239,25,264,250,275,357,0,0,0,30.21,1023,46,CLR,Fair,24-Dec-16,13
KGRB 24/Nov/2013 13,1004,GBP2013,24-Nov-13,24-Nov-13,24-Nov-13,1:00,13,GB,-6,MIN,52,O,44,2013,Week 12,77871,GB,-6,6,MIN,26,26,N,80750,0,56,20,0,Green Bay,KGRB,KGRB4160213,KGRB,O,24-Nov-13,CST,44.485,-88.13,696,25,8,18,25,-3,7,2,4,77,44,58,20,8,14,22,12,233,32,28,10,1356,165,1521,365,556,0,0,30.68,30.16,30.49,1039,1021.2,1032.5,46,CLR,Fair,KGRB,O,CST,44.485,-88.13,696,20,8,4,50,16,220,12,80,201,BKN,10,168,28,196,280,308,400,0,0,0,30.53,1033.9,46,CLR,Fair,24-Nov-13,13
KGRB 24/Sep/2017 16,1005,GBP2017,24-Sep-17,24-Sep-17,24-Sep-17,4:25,16,GB,-7,CIN,51,O,47.5,2017,Week 3,78323,GB,-7,7,CIN,27,24,N,81441,0,60,33,0,Green Bay,KGRB,KGRB4300216,KGRB,O,24-Sep-17,CST,44.485,-88.13,696,90,64,77,93,64,69,61,66,100,45,70,75,64,70,13,6,186,13,1,9.8,4356,445,4801,707,722,0,0,30.08,29.98,30.03,1018.1,1014.8,1016.4,46,CLR,Fair,KGRB,O,CST,44.485,-88.13,696,88,91,65,46,73,210,7,0,201,CLR,10,196,20,216,196,216,279,0,0,0,29.99,1015.1,46,CLR,Fair,24-Sep-17,16
KGRB 25/Sep/2016 13,1006,GBP2016,25-Sep-16,25-Sep-16,25-Sep-16,1:00,13,GB,-6.5,DET,61,O,47.5,2016,Week 3,78411,GB,-6.5,6.5,DET,34,27,Y,81435,0,59,72,0,Green Bay,KGRB,KGRB4263813,KGRB,O,25-Sep-16,CST,44.485,-88.13,696,77,57,66,79,58,68,56,63,100,74,91,70,57,64,17,10,165,25,88,9.3,2676,432,3107,83,719,0.16,0,30.14,29.83,29.96,1020.5,1009.9,1014.3,40,MC,Overcast,KGRB,O,CST,44.485,-88.13,696,75,78,67,76,70,160,17,100,110,BKN,10,227,60,287,597,657,853,0,0,0,29.91,1012.8,40,MC,Overcast,25-Sep-16,13
KGRB 26/Nov/2015 20,1007,GBP2015,26-Nov-15,26-Nov-15,26-Nov-15,8:30,20,GB,-8,CHI,30,U,45,2015,Week 12,78488,GB,-8,8,CHI,13,17,N,81435,0,58,35,0,Green Bay,KGRB,KGRB4233420,KGRB,O,26-Nov-15,CST,44.485,-88.13,696,50,33,44,49,24,49,31,42,100,77,92,49,33,43,22,9,172,26,100,6.7,811,163,973,0,552,0.99,0,30.3,30.07,30.16,1026,1018.4,1021.3,18,RAIN,Light Rain,KGRB,O,CST,44.485,-88.13,696,37,26,34,89,36,200,21,100,12,OVC,9,0,0,0,0,0,0,99,0.03,0,30.2,1022.8,18,RAIN,Light Rain,26-Nov-15,20
KGRB 26/Sep/2019 20,1008,GBP2019,26-Sep-19,26-Sep-19,26-Sep-19,8:20,20,GB,-3.5,PHI,61,O,46.5,2019,Week 4,77509,GB,-3.5,3.5,PHI,27,34,Y,81441,0,62,30,0,Green Bay,KGRB,KGRB4373420,KGRB,O,26-Sep-19,CST,44.483,-88.133,682,68,49,58,67,46,51,42,46,83,41,64,54,47,52,16,9,252,30,18,10,4283,432,4715,700,716,0,0,29.91,29.78,29.85,1012.9,1008.4,1011,46,CLR,Fair,KGRB,O,CST,44.483,-88.133,682,58,57,49,72,53,180,6,5,120,FEW,10,0,0,0,0,0,0,0,0,0,29.85,1011,45,CLR,Mostly Clear,26-Sep-19,20
KGRB 28/Dec/2014 16,1009,GBP2014,28-Dec-14,28-Dec-14,28-Dec-14,4:25,16,GB,-8.5,DET,50,O,47,2014,Week 17,78408,GB,-8.5,8.5,DET,30,20,Y,80750,0,57,25,0,Green Bay,KGRB,KGRB4200116,KGRB,O,28-Dec-14,CST,44.485,-88.13,696,28,16,23,27,6,19,7,16,85,68,76,24,16,21,13,9,289,24,32,9.7,1190,136,1326,296,532,0,0,30.35,30.08,30.18,1027.8,1018.7,1022.1,46,CLR,Fair,KGRB,O,CST,44.485,-88.13,696,27,18,19,72,24,330,9,100,25,OVC,9,1,0,1,2,2,3,0,0,0,30.19,1022.4,45,CLR,Mostly Clear,28-Dec-14,16
KGRB 28/Sep/2015 20,1010,GBP2015,28-Sep-15,28-Sep-15,28-Sep-15,8:30,20,GB,-5.5,KC,66,O,47.5,2015,Week 3,78214,GB,-5.5,5.5,KC,38,28,Y,81435,0,58,62,0,Green Bay,KGRB,KGRB4227520,KGRB,O,28-Sep-15,CST,44.485,-88.13,696,82,61,69,83,61,65,59,62,97,49,82,69,60,65,15,6,213,24,52,7.4,3625,419,4044,431,711,0.12,0,29.98,29.88,29.94,1015.4,1011.8,1014,46,CLR,Fair,KGRB,O,CST,44.485,-88.13,696,64,64,62,93,63,50,5,84,8,BKN,10,0,0,0,0,0,0,99,0.04,0,29.95,1014.2,18,RAIN,Light Rain,28-Sep-15,20
KGRB 28/Sep/2017 20,1011,GBP2017,28-Sep-17,28-Sep-17,28-Sep-17,8:25,20,GB,-7.5,CHI,49,O,44.5,2017,Week 4,78362,GB,-7.5,7.5,CHI,35,14,Y,81441,0,60,67,0,Green Bay,KGRB,KGRB4300620,KGRB,O,28-Sep-17,CST,44.485,-88.13,696,72,46,59,72,45,55,46,50,100,45,75,60,46,54,15,8,252,21,45,10,3615,419,4034,514,711,0.03,0,30.17,30.02,30.1,1021.7,1016.7,1019.4,40,MC,Overcast,KGRB,O,CST,44.485,-88.13,696,57,57,55,94,56,220,3,100,100,BKN,10,0,0,0,0,0,0,99,0.02,0,30.03,1017.3,18,RAIN,Light Rain,28-Sep-17,20
KGRB 30/Dec/2018 13,1012,GBP2018,30-Dec-18,30-Dec-18,30-Dec-18,1:00,13,GB,-7.5,DET,31,U,44.5,2018,Week 17,77341,GB,-7.5,7.5,DET,0,31,Y,81441,0,61,44,0,Green Bay,KGRB,KGRB4346413,KGRB,O,30-Dec-18,CST,44.483,-88.133,682,31,20,26,31,8,24,14,19,81,68,74,28,18,23,16,10,205,47,24,10,909,138,1047,263,533,0,0,30.03,29.86,29.92,1018.2,1012.1,1014.4,46,CLR,Fair,KGRB,O,CST,44.483,-88.133,682,28,18,19,69,25,220,12,70,110,BKN,10,194,26,220,257,283,367,0,0,0,29.86,1012.1,42,MC,Mostly Cloudy,30-Dec-18,13
KGRB 30/Nov/2014 16,1013,GBP2014,30-Nov-14,30-Nov-14,30-Nov-14,4:25,16,GB,-3,NE,47,U,58,2014,Week 13,78431,GB,-3,3,NE,26,21,Y,80750,0,57,23,0,Green Bay,KGRB,KGRB4197316,KGRB,O,30-Nov-14,CST,44.485,-88.13,696,36,13,28,36,-2,34,3,21,97,60,79,36,12,27,20,11,304,24,71,6.6,771,155,927,73,546,0,0,30.34,29.53,29.92,1028.6,1000.1,1013.4,46,CLR,Fair,KGRB,O,CST,44.485,-88.13,696,25,13,13,60,21,330,14,0,201,CLR,10,0,0,0,0,0,0,0,0,0,30.06,1017.8,46,CLR,Fair,30-Nov-14,16
KGRB 30/Sep/2018 13,1014,GBP2018,30-Sep-18,30-Sep-18,30-Sep-18,1:00,13,GB,-9,BUF,22,U,44,2018,Week 4,78312,GB,-9,9,BUF,22,0,Y,81441,0,61,76,0,Green Bay,KGRB,KGRB4337313,KGRB,O,30-Sep-18,CST,44.483,-88.133,682,52,44,48,52,41,45,37,42,89,72,80,48,41,45,9,4,34,47,99,9.9,2040,410,2449,0,704,0,0,30.3,30.23,30.27,1026.5,1024.1,1025.4,40,MC,Overcast,KGRB,O,CST,44.483,-88.133,682,50,46,45,83,47,50,9,100,19,OVC,9,286,57,342,571,628,816,0,0,0,30.25,1024.8,40,MC,Overcast,30-Sep-18,13
KHOU 01/Dec/2013 13,1015,HOU2013,1-Dec-13,1-Dec-13,1-Dec-13,1:00,13,NE,-7,HOU,65,O,49,2013,Week 13,71769,HOU,7,-7,NE,31,34,N,71054,0,11,67,0,Houston,KHOU,KHOU4160913,KHOU,O,1-Dec-13,CST,29.645,-95.279,46,71,50,61,70,50,59,50,56,100,66,84,63,50,58,10,6,152,10,79,10,1677,331,2006,17,624,0,0,30.24,29.97,30.13,1023.9,1014.9,1020.3,42,MC,Mostly Cloudy,KHOU,O,CST,29.645,-95.279,46,70,70,58,66,63,150,8,100,35,OVC,10,270,54,324,541,595,773,0,0,0,30.14,1020.5,45,CLR,Mostly Clear,1-Dec-13,13
KHOU 01/Dec/2019 13,1016,HOU2019,1-Dec-19,1-Dec-19,1-Dec-19,1:00,13,NE,-3,HOU,50,O,47.5,2019,Week 13,72025,HOU,3,-3,NE,28,22,Y,71995,0,17,33,0,Houston,KHOU,KHOU4380013,KHOU,O,1-Dec-19,CST,29.633,-95.283,118,70,52,61,70,51,46,26,30,68,23,33,63,43,48,17,12,333,30,17,10,3141,332,3473,535,623,0,0,30.23,29.92,30.08,1024.3,1013.8,1019.1,45,CLR,Mostly Clear,KHOU,O,CST,29.633,-95.283,118,67,67,29,24,49,330,13,25,200,SCT,10,490,54,544,541,595,774,0,0,0,30.08,1019,44,PC,Partly Cloudy,1-Dec-19,13
KHOU 01/Nov/2015 13,1017,HOU2015,1-Nov-15,1-Nov-15,1-Nov-15,1:00,13,HOU,-3.5,TEN,26,U,43,2015,Week 8,71630,HOU,-3.5,3.5,TEN,20,6,Y,71795,0,13,68,0,Houston,KHOU,KHOU4230913,KHOU,O,1-Nov-15,CST,29.645,-95.279,46,71,65,68,69,66,67,63,65,93,81,89,68,64,66,12,5,4,12,96,8.8,1854,420,2274,0,659,1.05,0,29.96,29.86,29.92,1014.7,1011.3,1013.3,45,CLR,Mostly Clear,KHOU,O,CST,29.645,-95.279,46,68,68,65,90,66,130,5,100,6,OVC,9,129,64,193,644,708,921,99,0.03,0,29.93,1013.5,19,RAIN,Moderate Rain,1-Nov-15,13
KHOU 01/Oct/2017 13,1018,HOU2017,1-Oct-17,1-Oct-17,1-Oct-17,1:00,13,TEN,-2.5,HOU,71,O,43,2017,Week 4,71804,HOU,2.5,-2.5,TEN,57,14,Y,71795,0,15,37,0,Houston,KHOU,KHOU4300913,KHOU,O,1-Oct-17,CST,29.645,-95.279,46,93,70,81,95,71,71,62,66,79,41,61,75,65,71,7,4,37,7,12,10,5117,560,5677,596,713,0,0,30,29.88,29.94,1015.8,1011.8,1013.9,45,CLR,Mostly Clear,KHOU,O,CST,29.645,-95.279,46,89,93,66,47,74,150,3,40,35,SCT,10,673,80,753,801,881,1145,0,0,0,29.93,1013.6,44,PC,Partly Cloudy,1-Oct-17,13
KHOU 02/Dec/2018 13,1019,HOU2018,2-Dec-18,2-Dec-18,2-Dec-18,1:00,13,HOU,-5,CLE,42,U,48,2018,Week 13,71741,HOU,-5,5,CLE,29,13,Y,71995,0,16,77,0,Houston,KHOU,KHOU4343613,KHOU,O,2-Dec-18,CST,29.633,-95.283,118,79,49,64,79,50,49,37,44,86,23,53,58,48,53,10,5,9,10,5,10,3251,331,3582,589,622,0,0,29.9,29.73,29.8,1013,1007.2,1009.5,45,CLR,Mostly Clear,KHOU,O,CST,29.633,-95.283,118,77,77,37,24,56,10,6,5,250,FEW,10,532,54,586,540,594,771,0,0,0,29.79,1009.4,45,CLR,Mostly Clear,2-Dec-18,13
KHOU 02/Nov/2014 13,1020,HOU2014,2-Nov-14,2-Nov-14,2-Nov-14,1:00,13,PHI,-2,HOU,52,O,48.5,2014,Week 9,71780,HOU,2,-2,PHI,21,31,Y,71795,0,12,71,0,Houston,KHOU,KHOU4194513,KHOU,O,2-Nov-14,CST,29.645,-95.279,46,71,48,60,71,45,57,39,49,93,55,68,61,44,54,13,8,90,20,45,10,3125,416,3541,228,657,0,0,30.38,30.25,30.32,1028.9,1024.3,1026.6,45,CLR,Mostly Clear,KHOU,O,CST,29.645,-95.279,46,71,71,54,55,61,150,9,90,35,BKN,10,442,64,506,640,704,914,0,0,0,30.31,1026.5,44,PC,Partly Cloudy,2-Nov-14,13
KHOU 02/Oct/2016 13,1021,HOU2016,2-Oct-16,2-Oct-16,2-Oct-16,1:00,13,HOU,-4,TEN,47,O,40.5,2016,Week 4,71815,HOU,-4,4,TEN,27,20,Y,71795,0,14,82,0,Houston,KHOU,KHOU4264513,KHOU,O,2-Oct-16,CST,29.645,-95.279,46,87,68,77,88,68,66,58,62,82,39,62,70,63,67,9,6,65,9,45,10,4673,550,5223,406,710,0,0,30.06,29.96,30.01,1017.9,1014.7,1016.4,45,CLR,Mostly Clear,KHOU,O,CST,29.645,-95.279,46,85,85,58,40,68,360,5,10,40,FEW,10,759,79,838,791,870,1130,0,0,0,30.01,1016.3,45,CLR,Mostly Clear,2-Oct-16,13
KHOU 03/Jan/2016 13,1022,HOU2015,3-Jan-16,3-Jan-16,3-Jan-16,1:00,13,HOU,-6,JAX,36,U,45,2015,Week 17,71899,HOU,-6,6,JAX,30,6,Y,71795,0,13,44,0,Houston,KHOU,KHOU4237213,KHOU,O,3-Jan-16,CST,29.645,-95.279,46,61,44,51,61,41,41,29,38,86,31,63,49,42,45,10,6,314,36,52,10,2292,322,2615,327,618,0.04,0,30.33,30.19,30.27,1027.2,1022.2,1025.1,46,CLR,Fair,KHOU,O,CST,29.645,-95.279,46,57,56,34,42,46,340,5,20,80,SCT,10,486,54,540,540,594,772,0,0,0,30.24,1024.1,44,PC,Partly Cloudy,3-Jan-16,13
KHOU 03/Nov/2013 20,1023,HOU2013,3-Nov-13,3-Nov-13,3-Nov-13,8:30,20,IND,-1.5,HOU,51,O,43,2013,Week 9,71778,HOU,1.5,-1.5,IND,24,27,Y,71054,0,11,60,0,Houston,KHOU,KHOU4158120,KHOU,O,3-Nov-13,CST,29.645,-95.279,46,69,48,59,68,49,51,40,47,80,55,66,58,46,53,13,7,94,21,7,10,3946,415,4362,580,657,0,0,30.23,30.09,30.17,1023.6,1019.1,1021.5,45,CLR,Mostly Clear,KHOU,O,CST,29.645,-95.279,46,60,59,49,67,54,110,9,5,250,FEW,10,0,0,0,0,0,0,0,0,0,30.15,1020.9,45,CLR,Mostly Clear,3-Nov-13,20
KHOU 05/Nov/2017 13,1024,HOU2017,5-Nov-17,5-Nov-17,5-Nov-17,1:00,13,HOU,-6,IND,34,U,45,2017,Week 9,71709,HOU,-6,6,IND,14,20,N,71795,0,15,40,0,Houston,KHOU,KHOU4304413,KHOU,O,5-Nov-17,CST,29.645,-95.279,46,90,74,80,95,75,75,69,72,97,52,81,77,74,75,17,9,186,23,61,9.1,2050,406,2456,111,653,0,0,30.02,29.91,29.97,1016.9,1013.3,1015.2,42,MC,Mostly Cloudy,KHOU,O,CST,29.645,-95.279,46,89,95,69,52,75,200,16,100,250,BKN,10,275,63,338,626,689,895,0,0,0,29.95,1014.6,42,MC,Mostly Cloudy,5-Nov-17,13
KHOU 06/Oct/2019 13,1025,HOU2019,6-Oct-19,6-Oct-19,6-Oct-19,1:00,13,HOU,-3.5,ATL,85,O,47,2019,Week 5,71787,HOU,-3.5,3.5,HOU,53,32,Y,71995,0,17,84,0,Houston,KHOU,KHOU4374413,KHOU,O,6-Oct-19,CST,29.633,-95.283,118,91,75,83,95,75,73,64,70,88,42,68,76,72,74,14,6,113,14,25,9.9,4518,536,5054,464,702,0,0,30,29.91,29.95,1016.4,1013.3,1014.7,44,PC,Partly Cloudy,KHOU,O,CST,29.633,-95.283,118,91,95,66,44,74,130,10,40,250,SCT,10,652,78,730,776,854,1108,0,0,0,29.96,1015,44,PC,Partly Cloudy,6-Oct-19,13
KHOU 07/Oct/2018 20,1026,HOU2018,7-Oct-18,7-Oct-18,7-Oct-18,8:20,20,HOU,-3.5,DAL,35,U,45.5,2018,Week 5,72008,HOU,-3.5,3.5,DAL,19,16,N,71995,0,16,42,0,Houston,KHOU,KHOU4338020,KHOU,O,7-Oct-18,CST,29.633,-95.283,118,91,76,82,97,76,76,68,73,90,54,76,78,73,76,17,8,133,31,66,9.9,2556,530,3086,12,701,0,0,29.97,29.88,29.92,1015.1,1012.3,1013.4,52,PC,High Clouds,KHOU,O,CST,29.633,-95.283,118,78,83,74,87,75,110,5,25,250,SCT,10,0,0,0,0,0,0,0,0,0,29.89,1012.7,54,CLR,Few High Clouds,7-Oct-18,20
KHOU 07/Sep/2014 13,1027,HOU2014,7-Sep-14,7-Sep-14,7-Sep-14,1:00,13,HOU,-3,WAS,23,U,44,2014,Week 1,71770,HOU,-3,3,WAS,17,6,Y,71795,0,12,82,0,Houston,KHOU,KHOU4188913,KHOU,O,7-Sep-14,CST,29.645,-95.279,46,90,74,79,98,75,76,71,74,94,57,84,79,73,75,14,4,356,25,90,10,2867,662,3529,48,753,0.02,0,30.03,29.95,30,1017.4,1014.6,1016.1,52,PC,High Clouds,KHOU,O,CST,29.645,-95.279,46,82,88,73,74,76,150,14,100,250,BKN,10,86,91,177,909,1000,1299,0,0,0,30,1016.2,31,TSTM,Thunder,7-Sep-14,13
KHOU 08/Dec/2019 13,1028,HOU2019,8-Dec-19,8-Dec-19,8-Dec-19,1:00,13,HOU,-5.5,DEN,62,O,45,2019,Week 14,71769,HOU,-5.5,5.5,IND,24,38,Y,71995,0,17,25,0,Houston,KHOU,KHOU4380713,KHOU,O,8-Dec-19,CST,29.633,-95.283,118,75,50,63,77,52,63,48,56,100,57,81,65,50,58,15,7,156,20,50,7.2,1837,320,2157,308,617,0,0,30.14,29.89,30.02,1021.4,1013,1017.2,46,CLR,Fair,KHOU,O,CST,29.633,-95.283,118,72,72,57,61,63,170,12,70,26,BKN,10,234,53,287,531,584,758,0,0,0,30.03,1017.2,42,MC,Mostly Cloudy,8-Dec-19,13
KHOU 08/Oct/2015 20,1029,HOU2015,8-Oct-15,8-Oct-15,8-Oct-15,8:25,20,HOU,-5,IND,47,O,41,2015,Week 5,71732,HOU,-5,5,IND,20,27,Y,71795,0,13,76,0,Houston,KHOU,KHOU4228520,KHOU,O,8-Oct-15,CST,29.645,-95.279,46,87,71,78,89,71,71,62,67,91,45,70,74,69,71,8,2,96,8,85,10,3635,527,4162,36,699,0,0,30.06,29.98,30.02,1018,1015.4,1016.7,45,CLR,Mostly Clear,KHOU,O,CST,29.645,-95.279,46,77,80,66,69,70,160,3,100,250,OVC,10,0,0,0,0,0,0,0,0,0,30.02,1016.6,50,PC,High Overcast,8-Oct-15,20
KHOU 08/Oct/2017 20,1030,HOU2017,8-Oct-17,8-Oct-17,8-Oct-17,8:30,20,KC,-2,HOU,76,O,45,2017,Week 5,71835,HOU,2,-2,KC,34,42,Y,71795,0,15,46,0,Houston,KHOU,KHOU4301620,KHOU,O,8-Oct-17,CST,29.645,-95.279,46,94,76,84,104,76,76,68,73,88,43,71,79,73,76,13,5,189,13,43,10,3044,527,3571,228,699,0,0,29.75,29.66,29.71,1007.3,1004.3,1006,45,CLR,Mostly Clear,KHOU,O,CST,29.645,-95.279,46,83,91,76,79,78,170,7,25,70,SCT,10,0,0,0,0,0,0,0,0,0,29.71,1006,45,CLR,Mostly Clear,8-Oct-17,20
KHOU 09/Dec/2018 13,1031,HOU2018,9-Dec-18,9-Dec-18,9-Dec-18,1:00,13,HOU,-4,IND,45,U,49,2018,Week 14,71814,HOU,-4,4,IND,21,24,N,71995,0,16,26,0,Houston,KHOU,KHOU4344313,KHOU,O,9-Dec-18,CST,29.633,-95.283,118,49,44,46,48,37,39,37,38,79,71,74,44,41,43,17,12,329,23,96,9.9,1605,320,1926,3,617,0,0,30.35,30.15,30.25,1028.3,1021.4,1025,40,MC,Overcast,KHOU,O,CST,29.633,-95.283,118,48,43,39,71,44,320,12,100,18,OVC,10,264,53,318,529,582,756,0,0,0,30.27,1025.5,40,MC,Overcast,9-Dec-18,13
KHOU 09/Oct/2014 20,1032,HOU2014,9-Oct-14,9-Oct-14,9-Oct-14,8:25,20,IND,-2.5,HOU,61,O,46,2014,Week 6,71787,HOU,2.5,-2.5,IND,28,33,Y,71795,0,12,77,0,Houston,KHOU,KHOU4192120,KHOU,O,9-Oct-14,CST,29.645,-95.279,46,90,72,80,94,72,75,66,72,97,48,79,76,71,74,13,5,167,17,26,10,4424,521,4945,460,698,0,0,30.03,29.93,29.98,1017,1013.6,1015.3,45,CLR,Mostly Clear,KHOU,O,CST,29.645,-95.279,46,78,83,73,85,75,150,6,5,30,FEW,10,0,0,0,0,0,0,0,0,0,29.96,1014.5,45,CLR,Mostly Clear,9-Oct-14,20
KHOU 10/Dec/2017 13,1033,HOU2017,10-Dec-17,10-Dec-17,10-Dec-17,1:00,13,HOU,-1.5,SF,42,U,45.5,2017,Week 14,71802,HOU,-1.5,1.5,SF,16,26,Y,71795,0,15,84,0,Houston,KHOU,KHOU4307913,KHOU,O,10-Dec-17,CST,29.645,-95.279,46,64,36,49,63,37,38,29,34,93,28,61,48,36,43,6,3,276,6,17,10,2855,320,3175,399,617,0,0,30.46,30.35,30.39,1031.8,1028.2,1029.5,45,CLR,Mostly Clear,KHOU,O,CST,29.645,-95.279,46,61,61,29,30,47,340,5,70,250,BKN,10,417,53,470,528,581,755,0,0,0,30.4,1029.7,52,PC,High Clouds,10-Dec-17,13
KHOU 10/Sep/2017 13,1034,HOU2017,10-Sep-17,10-Sep-17,10-Sep-17,1:00,13,HOU,-5.5,JAX,36,U,38,2017,Week 1,71710,HOU,-5.5,5.5,JAX,7,29,Y,71795,0,15,78,0,Houston,KHOU,KHOU4298813,KHOU,O,10-Sep-17,CST,29.645,-95.279,46,88,69,78,87,69,61,57,59,73,37,53,69,64,66,17,12,35,23,7,10,6315,651,6966,691,749,0,0,30.09,30.01,30.05,1019.5,1016.6,1018,46,CLR,Fair,KHOU,O,CST,29.645,-95.279,46,87,87,59,39,69,20,14,5,50,FEW,10,876,90,966,898,988,1282,0,0,0,30.04,1017.8,46,CLR,Fair,10-Sep-17,13
KHOU 11/Sep/2016 13,1035,HOU2016,11-Sep-16,11-Sep-16,11-Sep-16,1:00,13,HOU,-5.5,CHI,37,U,42.5,2016,Week 1,71933,HOU,-5.5,5.5,CHI,23,14,Y,71795,0,14,87,0,Houston,KHOU,KHOU4262413,KHOU,O,11-Sep-16,CST,29.645,-95.279,46,92,73,82,100,73,74,70,71,96,51,72,78,72,74,10,5,8,10,24,10,5378,643,6020,510,747,0,0,30.13,29.99,30.06,1020.4,1015.6,1018,45,CLR,Mostly Clear,KHOU,O,CST,29.645,-95.279,46,90,97,71,54,77,350,6,90,40,BKN,10,490,89,578,890,979,1271,0,0,0,30.07,1018.4,44,PC,Partly Cloudy,11-Sep-16,13
KHOU 13/Dec/2015 20,1036,HOU2015,13-Dec-15,13-Dec-15,13-Dec-15,8:30,20,NE,-5,HOU,33,U,46.5,2015,Week 14,71908,HOU,5,-5,NE,6,27,Y,71795,0,13,52,0,Houston,KHOU,KHOU4235120,KHOU,O,13-Dec-15,CST,29.645,-95.279,46,75,48,59,79,48,71,47,56,97,84,91,72,48,58,28,11,161,39,89,8,1576,316,1891,0,615,1.91,0,29.82,29.63,29.76,1009.7,1003.3,1007.6,18,RAIN,Light Rain,KHOU,O,CST,29.645,-95.279,46,52,52,50,93,51,170,3,20,120,SCT,10,0,0,0,0,0,0,0,0,0,29.79,1008.9,44,PC,Partly Cloudy,13-Dec-15,20
KHOU 13/Oct/2013 13,1037,HOU2013,13-Oct-13,13-Oct-13,13-Oct-13,1:00,13,HOU,-9,LAR,51,O,43,2013,Week 6,71104,HOU,-9,9,LAR,13,38,Y,71054,0,11,76,0,Houston,KHOU,KHOU4156013,KHOU,O,13-Oct-13,CST,29.645,-95.279,46,77,72,74,80,72,73,71,72,97,88,92,74,71,72,12,6,62,12,96,8.4,1679,503,2182,34,690,0.14,0,30.16,30.05,30.1,1021.2,1017.7,1019.4,45,CLR,Mostly Clear,KHOU,O,CST,29.645,-95.279,46,76,80,72,88,73,60,6,100,10,OVC,10,111,74,185,739,813,1056,99,0.05,0,30.12,1019.9,18,RAIN,Light Rain,13-Oct-13,13
KHOU 13/Sep/2015 13,1038,HOU2015,13-Sep-15,13-Sep-15,13-Sep-15,1:00,13,KC,-1,HOU,47,O,40.5,2015,Week 1,71776,HOU,1,-1,KC,20,27,Y,71795,0,13,83,0,Houston,KHOU,KHOU4226013,KHOU,O,13-Sep-15,CST,29.645,-95.279,46,82,62,73,82,64,61,49,55,76,35,55,66,59,63,13,5,103,17,5,10,6259,638,6897,673,743,0,0,30.1,30.02,30.05,1019.4,1016.6,1017.6,45,CLR,Mostly Clear,KHOU,O,CST,29.645,-95.279,46,82,82,55,40,66,130,10,0,201,CLR,10,885,89,974,885,974,1265,0,0,0,30.09,1018.8,46,CLR,Fair,13-Sep-15,13
KHOU 14/Oct/2018 13,1039,HOU2018,14-Oct-18,14-Oct-18,14-Oct-18,1:00,13,HOU,-10,BUF,33,U,40,2018,Week 6,71638,HOU,-10,10,BUF,20,13,N,71995,0,16,88,0,Houston,KHOU,KHOU4338713,KHOU,O,14-Oct-18,CST,29.633,-95.283,118,91,76,82,97,76,73,69,71,88,53,73,77,73,74,15,7,165,21,22,10,4509,499,5007,561,689,0,0,29.91,29.81,29.86,1013.2,1010,1011.5,44,PC,Partly Cloudy,KHOU,O,CST,29.633,-95.283,118,89,95,70,53,76,160,12,20,43,SCT,10,661,73,734,734,807,1048,0,0,0,29.85,1011.3,44,PC,Partly Cloudy,14-Oct-18,13
KHOU 15/Oct/2017 13,1040,HOU2017,15-Oct-17,15-Oct-17,15-Oct-17,1:00,13,HOU,-7.5,CLE,50,O,46,2017,Week 6,71815,HOU,-7.5,7.5,CLE,33,17,Y,71795,0,15,40,0,Houston,KHOU,KHOU4302313,KHOU,O,15-Oct-17,CST,29.645,-95.279,46,93,73,80,97,74,72,54,67,88,44,67,76,65,72,20,10,7,28,68,10,3302,494,3796,109,687,0,0,30.18,30,30.08,1022,1015.9,1018.8,45,CLR,Mostly Clear,KHOU,O,CST,29.645,-95.279,46,92,97,67,44,75,350,10,90,36,BKN,10,503,73,576,729,802,1041,0,0,0,30.06,1018,44,PC,Partly Cloudy,15-Oct-17,13
KHOU 15/Sep/2013 13,1041,HOU2013,15-Sep-13,15-Sep-13,15-Sep-13,1:00,13,HOU,-7.5,TEN,54,O,42,2013,Week 2,71718,HOU,-7.5,7.5,TEN,30,24,N,71054,0,11,91,0,Houston,KHOU,KHOU4153213,KHOU,O,15-Sep-13,CST,29.645,-95.279,46,92,76,84,100,76,76,70,73,91,50,72,78,74,76,15,8,96,22,87,9.2,4316,632,4948,64,740,0,0,30.01,29.92,29.96,1016.1,1013.1,1014.7,45,CLR,Mostly Clear,KHOU,O,CST,29.645,-95.279,46,91,100,72,54,78,90,10,100,34,BKN,10,517,88,605,877,965,1253,0,0,0,29.98,1015.2,44,PC,Partly Cloudy,15-Sep-13,13
KHOU 15/Sep/2019 13,1042,HOU2019,15-Sep-19,15-Sep-19,15-Sep-19,1:00,13,HOU,-7,JAX,25,U,43,2019,Week 2,71651,HOU,-7,7,JAX,13,12,N,71995,0,17,26,0,Houston,KHOU,KHOU4372313,KHOU,O,15-Sep-19,CST,29.633,-95.283,118,95,76,85,100,76,74,65,69,88,38,62,77,72,74,17,8,84,23,41,10,5448,632,6080,519,740,0,0,30.04,29.94,30,1017.7,1014.1,1016,44,PC,Partly Cloudy,KHOU,O,CST,29.633,-95.283,118,95,100,66,39,75,100,12,40,250,SCT,10,737,88,825,877,965,1253,0,0,0,29.99,1015.9,44,PC,Partly Cloudy,15-Sep-19,13
KHOU 16/Oct/2016 20,1043,HOU2016,16-Oct-16,16-Oct-16,16-Oct-16,8:30,20,HOU,-3,IND,49,O,48,2016,Week 6,71891,HOU,-3,3,IND,26,23,N,71795,0,14,80,0,Houston,KHOU,KHOU4265920,KHOU,O,16-Oct-16,CST,29.645,-95.279,46,91,73,80,97,73,75,69,72,94,49,78,77,71,74,14,7,155,18,26,10,3404,485,3889,370,685,0,0,30.04,29.93,29.99,1017.4,1013.5,1015.5,45,CLR,Mostly Clear,KHOU,O,CST,29.645,-95.279,46,79,84,73,82,75,160,8,5,20,FEW,10,0,0,0,0,0,0,0,0,0,29.96,1014.7,45,CLR,Mostly Clear,16-Oct-16,20
KHOU 17/Nov/2013 13,1044,HOU2013,17-Nov-13,17-Nov-13,17-Nov-13,1:00,13,HOU,-10.5,OAK,51,O,41,2013,Week 11,71726,HOU,-10.5,10.5,OAK,23,28,N,71054,0,11,85,0,Houston,KHOU,KHOU4159513,KHOU,O,17-Nov-13,CST,29.645,-95.279,46,85,71,77,90,72,73,69,71,100,61,82,75,71,73,16,8,198,25,80,8.6,808,366,1174,85,636,0,0,29.95,29.82,29.88,1014.2,1010.3,1011.8,45,CLR,Mostly Clear,KHOU,O,CST,29.645,-95.279,46,85,90,70,61,75,210,16,100,29,BKN,10,98,58,156,579,637,827,0,0,0,29.86,1011.1,45,CLR,Mostly Clear,17-Nov-13,13
KHOU 18/Dec/2016 13,1045,HOU2016,18-Dec-16,18-Dec-16,18-Dec-16,1:00,13,HOU,-3.5,JAX,41,P,41,2016,Week 15,71803,HOU,-3.5,3.5,JAX,21,20,N,71795,0,14,37,0,Houston,KHOU,KHOU4272213,KHOU,O,18-Dec-16,CST,29.645,-95.279,46,49,35,40,49,24,41,19,24,86,43,55,47,31,34,26,20,356,38,87,10,1231,313,1544,99,614,0,0,30.53,30.05,30.34,1033.9,1017.5,1027.3,42,MC,Mostly Cloudy,KHOU,O,CST,29.645,-95.279,46,41,33,22,47,34,360,17,100,70,BKN,10,178,52,230,524,576,749,0,0,0,30.35,1027.7,44,PC,Partly Cloudy,18-Dec-16,13
KHOU 18/Sep/2016 13,1046,HOU2016,18-Sep-16,18-Sep-16,18-Sep-16,1:00,13,HOU,-1,KC,31,U,42,2016,Week 2,71890,HOU,-1,1,KC,19,12,Y,71795,0,14,89,0,Houston,KHOU,KHOU4263113,KHOU,O,18-Sep-16,CST,29.645,-95.279,46,97,77,85,108,78,79,72,76,97,46,77,81,77,79,12,5,203,12,33,10,5075,613,5688,370,734,0,0,30,29.9,29.95,1016.4,1012.9,1014.6,44,PC,Partly Cloudy,KHOU,O,CST,29.645,-95.279,46,91,101,74,57,79,370,3,20,25,SCT,10,773,86,859,859,945,1228,0,0,0,29.96,1015,44,PC,Partly Cloudy,18-Sep-16,13
KHOU 19/Nov/2017 13,1047,HOU2017,19-Nov-17,19-Nov-17,19-Nov-17,1:00,13,HOU,-2.5,ARI,52,O,38,2017,Week 11,71680,HOU,-2.5,2.5,ARI,31,21,Y,71795,0,15,79,0,Houston,KHOU,KHOU4305813,KHOU,O,19-Nov-17,CST,29.645,-95.279,46,65,49,56,65,44,39,30,34,61,28,44,50,43,46,24,12,16,30,41,10,3399,359,3758,412,635,0,0,30.34,30.2,30.25,1028,1023,1024.8,45,CLR,Mostly Clear,KHOU,O,CST,29.645,-95.279,46,64,63,31,29,49,10,13,20,250,SCT,10,539,57,596,573,630,818,0,0,0,30.26,1025.1,54,CLR,Few High Clouds,19-Nov-17,13
KHOU 21/Dec/2014 13,1048,HOU2014,21-Dec-14,21-Dec-14,21-Dec-14,1:00,13,BAL,-6.5,HOU,38,U,41.5,2014,Week 16,71771,HOU,6.5,-6.5,BAL,25,13,Y,71795,0,12,58,0,Houston,KHOU,KHOU4199413,KHOU,O,21-Dec-14,CST,29.645,-95.279,46,63,49,54,61,47,55,46,49,97,67,83,56,48,51,8,6,93,8,85,9.5,1830,313,2142,60,615,0,0,30.17,29.87,30.04,1021.7,1011.6,1017.4,40,MC,Overcast,KHOU,O,CST,29.645,-95.279,46,60,60,49,67,54,40,6,70,80,BKN,10,341,52,393,525,577,750,0,0,0,30.03,1017,42,MC,Mostly Cloudy,21-Dec-14,13
KHOU 21/Nov/2019 13,1049,HOU2019,21-Nov-19,21-Nov-19,21-Nov-19,1:00,13,HOU,-2,IND,37,U,47.5,2019,Week 12,71727,HOU,-2,2,IND,20,17,Y,71995,0,17,59,0,Houston,KHOU,KHOU4379013,KHOU,O,21-Nov-19,CST,29.633,-95.283,118,79,72,75,82,72,69,64,66,84,65,74,71,67,69,17,13,153,30,96,10,1830,355,2184,0,632,0,0,30.04,29.94,29.98,1017.6,1014.3,1015.8,42,MC,Mostly Cloudy,KHOU,O,CST,29.633,-95.283,118,78,81,66,67,70,160,16,100,250,OVC,10,201,57,258,566,623,809,0,0,0,29.97,1015.3,50,PC,High Overcast,21-Nov-19,13
KHOU 22/Dec/2013 13,1050,HOU2013,22-Dec-13,22-Dec-13,22-Dec-13,1:00,13,DEN,-10,HOU,50,U,54,2013,Week 16,71761,HOU,10,-10,DEN,13,37,Y,71054,0,11,59,0,Houston,KHOU,KHOU4163013,KHOU,O,22-Dec-13,CST,29.645,-95.279,46,63,39,54,63,32,58,30,46,96,58,76,59,36,51,21,9,336,29,62,9.9,1457,313,1771,110,614,0.03,0,30.35,29.84,30.06,1027.7,1010.6,1018.1,45,CLR,Mostly Clear,KHOU,O,CST,29.645,-95.279,46,59,57,49,69,54,330,12,100,40,OVC,10,262,53,316,525,578,751,0,0,0,30.05,1017.7,45,CLR,Mostly Clear,22-Dec-13,13
KHOU 22/Nov/2015 13,1051,HOU2015,22-Nov-15,22-Nov-15,22-Nov-15,1:00,13,NYJ,-4,HOU,41,O,40,2015,Week 11,71718,HOU,4,-4,NYJ,24,17,Y,71795,0,13,52,0,Houston,KHOU,KHOU4233013,KHOU,O,22-Nov-15,CST,29.645,-95.279,46,56,40,47,56,33,37,24,30,80,30,54,43,37,40,16,8,22,22,5,10,3423,351,3774,600,631,0,0,30.35,30.23,30.28,1027.6,1023.6,1025.3,46,CLR,Fair,KHOU,O,CST,29.645,-95.279,46,52,50,25,35,41,330,6,5,216,CLR,10,549,56,605,563,619,805,0,0,0,30.29,1025.7,46,CLR,Fair,22-Nov-15,13
KHOU 23/Nov/2014 13,1052,HOU2014,23-Nov-14,23-Nov-14,23-Nov-14,1:00,13,HOU,-2.5,CIN,35,U,44.5,2014,Week 12,71777,HOU,-2.5,2.5,CIN,13,22,Y,71795,0,12,76,0,Houston,KHOU,KHOU4196613,KHOU,O,23-Nov-14,CST,29.645,-95.279,46,80,59,67,80,60,63,49,58,97,34,75,64,60,62,17,10,220,25,28,9.9,3450,349,3799,590,630,0.31,0,29.75,29.55,29.65,1007.5,1000.7,1004,46,CLR,Fair,KHOU,O,CST,29.645,-95.279,46,76,78,56,50,64,220,16,0,201,CLR,10,561,56,617,561,617,801,0,0,0,29.61,1002.6,46,CLR,Fair,23-Nov-14,13
KHOU 23/Sep/2018 13,1053,HOU2018,23-Sep-18,23-Sep-18,23-Sep-18,1:00,13,HOU,-6,NYG,49,O,44.5,2018,Week 3,71838,HOU,-6,6,NYG,22,27,N,71995,0,16,87,0,Houston,KHOU,KHOU4336613,KHOU,O,23-Sep-18,CST,29.633,-95.283,118,85,71,77,88,71,73,66,68,94,59,77,74,70,71,12,6,268,12,89,9.8,3867,594,4461,153,726,0.06,0,29.93,29.83,29.88,1014.1,1010.7,1012.3,42,MC,Mostly Cloudy,KHOU,O,CST,29.633,-95.283,118,82,85,68,63,73,260,8,40,250,SCT,10,706,84,790,840,924,1201,0,0,0,29.89,1012.5,44,PC,Partly Cloudy,23-Sep-18,13
KHOU 24/Dec/2016 20,1054,HOU2016,24-Dec-16,24-Dec-16,24-Dec-16,8:25,20,HOU,-3,CIN,22,U,41.5,2016,Week 16,71836,HOU,-3,3,CIN,12,10,N,71795,0,14,72,0,Houston,KHOU,KHOU4272820,KHOU,O,24-Dec-16,CST,29.645,-95.279,46,80,67,72,82,67,68,66,67,100,67,87,71,67,69,14,9,145,21,83,8.2,1821,314,2136,139,614,0,0,30.14,30.06,30.1,1020.7,1017.8,1019.2,42,MC,Mostly Cloudy,KHOU,O,CST,29.645,-95.279,46,69,69,68,96,68,120,8,100,4,BKN,7,0,0,0,0,0,0,0,0,0,30.09,1019,42,MC,Mostly Cloudy,24-Dec-16,20
KHOU 24/Nov/2013 13,1055,HOU2013,24-Nov-13,24-Nov-13,24-Nov-13,1:00,13,HOU,-10.5,JAX,19,U,43.5,2013,Week 12,71659,HOU,-10.5,10.5,JAX,6,13,N,71054,0,11,50,0,Houston,KHOU,KHOU4160213,KHOU,O,24-Nov-13,CST,29.645,-95.279,46,50,44,47,50,35,36,29,31,71,48,55,43,38,40,22,15,30,28,94,10,1729,347,2078,2,629,0,0,30.43,30.31,30.36,1030.4,1026,1028.2,42,MC,Mostly Cloudy,KHOU,O,CST,29.645,-95.279,46,50,46,31,48,42,360,10,100,60,OVC,10,278,56,334,557,613,796,0,0,0,30.37,1028.3,40,MC,Overcast,24-Nov-13,13
KHOU 25/Dec/2017 16,1056,HOU2017,25-Dec-17,25-Dec-17,25-Dec-17,4:30,16,PIT,-9.5,HOU,40,U,45.5,2017,Week 16,71842,HOU,9.5,-9.5,PIT,6,34,Y,71795,0,15,79,0,Houston,KHOU,KHOU4309416,KHOU,O,25-Dec-17,CST,29.645,-95.279,46,52,38,47,51,33,44,32,39,89,56,74,47,37,43,15,11,67,16,65,10,1946,314,2260,139,615,0,0,30.43,30.2,30.34,1030.9,1023,1027.7,40,MC,Overcast,KHOU,O,CST,29.645,-95.279,46,51,47,41,69,46,80,13,100,250,BKN,10,72,16,88,164,180,235,0,0,0,30.28,1025.8,42,MC,Mostly Cloudy,25-Dec-17,16
KHOU 25/Oct/2018 20,1057,HOU2018,25-Oct-18,25-Oct-18,25-Oct-18,8:20,20,HOU,-7.5,MIA,65,O,44.5,2018,Week 8,71726,HOU,-7.5,7.5,MIA,42,23,Y,71995,0,16,74,0,Houston,KHOU,KHOU4339820,KHOU,O,25-Oct-18,CST,29.633,-95.283,118,70,59,65,70,60,65,55,59,100,61,82,65,57,62,17,9,320,23,77,7.8,2413,450,2864,96,670,0.31,0,29.93,29.84,29.88,1014.1,1011,1012.3,40,MC,Overcast,KHOU,O,CST,29.633,-95.283,118,64,64,55,73,59,340,7,100,30,SCT,0,0,0,0,0,0,0,0,0,0,29.9,1012.8,40,MC,Overcast,25-Oct-18,20
KHOU 26/Nov/2018 20,1058,HOU2018,26-Nov-18,26-Nov-18,26-Nov-18,8:15,20,HOU,-4,TEN,51,O,42.5,2018,Week 12,71826,HOU,-4,4,TEN,34,17,Y,71995,0,16,88,0,Houston,KHOU,KHOU4343020,KHOU,O,26-Nov-18,CST,29.633,-95.283,118,59,42,50,58,36,32,24,29,63,27,46,45,38,41,20,13,337,26,31,10,3077,341,3418,478,627,0,0,30.29,30.14,30.24,1026.1,1021.2,1024.4,54,CLR,Few High Clouds,KHOU,O,CST,29.633,-95.283,118,48,45,28,46,40,320,6,20,250,SCT,10,0,0,0,0,0,0,0,0,0,30.27,1025.4,54,CLR,Few High Clouds,26-Nov-18,20
KHOU 27/Nov/2016 13,1059,HOU2016,27-Nov-16,27-Nov-16,27-Nov-16,1:00,13,LAC,-2.5,HOU,34,U,46,2016,Week 12,71897,HOU,2.5,-2.5,LAC,13,21,Y,71795,0,14,67,0,Houston,KHOU,KHOU4270113,KHOU,O,27-Nov-16,CST,29.645,-95.279,46,74,54,65,77,52,65,52,57,93,57,77,67,53,60,16,10,135,23,80,9.5,1753,338,2091,62,626,0,0,30.21,29.79,30.02,1023.1,1008.8,1016.7,45,CLR,Mostly Clear,KHOU,O,CST,29.645,-95.279,46,72,72,58,61,64,150,16,100,33,BKN,10,243,55,298,547,602,782,0,0,0,30.02,1016.7,44,PC,Partly Cloudy,27-Nov-16,13
KHOU 27/Oct/2019 13,1060,HOU2019,27-Oct-19,27-Oct-19,27-Oct-19,1:00,13,HOU,-7,OAK,51,O,52,2019,Week 8,71893,HOU,-7,7,OAK,27,24,N,71995,0,17,34,0,Houston,KHOU,KHOU4376513,KHOU,O,27-Oct-19,CST,29.633,-95.283,118,77,52,65,79,53,61,49,55,90,50,74,65,51,59,13,6,131,13,12,10,4042,442,4484,549,667,0,0,30.02,29.93,29.97,1017,1013.9,1015.2,45,CLR,Mostly Clear,KHOU,O,CST,29.633,-95.283,118,75,77,56,52,64,150,9,40,250,SCT,10,561,67,628,668,735,954,0,0,0,29.96,1015.1,44,PC,Partly Cloudy,27-Oct-19,13
KHOU 27/Sep/2015 13,1061,HOU2015,27-Sep-15,27-Sep-15,27-Sep-15,1:00,13,HOU,-6,TB,28,U,41,2015,Week 3,71718,HOU,-6,6,TB,19,9,Y,71795,0,13,75,0,Houston,KHOU,KHOU4227413,KHOU,O,27-Sep-15,CST,29.645,-95.279,46,77,72,74,79,72,70,66,68,90,74,82,71,69,70,14,8,9,14,100,8.6,837,576,1413,0,719,0.11,0,29.96,29.84,29.88,1014.3,1010.5,1011.9,45,CLR,Mostly Clear,KHOU,O,CST,29.645,-95.279,46,73,77,69,87,71,40,13,100,12,OVC,3,66,82,148,821,903,1173,0,0,0,29.9,1012.5,45,CLR,Mostly Clear,27-Sep-15,13
KHOU 28/Dec/2014 13,1062,HOU2014,28-Dec-14,28-Dec-14,28-Dec-14,1:00,13,HOU,-8.5,JAX,40,O,38.5,2014,Week 17,71777,HOU,-8.5,8.5,JAX,23,17,N,71795,0,12,43,0,Houston,KHOU,KHOU4200113,KHOU,O,28-Dec-14,CST,29.645,-95.279,46,48,42,43,48,36,43,40,41,97,83,92,46,42,43,16,10,352,16,100,8,1576,316,1893,0,616,0.58,0,30.24,30.14,30.18,1023.9,1020.7,1021.9,18,RAIN,Light Rain,KHOU,O,CST,29.645,-95.279,46,43,38,41,93,42,330,9,100,7,OVC,8,265,53,318,530,583,758,99,0.02,0,30.16,1021.5,18,RAIN,Light Rain,28-Dec-14,13
KHOU 28/Sep/2014 13,1063,HOU2014,28-Sep-14,28-Sep-14,28-Sep-14,1:00,13,HOU,-3,BUF,40,U,44,2014,Week 4,71756,HOU,-3,3,BUF,23,17,Y,71795,0,12,86,0,Houston,KHOU,KHOU4191013,KHOU,O,28-Sep-14,CST,29.645,-95.279,46,86,73,78,92,73,75,66,71,96,63,79,77,69,73,17,6,62,25,85,9.8,1815,573,2388,60,717,0.37,0,29.99,29.9,29.94,1016,1012.8,1014.4,42,MC,Mostly Cloudy,KHOU,O,CST,29.645,-95.279,46,86,92,72,63,76,110,5,100,110,BKN,10,208,82,290,816,898,1166,0,0,0,29.93,1013.9,42,MC,Mostly Cloudy,28-Sep-14,13
KHOU 29/Nov/2015 13,1064,HOU2015,29-Nov-15,29-Nov-15,29-Nov-15,1:00,13,HOU,-3.5,NO,30,U,51,2015,Week 12,71778,HOU,-3.5,3.5,NO,24,6,Y,71795,0,13,55,0,Houston,KHOU,KHOU4233713,KHOU,O,29-Nov-15,CST,29.645,-95.279,46,55,49,52,55,45,52,47,50,97,87,92,53,48,51,13,8,348,13,100,4.8,1678,337,2015,0,625,0.06,0,30.17,30.04,30.11,1021.7,1017.3,1019.7,40,MC,Overcast,KHOU,O,CST,29.645,-95.279,46,54,52,51,90,53,330,6,100,5,OVC,3,272,55,328,545,600,779,0,0,0,30.1,1019.4,40,MC,Overcast,29-Nov-15,13
KHOU 29/Sep/2013 13,1065,HOU2013,29-Sep-13,29-Sep-13,29-Sep-13,1:00,13,SEA,-1.5,HOU,43,O,41.5,2013,Week 4,71756,HOU,1.5,-1.5,SEA,20,23,Y,71054,0,11,82,0,Houston,KHOU,KHOU4154613,KHOU,O,29-Sep-13,CST,29.645,-95.279,46,84,77,79,90,77,76,72,74,90,77,85,78,74,76,13,5,134,18,96,9.8,774,567,1341,3,714,0.38,0,29.98,29.91,29.95,1015.4,1012.8,1014.2,45,CLR,Mostly Clear,KHOU,O,CST,29.645,-95.279,46,82,89,75,79,77,100,10,100,12,BKN,10,235,81,316,811,892,1159,0,0,0,29.95,1014.2,44,PC,Partly Cloudy,29-Sep-13,13
KHOU 29/Sep/2019 13,1066,HOU2019,29-Sep-19,29-Sep-19,29-Sep-19,1:00,13,HOU,-5.5,CAR,26,U,47.5,2019,Week 4,71699,HOU,-5.5,5.5,CAR,10,16,Y,71995,0,17,49,0,Houston,KHOU,KHOU4373713,KHOU,O,29-Sep-19,CST,29.633,-95.283,118,92,78,84,99,78,75,70,73,87,53,72,78,75,77,16,10,129,16,46,10,4006,568,4574,311,714,0,0,30.05,29.97,30,1017.8,1015.2,1016.2,44,PC,Partly Cloudy,KHOU,O,CST,29.633,-95.283,118,90,97,71,54,77,120,12,40,250,SCT,10,681,81,762,811,892,1159,0,0,0,30,1016.1,44,PC,Partly Cloudy,29-Sep-19,13
KHOU 30/Dec/2018 13,1067,HOU2018,30-Dec-18,30-Dec-18,30-Dec-18,1:00,13,HOU,-7,JAX,23,U,39.5,2018,Week 17,71848,HOU,-7,7,JAX,20,3,Y,71995,0,16,52,0,Houston,KHOU,KHOU4346413,KHOU,O,30-Dec-18,CST,29.633,-95.283,118,50,46,48,49,41,48,41,44,97,77,87,48,44,46,13,7,2,13,100,6.7,1586,317,1904,0,616,0.04,0,30.15,29.85,30.01,1021.3,1011.4,1016.7,40,MC,Overcast,KHOU,O,CST,29.633,-95.283,118,48,43,45,89,47,350,12,100,7,OVC,8,266,53,320,533,586,762,99,0.02,0,29.98,1015.7,18,RAIN,Light Rain,30-Dec-18,13
KHOU 30/Nov/2014 13,1068,HOU2014,30-Nov-14,30-Nov-14,30-Nov-14,1:00,13,HOU,-7,TEN,66,O,42.5,2014,Week 13,71714,HOU,-7,7,TEN,45,21,Y,71795,0,12,78,0,Houston,KHOU,KHOU4197313,KHOU,O,30-Nov-14,CST,29.645,-95.279,46,79,62,69,80,62,64,61,63,97,58,81,69,61,65,15,8,167,22,26,10,2169,334,2504,320,624,0,0,30.16,30.06,30.1,1021.3,1017.9,1019.4,45,CLR,Mostly Clear,KHOU,O,CST,29.645,-95.279,46,78,80,62,58,68,190,12,40,36,SCT,10,434,54,488,543,597,776,0,0,0,30.09,1019.1,44,PC,Partly Cloudy,30-Nov-14,13
KHOU 30/Oct/2016 13,1069,HOU2016,30-Oct-16,30-Oct-16,30-Oct-16,1:00,13,HOU,-1,DET,33,U,46.5,2016,Week 8,71882,HOU,-1,1,DET,20,13,Y,71795,0,14,80,0,Houston,KHOU,KHOU4267313,KHOU,O,30-Oct-16,CST,29.645,-95.279,46,86,63,73,86,64,70,53,63,97,35,75,72,62,67,8,4,111,8,4,9.7,4125,425,4550,619,663,0,0,30.19,30.1,30.14,1022.5,1019.2,1020.5,45,CLR,Mostly Clear,KHOU,O,CST,29.645,-95.279,46,84,86,63,49,70,110,8,10,25,FEW,10,621,65,686,649,714,927,0,0,0,30.14,1020.8,45,CLR,Mostly Clear,30-Oct-16,13
KIND 01/Dec/2013 13,1070,IND2013,1-Dec-13,1-Dec-13,1-Dec-13,1:00,13,IND,-3.5,TEN,36,U,46.5,2013,Week 13,65502,IND,-3.5,3.5,LAR,22,14,Y,67000,0,5,72,1,Indianapolis,KIND,KIND4160913,KIND,O,1-Dec-13,EST,39.717,-86.295,797,52,32,41,52,28,34,23,30,76,50,64,44,30,36,12,7,250,24,18,9.8,2044,206,2250,554,574,0,0,30.11,29.95,30.04,1020.1,1014.4,1017.5,46,CLR,Fair,KIND,O,EST,39.717,-86.295,797,50,46,34,54,43,260,9,5,110,FEW,10,378,38,416,385,423,550,0,0,0,30.04,1017.5,54,CLR,Few High Clouds,1-Dec-13,13
KIND 01/Dec/2019 13,1071,IND2019,1-Dec-19,1-Dec-19,1-Dec-19,1:00,13,IND,-7,TEN,48,O,47,2019,Week 13,60361,IND,-7,7,TB,17,31,Y,67000,0,11,49,0,Indianapolis,KIND,KIND4380013,KIND,O,1-Dec-19,EST,39.717,-86.3,791,49,34,40,48,25,48,29,36,100,65,89,48,34,39,22,13,252,47,84,8.8,1068,206,1273,28,574,0.28,0,29.67,29.37,29.48,1005.1,994.7,998.6,18,RAIN,Light Rain,KIND,O,EST,39.717,-86.3,791,36,25,34,93,35,230,21,100,24,OVC,10,192,38,230,385,423,550,99,0.01,0,29.47,998.3,18,RAIN,Light Rain,1-Dec-19,13
KIND 01/Jan/2017 13,1072,IND2016,1-Jan-17,1-Jan-17,1-Jan-17,1:00,13,IND,-5.5,JAX,44,U,48.5,2016,Week 17,65160,IND,-5.5,5.5,NYG,24,20,N,67000,0,8,24,0,Indianapolis,KIND,KIND4273613,KIND,O,1-Jan-17,EST,39.717,-86.295,797,45,23,34,45,18,34,20,28,89,61,77,40,23,31,8,6,70,24,58,9.6,1900,194,2094,432,566,0,0,30.15,29.99,30.09,1021.8,1016.2,1019.6,40,MC,Overcast,KIND,O,EST,39.717,-86.295,797,42,38,32,68,38,140,7,10,200,FEW,10,356,37,393,372,409,531,0,0,0,30.12,1020.5,45,CLR,Mostly Clear,1-Jan-17,13
KIND 03/Jan/2016 13,1073,IND2015,3-Jan-16,3-Jan-16,3-Jan-16,1:00,13,IND,-4,TEN,54,O,39,2015,Week 17,65733,IND,-4,4,CIN,30,24,Y,67000,0,7,38,0,Indianapolis,KIND,KIND4237213,KIND,O,3-Jan-16,EST,39.717,-86.295,797,34,25,30,34,17,25,20,23,85,67,76,30,25,28,15,11,298,15,84,9.9,1174,200,1372,132,567,0,0,30.21,29.96,30.08,1024,1015.3,1019.5,40,MC,Overcast,KIND,O,EST,39.717,-86.295,797,32,25,23,69,29,270,8,100,29,OVC,10,188,38,226,375,413,536,0,0,0,30.09,1019.5,40,MC,Overcast,3-Jan-16,13
KIND 04/Oct/2015 13,1074,IND2015,4-Oct-15,4-Oct-15,4-Oct-15,1:00,13,IND,-4,JAX,29,U,43.5,2015,Week 4,65609,IND,-4,4,MIA,16,13,N,67000,0,7,72,1,Indianapolis,KIND,KIND4228113,KIND,O,4-Oct-15,EST,39.717,-86.295,797,76,50,62,77,45,57,46,52,86,52,73,64,48,56,14,11,42,24,60,10,3309,441,3750,257,697,0,0,30.09,30.03,30.06,1018.9,1016.5,1017.7,52,PC,High Clouds,KIND,O,EST,39.717,-86.295,797,70,70,55,59,61,30,10,90,250,BKN,10,459,67,526,665,732,950,0,0,0,30.07,1018.2,52,PC,High Clouds,4-Oct-15,13
KIND 05/Oct/2014 13,1075,IND2014,5-Oct-14,5-Oct-14,5-Oct-14,1:00,13,IND,-3,BAL,33,U,49.5,2014,Week 5,65258,IND,-3,3,DAL,20,13,Y,67000,0,6,72,1,Indianapolis,KIND,KIND4191713,KIND,O,5-Oct-14,EST,39.717,-86.295,797,59,40,49,57,35,45,31,36,79,39,62,49,37,43,22,10,200,29,84,9.9,1836,434,2270,24,694,0.13,0,29.85,29.69,29.79,1011,1005.4,1008.7,42,MC,Mostly Cloudy,KIND,O,EST,39.717,-86.295,797,57,54,32,39,46,220,15,100,80,BKN,10,290,66,356,659,725,941,0,0,0,29.78,1008.3,42,MC,Mostly Cloudy,5-Oct-14,13
KIND 06/Oct/2013 13,1076,IND2013,6-Oct-13,6-Oct-13,6-Oct-13,1:00,13,SEA,-3,IND,62,O,43.5,2013,Week 5,66608,IND,3,-3,NYG,34,28,Y,67000,0,5,72,1,Indianapolis,KIND,KIND4155313,KIND,O,6-Oct-13,EST,39.717,-86.295,797,65,44,57,65,42,64,37,53,100,59,88,64,42,56,16,10,222,25,83,8.1,2141,428,2571,6,692,1.45,0,29.85,29.74,29.79,1010.9,1007,1008.9,45,CLR,Mostly Clear,KIND,O,EST,39.717,-86.295,797,54,52,52,93,53,240,8,100,11,OVC,10,326,65,392,653,718,933,99,0.11,0,29.77,1008.1,17,RAIN,Heavy Rain,6-Oct-13,13
KIND 08/Nov/2015 16,1077,IND2015,8-Nov-15,8-Nov-15,8-Nov-15,4:25,16,DEN,-3.5,IND,51,O,45.5,2015,Week 9,66894,IND,3.5,-3.5,DEN,27,24,N,67000,0,7,72,1,Indianapolis,KIND,KIND4231616,KIND,O,8-Nov-15,EST,39.717,-86.295,797,55,33,44,54,32,34,23,28,82,33,57,43,32,38,10,5,90,24,2,10,2723,272,2995,613,613,0,0,30.47,30.3,30.38,1032.2,1026.4,1029.2,46,CLR,Fair,KIND,O,EST,39.717,-86.295,797,54,51,27,35,43,140,9,0,201,CLR,10,155,15,170,155,170,221,0,0,0,30.34,1027.8,46,CLR,Fair,8-Nov-15,16
KIND 08/Oct/2017 13,1078,IND2017,8-Oct-17,8-Oct-17,8-Oct-17,1:00,13,IND,-1.5,SF,49,O,44,2017,Week 5,65612,IND,-1.5,1.5,CAR,26,23,Y,67000,0,9,65,0,Indianapolis,KIND,KIND4301613,KIND,O,8-Oct-17,EST,39.717,-86.295,797,69,55,63,68,54,63,54,58,100,61,86,63,55,60,12,8,82,12,71,9,2347,417,2764,41,687,0.2,0,29.91,29.73,29.82,1012.6,1006.2,1009.4,46,CLR,Fair,KIND,O,EST,39.717,-86.295,797,68,68,55,63,60,110,12,100,210,BKN,10,349,64,413,641,705,916,0,0,0,29.84,1010,50,PC,High Overcast,8-Oct-17,13
KIND 08/Sep/2013 13,1079,IND2013,8-Sep-13,8-Sep-13,8-Sep-13,1:00,13,IND,-11,OAK,38,U,45.5,2013,Week 1,65412,IND,-11,11,MIN,21,17,N,67000,0,5,72,1,Indianapolis,KIND,KIND4152513,KIND,O,8-Sep-13,EST,39.717,-86.295,797,89,69,78,89,69,70,60,66,90,40,68,74,67,70,13,6,199,24,68,9.5,2842,584,3426,102,764,0,0,29.97,29.91,29.95,1014.8,1013,1014.1,45,CLR,Mostly Clear,KIND,O,EST,39.717,-86.295,797,83,84,60,46,69,220,9,100,44,BKN,10,255,81,336,810,891,1157,0,0,0,29.96,1014.7,45,CLR,Mostly Clear,8-Sep-13,13
KIND 09/Oct/2016 13,1080,IND2016,9-Oct-16,9-Oct-16,9-Oct-16,1:00,13,IND,-4,CHI,52,O,47.5,2016,Week 5,66622,IND,-4,4,OAK,29,23,Y,67000,0,8,72,1,Indianapolis,KIND,KIND4265213,KIND,O,9-Oct-16,EST,39.717,-86.295,797,71,47,58,70,47,49,41,46,83,45,66,58,45,51,10,5,121,24,10,10,3949,408,4357,599,684,0,0,30.38,30.28,30.32,1028.6,1025.4,1026.5,46,CLR,Fair,KIND,O,EST,39.717,-86.295,797,66,66,46,49,55,0,0,10,250,FEW,10,604,63,667,629,692,899,0,0,0,30.34,1027.2,45,CLR,Mostly Clear,9-Oct-16,13
KIND 09/Sep/2018 13,1081,IND2018,9-Sep-18,9-Sep-18,9-Sep-18,1:00,13,IND, PK,CIN,57,O,47.5,2018,Week 1,58699,IND, PK,PK,CIN,23,34,PK,67000,0,10,76,0,Indianapolis,KIND,KIND4335213,KIND,O,9-Sep-18,EST,39.717,-86.3,791,61,58,59,61,54,60,56,57,97,90,95,60,57,58,20,14,35,29,100,5.2,2891,578,3472,0,762,0.45,0,29.93,29.88,29.9,1013.1,1011.7,1012.3,18,RAIN,Light Rain,KIND,O,EST,39.717,-86.3,791,60,58,59,96,60,30,13,100,19,OVC,2,402,81,484,805,886,1150,99,0.03,0,29.9,1012.4,18,RAIN,Light Rain,9-Sep-18,13
KIND 10/Nov/2013 13,1082,IND2013,10-Nov-13,10-Nov-13,10-Nov-13,1:00,13,IND,-7.5,LAR,46,O,43.5,2013,Week 10,66004,IND,-7.5,7.5,LAC,8,38,Y,67000,0,5,72,1,Indianapolis,KIND,KIND4158813,KIND,O,10-Nov-13,EST,39.717,-86.295,797,48,33,42,48,29,35,28,30,78,48,63,41,32,37,17,9,295,24,15,10,2561,265,2826,541,608,0,0,30.35,30.13,30.29,1027.9,1020.2,1025.6,45,CLR,Mostly Clear,KIND,O,EST,39.717,-86.295,797,46,42,29,51,39,290,9,5,35,FEW,10,448,46,494,459,505,655,0,0,0,30.35,1027.6,45,CLR,Mostly Clear,10-Nov-13,13
KIND 10/Nov/2019 13,1083,IND2019,10-Nov-19,10-Nov-19,10-Nov-19,1:00,13,IND,-9.5,MIA,28,O,41,2019,Week 10,60510,IND,-9.5,9.5,MIA,12,16,N,67000,0,11,46,0,Indianapolis,KIND,KIND4377913,KIND,O,10-Nov-19,EST,39.717,-86.3,791,61,39,49,60,34,43,32,38,82,52,66,51,37,44,17,8,241,24,67,10,2312,265,2577,291,608,0,0,30.03,29.92,29.98,1016.9,1013.2,1015.5,40,MC,Overcast,KIND,O,EST,39.717,-86.3,791,57,55,40,53,49,210,10,25,250,SCT,10,423,46,469,459,505,655,0,0,0,29.95,1014.4,54,CLR,Few High Clouds,10-Nov-19,13
KIND 11/Dec/2016 13,1084,IND2016,11-Dec-16,11-Dec-16,11-Dec-16,1:00,13,IND,-6.5,HOU,39,U,47.5,2016,Week 14,65250,IND,-6.5,6.5,GB,17,22,N,67000,0,8,72,1,Indianapolis,KIND,KIND4271513,KIND,O,11-Dec-16,EST,39.717,-86.295,797,37,27,32,37,17,35,18,25,97,59,75,36,25,29,15,12,164,24,100,7.9,967,194,1162,0,565,0.15,0,30.33,29.81,30.03,1028.1,1010.1,1017.7,40,MC,Overcast,KIND,O,EST,39.717,-86.295,797,34,25,23,64,30,160,13,100,35,OVC,10,183,37,220,366,403,523,99,0.01,0,30,1016.7,18,RAIN,Light Rain,11-Dec-16,13
KIND 11/Nov/2018 13,1085,IND2018,11-Nov-18,11-Nov-18,11-Nov-18,1:00,13,IND,-3,JAX,55,O,48,2018,Week 10,57473,IND,-3,3,JAX,29,26,N,67000,0,10,60,0,Indianapolis,KIND,KIND4341513,KIND,O,11-Nov-18,EST,39.717,-86.3,791,44,22,33,44,14,21,15,18,81,32,57,34,21,28,12,5,172,34,48,10,2462,263,2725,412,606,0,0,30.36,30.24,30.3,1029.1,1024.9,1027,45,CLR,Mostly Clear,KIND,O,EST,39.717,-86.3,791,41,35,17,38,33,180,10,20,250,SCT,10,427,45,472,454,499,649,0,0,0,30.29,1026.3,54,CLR,Few High Clouds,11-Nov-18,13
KIND 11/Sep/2016 16,1086,IND2016,11-Sep-16,11-Sep-16,11-Sep-16,4:25,16,IND,-2.5,DET,74,O,51.5,2016,Week 1,65566,IND,-2.5,2.5,LAC,35,39,Y,67000,0,8,72,1,Indianapolis,KIND,KIND4262416,KIND,O,11-Sep-16,EST,39.717,-86.295,797,76,55,66,78,55,57,50,53,93,40,66,63,54,59,8,4,5,24,5,10,5387,563,5950,703,756,0,0,30.24,30.12,30.18,1023.6,1019.5,1021.5,46,CLR,Fair,KIND,O,EST,39.717,-86.295,797,76,77,50,40,61,370,3,5,55,FEW,10,448,46,494,460,506,657,0,0,0,30.17,1021.1,46,CLR,Fair,11-Sep-16,16
KIND 12/Nov/2017 13,1087,IND2017,12-Nov-17,12-Nov-17,12-Nov-17,1:00,13,PIT,-11,IND,37,U,47,2017,Week 10,66146,IND,11,-11,BUF,17,20,N,67000,0,9,54,0,Indianapolis,KIND,KIND4305113,KIND,O,12-Nov-17,EST,39.717,-86.295,797,42,32,38,42,28,39,26,33,97,70,82,40,31,36,14,7,5,14,96,7.4,1288,258,1547,0,605,0.08,0,30.38,30.22,30.28,1029.4,1024,1025.9,40,MC,Overcast,KIND,O,EST,39.717,-86.295,797,41,41,36,82,39,60,3,100,47,OVC,6,225,45,270,450,495,643,99,0.02,0,30.24,1024.6,18,RAIN,Light Rain,12-Nov-17,13
KIND 14/Dec/2014 13,1088,IND2014,14-Dec-14,14-Dec-14,14-Dec-14,1:00,13,IND,-7,HOU,27,U,49,2014,Week 15,65148,IND,-7,7,MIN,17,10,N,67000,0,6,72,1,Indianapolis,KIND,KIND4198713,KIND,O,14-Dec-14,EST,39.717,-86.295,797,48,41,44,47,38,43,38,41,97,80,89,45,40,42,9,7,187,24,100,5.6,960,192,1152,0,563,0,0,30.18,30.09,30.13,1022.2,1019.3,1020.6,40,MC,Overcast,KIND,O,EST,39.717,-86.295,797,46,43,43,89,45,200,6,100,18,OVC,0.5,182,36,218,365,401,521,0,0,0,30.14,1021.1,40,MC,Overcast,14-Dec-14,13
KIND 14/Dec/2017 20,1089,IND2017,14-Dec-17,14-Dec-17,14-Dec-17,8:25,20,DEN,-3,IND,38,U,40.5,2017,Week 15,63411,IND,3,-3,DEN,13,25,Y,67000,0,9,23,0,Indianapolis,KIND,KIND4308320,KIND,O,14-Dec-17,EST,39.717,-86.295,797,32,22,27,32,15,21,9,14,69,41,58,29,20,24,21,9,349,30,92,10,1387,192,1579,76,563,0,0,30.09,29.73,29.99,1019.8,1007.3,1016.2,42,MC,Mostly Cloudy,KIND,O,EST,39.717,-86.295,797,25,19,14,63,22,140,5,100,230,OVC,10,0,0,0,0,0,0,0,0,0,30.07,1019.2,50,PC,High Overcast,14-Dec-17,20
KIND 15/Dec/2013 13,1090,IND2013,15-Dec-13,15-Dec-13,15-Dec-13,1:00,13,IND,-6,HOU,28,U,47,2013,Week 15,65470,IND,-6,6,NYG,25,3,Y,67000,0,5,72,1,Indianapolis,KIND,KIND4162313,KIND,O,15-Dec-13,EST,39.717,-86.295,797,27,17,22,27,0,25,10,16,92,68,79,26,15,20,23,15,263,30,96,8.9,1117,190,1306,54,563,0,0,30.1,29.94,30.04,1020.3,1014.7,1018.3,40,MC,Overcast,KIND,O,EST,39.717,-86.295,797,19,4,12,74,17,240,17,90,100,BKN,10,200,36,236,364,400,520,0,0,0,30.06,1018.9,42,MC,Mostly Cloudy,15-Dec-13,13
KIND 15/Sep/2013 13,1091,IND2013,15-Sep-13,15-Sep-13,15-Sep-13,1:00,13,IND,-2,MIA,44,O,43.5,2013,Week 2,65406,IND,-2,2,LAR,20,24,Y,67000,0,5,72,1,Indianapolis,KIND,KIND4153213,KIND,O,15-Sep-13,EST,39.717,-86.295,797,78,50,64,77,48,57,41,47,81,35,56,61,46,55,14,7,192,24,80,10,3235,546,3781,0,746,0,0,30.12,30.01,30.06,1019.9,1016.1,1018.1,45,CLR,Mostly Clear,KIND,O,EST,39.717,-86.295,797,74,76,47,38,59,180,12,100,140,OVC,10,528,77,605,774,851,1106,0,0,0,30.06,1018.1,45,CLR,Mostly Clear,15-Sep-13,13
KIND 15/Sep/2014 20,1092,IND2014,15-Sep-14,15-Sep-14,15-Sep-14,8:35,20,IND,-3,PHI,57,O,54,2014,Week 2,64871,IND,-3,3,WAS,27,30,N,67000,0,6,72,1,Indianapolis,KIND,KIND4189720,KIND,O,15-Sep-14,EST,39.717,-86.295,797,65,49,56,64,50,55,46,51,97,61,83,57,48,53,14,5,229,39,71,7.4,2853,546,3398,95,746,0.54,0,30.2,30.07,30.15,1022.6,1018.4,1020.8,45,CLR,Mostly Clear,KIND,O,EST,39.717,-86.295,797,56,55,55,97,55,360,5,100,30,OVC,4,0,0,0,0,0,0,0,0,0,30.08,1018.6,18,RAIN,Light Rain,15-Sep-14,20
KIND 16/Dec/2018 13,1093,IND2018,16-Dec-18,16-Dec-18,16-Dec-18,1:00,13,IND,-3,DAL,23,U,46.5,2018,Week 15,66654,IND,-3,3,DAL,23,0,Y,67000,0,10,82,0,Indianapolis,KIND,KIND4345013,KIND,O,16-Dec-18,EST,39.717,-86.3,791,55,33,42,54,29,40,26,34,97,34,77,45,35,38,13,9,295,24,56,8.9,1717,190,1907,352,562,0,0,30.14,30.03,30.09,1020.8,1017.2,1019.2,54,CLR,Few High Clouds,KIND,O,EST,39.717,-86.3,791,50,47,40,68,45,270,7,25,250,SCT,10,335,36,371,363,399,519,0,0,0,30.08,1018.8,54,CLR,Few High Clouds,16-Dec-18,13
KIND 16/Nov/2014 20,1094,IND2014,16-Nov-14,16-Nov-14,16-Nov-14,8:30,20,IND,-3,NE,62,O,59,2014,Week 11,66751,IND,-3,3,GB,20,42,Y,67000,0,6,72,1,Indianapolis,KIND,KIND4195920,KIND,O,16-Nov-14,EST,39.717,-86.295,797,35,28,31,35,23,30,24,26,100,64,84,31,28,29,7,4,201,24,100,5.1,1223,244,1468,0,597,0.22,2.5,30.2,29.91,30.06,1023.4,1013.4,1018.8,9,SNOW,Light Snow,KIND,O,EST,39.717,-86.295,797,30,25,28,93,29,300,5,100,13,VV,0.5,0,0,0,0,0,0,99,0.04,0.5,29.96,1015.3,10,SNOW,Moderate Snow,16-Nov-14,20
KIND 17/Nov/2019 13,1095,IND2019,17-Nov-19,17-Nov-19,17-Nov-19,1:00,13,IND,-6.5,JAX,46,O,47,2019,Week 11,61986,IND,-6.5,6.5,GB,33,13,Y,67000,0,11,70,0,Indianapolis,KIND,KIND4378613,KIND,O,17-Nov-19,EST,39.717,-86.3,791,45,26,35,44,19,30,23,27,92,55,74,38,25,32,7,4,101,24,56,9.6,1762,242,2004,139,595,0,0,30.18,29.85,30.02,1022.7,1011.3,1017.1,40,MC,Overcast,KIND,O,EST,39.717,-86.3,791,42,39,28,58,36,140,5,100,200,OVC,10,279,43,322,429,472,613,0,0,0,30,1016.3,40,MC,Overcast,17-Nov-19,13
KIND 17/Sep/2017 13,1096,IND2017,17-Sep-17,17-Sep-17,17-Sep-17,1:00,13,ARI,-7,IND,29,U,44,2017,Week 2,63137,IND,7,-7,KC,13,16,N,67000,0,9,37,0,Indianapolis,KIND,KIND4299513,KIND,O,17-Sep-17,EST,39.717,-86.295,797,89,65,76,91,65,67,60,64,93,39,70,72,64,68,12,7,194,16,59,9.9,4019,534,4553,322,741,0.16,0,30.14,30.03,30.08,1020,1016.3,1018.1,40,MC,Overcast,KIND,O,EST,39.717,-86.295,797,87,89,63,45,71,200,9,100,80,BKN,10,382,76,458,763,839,1090,0,0,0,30.08,1018,42,MC,Mostly Cloudy,17-Sep-17,13
KIND 18/Nov/2018 13,1097,IND2018,18-Nov-18,18-Nov-18,18-Nov-18,1:00,13,IND,-1.5,TEN,48,U,50,2018,Week 11,57401,IND,-1.5,1.5,TEN,38,10,Y,67000,0,10,89,0,Indianapolis,KIND,KIND4342213,KIND,O,18-Nov-18,EST,39.717,-86.3,791,45,37,40,44,32,37,33,35,93,73,82,41,36,38,10,8,18,24,100,6.6,1191,239,1433,0,593,0,0,30.22,30.14,30.18,1024,1021.2,1022.4,40,MC,Overcast,KIND,O,EST,39.717,-86.3,791,43,37,36,76,40,340,10,100,40,OVC,6,212,43,256,425,468,607,0,0,0,30.18,1022.3,35,HAZY,Haze,18-Nov-18,13
KIND 18/Oct/2015 20,1098,IND2015,18-Oct-15,18-Oct-15,18-Oct-15,8:30,20,NE,-9,IND,61,O,54,2015,Week 6,66726,IND,9,-9,PHI,27,34,N,67000,0,7,72,1,Indianapolis,KIND,KIND4229520,KIND,O,18-Oct-15,EST,39.717,-86.295,797,60,30,45,60,24,28,19,24,79,21,50,44,28,36,13,6,271,24,0,10,3664,366,4030,662,662,0,0,30.51,30.39,30.44,1033.5,1029.3,1031.1,46,CLR,Fair,KIND,O,EST,39.717,-86.295,797,49,49,24,38,39,0,0,0,201,CLR,10,0,0,0,0,0,0,0,0,0,30.4,1029.8,46,CLR,Fair,18-Oct-15,20
KIND 19/Oct/2014 13,1099,IND2014,19-Oct-14,19-Oct-14,19-Oct-14,1:00,13,IND,-3.5,CIN,27,U,50.5,2014,Week 7,66539,IND,-3.5,3.5,CAR,27,0,Y,67000,0,6,72,1,Indianapolis,KIND,KIND4193113,KIND,O,19-Oct-14,EST,39.717,-86.295,797,56,43,48,55,39,41,36,38,83,53,69,48,40,44,12,7,251,24,83,10,2624,362,2986,126,659,0,0,30.26,30.03,30.16,1024.8,1017.1,1021.5,40,MC,Overcast,KIND,O,EST,39.717,-86.295,797,52,50,38,59,46,230,7,100,25,OVC,10,388,58,446,575,633,822,0,0,0,30.21,1023.1,45,CLR,Mostly Clear,19-Oct-14,13
KIND 20/Dec/2015 13,1100,IND2015,20-Dec-15,20-Dec-15,20-Dec-15,1:00,13,IND,-2,HOU,26,U,41.5,2015,Week 15,66083,IND,-2,2,PIT,10,16,Y,67000,0,7,72,1,Indianapolis,KIND,KIND4235813,KIND,O,20-Dec-15,EST,39.717,-86.295,797,50,25,40,50,19,27,16,22,66,36,52,40,23,32,20,12,171,25,71,10,1326,191,1517,53,562,0,0,30.4,30.05,30.23,1030.5,1017.7,1024.4,50,PC,High Overcast,KIND,O,EST,39.717,-86.295,797,47,40,25,42,38,190,20,100,180,OVC,10,235,36,271,362,398,518,0,0,0,30.23,1024.2,40,MC,Overcast,20-Dec-15,13
KIND 20/Nov/2016 13,1101,IND2016,20-Nov-16,20-Nov-16,20-Nov-16,1:00,13,IND,-3,TEN,41,U,54,2016,Week 11,65048,IND,-3,3,NO,24,17,Y,67000,0,8,72,1,Indianapolis,KIND,KIND4269413,KIND,O,20-Nov-16,EST,39.717,-86.295,797,37,25,30,37,14,23,19,21,81,54,70,32,23,27,15,10,294,24,12,10,2073,231,2304,491,590,0,0,30.33,30.25,30.28,1027.8,1025.2,1026.3,46,CLR,Fair,KIND,O,EST,39.717,-86.295,797,37,29,23,57,32,310,13,20,30,SCT,10,373,41,414,414,455,592,0,0,0,30.3,1026.9,44,PC,Partly Cloudy,20-Nov-16,13
KIND 20/Oct/2013 20,1102,IND2013,20-Oct-13,20-Oct-13,20-Oct-13,8:30,20,DEN,-6.5,IND,72,O,56,2013,Week 7,67196,IND,6.5,-6.5,DEN,39,33,N,67000,0,5,72,1,Indianapolis,KIND,KIND4156720,KIND,O,20-Oct-13,EST,39.717,-86.295,797,63,38,50,63,33,41,34,38,86,43,66,51,37,44,20,11,200,29,14,10,3368,357,3725,537,657,0,0,29.99,29.92,29.95,1015.6,1013.1,1014.2,45,CLR,Mostly Clear,KIND,O,EST,39.717,-86.295,797,54,50,40,59,47,180,13,5,230,FEW,10,0,0,0,0,0,0,0,0,0,29.94,1013.9,45,CLR,Mostly Clear,20-Oct-13,20
KIND 20/Oct/2019 13,1103,IND2019,20-Oct-19,20-Oct-19,20-Oct-19,1:00,13,IND,-4,HOU,53,O,36,2019,Week 7,59977,IND,-4,4,OAK,30,23,Y,67000,0,11,37,0,Indianapolis,KIND,KIND4375813,KIND,O,20-Oct-19,EST,39.717,-86.3,791,73,49,61,72,49,51,46,49,89,44,66,59,49,54,6,2,218,24,41,9.9,3084,357,3441,454,657,0,0,29.92,29.78,29.87,1012.9,1008.2,1011.2,42,MC,Mostly Cloudy,KIND,O,EST,39.717,-86.3,791,70,70,48,46,58,0,0,5,48,FEW,10,556,57,613,570,627,814,0,0,0,29.89,1011.9,45,CLR,Mostly Clear,20-Oct-19,13
KIND 21/Oct/2018 13,1104,IND2018,21-Oct-18,21-Oct-18,21-Oct-18,1:00,13,IND,-7,BUF,42,U,43.5,2018,Week 7,56848,IND,-7,7,BUF,37,5,Y,67000,0,10,88,0,Indianapolis,KIND,KIND4339413,KIND,O,21-Oct-18,EST,39.717,-86.3,791,51,28,39,50,19,28,21,24,75,38,58,40,26,33,12,8,265,24,6,10,3438,350,3788,628,655,0,0,30.39,30.19,30.3,1029.9,1022.7,1026.5,46,CLR,Fair,KIND,O,EST,39.717,-86.3,791,47,44,25,42,38,280,7,0,337,CLR,10,564,56,620,564,620,805,0,0,0,30.33,1027.5,46,CLR,Fair,21-Oct-18,13
KIND 21/Sep/2015 20,1105,IND2015,21-Sep-15,21-Sep-15,21-Sep-15,8:30,20,IND,-6,NYJ,27,U,46,2015,Week 2,65220,IND,-6,6,NYG,7,20,Y,67000,0,7,72,1,Indianapolis,KIND,KIND4226820,KIND,O,21-Sep-15,EST,39.717,-86.295,797,76,52,64,76,49,51,41,47,86,30,57,59,49,54,10,6,27,24,2,10,5049,511,5560,709,731,0,0,30.15,30.08,30.11,1020.6,1018.4,1019.3,46,CLR,Fair,KIND,O,EST,39.717,-86.295,797,68,68,47,47,57,60,7,0,201,CLR,10,0,0,0,0,0,0,0,0,0,30.09,1018.8,46,CLR,Fair,21-Sep-15,20
KIND 22/Dec/2019 13,1106,IND2019,22-Dec-19,22-Dec-19,22-Dec-19,1:00,13,IND,-6,CAR,44,O,60,2019,Week 16,61845,IND,-6,6,BAL,38,6,Y,67000,0,11,27,0,Indianapolis,KIND,KIND4382113,KIND,O,22-Dec-19,EST,39.717,-86.3,791,53,25,37,50,23,36,25,30,93,54,76,44,26,34,6,2,150,24,9,9.4,1786,191,1977,474,561,0,0,30.35,30.19,30.28,1028.6,1022.5,1026.1,46,CLR,Fair,KIND,O,EST,39.717,-86.3,791,43,39,32,66,38,170,6,20,250,SCT,10,340,36,376,362,398,518,0,0,0,30.29,1026.3,54,CLR,Few High Clouds,22-Dec-19,13
KIND 22/Oct/2017 13,1107,IND2017,22-Oct-17,22-Oct-17,22-Oct-17,1:00,13,JAX,-3,IND,27,U,41.5,2017,Week 7,63104,IND,3,-3,JAX,0,27,Y,67000,0,9,25,0,Indianapolis,KIND,KIND4303013,KIND,O,22-Oct-17,EST,39.717,-86.295,797,79,55,67,80,54,59,49,54,81,52,65,66,53,59,23,13,157,28,85,10,2018,347,2365,39,652,0,0,30.13,29.94,30.05,1020,1013.5,1017.3,42,MC,Mostly Cloudy,KIND,O,EST,39.717,-86.295,797,78,80,59,52,66,180,17,80,210,BKN,10,413,56,469,558,614,797,0,0,0,30.04,1016.9,42,MC,Mostly Cloudy,22-Oct-17,13
KIND 22/Sep/2019 13,1108,IND2019,22-Sep-19,22-Sep-19,22-Sep-19,1:00,13,IND,-1.5,ATL,51,O,48,2019,Week 3,60295,IND,-1.5,1.5,DEN,27,24,Y,67000,0,11,60,0,Indianapolis,KIND,KIND4373013,KIND,O,22-Sep-19,EST,39.717,-86.3,791,87,67,77,87,67,69,57,60,93,39,57,70,61,66,24,14,203,36,62,9.6,3773,509,4282,273,728,0.11,0,30.1,29.91,30.02,1018.7,1012.3,1015.9,42,MC,Mostly Cloudy,KIND,O,EST,39.717,-86.3,791,87,87,59,39,69,210,20,90,250,BKN,10,507,74,581,735,809,1050,0,0,0,30.02,1015.8,52,PC,High Clouds,22-Sep-19,13
KIND 23/Dec/2018 13,1109,IND2018,23-Dec-18,23-Dec-18,23-Dec-18,1:00,13,IND,-9.5,NYG,55,O,48,2018,Week 16,61738,IND,-9.5,9.5,NYG,28,27,N,67000,0,10,37,0,Indianapolis,KIND,KIND4345713,KIND,O,23-Dec-18,EST,39.717,-86.3,791,37,29,33,37,21,31,26,28,92,70,83,34,29,31,15,9,276,24,79,8.3,870,189,1059,18,561,0,0,30.2,30.04,30.11,1023.5,1018,1020.4,40,MC,Overcast,KIND,O,EST,39.717,-86.3,791,35,29,27,72,32,320,7,70,19,BKN,10,236,36,272,363,399,518,0,0,0,30.09,1019.7,42,MC,Mostly Cloudy,23-Dec-18,13
KIND 23/Nov/2014 13,1110,IND2014,23-Nov-14,23-Nov-14,23-Nov-14,1:00,13,IND,-13.5,JAX,26,U,49.5,2014,Week 12,64328,IND,-13.5,13.5,MIA,23,3,Y,67000,0,6,72,1,Indianapolis,KIND,KIND4196613,KIND,O,23-Nov-14,EST,39.717,-86.295,797,55,44,50,54,40,53,38,46,100,63,83,53,42,48,20,12,146,28,97,6.4,1089,225,1314,0,585,1.91,0,29.99,29.16,29.64,1015.6,987.2,1003.8,18,RAIN,Light Rain,KIND,O,EST,39.717,-86.295,797,51,48,48,89,49,130,9,100,26,OVC,10,204,41,244,407,448,582,99,0.05,0,29.69,1005.6,18,RAIN,Light Rain,23-Nov-14,13
KIND 24/Nov/2016 20,1111,IND2016,24-Nov-16,24-Nov-16,24-Nov-16,8:30,20,PIT,-8.5,IND,35,U,49.5,2016,Week 12,66583,IND,8.5,-8.5,SEA,7,28,Y,67000,0,8,72,1,Indianapolis,KIND,KIND4269820,KIND,O,24-Nov-16,EST,39.717,-86.295,797,49,38,42,49,33,48,34,39,97,81,89,48,37,41,15,9,269,24,100,8.3,1097,221,1320,0,584,0.01,0,30.27,30,30.17,1025.4,1016.2,1022.1,40,MC,Overcast,KIND,O,EST,39.717,-86.295,797,39,33,35,86,37,280,9,100,12,OVC,10,0,0,0,0,0,0,0,0,0,30.25,1024.8,40,MC,Overcast,24-Nov-16,20
KIND 24/Sep/2017 13,1112,IND2017,24-Sep-17,24-Sep-17,24-Sep-17,1:00,13,CLE,-1,IND,59,O,42,2017,Week 3,63351,IND,1,-1,CLE,31,28,Y,67000,0,9,79,0,Indianapolis,KIND,KIND4300213,KIND,O,24-Sep-17,EST,39.717,-86.295,797,92,66,78,90,67,64,54,59,84,29,55,69,63,67,10,6,100,20,4,10,4867,497,5364,700,723,0,0,30.12,30.02,30.07,1019.3,1015.8,1017.5,46,CLR,Fair,KIND,O,EST,39.717,-86.295,797,88,88,59,38,69,90,6,5,50,FEW,10,706,72,778,724,796,1034,0,0,0,30.08,1017.7,46,CLR,Fair,24-Sep-17,13
KIND 25/Nov/2018 16,1113,IND2018,25-Nov-18,25-Nov-18,25-Nov-18,4:25,16,IND,-8.5,MIA,51,U,52.5,2018,Week 12,57069,IND,-8.5,8.5,MIA,27,24,N,67000,0,10,86,0,Indianapolis,KIND,KIND4342916,KIND,O,25-Nov-18,EST,39.717,-86.3,791,59,38,48,57,34,49,38,43,97,64,84,53,38,45,21,11,131,36,65,9.2,1573,221,1794,120,582,0.11,0,29.85,29.38,29.69,1011.1,994.8,1005.7,42,MC,Mostly Cloudy,KIND,O,EST,39.717,-86.3,791,57,53,46,67,51,140,17,100,200,BKN,10,74,11,85,114,125,163,0,0,0,29.66,1004.4,42,MC,Mostly Cloudy,25-Nov-18,16
KIND 25/Oct/2015 13,1114,IND2015,25-Oct-15,25-Oct-15,25-Oct-15,1:00,13,IND,-5,NO,48,U,53,2015,Week 7,66420,IND,-5,5,NO,21,27,Y,67000,0,7,72,1,Indianapolis,KIND,KIND4230213,KIND,O,25-Oct-15,EST,39.717,-86.295,797,62,46,53,61,43,47,29,38,83,31,60,50,42,46,13,8,18,21,66,10,2448,332,2780,125,644,0,0,30.34,30.14,30.28,1027.7,1020.5,1025.4,52,PC,High Clouds,KIND,O,EST,39.717,-86.295,797,59,57,38,46,49,20,10,75,250,BKN,10,414,54,468,541,595,773,0,0,0,30.31,1026.3,52,PC,High Clouds,25-Oct-15,13
KIND 25/Sep/2016 16,1115,IND2016,25-Sep-16,25-Sep-16,25-Sep-16,4:25,16,IND,-1.5,LAC,48,U,51.5,2016,Week 3,64747,IND,-1.5,1.5,NO,26,22,Y,67000,0,8,72,1,Indianapolis,KIND,KIND4263816,KIND,O,25-Sep-16,EST,39.717,-86.295,797,86,64,74,88,64,69,59,64,85,53,72,73,61,68,12,7,138,21,25,9.9,4398,485,4883,600,720,0.01,0,30.13,29.97,30.06,1019.9,1014.1,1017.5,46,CLR,Fair,KIND,O,EST,39.717,-86.295,797,85,87,66,54,72,210,10,50,148,BKN,10,281,37,318,375,412,535,0,0,0,30.01,1015.6,42,MC,Mostly Cloudy,25-Sep-16,16
KIND 26/Nov/2017 13,1116,IND2017,26-Nov-17,26-Nov-17,26-Nov-17,1:00,13,TEN,-3,IND,36,U,46.5,2017,Week 12,62207,IND,3,-3,TEN,16,20,Y,67000,0,9,82,0,Indianapolis,KIND,KIND4306513,KIND,O,26-Nov-17,EST,39.717,-86.295,797,51,28,39,51,22,31,24,26,85,36,62,41,27,34,12,6,250,12,6,10,2080,217,2297,516,581,0,0,30.26,30.13,30.19,1025,1020.5,1022.7,46,CLR,Fair,KIND,O,EST,39.717,-86.295,797,49,46,28,45,40,270,8,20,250,SCT,10,374,40,414,398,438,569,0,0,0,30.22,1023.7,54,CLR,Few High Clouds,26-Nov-17,13
KIND 27/Oct/2019 13,1117,IND2019,27-Oct-19,27-Oct-19,27-Oct-19,1:00,13,IND,-7,DEN,28,O,32,2019,Week 8,61653,IND,-7,7,DEN,15,13,N,67000,0,11,27,0,Indianapolis,KIND,KIND4376513,KIND,O,27-Oct-19,EST,39.717,-86.3,791,63,47,53,62,42,47,40,44,89,46,72,52,45,49,32,13,241,49,44,10,2802,322,3125,442,640,0,0,30.05,29.6,29.92,1017.6,1002.3,1013.2,46,CLR,Fair,KIND,O,EST,39.717,-86.3,791,60,58,43,53,51,230,12,35,400,CLR,10,437,53,490,530,583,757,0,0,0,29.98,1015.2,46,CLR,Fair,27-Oct-19,13
KIND 28/Sep/2014 13,1118,IND2014,28-Sep-14,28-Sep-14,28-Sep-14,1:00,13,IND,-7.5,TEN,58,O,46,2014,Week 4,64757,IND,-7.5,7.5,TB,41,17,Y,67000,0,6,72,1,Indianapolis,KIND,KIND4191013,KIND,O,28-Sep-14,EST,39.717,-86.295,797,83,58,70,82,59,55,50,53,78,33,57,64,55,60,5,2,326,24,57,10,3709,471,4180,227,713,0,0,30.14,30.02,30.09,1020.5,1016.5,1018.8,45,CLR,Mostly Clear,KIND,O,EST,39.717,-86.295,797,81,81,51,35,64,0,0,90,65,BKN,10,484,70,554,701,771,1001,0,0,0,30.09,1019.1,44,PC,Partly Cloudy,28-Sep-14,13
KIND 29/Dec/2013 13,1119,IND2013,29-Dec-13,29-Dec-13,29-Dec-13,1:00,13,IND,-11,JAX,40,U,45,2013,Week 17,66008,IND,-11,11,NYJ,30,10,Y,67000,0,5,72,1,Indianapolis,KIND,KIND4163713,KIND,O,29-Dec-13,EST,39.717,-86.295,797,45,25,35,45,13,32,22,28,93,57,75,39,25,33,22,11,273,29,95,8.2,1120,192,1312,66,563,0,0,30.08,29.82,29.91,1019.3,1010.4,1013.4,40,MC,Overcast,KIND,O,EST,39.717,-86.295,797,45,37,30,57,39,250,16,45,220,SCT,10,299,37,336,367,404,525,0,0,0,29.82,1010.7,44,PC,Partly Cloudy,29-Dec-13,13
KIND 29/Nov/2015 13,1120,IND2015,29-Nov-15,29-Nov-15,29-Nov-15,1:00,13,IND,-3,TB,37,U,46.5,2015,Week 12,65696,IND,-3,3,PIT,25,12,Y,67000,0,7,72,1,Indianapolis,KIND,KIND4233713,KIND,O,29-Nov-15,EST,39.717,-86.295,797,42,36,39,42,27,35,29,32,89,62,77,38,34,36,14,12,44,24,97,9.8,903,211,1114,0,576,0,0,30.3,30.19,30.24,1026.6,1022.7,1024.5,50,PC,High Overcast,KIND,O,EST,39.717,-86.295,797,41,34,31,67,37,70,12,100,240,OVC,10,177,39,216,390,429,557,0,0,0,30.24,1024.4,50,PC,High Overcast,29-Nov-15,13
KIND 29/Sep/2019 13,1121,IND2019,29-Sep-19,29-Sep-19,29-Sep-19,1:00,13,IND,-5.5,OAK,55,O,46.5,2019,Week 4,62259,IND,-5.5,5.5,ATL,24,31,Y,67000,0,11,59,0,Indianapolis,KIND,KIND4373713,KIND,O,29-Sep-19,EST,39.717,-86.3,791,87,68,74,90,68,75,63,68,88,55,80,76,65,70,13,7,103,24,67,9.8,2305,467,2772,5,710,0.07,0,30.19,30.11,30.15,1021.9,1018.8,1020.2,52,PC,High Clouds,KIND,O,EST,39.717,-86.3,791,79,83,70,74,73,0,0,100,90,BKN,10,348,69,416,695,764,993,99,0.01,0,30.16,1020.7,18,RAIN,Light Rain,29-Sep-19,13
KIND 30/Nov/2014 13,1122,IND2014,30-Nov-14,30-Nov-14,30-Nov-14,1:00,13,IND,-8,WAS,76,O,49,2014,Week 13,65352,IND,-8,8,SF,49,27,Y,67000,0,6,72,1,Indianapolis,KIND,KIND4197313,KIND,O,30-Nov-14,EST,39.717,-86.295,797,64,39,57,64,33,53,37,50,92,68,76,58,40,54,25,18,229,36,94,9,1104,210,1314,18,574,0.02,0,30.17,29.79,29.9,1021.7,1008.5,1012.4,40,MC,Overcast,KIND,O,EST,39.717,-86.295,797,63,60,53,70,57,220,22,100,34,OVC,10,194,39,232,387,426,553,0,0,0,29.85,1010.7,40,MC,Overcast,30-Nov-14,13
KIND 30/Oct/2016 13,1123,IND2016,30-Oct-16,30-Oct-16,30-Oct-16,1:00,13,KC,-3,IND,44,U,50.5,2016,Week 8,65417,IND,3,-3,WAS,14,30,Y,67000,0,8,72,1,Indianapolis,KIND,KIND4267313,KIND,O,30-Oct-16,EST,39.717,-86.295,797,69,50,61,68,48,58,46,54,84,68,77,62,49,57,15,10,320,24,65,9.8,1822,305,2128,190,633,0,0,30.18,29.98,30.07,1022,1014.6,1017.8,42,MC,Mostly Cloudy,KIND,O,EST,39.717,-86.295,797,65,65,57,76,60,370,5,100,110,BKN,8,130,51,181,508,559,726,0,0,0,30.06,1017.5,40,MC,Overcast,30-Oct-16,13
KIND 30/Sep/2018 13,1124,IND2018,30-Sep-18,30-Sep-18,30-Sep-18,1:00,13,HOU,-1,IND,71,O,48.5,2018,Week 4,57716,IND,1,-1,HOU,34,37,Y,67000,0,10,68,0,Indianapolis,KIND,KIND4337313,KIND,O,30-Sep-18,EST,39.717,-86.3,791,79,54,66,80,53,61,51,57,90,52,73,67,53,60,12,6,190,47,26,10,4435,461,4896,592,707,0,0,30.25,30.16,30.21,1024.2,1020.9,1022.6,45,CLR,Mostly Clear,KIND,O,EST,39.717,-86.3,791,77,79,60,56,67,220,6,5,250,FEW,10,679,69,748,689,758,984,0,0,0,30.2,1022.2,45,CLR,Mostly Clear,30-Sep-18,13
KIND 31/Dec/2017 13,1125,IND2017,31-Dec-17,31-Dec-17,31-Dec-17,1:00,13,IND,-5.5,HOU,35,U,42,2017,Week 17,60557,IND,-5.5,5.5,ATL,22,13,Y,67000,0,9,30,0,Indianapolis,KIND,KIND4310013,KIND,O,31-Dec-17,EST,39.717,-86.295,797,11,-1,4,11,-16,2,-6,-3,83,64,72,9,-2,3,12,8,318,12,58,8.2,1682,193,1878,376,565,0.07,0.5,30.59,30.41,30.49,1037.7,1031.6,1034.5,9,SNOW,Light Snow,KIND,O,EST,39.717,-86.295,797,11,-1,1,64,9,320,8,20,25,SCT,10,333,37,370,370,407,529,0,0,0,30.49,1034.4,44,PC,Partly Cloudy,31-Dec-17,13
KLUF 01/Dec/2019 13,1126,ARI2019,1-Dec-19,1-Dec-19,1-Dec-19,1:00,13,LAR,-8,ARI,41,O,33,2019,Week 13,60944,ARI,8,-8,LAR,7,34,Y,63400,0,13,87,0,Phoenix,KLUF,KLUF4380013,KLUF,O,1-Dec-19,MST,33.517,-112.367,1089,66,40,51,66,36,43,28,36,83,24,60,50,38,44,8,4,343,8,2,10,2833,284,3117,606,606,0,0,30.16,30.06,30.11,1021.3,1017.8,1019.6,46,CLR,Fair,KLUF,O,MST,33.517,-112.367,1089,62,62,29,28,47,130,5,0,201,CLR,10,482,48,530,482,530,689,0,0,0,30.1,1019.1,46,CLR,Fair,1-Dec-19,13
KLUF 01/Oct/2017 16,1127,ARI2017,1-Oct-17,1-Oct-17,1-Oct-17,4:05,16,ARI,-6.5,SF,33,U,43.5,2017,Week 4,64121,ARI,-6.5,6.5,SF,18,15,N,63400,0,11,39,0,Phoenix,KLUF,KLUF4300916,KLUF,O,1-Oct-17,MST,33.535,-112.383,1086,95,61,80,94,63,42,32,36,41,11,23,62,50,57,10,5,249,10,0,10,5208,521,5729,710,710,0,0,29.8,29.58,29.7,1008,1000.5,1004.4,46,CLR,Fair,KLUF,O,MST,33.535,-112.383,1086,94,94,33,12,62,250,5,0,201,CLR,10,346,35,381,346,381,494,0,0,0,29.62,1001.9,46,CLR,Fair,1-Oct-17,16
KLUF 02/Oct/2016 16,1128,ARI2016,2-Oct-16,2-Oct-16,2-Oct-16,4:25,16,ARI,-9.5,LAR,30,U,43.5,2016,Week 4,64622,ARI,-9.5,9.5,DAL,13,17,N,63400,0,10,72,1,Phoenix,KLUF,KLUF4264516,KLUF,O,2-Oct-16,MST,33.535,-112.383,1086,85,70,77,87,71,67,49,60,74,37,54,71,59,66,12,6,79,12,10,10,4678,511,5189,568,707,0.21,0,29.94,29.82,29.88,1012.8,1008.7,1010.6,46,CLR,Fair,KLUF,O,MST,33.535,-112.383,1086,84,86,65,52,71,120,9,20,60,SCT,10,302,34,336,335,369,479,0,0,0,29.84,1009.3,44,PC,Partly Cloudy,2-Oct-16,16
KLUF 03/Dec/2017 16,1129,ARI2017,3-Dec-17,3-Dec-17,3-Dec-17,4:25,16,LAR,-7,ARI,48,O,43,2017,Week 13,63986,ARI,7,-7,LAR,16,32,Y,63400,0,11,54,0,Phoenix,KLUF,KLUF4307216,KLUF,O,3-Dec-17,MST,33.535,-112.383,1086,79,51,64,78,51,43,37,40,62,25,43,58,45,51,8,4,5,8,10,10,2627,280,2907,521,603,0,0,30,29.83,29.91,1015.4,1009.6,1012.2,46,CLR,Fair,KLUF,O,MST,33.535,-112.383,1086,78,78,39,25,58,0,0,28,301,BKN,10,114,13,127,132,145,188,0,0,0,29.84,1009.8,52,PC,High Clouds,3-Dec-17,16
KLUF 03/Jan/2015 16,1130,ARI2015,3-Jan-15,3-Jan-15,3-Jan-15,4:25,16,ARI,-6,SEA,42,U,47,2015,Week 17,64646,ARI,-6,6,MIA,6,36,Y,63400,0,9,77,0,Phoenix,KLUF,KLUF4200716,KLUF,O,3-Jan-15,MST,33.535,-112.383,1086,53,29,40,53,23,30,25,27,86,35,61,42,28,35,7,2,338,7,0,10,2728,271,2999,598,600,0,0,30.32,30.13,30.22,1027.2,1020.7,1023.7,46,CLR,Fair,KLUF,O,MST,33.535,-112.383,1086,53,53,26,36,42,0,0,0,201,CLR,10,163,16,179,163,179,233,0,0,0,30.2,1023,46,CLR,Fair,3-Jan-15,16
KLUF 04/Dec/2016 16,1131,ARI2016,4-Dec-16,4-Dec-16,4-Dec-16,4:25,16,ARI,-2.5,WAS,54,O,48.5,2016,Week 13,64939,ARI,-2.5,2.5,NE,31,23,Y,63400,0,10,72,1,Phoenix,KLUF,KLUF4270816,KLUF,O,4-Dec-16,MST,33.535,-112.383,1086,69,41,54,68,36,31,17,24,53,14,35,48,35,42,10,6,334,10,0,10,2762,277,3039,602,602,0,0,30.08,29.95,30,1018.4,1014,1015.8,46,CLR,Fair,KLUF,O,MST,33.535,-112.383,1086,68,68,18,14,47,220,8,0,201,CLR,10,130,13,143,130,143,186,0,0,0,29.95,1014,46,CLR,Fair,4-Dec-16,16
KLUF 04/Oct/2015 16,1132,ARI2015,4-Oct-15,4-Oct-15,4-Oct-15,4:25,16,ARI,-7,LAR,46,O,43.5,2015,Week 4,63146,ARI,-7,7,OAK,22,24,N,63400,0,9,72,1,Phoenix,KLUF,KLUF4228116,KLUF,O,4-Oct-15,MST,33.535,-112.383,1086,94,68,82,94,69,62,35,51,51,21,36,69,56,64,21,11,190,28,11,10,4803,507,5310,613,703,0.13,0,29.74,29.57,29.64,1005.8,999.9,1002.3,46,CLR,Fair,KLUF,O,MST,33.535,-112.383,1086,93,93,48,22,66,200,17,3,201,SCT,10,322,33,355,327,360,467,0,0,0,29.57,999.9,44,PC,Partly Cloudy,4-Oct-15,16
KLUF 06/Oct/2013 16,1133,ARI2013,6-Oct-13,6-Oct-13,6-Oct-13,4:05,16,CAR,-3,ARI,28,U,41.5,2013,Week 5,60426,ARI,3,-3,NE,22,6,Y,63400,0,7,72,1,Phoenix,KLUF,KLUF4155316,KLUF,O,6-Oct-13,MST,33.535,-112.383,1086,91,67,78,90,69,31,14,21,19,7,12,57,47,52,23,10,20,29,0,9.7,4961,496,5457,695,698,0,0,30.13,29.96,30.04,1019.4,1013.4,1016.3,46,CLR,Fair,KLUF,O,MST,33.535,-112.383,1086,90,90,19,7,57,20,3,0,201,CLR,10,317,32,349,317,349,452,0,0,0,29.98,1014.1,46,CLR,Fair,6-Oct-13,16
KLUF 07/Dec/2014 16,1134,ARI2014,7-Dec-14,7-Dec-14,7-Dec-14,4:05,16,KC,-2.5,ARI,31,U,41,2014,Week 14,62387,ARI,2.5,-2.5,SF,17,14,Y,63400,0,8,72,1,Phoenix,KLUF,KLUF4198016,KLUF,O,7-Dec-14,MST,33.535,-112.383,1086,75,49,60,76,47,59,47,51,100,38,76,62,49,55,10,4,4,10,11,9.8,2424,273,2697,492,600,0,0,30.2,30.07,30.14,1022.4,1017.7,1020.1,46,CLR,Fair,KLUF,O,MST,33.535,-112.383,1086,75,76,48,39,60,0,0,8,301,SCT,10,125,13,138,130,143,186,0,0,0,30.07,1017.7,54,CLR,Few High Clouds,7-Dec-14,16
KLUF 08/Dec/2013 16,1135,ARI2013,8-Dec-13,8-Dec-13,8-Dec-13,4:25,16,ARI,-4.5,LAR,40,U,41,2013,Week 14,60643,ARI,-4.5,4.5,JAX,30,10,Y,63400,0,7,72,1,Phoenix,KLUF,KLUF4161616,KLUF,O,8-Dec-13,MST,33.535,-112.383,1086,56,42,50,56,40,41,15,29,70,24,48,47,35,42,18,9,253,18,36,10,2241,272,2513,323,600,0,0,30.11,29.98,30.05,1019.6,1015.1,1017.4,46,CLR,Fair,KLUF,O,MST,33.535,-112.383,1086,55,52,19,24,41,240,13,75,200,BKN,10,97,13,110,132,145,188,0,0,0,30.01,1016.1,50,PC,High Overcast,8-Dec-13,16
KLUF 08/Dec/2019 13,1136,ARI2019,8-Dec-19,8-Dec-19,8-Dec-19,1:00,13,PIT,-3.5,ARI,40,O,51,2019,Week 14,63880,ARI,3.5,-3.5,CLE,17,23,Y,63400,0,13,27,0,Phoenix,KLUF,KLUF4380713,KLUF,O,8-Dec-19,MST,33.517,-112.367,1089,60,54,58,60,54,59,50,56,100,77,95,59,53,57,6,2,2,6,67,9.7,1965,272,2238,280,600,0.03,0,30.08,29.94,30,1018.2,1013.6,1015.6,40,MC,Overcast,KLUF,O,MST,33.517,-112.367,1089,59,59,59,100,59,0,0,10,90,BKN,10,446,47,494,470,517,672,0,0,0,29.99,1015.3,21,RAIN,Light Drizzle,8-Dec-19,13
KLUF 08/Sep/2014 22,1137,ARI2014,8-Sep-14,8-Sep-14,8-Sep-14,10:25,22,ARI,-3,LAC,35,U,46,2014,Week 1,61292,ARI,-3,3,KC,18,17,N,63400,0,8,72,1,Phoenix,KLUF,KLUF4189022,KLUF,O,8-Sep-14,MST,33.535,-112.383,1086,88,73,80,94,73,79,71,74,100,59,82,79,72,76,13,7,52,21,66,8.9,3513,633,4146,252,756,1.99,0,29.94,29.83,29.88,1012.6,1008.7,1010.4,42,MC,Mostly Cloudy,KLUF,O,MST,33.535,-112.383,1086,80,87,75,86,77,60,6,5,80,BKN,10,0,0,0,0,0,0,0,0,0,29.87,1010.4,45,CLR,Mostly Clear,8-Sep-14,22
KLUF 08/Sep/2019 16,1138,ARI2019,8-Sep-19,8-Sep-19,8-Sep-19,4:25,16,DET,-3,ARI,54,O,46,2019,Week 1,60687,ARI,3,-3,DET,27,27,N,63400,0,13,47,0,Phoenix,KLUF,KLUF4371616,KLUF,O,8-Sep-19,MST,33.517,-112.367,1089,100,84,92,101,84,69,55,63,57,23,39,75,70,73,21,11,235,24,1,10,6251,633,6884,747,756,0,0,29.81,29.67,29.75,1007.9,1003.2,1006,46,CLR,Fair,KLUF,O,MST,33.517,-112.367,1089,100,100,58,25,72,250,13,0,201,CLR,10,473,47,520,473,520,675,0,0,0,29.69,1003.8,46,CLR,Fair,8-Sep-19,16
KLUF 09/Dec/2018 16,1139,ARI2018,9-Dec-18,9-Dec-18,9-Dec-18,4:25,16,DET,-2.5,ARI,20,U,40,2018,Week 14,62014,ARI,2.5,-2.5,DET,3,17,Y,63400,0,12,47,0,Phoenix,KLUF,KLUF4344316,KLUF,O,9-Dec-18,MST,33.517,-112.367,1089,70,44,54,69,44,49,40,46,100,36,77,56,44,50,5,2,339,5,16,9.7,2533,271,2804,522,599,0,0,30.33,30.19,30.25,1026.7,1022.1,1024,46,CLR,Fair,KLUF,O,MST,33.517,-112.367,1089,69,69,40,36,54,0,0,23,400,CLR,10,117,13,130,132,145,189,0,0,0,30.19,1022.1,46,CLR,Fair,9-Dec-18,16
KLUF 09/Nov/2014 16,1140,ARI2014,9-Nov-14,9-Nov-14,9-Nov-14,4:25,16,ARI,-7,LAR,45,O,43.5,2014,Week 10,61363,ARI,-7,7,KC,31,14,Y,63400,0,8,72,1,Phoenix,KLUF,KLUF4195216,KLUF,O,9-Nov-14,MST,33.535,-112.383,1086,84,54,68,84,52,44,36,39,53,19,36,59,46,53,8,3,351,8,0,10,3445,345,3790,634,634,0,0,30.03,29.78,29.9,1016.1,1007.7,1011.9,46,CLR,Fair,KLUF,O,MST,33.535,-112.383,1086,84,84,37,19,59,0,0,0,201,CLR,10,170,17,187,170,187,243,0,0,0,29.81,1008.6,46,CLR,Fair,9-Nov-14,16
KLUF 09/Nov/2017 20,1141,ARI2017,9-Nov-17,9-Nov-17,9-Nov-17,8:25,20,SEA,-6,ARI,38,U,40.5,2017,Week 10,64639,ARI,6,-6,SEA,16,22,N,63400,0,11,23,0,Phoenix,KLUF,KLUF4304820,KLUF,O,9-Nov-17,MST,33.535,-112.383,1086,84,58,70,83,57,48,43,46,60,25,43,62,51,57,9,4,352,9,9,10.1,3420,345,3765,618,634,0,0,30,29.88,29.93,1015.1,1011,1012.8,46,CLR,Fair,KLUF,O,MST,33.535,-112.383,1086,70,70,47,43,57,0,0,0,201,CLR,11,0,0,0,0,0,0,0,0,0,29.89,1011.5,46,CLR,Fair,9-Nov-17,20
KLUF 09/Sep/2018 16,1142,ARI2018,9-Sep-18,9-Sep-18,9-Sep-18,4:25,16,ARI,-2,WAS,30,U,43.5,2018,Week 1,61613,ARI,-2,2,WAS,6,24,Y,63400,0,12,43,0,Phoenix,KLUF,KLUF4335216,KLUF,O,9-Sep-18,MST,33.517,-112.367,1089,106,83,94,106,83,62,45,56,45,14,29,73,65,70,16,9,223,20,10,10,5935,628,6563,671,754,0,0,29.86,29.71,29.77,1009.6,1004.4,1006.6,46,CLR,Fair,KLUF,O,MST,33.517,-112.367,1089,106,106,48,15,70,270,7,35,400,CLR,10,384,47,431,465,512,665,0,0,0,29.72,1004.8,46,CLR,Fair,9-Sep-18,16
KLUF 10/Dec/2015 20,1143,ARI2015,10-Dec-15,10-Dec-15,10-Dec-15,8:25,20,ARI,-10,MIN,43,U,46.5,2015,Week 14,64784,ARI,-10,10,JAX,23,20,N,63400,0,9,72,1,Phoenix,KLUF,KLUF4234820,KLUF,O,10-Dec-15,MST,33.535,-112.383,1086,74,44,57,74,41,42,31,35,74,21,48,53,40,46,6,4,2,6,29,10,2646,271,2917,534,599,0,0,30.01,29.79,29.91,1016,1008.4,1012.7,54,CLR,Few High Clouds,KLUF,O,MST,33.535,-112.383,1086,58,58,37,46,48,330,3,66,301,OVC,10,0,0,0,0,0,0,0,0,0,29.83,1010,50,PC,High Overcast,10-Dec-15,20
KLUF 10/Dec/2017 16,1144,ARI2017,10-Dec-17,10-Dec-17,10-Dec-17,4:05,16,TEN,-3,ARI,19,U,42,2017,Week 14,64153,ARI,3,-3,TEN,12,7,Y,63400,0,11,77,0,Phoenix,KLUF,KLUF4307916,KLUF,O,10-Dec-17,MST,33.535,-112.383,1086,79,47,61,77,43,26,8,17,38,7,20,50,38,44,15,7,36,15,42,10,2277,271,2548,343,599,0,0,30.27,30.13,30.2,1024.9,1019.9,1022.4,50,PC,High Overcast,KLUF,O,MST,33.535,-112.383,1086,76,76,8,7,49,70,8,75,301,OVC,10,82,13,95,131,144,187,0,0,0,30.14,1020,50,PC,High Overcast,10-Dec-17,16
KLUF 10/Nov/2013 16,1145,ARI2013,10-Nov-13,10-Nov-13,10-Nov-13,4:25,16,ARI,-4,HOU,51,O,42,2013,Week 10,60845,ARI,-4,4,HOU,27,24,N,63400,0,7,72,1,Phoenix,KLUF,KLUF4158816,KLUF,O,10-Nov-13,MST,33.535,-112.383,1086,82,54,67,82,53,43,34,37,51,17,36,58,46,52,8,3,2,8,46,16.2,1962,341,2302,108,633,0,0,30.14,30.01,30.05,1018.6,1014.1,1016.1,46,CLR,Fair,KLUF,O,MST,33.535,-112.383,1086,82,82,34,17,57,310,3,90,202,BKN,20,92,17,109,168,185,240,0,0,0,30.02,1014.3,52,PC,High Clouds,10-Nov-13,16
KLUF 11/Sep/2016 20,1146,ARI2016,11-Sep-16,11-Sep-16,11-Sep-16,8:30,20,ARI,-8.5,NE,44,P,44,2016,Week 1,64864,ARI,-8.5,8.5,PHI,21,23,N,63400,0,10,72,1,Phoenix,KLUF,KLUF4262420,KLUF,O,11-Sep-16,MST,33.535,-112.383,1086,103,74,90,102,74,53,46,49,38,15,26,69,59,65,13,7,235,18,0,10,6145,614,6759,750,750,0,0,30.01,29.83,29.92,1014.8,1008.7,1011.7,46,CLR,Fair,KLUF,O,MST,33.535,-112.383,1086,94,94,49,22,67,230,8,0,201,CLR,10,0,0,0,0,0,0,0,0,0,29.84,1009.1,46,CLR,Fair,11-Sep-16,20
KLUF 12/Oct/2014 16,1147,ARI2014,12-Oct-14,12-Oct-14,12-Oct-14,4:25,16,ARI,-5.5,WAS,50,O,46.5,2014,Week 6,61139,ARI,-5.5,5.5,DAL,30,20,Y,63400,0,8,72,1,Phoenix,KLUF,KLUF4192416,KLUF,O,12-Oct-14,MST,33.535,-112.383,1086,94,64,78,94,64,60,23,49,74,14,44,68,55,62,20,7,290,20,0,9.9,4663,467,5130,687,687,0,0,29.89,29.74,29.83,1011.1,1005.9,1008.9,46,CLR,Fair,KLUF,O,MST,33.535,-112.383,1086,93,93,44,19,65,210,18,0,201,CLR,10,285,29,314,285,314,408,0,0,0,29.74,1005.9,46,CLR,Fair,12-Oct-14,16
KLUF 13/Nov/2016 16,1148,ARI2016,13-Nov-16,13-Nov-16,13-Nov-16,4:25,16,ARI,-14,SF,43,U,47,2016,Week 10,65127,ARI,-14,14,NE,23,20,N,63400,0,10,72,1,Phoenix,KLUF,KLUF4268716,KLUF,O,13-Nov-16,MST,33.535,-112.383,1086,84,55,68,84,54,42,37,39,51,19,37,60,47,53,9,5,339,9,3,9.9,3267,328,3595,623,628,0,0,30.15,30.01,30.08,1020.3,1015.4,1017.8,46,CLR,Fair,KLUF,O,MST,33.535,-112.383,1086,84,84,37,19,59,180,5,0,201,CLR,10,158,16,174,158,174,226,0,0,0,30.02,1015.8,46,CLR,Fair,13-Nov-16,16
KLUF 13/Oct/2019 13,1149,ARI2019,13-Oct-19,13-Oct-19,13-Oct-19,1:00,13,ATL,-3,ARI,67,O,50,2019,Week 6,60140,ARI,3,-3,ATL,34,33,N,63400,0,13,57,0,Phoenix,KLUF,KLUF4375113,KLUF,O,13-Oct-19,MST,33.517,-112.367,1089,90,56,74,90,55,42,29,36,52,12,28,59,48,54,8,5,360,8,0,13.3,4611,461,5072,682,685,0,0,29.91,29.8,29.84,1012,1008.2,1009.7,46,CLR,Fair,KLUF,O,MST,33.517,-112.367,1089,87,87,33,15,59,120,3,0,201,CLR,10,694,69,763,694,763,992,0,0,0,29.85,1009.7,46,CLR,Fair,13-Oct-19,13
KLUF 13/Sep/2015 16,1150,ARI2015,13-Sep-15,13-Sep-15,13-Sep-15,4:05,16,ARI,-2.5,NO,50,O,48.5,2015,Week 1,62903,ARI,-2.5,2.5,ATL,31,19,Y,63400,0,9,72,1,Phoenix,KLUF,KLUF4226016,KLUF,O,13-Sep-15,MST,33.535,-112.383,1086,102,76,91,102,76,70,55,59,78,21,35,72,69,71,18,7,228,26,59,9.9,5367,610,5977,419,746,0.09,0,29.87,29.66,29.78,1010.1,1002.8,1006.9,44,PC,Partly Cloudy,KLUF,O,MST,33.535,-112.383,1086,102,102,55,21,72,310,12,0,201,CLR,10,445,45,490,445,490,636,0,0,0,29.69,1003.8,46,CLR,Fair,13-Sep-15,16
KLUF 15/Dec/2019 13,1151,ARI2019,15-Dec-19,15-Dec-19,15-Dec-19,1:00,13,CLE,-3,ARI,62,O,33,2019,Week 15,63345,ARI,3,-3,CLE,38,24,Y,63400,0,13,39,0,Phoenix,KLUF,KLUF4381413,KLUF,O,15-Dec-19,MST,33.517,-112.367,1089,68,46,55,66,46,50,23,38,99,20,61,51,42,48,15,7,298,21,18,14.9,2480,266,2746,519,597,0,0,30.04,29.74,29.87,1017.4,1006.6,1011.2,46,CLR,Fair,KLUF,O,MST,33.517,-112.367,1089,64,63,26,24,47,250,12,3,386,CLR,10,457,46,503,464,510,663,0,0,0,29.9,1011.2,47,CLR,Clear,15-Dec-19,13
KLUF 15/Oct/2017 16,1152,ARI2017,15-Oct-17,15-Oct-17,15-Oct-17,4:05,16,TB,-2.5,ARI,71,O,47,2017,Week 6,63999,ARI,2.5,-2.5,TB,38,33,Y,63400,0,11,39,0,Phoenix,KLUF,KLUF4302316,KLUF,O,15-Oct-17,MST,33.535,-112.383,1086,95,61,78,94,60,32,11,21,33,5,14,58,47,53,12,5,349,12,0,10,4519,451,4970,679,680,0,0,30.13,29.99,30.05,1019.2,1014.5,1016.5,46,CLR,Fair,KLUF,O,MST,33.535,-112.383,1086,94,94,13,5,58,0,0,0,201,CLR,10,271,27,298,271,298,387,0,0,0,30.01,1015.2,46,CLR,Fair,15-Oct-17,16
KLUF 15/Sep/2013 16,1153,ARI2013,15-Sep-13,15-Sep-13,15-Sep-13,4:05,16,DET,-2,ARI,46,U,48,2013,Week 2,60034,ARI,2,-2,MIN,25,21,Y,63400,0,7,72,1,Phoenix,KLUF,KLUF4153216,KLUF,O,15-Sep-13,MST,33.535,-112.383,1086,102,77,90,103,77,59,54,57,51,20,35,73,65,69,9,5,10,9,0,10,6002,598,6600,741,742,0,0,29.78,29.68,29.72,1006.2,1002.5,1004,46,CLR,Fair,KLUF,O,MST,33.535,-112.383,1086,102,102,55,21,72,40,7,0,201,CLR,10,433,43,476,433,476,619,0,0,0,29.69,1002.9,46,CLR,Fair,15-Sep-13,16
KLUF 16/Nov/2014 16,1154,ARI2014,16-Nov-14,16-Nov-14,16-Nov-14,4:25,16,DET,-1.5,ARI,20,U,41.5,2014,Week 11,62487,ARI,1.5,-1.5,KC,14,6,Y,63400,0,8,72,1,Phoenix,KLUF,KLUF4195916,KLUF,O,16-Nov-14,MST,33.535,-112.383,1086,69,54,62,69,52,53,-8,19,81,5,32,58,37,47,24,13,7,33,2,9.6,3207,321,3528,618,623,0,0,30.18,29.84,30.03,1021.6,1009.6,1016.5,46,CLR,Fair,KLUF,O,MST,33.535,-112.383,1086,68,68,-3,6,44,360,17,0,201,CLR,10,154,15,169,154,169,220,0,0,0,30.06,1017.3,46,CLR,Fair,16-Nov-14,16
KLUF 17/Oct/2013 20,1155,ARI2013,17-Oct-13,17-Oct-13,17-Oct-13,8:25,20,SEA,-5.5,ARI,56,O,41,2013,Week 7,61200,ARI,5.5,-5.5,OAK,22,34,Y,63400,0,7,72,1,Phoenix,KLUF,KLUF4156420,KLUF,O,17-Oct-13,MST,33.535,-112.383,1086,82,51,67,82,48,33,29,31,46,15,28,56,43,50,12,5,295,12,1,10,4411,442,4853,669,677,0,0,30.05,29.87,29.96,1017,1010.9,1013.8,46,CLR,Fair,KLUF,O,MST,33.535,-112.383,1086,71,71,31,22,52,210,6,0,201,CLR,10,0,0,0,0,0,0,0,0,0,29.89,1011.5,46,CLR,Fair,17-Oct-13,20
KLUF 17/Oct/2016 20,1156,ARI2016,17-Oct-16,17-Oct-16,17-Oct-16,8:30,20,ARI,-7,NYJ,31,U,46,2016,Week 6,64709,ARI,-7,7,HOU,28,3,Y,63400,0,10,72,1,Phoenix,KLUF,KLUF4266020,KLUF,O,17-Oct-16,MST,33.535,-112.383,1086,88,61,76,88,62,50,41,45,50,19,34,64,52,58,10,5,212,10,0,9.9,4375,437,4812,677,677,0,0,29.89,29.76,29.83,1011.2,1006.7,1008.9,46,CLR,Fair,KLUF,O,MST,33.535,-112.383,1086,79,79,46,31,60,210,7,0,201,CLR,10,0,0,0,0,0,0,0,0,0,29.79,1007.8,46,CLR,Fair,17-Oct-16,20
KLUF 18/Dec/2016 16,1157,ARI2016,18-Dec-16,18-Dec-16,18-Dec-16,4:05,16,ARI,-3,NO,89,O,50,2016,Week 15,65072,ARI,-3,3,IND,41,48,Y,63400,0,10,72,1,Phoenix,KLUF,KLUF4272216,KLUF,O,18-Dec-16,MST,33.535,-112.383,1086,62,35,48,62,29,30,15,23,70,18,41,44,32,38,8,3,356,8,0,7.6,2643,264,2907,591,595,0,0,30.23,30.1,30.15,1023.8,1019.2,1021.3,46,CLR,Fair,KLUF,O,MST,33.535,-112.383,1086,62,62,18,18,44,0,0,0,201,CLR,10,136,14,150,136,150,195,0,0,0,30.1,1019.3,46,CLR,Fair,18-Dec-16,16
KLUF 18/Nov/2018 16,1158,ARI2018,18-Nov-18,18-Nov-18,18-Nov-18,4:05,16,ARI,-4.5,OAK,44,O,41,2018,Week 11,62435,ARI,-4.5,4.5,OAK,21,23,N,63400,0,12,76,0,Phoenix,KLUF,KLUF4342216,KLUF,O,18-Nov-18,MST,33.517,-112.367,1089,72,44,56,72,43,35,26,30,60,18,39,51,39,45,9,3,355,9,21,10,2745,314,3057,473,621,0,0,30.13,30,30.05,1020.1,1015.5,1017.4,46,CLR,Fair,KLUF,O,MST,33.517,-112.367,1089,72,72,28,20,51,220,5,25,400,CLR,10,130,15,145,149,164,213,0,0,0,30,1015.5,46,CLR,Fair,18-Nov-18,16
KLUF 18/Oct/2018 20,1159,ARI2018,18-Oct-18,18-Oct-18,18-Oct-18,8:20,20,DEN,-1,ARI,55,O,42,2018,Week 7,62359,ARI,1,-1,DEN,10,45,Y,63400,0,12,32,0,Phoenix,KLUF,KLUF4339120,KLUF,O,18-Oct-18,MST,33.517,-112.367,1089,81,56,69,80,57,52,43,47,65,27,46,60,52,57,13,6,16,14,12,9.5,4111,437,4548,591,675,0,0,30.1,29.97,30.03,1018.5,1014,1016.2,46,CLR,Fair,KLUF,O,MST,33.517,-112.367,1089,70,70,52,53,60,300,5,0,201,CLR,10,0,0,0,0,0,0,0,0,0,30,1015.2,46,CLR,Fair,18-Oct-18,20
KLUF 18/Sep/2016 16,1160,ARI2016,18-Sep-16,18-Sep-16,18-Sep-16,4:05,16,ARI,-7,TB,47,U,49.5,2016,Week 2,64230,ARI,-7,7,NE,40,7,Y,63400,0,10,72,1,Phoenix,KLUF,KLUF4263116,KLUF,O,18-Sep-16,MST,33.535,-112.383,1086,103,68,86,102,68,38,24,32,28,6,16,63,51,58,9,5,317,9,0,10,5807,579,6386,736,736,0,0,29.98,29.84,29.9,1013.9,1009.2,1011.3,46,CLR,Fair,KLUF,O,MST,33.535,-112.383,1086,102,102,24,6,62,370,1,0,201,CLR,10,413,41,454,413,454,589,0,0,0,29.87,1010.1,46,CLR,Fair,18-Sep-16,16
KLUF 21/Dec/2014 20,1161,ARI2014,21-Dec-14,21-Dec-14,21-Dec-14,8:30,20,SEA,-9.5,ARI,41,O,36.5,2014,Week 16,63806,ARI,9.5,-9.5,ARI,6,35,Y,63400,0,8,72,1,Phoenix,KLUF,KLUF4199420,KLUF,O,21-Dec-14,MST,33.535,-112.383,1086,63,41,52,62,38,46,40,43,100,46,76,52,42,47,9,4,325,9,35,10,2402,265,2667,442,596,0,0,30.12,30.02,30.07,1020,1016.6,1018.2,52,PC,High Clouds,KLUF,O,MST,33.535,-112.383,1086,52,49,44,77,48,320,7,61,301,OVC,10,0,0,0,0,0,0,0,0,0,30.05,1017.7,50,PC,High Overcast,21-Dec-14,20
KLUF 21/Sep/2014 16,1162,ARI2014,21-Sep-14,21-Sep-14,21-Sep-14,4:05,16,SF,-3,ARI,37,U,41,2014,Week 3,61572,ARI,3,-3,BUF,23,14,Y,63400,0,8,72,1,Phoenix,KLUF,KLUF4190316,KLUF,O,21-Sep-14,MST,33.535,-112.383,1086,98,74,87,97,75,66,51,56,60,22,39,74,64,68,7,2,342,7,8,9.8,5392,570,5962,624,730,0,0,29.96,29.83,29.89,1013.2,1008.8,1010.8,46,CLR,Fair,KLUF,O,MST,33.535,-112.383,1086,97,97,54,24,70,0,0,0,201,CLR,10,400,40,440,400,440,572,0,0,0,29.85,1009.3,46,CLR,Fair,21-Sep-14,16
KLUF 22/Nov/2015 20,1163,ARI2015,22-Nov-15,22-Nov-15,22-Nov-15,8:30,20,ARI,-4,CIN,65,O,48,2015,Week 11,64745,ARI,-4,4,NYG,34,31,N,63400,0,9,72,1,Phoenix,KLUF,KLUF4233020,KLUF,O,22-Nov-15,MST,33.535,-112.383,1086,79,50,63,79,48,39,12,28,49,12,28,54,40,47,9,6,3,9,0,10,3035,303,3338,614,615,0,0,30.07,29.92,29.99,1017.6,1012.7,1015.1,46,CLR,Fair,KLUF,O,MST,33.535,-112.383,1086,60,60,35,39,49,350,6,0,201,CLR,10,0,0,0,0,0,0,0,0,0,29.94,1013.6,46,CLR,Fair,22-Nov-15,20
KLUF 22/Sep/2019 16,1164,ARI2019,22-Sep-19,22-Sep-19,22-Sep-19,4:05,16,ARI,-2,CAR,58,O,45,2019,Week 3,60104,ARI,-2,2,CAR,20,38,Y,63400,0,13,71,0,Phoenix,KLUF,KLUF4373016,KLUF,O,22-Sep-19,MST,33.517,-112.367,1089,98,66,83,96,66,48,24,36,30,9,19,66,50,58,10,4,19,10,6,10,5657,565,6222,726,727,0,0,29.97,29.83,29.89,1013.7,1008.9,1010.8,46,CLR,Fair,KLUF,O,MST,33.517,-112.367,1089,96,96,44,17,66,0,0,0,201,CLR,10,394,39,433,394,433,563,0,0,0,29.84,1009.2,46,CLR,Fair,22-Sep-19,16
KLUF 23/Dec/2018 16,1165,ARI2018,23-Dec-18,23-Dec-18,23-Dec-18,4:05,16,LAR,-14,ARI,40,U,43.5,2018,Week 16,61759,ARI,14,-14,LAR,9,31,Y,63400,0,12,82,0,Phoenix,KLUF,KLUF4345716,KLUF,O,23-Dec-18,MST,33.517,-112.367,1089,71,40,54,71,38,42,31,35,77,23,53,52,38,45,8,3,346,8,17,10,2335,264,2599,423,596,0,0,30.18,30.04,30.09,1022,1017,1018.9,46,CLR,Fair,KLUF,O,MST,33.517,-112.367,1089,71,71,31,23,52,0,0,31,386,CLR,10,121,14,135,143,157,204,0,0,0,30.06,1017.6,46,CLR,Fair,23-Dec-18,16
KLUF 23/Oct/2016 20,1166,ARI2016,23-Oct-16,23-Oct-16,23-Oct-16,8:30,20,ARI,-2.5,SEA,12,U,43,2016,Week 7,65089,ARI,-2.5,2.5,PHI,6,6,N,63400,0,10,72,1,Phoenix,KLUF,KLUF4266620,KLUF,O,23-Oct-16,MST,33.535,-112.383,1086,94,62,79,94,62,49,39,43,47,15,30,64,51,59,10,5,348,10,13,10,4030,408,4438,629,665,0,0,30.04,29.92,29.97,1016.2,1012,1013.8,46,CLR,Fair,KLUF,O,MST,33.535,-112.383,1086,82,82,47,30,62,310,6,17,301,SCT,10,0,0,0,0,0,0,0,0,0,29.96,1013.6,54,CLR,Few High Clouds,23-Oct-16,20
KLUF 23/Sep/2018 16,1167,ARI2018,23-Sep-18,23-Sep-18,23-Sep-18,4:25,16,CHI,-5.5,ARI,30,U,39,2018,Week 3,62163,ARI,5.5,-5.5,CHI,14,16,N,63400,0,12,34,0,Phoenix,KLUF,KLUF4336616,KLUF,O,23-Sep-18,MST,33.517,-112.367,1089,102,74,90,102,75,54,45,49,45,15,26,68,62,66,17,8,220,17,37,10.2,4510,561,5071,456,725,0,0,29.91,29.64,29.78,1010,1003.6,1006.8,45,CLR,Mostly Clear,KLUF,O,MST,33.517,-112.367,1089,102,102,46,15,68,176,7,40,400,FEW,10,312,39,351,390,429,557,0,0,0,29.74,1004.1,45,CLR,Mostly Clear,23-Sep-18,16
KLUF 24/Dec/2017 16,1168,ARI2017,24-Dec-17,24-Dec-17,24-Dec-17,4:25,16,ARI,-3,NYG,23,U,39.5,2017,Week 16,63850,ARI,-3,3,NYG,23,0,Y,63400,0,11,67,0,Phoenix,KLUF,KLUF4309316,KLUF,O,24-Dec-17,MST,33.535,-112.383,1086,68,36,50,68,33,31,15,22,56,14,36,48,31,39,7,4,3,7,21,10,2599,264,2863,529,597,0,0,30.22,30.07,30.14,1023.6,1018.2,1020.8,46,CLR,Fair,KLUF,O,MST,33.535,-112.383,1086,68,68,20,16,47,190,6,32,301,BKN,10,121,14,135,144,158,206,0,0,0,30.08,1018.5,52,PC,High Clouds,24-Dec-17,16
KLUF 24/Nov/2013 16,1169,ARI2013,24-Nov-13,24-Nov-13,24-Nov-13,4:05,16,ARI,-3,IND,51,O,45,2013,Week 12,60882,ARI,-3,3,GB,40,11,Y,63400,0,7,72,1,Phoenix,KLUF,KLUF4160216,KLUF,O,24-Nov-13,MST,33.535,-112.383,1086,59,49,54,59,48,51,43,47,98,55,80,52,49,50,7,5,349,7,70,9.9,1884,300,2185,145,613,0.06,0,30.17,30.07,30.12,1021.6,1018.1,1019.8,40,MC,Overcast,KLUF,O,MST,33.535,-112.383,1086,59,59,43,55,51,320,5,70,65,BKN,10,91,14,105,140,154,200,0,0,0,30.11,1019.4,42,MC,Mostly Cloudy,24-Nov-13,16
KLUF 25/Sep/2017 20,1170,ARI2017,25-Sep-17,25-Sep-17,25-Sep-17,8:30,20,DAL,-3,ARI,45,U,46.5,2017,Week 3,65102,ARI,3,-3,DAL,17,28,Y,63400,0,11,67,0,Phoenix,KLUF,KLUF4300320,KLUF,O,25-Sep-17,MST,33.535,-112.383,1086,88,58,73,88,58,29,15,24,32,7,18,56,45,51,8,2,227,8,3,10,5479,550,6029,686,721,0,0,29.83,29.69,29.76,1009.2,1004.4,1006.8,46,CLR,Fair,KLUF,O,MST,33.535,-112.383,1086,76,76,28,17,53,210,7,2,301,SCT,10,0,0,0,0,0,0,0,0,0,29.71,1005.2,54,CLR,Few High Clouds,25-Sep-17,20
KLUF 26/Nov/2017 16,1171,ARI2017,26-Nov-17,26-Nov-17,26-Nov-17,4:25,16,JAX,-6.5,ARI,51,O,38,2017,Week 12,63891,ARI,6.5,-6.5,JAX,27,24,N,63400,0,11,72,0,Phoenix,KLUF,KLUF4306516,KLUF,O,26-Nov-17,MST,33.535,-112.383,1086,87,51,65,86,49,44,30,36,57,15,37,59,44,51,9,3,359,9,0,10,2936,294,3230,610,610,0,0,30.11,29.9,30,1019.3,1011.8,1015.4,46,CLR,Fair,KLUF,O,MST,33.535,-112.383,1086,86,86,33,15,59,0,0,0,201,CLR,10,137,14,151,137,151,196,0,0,0,29.93,1012.7,46,CLR,Fair,26-Nov-17,16
KLUF 26/Oct/2014 16,1172,ARI2014,26-Oct-14,26-Oct-14,26-Oct-14,4:05,16,PHI,-1,ARI,44,U,48,2014,Week 8,61789,ARI,1,-1,BAL,24,20,Y,63400,0,8,72,1,Phoenix,KLUF,KLUF4193816,KLUF,O,26-Oct-14,MST,33.535,-112.383,1086,88,65,77,88,65,59,50,54,67,29,47,68,58,63,13,5,219,13,43,9.9,3500,400,3900,387,659,0,0,29.94,29.8,29.87,1011.6,1006.7,1009,50,PC,High Overcast,KLUF,O,MST,33.535,-112.383,1086,88,88,52,29,66,220,3,52,301,BKN,10,164,22,186,221,243,316,0,0,0,29.82,1007.3,52,PC,High Clouds,26-Oct-14,16
KLUF 26/Oct/2015 20,1173,ARI2015,26-Oct-15,26-Oct-15,26-Oct-15,8:30,20,ARI,-10,BAL,44,U,49.5,2015,Week 7,64722,ARI,-10,10,NO,26,18,N,63400,0,9,72,1,Phoenix,KLUF,KLUF4230320,KLUF,O,26-Oct-15,MST,33.535,-112.383,1086,89,62,75,89,62,53,42,49,67,25,45,65,56,60,8,5,354,8,3,9.8,3957,400,4357,629,659,0,0,29.95,29.83,29.89,1013.3,1009.2,1011.3,46,CLR,Fair,KLUF,O,MST,33.535,-112.383,1086,76,78,52,42,62,260,2,0,201,CLR,10,0,0,0,0,0,0,0,0,0,29.86,1010.3,46,CLR,Fair,26-Oct-15,20
KLUF 27/Dec/2015 16,1174,ARI2015,27-Dec-15,27-Dec-15,27-Dec-15,4:25,16,ARI,-6,GB,46,U,50.5,2015,Week 16,64878,ARI,-6,6,NE,38,8,Y,63400,0,9,72,1,Phoenix,KLUF,KLUF4236516,KLUF,O,27-Dec-15,MST,33.535,-112.383,1086,59,37,47,59,33,22,8,13,48,16,26,41,30,35,16,8,6,16,2,10,2658,267,2925,596,596,0,0,30.25,30.06,30.13,1024.6,1017.9,1020.4,46,CLR,Fair,KLUF,O,MST,33.535,-112.383,1086,58,58,13,16,41,220,6,0,201,CLR,10,149,15,164,149,164,213,0,0,0,30.07,1018.2,46,CLR,Fair,27-Dec-15,16
KLUF 27/Oct/2013 16,1175,ARI2013,27-Oct-13,27-Oct-13,27-Oct-13,4:25,16,ARI,-2.5,ATL,40,U,45,2013,Week 8,60671,ARI,-2.5,2.5,DAL,27,13,Y,63400,0,7,72,1,Phoenix,KLUF,KLUF4157416,KLUF,O,27-Oct-13,MST,33.535,-112.383,1086,88,56,73,88,55,42,31,36,51,14,29,60,48,54,12,7,251,12,13,10,3945,396,4341,611,657,0,0,29.94,29.72,29.83,1012.9,1005.4,1009.2,46,CLR,Fair,KLUF,O,MST,33.535,-112.383,1086,88,88,33,14,59,240,12,3,301,SCT,10,214,22,236,217,239,310,0,0,0,29.75,1006.4,54,CLR,Few High Clouds,27-Oct-13,16
KLUF 27/Sep/2015 16,1176,ARI2015,27-Sep-15,27-Sep-15,27-Sep-15,4:05,16,ARI,-7,SF,54,O,45,2015,Week 3,63663,ARI,-7,7,ARI,47,7,Y,63400,0,9,72,1,Phoenix,KLUF,KLUF4227416,KLUF,O,27-Sep-15,MST,33.535,-112.383,1086,102,75,89,102,75,53,48,51,46,16,29,71,62,66,8,4,348,8,1,10,5407,540,5947,717,717,0,0,29.87,29.73,29.79,1010.1,1005.3,1007.3,46,CLR,Fair,KLUF,O,MST,33.535,-112.383,1086,102,102,48,16,69,270,5,0,201,CLR,10,365,37,402,365,402,522,0,0,0,29.74,1005.6,46,CLR,Fair,27-Sep-15,16
KLUF 28/Oct/2018 16,1177,ARI2018,28-Oct-18,28-Oct-18,28-Oct-18,4:25,16,SF,-3,ARI,33,U,40,2018,Week 8,61923,ARI,3,-3,SF,18,15,N,63400,0,12,47,0,Phoenix,KLUF,KLUF4340116,KLUF,O,28-Oct-18,MST,33.517,-112.367,1089,86,57,71,86,56,55,42,48,69,22,48,63,52,58,8,4,348,8,27,10,3354,390,3744,422,656,0,0,30.06,29.95,30,1017.1,1013.3,1014.9,46,CLR,Fair,KLUF,O,MST,33.517,-112.367,1089,86,86,44,23,62,0,0,48,301,OVC,10,161,21,182,212,233,303,0,0,0,29.96,1013.6,50,PC,High Overcast,28-Oct-18,16
KLUF 29/Dec/2013 16,1178,ARI2013,29-Dec-13,29-Dec-13,29-Dec-13,4:25,16,ARI,-3,SF,43,O,41,2013,Week 17,63570,ARI,-3,3,ARI,20,23,N,63400,0,7,72,1,Phoenix,KLUF,KLUF4163716,KLUF,O,29-Dec-13,MST,33.535,-112.383,1086,69,38,53,69,35,35,17,29,76,20,46,50,35,42,10,5,340,10,0,9.9,2674,267,2941,597,598,0,0,30.14,29.96,30.03,1020.4,1014.4,1016.7,46,CLR,Fair,KLUF,O,MST,33.535,-112.383,1086,69,69,26,20,49,340,6,0,201,SCT,10,153,15,168,153,168,219,0,0,0,30,1015.7,44,PC,Partly Cloudy,29-Dec-13,16
KLUF 29/Sep/2019 16,1179,ARI2019,29-Sep-19,29-Sep-19,29-Sep-19,4:05,16,SEA,-5.5,ARI,37,U,49,2019,Week 4,60500,ARI,5.5,-5.5,SEA,10,27,Y,63400,0,13,82,0,Phoenix,KLUF,KLUF4373716,KLUF,O,29-Sep-19,MST,33.517,-112.367,1089,88,71,79,87,71,63,44,55,72,26,47,69,59,65,15,9,230,15,3,10,5276,532,5808,706,713,0,0,29.77,29.66,29.71,1006.9,1003.1,1004.9,46,CLR,Fair,KLUF,O,MST,33.517,-112.367,1089,86,86,53,32,66,250,9,0,201,CLR,10,356,36,392,356,392,509,0,0,0,29.69,1004.2,46,CLR,Fair,29-Sep-19,16
KLUF 30/Sep/2018 16,1180,ARI2018,30-Sep-18,30-Sep-18,30-Sep-18,4:05,16,SEA,-3.5,ARI,37,U,40,2018,Week 4,61845,ARI,3.5,-3.5,SEA,17,20,N,63400,0,12,32,0,Phoenix,KLUF,KLUF4337316,KLUF,O,30-Sep-18,MST,33.517,-112.367,1089,94,73,82,94,74,71,50,58,91,26,46,72,62,67,23,7,282,31,51,10,3951,527,4478,276,710,0.03,0,29.9,29.79,29.85,1011.4,1007.5,1009.6,46,CLR,Fair,KLUF,O,MST,33.517,-112.367,1089,89,90,61,39,71,300,15,73,193,CLR,10,222,35,257,350,385,500,0,0,0,29.79,1007.5,46,CLR,Fair,30-Sep-18,16
KLUF 31/Oct/2019 13,1181,ARI2019,31-Oct-19,31-Oct-19,31-Oct-19,1:00,13,SF,-3,ARI,53,O,49.5,2019,Week 9,60986,ARI,3,-3,SF,25,28,N,63400,0,13,59,0,Phoenix,KLUF,KLUF4376913,KLUF,O,31-Oct-19,MST,33.517,-112.367,1089,75,44,59,74,40,17,-7,2,21,4,11,47,32,40,15,8,11,15,0,10,3789,379,4168,642,650,0,0,30.23,30.06,30.15,1023.4,1017.5,1020.5,46,CLR,Fair,KLUF,O,MST,33.517,-112.367,1089,73,73,-7,4,46,70,8,1,400,CLR,10,595,60,655,598,658,855,0,0,0,30.13,1019.7,46,CLR,Fair,31-Oct-19,13
KLUK 01/Dec/2019 13,1182,CIN2019,1-Dec-19,1-Dec-19,1-Dec-19,1:00,13,CIN,-1.5,NYJ,28,O,32,2019,Week 13,39804,CIN,-1.5,1.5,BUF,22,6,Y,65515,0,19,60,0,Cincinnati,KLUK,KLUK4380013,KLUK,O,1-Dec-19,EST,39.1,-84.417,509,60,37,46,59,30,56,29,40,100,55,80,57,36,43,21,11,234,31,86,9.9,1190,214,1405,85,579,0.09,0,29.66,29.4,29.52,1004.4,995.4,999.5,40,MC,Overcast,KLUK,O,EST,39.1,-84.417,509,45,38,35,68,41,290,17,100,75,OVC,10,196,39,235,392,431,560,0,0,0,29.49,998.5,40,MC,Overcast,1-Dec-19,13
KLUK 01/Jan/2017 13,1183,CIN2016,1-Jan-17,1-Jan-17,1-Jan-17,1:00,13,BAL,-2.5,CIN,37,U,40.5,2016,Week 17,54944,CIN,2.5,-2.5,CLE,27,10,Y,65515,0,16,24,0,Cincinnati,KLUK,KLUK4273613,KLUK,O,1-Jan-17,EST,39.103,-84.419,482,47,28,39,47,29,43,28,36,100,74,91,43,29,37,8,4,41,8,79,6,1301,204,1506,75,569,0,0,30.2,30,30.12,1023,1016.2,1020.3,40,MC,Overcast,KLUK,O,EST,39.103,-84.419,482,40,35,38,93,39,40,7,100,5,SCT,8,190,38,228,381,419,544,0,0,0,30.17,1021.9,40,MC,Overcast,1-Jan-17,13
KLUK 02/Dec/2018 13,1184,CIN2018,2-Dec-18,2-Dec-18,2-Dec-18,1:00,13,DEN,-5,CIN,34,U,45,2018,Week 13,44392,CIN,5,-5,DEN,10,24,Y,65515,0,18,66,0,Cincinnati,KLUK,KLUK4343613,KLUK,O,2-Dec-18,EST,39.1,-84.417,509,66,44,55,66,37,55,33,44,96,40,71,57,40,51,28,15,225,39,30,10,2038,213,2251,455,576,0,0,29.78,29.44,29.56,1008.3,996.7,1001,46,CLR,Fair,KLUK,O,EST,39.1,-84.417,509,65,64,47,52,55,190,16,5,120,FEW,10,383,39,422,390,429,557,0,0,0,29.46,997.4,45,CLR,Mostly Clear,2-Dec-18,13
KLUK 02/Nov/2014 13,1185,CIN2014,2-Nov-14,2-Nov-14,2-Nov-14,1:00,13,CIN,-10,JAX,56,O,43.5,2014,Week 9,60057,CIN,-10,10,LAR,33,23,N,65515,0,14,46,0,Cincinnati,KLUK,KLUK4194513,KLUK,O,2-Nov-14,EST,39.103,-84.419,482,49,22,34,48,23,26,16,23,96,28,71,37,22,30,6,1,315,6,0,9.9,3041,303,3344,626,628,0,0,30.52,30.4,30.44,1033.5,1029.4,1030.9,46,CLR,Fair,KLUK,O,EST,39.103,-84.419,482,44,41,23,43,36,280,5,0,201,CLR,10,504,50,554,504,554,719,0,0,0,30.47,1031.8,46,CLR,Fair,2-Nov-14,13
KLUK 03/Jan/2016 13,1186,CIN2015,3-Jan-16,3-Jan-16,3-Jan-16,1:00,13,CIN,-9.5,BAL,40,U,41,2015,Week 17,57254,CIN,-9.5,9.5,WAS,24,16,N,65515,0,15,75,0,Cincinnati,KLUK,KLUK4237213,KLUK,O,3-Jan-16,EST,39.103,-84.419,482,37,26,33,36,19,27,21,25,89,61,74,32,26,30,13,8,297,18,72,10,1332,205,1537,161,570,0,0,30.19,30.02,30.09,1022.8,1016.9,1019.5,40,MC,Overcast,KLUK,O,EST,39.103,-84.419,482,33,27,25,72,30,350,7,100,21,OVC,10,192,38,230,384,422,549,0,0,0,30.09,1019.5,40,MC,Overcast,3-Jan-16,13
KLUK 04/Dec/2016 13,1187,CIN2016,4-Dec-16,4-Dec-16,4-Dec-16,1:00,13,CIN,-1.5,PHI,46,O,42,2016,Week 13,55456,CIN,-1.5,1.5,ARI,32,14,Y,65515,0,16,41,0,Cincinnati,KLUK,KLUK4270813,KLUK,O,4-Dec-16,EST,39.103,-84.419,482,46,36,41,45,32,44,30,35,100,60,80,45,34,38,14,5,140,25,99,8.9,1403,207,1609,0,574,0.08,0,30.29,29.89,30.08,1025.9,1012.3,1018.9,40,MC,Overcast,KLUK,O,EST,39.103,-84.419,482,44,41,31,60,39,100,6,100,44,FEW,10,374,38,412,384,422,548,0,0,0,30.04,1017.4,50,PC,High Overcast,4-Dec-16,13
KLUK 04/Dec/2017 20,1188,CIN2017,4-Dec-17,4-Dec-17,4-Dec-17,8:30,20,PIT,-4.5,CIN,43,P,43,2017,Week 13,56029,CIN,4.5,-4.5,TEN,20,23,N,65515,0,17,54,0,Cincinnati,KLUK,KLUK4307320,KLUK,O,4-Dec-17,EST,39.103,-84.419,482,65,28,47,65,28,49,28,38,100,44,74,53,28,42,16,6,184,25,94,7.5,1342,210,1554,62,574,0.06,0,30.2,29.92,30.08,1022.9,1013.1,1018.6,40,MC,Overcast,KLUK,O,EST,39.103,-84.419,482,60,58,41,50,51,180,12,100,301,OVC,10,0,0,0,0,0,0,0,0,0,29.94,1014.1,50,PC,High Overcast,4-Dec-17,20
KLUK 04/Oct/2015 13,1189,CIN2015,4-Oct-15,4-Oct-15,4-Oct-15,1:00,13,CIN,-3.5,KC,57,O,45,2015,Week 4,57498,CIN,-3.5,3.5,DET,36,21,Y,65515,0,15,73,0,Cincinnati,KLUK,KLUK4228113,KLUK,O,4-Oct-15,EST,39.103,-84.419,482,76,53,63,78,51,62,52,57,100,58,83,66,53,59,12,7,50,12,35,10,4387,446,4833,594,698,0,0,30.09,30.02,30.06,1018.9,1016.3,1017.7,46,CLR,Fair,KLUK,O,EST,39.103,-84.419,482,73,77,60,64,65,60,10,0,201,CLR,10,670,67,737,670,737,957,0,0,0,30.05,1017.5,46,CLR,Fair,4-Oct-15,13
KLUK 05/Nov/2015 20,1190,CIN2015,5-Nov-15,5-Nov-15,5-Nov-15,8:25,20,CIN,-13,CLE,41,U,46,2015,Week 9,65816,CIN,-13,13,MIA,31,10,Y,65515,0,15,65,0,Cincinnati,KLUK,KLUK4231320,KLUK,O,5-Nov-15,EST,39.103,-84.419,482,75,52,64,77,53,63,53,58,100,59,84,66,53,60,12,3,192,12,90,8.8,1568,292,1859,43,622,0.01,0,30.21,29.98,30.12,1022.9,1015,1019.7,40,MC,Overcast,KLUK,O,EST,39.103,-84.419,482,67,67,58,73,62,190,3,79,201,OVC,10,0,0,0,0,0,0,0,0,0,30.04,1017,40,MC,Overcast,5-Nov-15,20
KLUK 06/Nov/2014 20,1191,CIN2014,6-Nov-14,6-Nov-14,6-Nov-14,8:25,20,CIN,-6.5,CLE,27,U,46,2014,Week 10,65871,CIN,-6.5,6.5,LAC,3,24,Y,65515,0,14,43,0,Cincinnati,KLUK,KLUK4194920,KLUK,O,6-Nov-14,EST,39.103,-84.419,482,53,42,48,52,37,51,35,43,97,59,84,51,39,46,22,12,260,39,91,8.9,1439,289,1730,0,620,0.02,0,30.09,29.86,29.95,1018.9,1011.3,1014.3,40,MC,Overcast,KLUK,O,EST,39.103,-84.419,482,44,37,36,73,40,280,14,100,27,OVC,10,0,0,0,0,0,0,0,0,0,30.04,1017.2,40,MC,Overcast,6-Nov-14,20
KLUK 06/Oct/2013 13,1192,CIN2013,6-Oct-13,6-Oct-13,6-Oct-13,1:00,13,NE,-1.5,CIN,19,U,45.5,2013,Week 5,64259,CIN,1.5,-1.5,PHI,13,6,Y,65515,0,13,74,0,Cincinnati,KLUK,KLUK4155313,KLUK,O,6-Oct-13,EST,39.103,-84.419,482,74,55,64,78,53,68,49,62,100,82,93,70,54,64,18,7,214,24,97,7.9,2170,434,2604,21,693,1.62,0,29.96,29.72,29.84,1014.4,1006.6,1010.6,18,RAIN,Light Rain,KLUK,O,EST,39.103,-84.419,482,72,72,67,84,69,190,12,70,20,BKN,10,428,66,494,658,724,940,0,0,0,29.78,1008.3,42,MC,Mostly Cloudy,6-Oct-13,13
KLUK 06/Oct/2019 13,1193,CIN2019,6-Oct-19,6-Oct-19,6-Oct-19,1:00,13,CIN,-4,ARI,49,O,54,2019,Week 5,46012,CIN,-4,4,CAR,23,26,N,65515,0,19,25,0,Cincinnati,KLUK,KLUK4374413,KLUK,O,6-Oct-19,EST,39.1,-84.417,509,77,58,66,79,58,67,57,60,100,59,84,70,56,62,13,5,299,20,90,8.6,1978,434,2412,2,693,0.48,0,30.16,30,30.09,1021.2,1015.4,1018.8,19,RAIN,Moderate Rain,KLUK,O,EST,39.1,-84.417,509,72,72,63,73,66,330,13,100,90,OVC,10,329,66,395,658,724,940,0,0,0,30.11,1019.4,18,RAIN,Light Rain,6-Oct-19,13
KLUK 07/Dec/2014 13,1194,CIN2014,7-Dec-14,7-Dec-14,7-Dec-14,1:00,13,CIN,-3,PIT,63,O,47.5,2014,Week 14,65512,CIN,-3,3,DEN,21,42,Y,65515,0,14,42,0,Cincinnati,KLUK,KLUK4198013,KLUK,O,7-Dec-14,EST,39.103,-84.419,482,43,26,35,43,23,29,25,27,85,56,72,37,28,32,14,8,57,14,51,10,1969,206,2175,497,571,0,0,30.63,30.39,30.54,1037.4,1029.1,1034.3,46,CLR,Fair,KLUK,O,EST,39.103,-84.419,482,41,36,28,60,36,40,7,10,301,SCT,10,362,38,400,381,419,544,0,0,0,30.56,1035,46,CLR,Fair,7-Dec-14,13
KLUK 07/Oct/2018 13,1195,CIN2018,7-Oct-18,7-Oct-18,7-Oct-18,1:00,13,CIN,-6,MIA,44,U,48,2018,Week 5,52708,CIN,-6,6,MIA,27,17,Y,65515,0,18,38,0,Cincinnati,KLUK,KLUK4338013,KLUK,O,7-Oct-18,EST,39.1,-84.417,509,88,64,74,94,64,76,64,70,100,57,88,77,64,71,7,1,203,7,38,6.2,3349,429,3777,413,690,0,0,30.21,30.11,30.16,1022.4,1019.1,1020.9,64,HAZY,Mist,KLUK,O,EST,39.1,-84.417,509,84,90,72,67,76,200,3,75,60,BKN,10,408,65,472,652,717,932,0,0,0,30.17,1021.3,42,MC,Mostly Cloudy,7-Oct-18,13
KLUK 08/Dec/2013 13,1196,CIN2013,8-Dec-13,8-Dec-13,8-Dec-13,1:00,13,CIN,-7,IND,70,O,43.5,2013,Week 14,62507,CIN,-7,7,IND,42,28,Y,65515,0,13,28,0,Cincinnati,KLUK,KLUK4161613,KLUK,O,8-Dec-13,EST,39.103,-84.419,482,32,20,26,31,10,32,15,22,100,74,85,31,18,24,10,6,56,10,98,5.9,1024,202,1224,0,570,0.03,0.5,30.54,30.04,30.26,1034.6,1017.7,1025.3,40,MC,Overcast,KLUK,O,EST,39.103,-84.419,482,27,18,22,81,25,40,9,100,15,OVC,10,190,38,228,379,417,542,0,0,0,30.25,1024.8,40,MC,Overcast,8-Dec-13,13
KLUK 08/Oct/2017 13,1197,CIN2017,8-Oct-17,8-Oct-17,8-Oct-17,1:00,13,CIN,-3,BUF,36,U,39,2017,Week 5,52367,CIN,-3,3,SEA,20,16,Y,65515,0,17,54,0,Cincinnati,KLUK,KLUK4301613,KLUK,O,8-Oct-17,EST,39.103,-84.419,482,71,62,66,70,63,70,62,66,100,90,98,70,63,66,9,4,2,9,94,6.6,1948,426,2375,0,688,1.52,0,29.94,29.68,29.84,1013.6,1004.8,1010.1,18,RAIN,Light Rain,KLUK,O,EST,39.103,-84.419,482,64,64,64,100,64,110,3,100,39,OVC,6,323,65,388,646,711,923,99,0.08,0,29.89,1011.9,18,RAIN,Light Rain,8-Oct-17,13
KLUK 10/Dec/2017 13,1198,CIN2017,10-Dec-17,10-Dec-17,10-Dec-17,1:00,13,CIN,-6,CHI,40,P,40,2017,Week 14,52002,CIN,-6,6,CHI,7,33,Y,65515,0,17,40,0,Cincinnati,KLUK,KLUK4307913,KLUK,O,10-Dec-17,EST,39.103,-84.419,482,38,21,30,37,11,22,16,19,81,50,66,31,20,26,18,9,221,24,66,10,1012,202,1214,69,569,0,0,30.17,30,30.1,1022.4,1016.1,1019.6,40,MC,Overcast,KLUK,O,EST,39.103,-84.419,482,34,25,20,56,29,220,13,100,100,OVC,10,188,38,226,376,414,538,0,0,0,30.09,1019.2,40,MC,Overcast,10-Dec-17,13
KLUK 10/Nov/2019 13,1199,CIN2019,10-Nov-19,10-Nov-19,10-Nov-19,1:00,13,BAL,-1,CIN,62,O,45,2019,Week 10,45918,CIN,1,-1,BAL,13,49,Y,65515,0,19,28,0,Cincinnati,KLUK,KLUK4377913,KLUK,O,10-Nov-19,EST,39.1,-84.417,509,65,36,49,65,34,41,27,35,93,41,61,53,32,42,17,7,206,23,16,10,2614,272,2886,557,611,0,0,30.08,29.93,30.02,1018.9,1013.5,1016.8,46,CLR,Fair,KLUK,O,EST,39.1,-84.417,509,61,59,40,46,51,180,13,0,345,CLR,10,465,46,511,465,511,664,0,0,0,30,1015.9,46,CLR,Fair,10-Nov-19,13
KLUK 10/Sep/2017 13,1200,CIN2017,10-Sep-17,10-Sep-17,10-Sep-17,1:00,13,CIN,-3,BAL,20,U,41,2017,Week 1,55254,CIN,-3,3,LAC,0,20,Y,65515,0,17,81,0,Cincinnati,KLUK,KLUK4298813,KLUK,O,10-Sep-17,EST,39.103,-84.419,482,74,44,59,76,46,52,46,49,100,40,74,60,46,54,13,5,49,18,18,9.4,5787,578,6365,758,758,0,0,30.43,30.31,30.37,1030.5,1026.1,1028.1,46,CLR,Fair,KLUK,O,EST,39.103,-84.419,482,73,76,48,41,59,80,8,0,201,CLR,10,805,80,885,805,885,1150,0,0,0,30.38,1028.8,46,CLR,Fair,10-Sep-17,13
KLUK 11/Nov/2018 13,1201,CIN2018,11-Nov-18,11-Nov-18,11-Nov-18,1:00,13,NO,-6,CIN,65,O,53.5,2018,Week 10,52492,CIN,6,-6,NO,14,51,Y,65515,0,18,71,0,Cincinnati,KLUK,KLUK4341513,KLUK,O,11-Nov-18,EST,39.1,-84.417,509,46,20,32,45,15,28,19,23,96,37,75,36,20,28,9,3,133,9,21,9.3,2374,270,2644,427,609,0,0,30.43,30.28,30.36,1030.9,1026,1028.5,46,CLR,Fair,KLUK,O,EST,39.1,-84.417,509,42,38,22,45,35,370,6,20,110,SCT,10,428,46,474,460,506,658,0,0,0,30.35,1028.1,44,PC,Partly Cloudy,11-Nov-18,13
KLUK 11/Oct/2015 13,1202,CIN2015,11-Oct-15,11-Oct-15,11-Oct-15,1:00,13,CIN,-3,SEA,51,O,44.5,2015,Week 5,65004,CIN,-3,3,NE,27,24,N,65515,0,15,72,0,Cincinnati,KLUK,KLUK4228813,KLUK,O,11-Oct-15,EST,39.103,-84.419,482,72,42,55,72,42,52,42,47,100,43,81,59,42,51,12,3,197,12,25,6.6,4072,408,4480,648,680,0,0,30.06,29.86,29.97,1018.1,1011.1,1014.8,46,CLR,Fair,KLUK,O,EST,39.103,-84.419,482,69,69,48,47,58,220,7,0,201,CLR,10,628,63,691,628,691,898,0,0,0,29.98,1015.1,46,CLR,Fair,11-Oct-15,13
KLUK 12/Oct/2014 13,1203,CIN2014,12-Oct-14,12-Oct-14,12-Oct-14,1:00,13,CIN,-7,CAR,74,O,44,2014,Week 6,57053,CIN,-7,7,DEN,37,37,N,65515,0,14,62,0,Cincinnati,KLUK,KLUK4192413,KLUK,O,12-Oct-14,EST,39.103,-84.419,482,65,38,53,63,38,57,37,48,100,60,86,58,38,49,8,3,153,8,70,8.1,2037,403,2442,32,678,0,0,30.16,29.98,30.07,1021.2,1015.4,1018.4,40,MC,Overcast,KLUK,O,EST,39.103,-84.419,482,62,62,48,60,54,0,0,100,27,OVC,10,311,62,373,622,684,889,0,0,0,30.06,1017.8,40,MC,Overcast,12-Oct-14,13
KLUK 13/Dec/2015 13,1204,CIN2015,13-Dec-15,13-Dec-15,13-Dec-15,1:00,13,CIN,-1,PIT,53,O,48.5,2015,Week 14,65564,CIN,-1,1,DET,20,33,Y,65515,0,15,65,0,Cincinnati,KLUK,KLUK4235113,KLUK,O,13-Dec-15,EST,39.103,-84.419,482,64,49,57,63,50,56,48,52,100,70,87,59,50,54,10,2,182,10,96,8.2,998,199,1196,0,567,0,0,30.12,29.74,29.98,1019.9,1006.9,1015.2,46,CLR,Fair,KLUK,O,EST,39.103,-84.419,482,62,62,55,78,58,170,5,100,143,CLR,10,187,37,224,374,411,534,0,0,0,30,1015.9,46,CLR,Fair,13-Dec-15,13
KLUK 13/Sep/2018 20,1205,CIN2018,13-Sep-18,13-Sep-18,13-Sep-18,8:20,20,BAL,-1,CIN,57,O,43.5,2018,Week 2,50018,CIN,1,-1,BAL,34,23,Y,65515,0,18,65,0,Cincinnati,KLUK,KLUK4335620,KLUK,O,13-Sep-18,EST,39.1,-84.417,509,86,61,72,91,62,73,62,68,100,57,87,75,62,69,6,1,71,6,20,8.2,5021,564,5585,589,750,0,0,30.19,30.08,30.14,1022.1,1018.3,1020.2,46,CLR,Fair,KLUK,O,EST,39.1,-84.417,509,71,71,71,100,71,0,0,0,442,CLR,10,0,0,0,0,0,0,0,0,0,30.1,1019,46,CLR,Fair,13-Sep-18,20
KLUK 14/Oct/2018 13,1206,CIN2018,14-Oct-18,14-Oct-18,14-Oct-18,1:00,13,CIN,-1.5,PIT,49,U,50,2018,Week 6,60594,CIN,-1.5,1.5,PIT,21,28,Y,65515,0,18,31,0,Cincinnati,KLUK,KLUK4338713,KLUK,O,14-Oct-18,EST,39.1,-84.417,509,55,46,51,55,44,55,43,50,100,89,97,55,45,50,6,2,57,6,100,5.9,1952,394,2345,0,673,0.14,0,30.13,29.99,30.06,1020.5,1015.6,1018.1,19,RAIN,Moderate Rain,KLUK,O,EST,39.1,-84.417,509,52,50,52,100,52,100,5,100,8,OVC,1.8,306,61,366,611,672,872,99,0.01,0,30.08,1018.5,18,RAIN,Light Rain,14-Oct-18,13
KLUK 14/Sep/2014 13,1207,CIN2014,14-Sep-14,14-Sep-14,14-Sep-14,1:00,13,CIN,-5.5,ATL,34,U,49,2014,Week 2,58574,CIN,-5.5,5.5,PIT,24,10,Y,65515,0,14,68,0,Cincinnati,KLUK,KLUK4189613,KLUK,O,14-Sep-14,EST,39.103,-84.419,482,71,43,56,70,43,53,42,47,100,41,77,58,43,51,8,2,146,8,20,8.8,4983,556,5539,651,748,0,0,30.34,30.2,30.27,1027.5,1022.6,1025,46,CLR,Fair,KLUK,O,EST,39.103,-84.419,482,68,68,48,49,57,210,7,5,45,FEW,10,764,78,842,784,862,1120,0,0,0,30.27,1025.2,45,CLR,Mostly Clear,14-Sep-14,13
KLUK 14/Sep/2017 20,1208,CIN2017,14-Sep-17,14-Sep-17,14-Sep-17,8:25,20,CIN,-5.5,HOU,22,U,38.5,2017,Week 2,52942,CIN,-5.5,5.5,KC,9,13,N,65515,0,17,75,0,Cincinnati,KLUK,KLUK4299220,KLUK,O,14-Sep-17,EST,39.103,-84.419,482,73,60,65,72,61,65,61,62,100,73,90,66,61,63,6,2,223,6,96,9.3,2882,556,3438,51,748,0,0,30.03,29.84,29.93,1016.4,1010.3,1013.4,40,MC,Overcast,KLUK,O,EST,39.103,-84.419,482,67,67,64,91,65,30,3,100,55,OVC,10,0,0,0,0,0,0,0,0,0,29.99,1015.1,40,MC,Overcast,14-Sep-17,20
KLUK 15/Dec/2019 13,1209,CIN2019,15-Dec-19,15-Dec-19,15-Dec-19,1:00,13,NE,-7,CIN,47,O,36,2019,Week 15,57066,CIN,7,-7,MIA,13,34,Y,65515,0,19,34,0,Cincinnati,KLUK,KLUK4381413,KLUK,O,15-Dec-19,EST,39.1,-84.417,509,39,32,35,39,26,34,21,27,100,56,74,38,30,32,12,5,295,20,89,7.6,1482,198,1680,165,566,0.15,1.5,30.17,29.87,30.08,1022.1,1012.1,1019.3,40,MC,Overcast,KLUK,O,EST,39.1,-84.417,509,36,31,25,65,32,160,5,0,57,CLR,10,372,37,409,372,409,531,0,0,0,30.14,1021.3,46,CLR,Fair,15-Dec-19,13
KLUK 15/Sep/2019 13,1210,CIN2019,15-Sep-19,15-Sep-19,15-Sep-19,1:00,13,CIN,-1,SF,58,O,46,2019,Week 2,50666,CIN,-1,1,MIA,17,41,Y,65515,0,19,88,0,Cincinnati,KLUK,KLUK4372313,KLUK,O,15-Sep-19,EST,39.1,-84.417,509,87,56,70,86,56,66,55,59,100,36,74,70,56,63,5,2,161,5,11,8.7,5450,552,6002,713,746,0,0,30.24,30.07,30.16,1023.9,1018,1020.9,46,CLR,Fair,KLUK,O,EST,39.1,-84.417,509,83,83,57,41,67,250,5,0,174,CLR,10,779,78,857,779,857,1112,0,0,0,30.18,1021.5,46,CLR,Fair,15-Sep-19,13
KLUK 16/Dec/2018 13,1211,CIN2018,16-Dec-18,16-Dec-18,16-Dec-18,1:00,13,CIN,-3,OAK,46,O,45.5,2018,Week 15,44568,CIN,-3,3,OAK,30,16,Y,65515,0,18,36,0,Cincinnati,KLUK,KLUK4345013,KLUK,O,16-Dec-18,EST,39.1,-84.417,509,47,36,42,47,35,43,35,39,97,83,89,45,38,41,9,6,291,9,90,7.3,989,198,1186,0,566,0,0,30.15,29.94,30.07,1021.2,1013.9,1018.4,40,MC,Overcast,KLUK,O,EST,39.1,-84.417,509,43,43,39,86,41,270,3,100,7,OVC,6,186,37,223,372,409,531,0,0,0,30.08,1018.8,64,HAZY,Mist,16-Dec-18,13
KLUK 16/Nov/2015 20,1212,CIN2015,16-Nov-15,16-Nov-15,16-Nov-15,8:30,20,CIN,-10,HOU,16,U,46.5,2015,Week 10,61381,CIN,-10,10,SEA,6,10,N,65515,0,15,49,0,Cincinnati,KLUK,KLUK4232420,KLUK,O,16-Nov-15,EST,39.103,-84.419,482,58,30,46,58,32,48,31,37,100,36,78,48,32,41,10,2,176,10,59,8.9,1831,253,2085,234,599,0,0,30.33,30.22,30.28,1027.2,1023.5,1025.5,50,PC,High Overcast,KLUK,O,EST,39.103,-84.419,482,49,49,46,90,47,0,0,100,90,OVC,10,0,0,0,0,0,0,0,0,0,30.27,1025.4,18,RAIN,Light Rain,16-Nov-15,20
KLUK 16/Sep/2013 20,1213,CIN2013,16-Sep-13,16-Sep-13,16-Sep-13,8:40,20,CIN,-6.5,PIT,30,U,40,2013,Week 2,64585,CIN,-6.5,6.5,CIN,20,10,Y,65515,0,13,62,0,Cincinnati,KLUK,KLUK4153320,KLUK,O,16-Sep-13,EST,39.103,-84.419,482,73,53,63,72,53,60,51,56,97,53,79,63,53,59,10,5,50,10,66,9.7,2987,547,3536,176,744,0.01,0,30.3,30.1,30.21,1026.2,1019.2,1023.2,40,MC,Overcast,KLUK,O,EST,39.103,-84.419,482,61,61,54,78,57,50,3,0,201,CLR,10,0,0,0,0,0,0,0,0,0,30.25,1024.3,46,CLR,Fair,16-Sep-13,20
KLUK 17/Nov/2013 13,1214,CIN2013,17-Nov-13,17-Nov-13,17-Nov-13,1:00,13,CIN,-5,CLE,61,O,40,2013,Week 11,63856,CIN,-5,5,CHI,41,20,Y,65515,0,13,64,0,Cincinnati,KLUK,KLUK4159513,KLUK,O,17-Nov-13,EST,39.103,-84.419,482,66,51,60,64,51,62,39,56,100,59,87,63,47,58,21,13,199,44,80,8.2,1107,248,1357,0,598,1.36,0,29.92,29.55,29.76,1013.2,1000.6,1007.8,18,RAIN,Light Rain,KLUK,O,EST,39.103,-84.419,482,61,60,59,93,60,180,9,100,15,OVC,10,218,44,262,436,480,623,0,0,0,29.72,1006.4,40,MC,Overcast,17-Nov-13,13
KLUK 18/Dec/2016 13,1215,CIN2016,18-Dec-16,18-Dec-16,18-Dec-16,1:00,13,PIT,-3,CIN,44,U,45,2016,Week 15,62096,CIN,3,-3,DET,20,24,Y,65515,0,16,26,0,Cincinnati,KLUK,KLUK4272213,KLUK,O,18-Dec-16,EST,39.103,-84.419,482,37,21,27,37,12,34,15,22,96,74,82,36,20,26,15,9,297,25,100,9.6,985,197,1181,0,565,0.28,0,30.68,29.74,30.3,1039.7,1007.1,1026.5,40,MC,Overcast,KLUK,O,EST,39.103,-84.419,482,26,19,19,75,24,280,6,100,20,OVC,10,186,37,222,371,408,529,0,0,0,30.41,1030.3,40,MC,Overcast,18-Dec-16,13
KLUK 20/Nov/2016 13,1216,CIN2016,20-Nov-16,20-Nov-16,20-Nov-16,1:00,13,CIN,-2.5,BUF,28,U,48,2016,Week 11,61356,CIN,-2.5,2.5,NE,12,16,Y,65515,0,16,37,0,Cincinnati,KLUK,KLUK4269413,KLUK,O,20-Nov-16,EST,39.103,-84.419,482,41,29,35,40,20,25,22,23,75,51,62,34,27,30,14,10,287,24,80,10,1448,239,1686,124,593,0,0,30.32,30.24,30.27,1026.9,1024.4,1025.5,40,MC,Overcast,KLUK,O,EST,39.103,-84.419,482,39,31,24,55,33,250,13,70,39,BKN,10,274,42,316,421,463,601,0,0,0,30.27,1025.5,42,MC,Mostly Cloudy,20-Nov-16,13
KLUK 20/Oct/2019 13,1217,CIN2019,20-Oct-19,20-Oct-19,20-Oct-19,1:00,13,CIN,PK,JAX,44,O,57,2019,Week 7,42784,CIN,PK,PK,JAX,17,27,PK,65515,0,19,61,0,Cincinnati,KLUK,KLUK4375813,KLUK,O,20-Oct-19,EST,39.1,-84.417,509,76,50,61,77,51,57,50,54,96,45,79,63,51,57,7,1,167,7,45,9.8,2999,364,3364,441,658,0,0,29.97,29.82,29.89,1014.8,1009.5,1012.1,46,CLR,Fair,KLUK,O,EST,39.1,-84.417,509,72,72,53,52,61,0,0,0,119,CLR,10,575,58,633,575,633,822,0,0,0,29.89,1012.1,46,CLR,Fair,20-Oct-19,13
KLUK 20/Sep/2015 13,1218,CIN2015,20-Sep-15,20-Sep-15,20-Sep-15,1:00,13,CIN,-3.5,LAC,43,U,48,2015,Week 2,57579,CIN,-3.5,3.5,ATL,24,19,Y,65515,0,15,73,0,Cincinnati,KLUK,KLUK4226713,KLUK,O,20-Sep-15,EST,39.103,-84.419,482,74,50,61,72,52,56,48,53,100,44,77,60,51,56,13,4,36,17,26,10,4833,523,5356,546,733,0,0,30.18,30.08,30.11,1021.8,1018.3,1019.6,46,CLR,Fair,KLUK,O,EST,39.103,-84.419,482,72,72,49,44,59,40,12,5,55,FEW,10,732,75,807,751,826,1073,0,0,0,30.13,1020.1,46,CLR,Fair,20-Sep-15,13
KLUK 21/Sep/2014 13,1219,CIN2014,21-Sep-14,21-Sep-14,21-Sep-14,1:00,13,CIN,-6.5,TEN,40,U,44.5,2014,Week 3,56743,CIN,-6.5,6.5,LAR,33,7,Y,65515,0,14,79,0,Cincinnati,KLUK,KLUK4190313,KLUK,O,21-Sep-14,EST,39.103,-84.419,482,79,57,71,80,55,67,45,56,87,30,63,69,53,63,22,12,283,37,25,10,4457,520,4977,515,730,0,0,30.07,29.8,29.88,1018.2,1009.3,1012,46,CLR,Fair,KLUK,O,EST,39.103,-84.419,482,78,78,45,31,60,280,17,0,201,CLR,10,746,75,821,746,821,1065,0,0,0,29.84,1010.4,46,CLR,Fair,21-Sep-14,13
KLUK 22/Dec/2013 13,1220,CIN2013,22-Dec-13,22-Dec-13,22-Dec-13,1:00,13,CIN,-7.5,MIN,56,O,48,2013,Week 16,61555,CIN,-7.5,7.5,NO,42,14,Y,65515,0,13,53,0,Cincinnati,KLUK,KLUK4163013,KLUK,O,22-Dec-13,EST,39.103,-84.419,482,62,41,53,63,36,61,35,49,100,72,86,62,39,52,18,12,220,29,86,9.6,1476,197,1674,167,565,0.36,0,30.07,29.61,29.83,1018.2,1002.6,1010.1,40,MC,Overcast,KLUK,O,EST,39.103,-84.419,482,52,47,45,77,49,230,16,62,26,FEW,10,362,37,399,371,408,530,0,0,0,29.86,1011,42,MC,Mostly Cloudy,22-Dec-13,13
KLUK 22/Dec/2014 20,1221,CIN2014,22-Dec-14,22-Dec-14,22-Dec-14,8:30,20,DEN,-3.5,CIN,65,O,47.5,2014,Week 16,66107,CIN,3.5,-3.5,SEA,37,28,Y,65515,0,14,46,0,Cincinnati,KLUK,KLUK4199520,KLUK,O,22-Dec-14,EST,39.103,-84.419,482,52,20,39,51,22,42,21,33,96,59,79,45,21,36,8,3,104,8,83,8.5,1334,197,1531,111,565,0.12,0,30.12,29.75,29.94,1020.1,1007.4,1013.9,40,MC,Overcast,KLUK,O,EST,39.103,-84.419,482,47,45,38,71,43,50,5,65,90,SCT,10,0,0,0,0,0,0,0,0,0,29.8,1009.3,44,PC,Partly Cloudy,22-Dec-14,20
KLUK 22/Sep/2013 13,1222,CIN2013,22-Sep-13,22-Sep-13,22-Sep-13,1:00,13,GB,-3,CIN,64,O,50,2013,Week 3,64633,CIN,3,-3,HOU,34,30,Y,65515,0,13,67,0,Cincinnati,KLUK,KLUK4153913,KLUK,O,22-Sep-13,EST,39.103,-84.419,482,69,46,57,68,47,50,43,47,100,41,74,56,47,52,13,3,316,17,4,9.4,4802,512,5314,671,728,0,0,30.04,29.91,29.98,1017.2,1012.9,1015.1,46,CLR,Fair,KLUK,O,EST,39.103,-84.419,482,66,66,46,49,55,330,9,0,201,CLR,10,740,74,814,740,814,1058,0,0,0,30,1015.8,46,CLR,Fair,22-Sep-13,13
KLUK 23/Oct/2016 13,1223,CIN2016,23-Oct-16,23-Oct-16,23-Oct-16,1:00,13,CIN,-11.5,CLE,48,O,46.5,2016,Week 7,65047,CIN,-11.5,11.5,NYG,31,17,Y,65515,0,16,66,0,Cincinnati,KLUK,KLUK4266613,KLUK,O,23-Oct-16,EST,39.103,-84.419,482,72,40,58,72,42,52,42,47,100,47,71,60,42,52,21,9,212,30,17,10,3442,344,3786,651,651,0,0,30.15,29.99,30.08,1021.2,1015.3,1018.5,46,CLR,Fair,KLUK,O,EST,39.103,-84.419,482,69,69,50,51,58,210,15,0,201,CLR,10,552,55,607,552,607,789,0,0,0,30.06,1017.8,46,CLR,Fair,23-Oct-16,13
KLUK 24/Dec/2017 13,1224,CIN2017,24-Dec-17,24-Dec-17,24-Dec-17,1:00,13,DET,-3,CIN,43,U,43.5,2017,Week 16,47732,CIN,3,-3,BAL,26,17,Y,65515,0,17,77,0,Cincinnati,KLUK,KLUK4309313,KLUK,O,24-Dec-17,EST,39.103,-84.419,482,37,23,33,37,7,34,13,28,100,72,85,35,21,31,25,8,259,37,80,7.9,1121,196,1319,124,565,0.06,1.4,30.24,29.93,30.1,1024.2,1013.9,1019.5,40,MC,Overcast,KLUK,O,EST,39.103,-84.419,482,36,31,28,73,33,130,6,100,27,OVC,10,186,37,223,372,409,531,0,0,0,30.02,1016.8,40,MC,Overcast,24-Dec-17,13
KLUK 24/Nov/2019 13,1225,CIN2019,24-Nov-19,24-Nov-19,24-Nov-19,1:00,13,PIT,-3,CIN,26,O,46,2019,Week 12,47423,CIN,3,-3,ARI,10,16,Y,65515,0,19,72,0,Cincinnati,KLUK,KLUK4379313,KLUK,O,24-Nov-19,EST,39.1,-84.417,509,50,33,39,50,27,36,31,33,93,59,82,44,33,37,15,8,225,22,42,9.2,1709,230,1938,294,587,0.02,0,29.87,29.78,29.82,1011.8,1008.5,1010,46,CLR,Fair,KLUK,O,EST,39.1,-84.417,509,46,40,35,66,41,210,13,20,27,SCT,10,370,41,411,411,452,587,0,0,0,29.81,1009.6,44,PC,Partly Cloudy,24-Nov-19,13
KLUK 25/Nov/2018 13,1226,CIN2018,25-Nov-18,25-Nov-18,25-Nov-18,1:00,13,CIN,-1,CLE,55,O,46.5,2018,Week 12,56122,CIN,-1,1,CLE,20,35,Y,65515,0,18,81,0,Cincinnati,KLUK,KLUK4342913,KLUK,O,25-Nov-18,EST,39.1,-84.417,509,57,32,46,57,33,49,33,41,100,62,88,53,33,43,13,3,149,18,78,4.9,1430,227,1658,233,585,0.09,0,29.93,29.48,29.79,1013.7,998.3,1009,34,FOG,Fog,KLUK,O,EST,39.1,-84.417,509,48,46,47,96,47,370,5,100,6,SCT,5,204,41,245,408,449,583,0,0,0,29.88,1012,64,HAZY,Mist,25-Nov-18,13
KLUK 25/Sep/2016 13,1227,CIN2016,25-Sep-16,25-Sep-16,25-Sep-16,1:00,13,CIN,-3.5,DEN,46,O,41.5,2016,Week 3,63850,CIN,-3.5,3.5,KC,17,29,Y,65515,0,16,82,0,Cincinnati,KLUK,KLUK4263813,KLUK,O,25-Sep-16,EST,39.103,-84.419,482,86,57,71,88,59,72,59,65,100,55,84,74,59,67,6,1,40,6,3,8.4,4760,490,5250,672,720,0,0,30.16,30.02,30.09,1021,1016.2,1018.7,46,CLR,Fair,KLUK,O,EST,39.103,-84.419,482,81,84,67,62,72,230,6,0,201,CLR,10,718,72,790,718,790,1025,0,0,0,30.1,1019.1,46,CLR,Fair,25-Sep-16,13
KLUK 26/Nov/2017 13,1228,CIN2017,26-Nov-17,26-Nov-17,26-Nov-17,1:00,13,CIN,-7.5,CLE,46,O,39,2017,Week 12,51710,CIN,-7.5,7.5,CIN,30,16,Y,65515,0,17,56,0,Cincinnati,KLUK,KLUK4306513,KLUK,O,26-Nov-17,EST,39.103,-84.419,482,52,24,37,51,26,35,24,29,96,43,76,42,25,34,10,2,248,10,4,9.7,2249,226,2475,584,584,0,0,30.28,30.17,30.21,1025.4,1021.7,1023.2,46,CLR,Fair,KLUK,O,EST,39.103,-84.419,482,49,46,31,50,41,270,8,0,201,CLR,10,405,41,446,405,446,579,0,0,0,30.23,1023.8,46,CLR,Fair,26-Nov-17,13
KLUK 26/Oct/2014 13,1229,CIN2014,26-Oct-14,26-Oct-14,26-Oct-14,1:00,13,BAL,-3,CIN,51,O,44.5,2014,Week 8,55711,CIN,3,-3,DET,27,24,N,65515,0,14,67,0,Cincinnati,KLUK,KLUK4193813,KLUK,O,26-Oct-14,EST,39.103,-84.419,482,68,38,54,68,41,43,30,38,93,24,60,55,40,47,7,2,254,7,3,9.9,3350,335,3685,644,644,0,0,30.05,29.94,29.99,1017.5,1013.8,1015.6,46,CLR,Fair,KLUK,O,EST,39.103,-84.419,482,65,65,31,28,49,240,6,0,201,CLR,10,541,54,595,541,595,773,0,0,0,30,1016,46,CLR,Fair,26-Oct-14,13
KLUK 27/Oct/2013 16,1230,CIN2013,27-Oct-13,27-Oct-13,27-Oct-13,4:05,16,CIN,-6,NYJ,58,O,41,2013,Week 8,62576,CIN,-6,6,MIN,49,9,Y,65515,0,13,57,0,Cincinnati,KLUK,KLUK4157416,KLUK,O,27-Oct-13,EST,39.103,-84.419,482,58,32,42,57,32,41,30,35,100,42,79,47,31,39,5,1,217,5,6,7.7,3289,331,3620,630,642,0,0,30.14,30.07,30.1,1020.8,1018.3,1019.3,46,CLR,Fair,KLUK,O,EST,39.103,-84.419,482,57,56,34,42,46,190,5,0,201,CLR,10,188,19,207,188,207,268,0,0,0,30.07,1018.4,46,CLR,Fair,27-Oct-13,16
KLUK 28/Oct/2018 13,1231,CIN2018,28-Oct-18,28-Oct-18,28-Oct-18,1:00,13,CIN,-3.5,TB,71,O,54.5,2018,Week 8,45134,CIN,-3.5,3.5,TB,37,34,N,65515,0,18,72,0,Cincinnati,KLUK,KLUK4340113,KLUK,O,28-Oct-18,EST,39.1,-84.417,509,64,40,52,64,42,52,35,44,100,34,76,56,43,48,28,11,256,41,78,9.6,1833,325,2157,105,640,0.02,0,29.95,29.64,29.84,1014.1,1003.7,1010.5,40,MC,Overcast,KLUK,O,EST,39.1,-84.417,509,58,55,49,72,53,230,16,100,50,OVC,10,265,53,318,530,583,757,99,0.01,0,29.69,1005.3,18,RAIN,Light Rain,28-Oct-18,13
KLUK 29/Dec/2013 13,1232,CIN2013,29-Dec-13,29-Dec-13,29-Dec-13,1:00,13,CIN,-6.5,BAL,51,O,43,2013,Week 17,62406,CIN,-6.5,6.5,SEA,34,17,Y,65515,0,13,59,0,Cincinnati,KLUK,KLUK4163713,KLUK,O,29-Dec-13,EST,39.103,-84.419,482,65,38,49,63,36,39,29,36,100,41,64,51,37,43,15,6,252,20,100,8.1,1000,201,1199,0,568,0.29,0,30.05,29.84,29.93,1017.7,1010.3,1013.5,40,MC,Overcast,KLUK,O,EST,39.103,-84.419,482,58,57,39,50,49,210,6,100,43,OVC,10,188,38,226,376,414,538,0,0,0,29.85,1010.7,40,MC,Overcast,29-Dec-13,13
KLUK 29/Nov/2015 13,1233,CIN2015,29-Nov-15,29-Nov-15,29-Nov-15,1:00,13,CIN,-9.5,LAR,38,U,42,2015,Week 12,61022,CIN,-9.5,9.5,ARI,31,7,Y,65515,0,15,45,0,Cincinnati,KLUK,KLUK4233713,KLUK,O,29-Nov-15,EST,39.103,-84.419,482,46,40,42,45,34,42,34,38,100,76,88,43,38,41,12,8,35,12,77,9.1,1546,220,1767,245,580,0.19,0,30.32,30.22,30.25,1026.8,1023.4,1024.6,46,CLR,Fair,KLUK,O,EST,39.103,-84.419,482,45,40,40,83,43,50,9,20,16,SCT,10,357,40,397,397,437,567,0,0,0,30.25,1024.6,44,PC,Partly Cloudy,29-Nov-15,13
KLUK 29/Oct/2017 13,1234,CIN2017,29-Oct-17,29-Oct-17,29-Oct-17,1:00,13,CIN,-10.5,IND,47,O,44,2017,Week 8,57901,CIN,-10.5,10.5,IND,24,23,N,65515,0,17,79,0,Cincinnati,KLUK,KLUK4303713,KLUK,O,29-Oct-17,EST,39.103,-84.419,482,41,34,39,40,31,34,28,30,82,63,71,37,35,36,13,7,287,13,97,10,1605,321,1927,0,637,0,0,29.93,29.85,29.88,1013.6,1011.1,1012.2,40,MC,Overcast,KLUK,O,EST,39.103,-84.419,482,40,35,29,65,36,290,8,100,38,OVC,10,262,52,314,525,577,750,0,0,0,29.87,1011.7,40,MC,Overcast,29-Oct-17,13
KLUK 29/Sep/2016 20,1235,CIN2016,29-Sep-16,29-Sep-16,29-Sep-16,8:25,20,CIN,-7.5,MIA,29,U,46.5,2016,Week 4,60834,CIN,-7.5,7.5,CIN,22,7,Y,65515,0,16,59,0,Cincinnati,KLUK,KLUK4264220,KLUK,O,29-Sep-16,EST,39.103,-84.419,482,66,48,57,65,48,60,50,55,100,68,93,60,50,56,9,3,63,9,88,6.8,2667,467,3134,107,711,0.07,0,30.09,29.97,30.05,1018.9,1014.9,1017.6,42,MC,Mostly Cloudy,KLUK,O,EST,39.103,-84.419,482,58,58,58,100,58,20,3,95,110,BKN,8,0,0,0,0,0,0,99,0.04,0,30.09,1018.9,18,RAIN,Light Rain,29-Sep-16,20
KMDW 01/Nov/2015 13,1236,CHI2015,1-Nov-15,1-Nov-15,1-Nov-15,1:00,13,MIN,-1.5,CHI,43,U,44,2015,Week 8,62311,CHI,1.5,-1.5,ATL,20,23,Y,61500,0,44,61,0,Chicago,KMDW,KMDW4230913,KMDW,O,1-Nov-15,CST,41.786,-87.752,620,65,46,55,64,40,47,38,42,86,41,64,52,44,49,16,11,231,24,5,9.8,2684,275,2959,584,621,0,0,29.98,29.76,29.9,1015.3,1008.2,1012.5,45,CLR,Mostly Clear,KMDW,O,CST,41.786,-87.752,620,63,62,40,43,51,230,13,5,250,FEW,10,411,42,453,417,459,596,0,0,0,29.93,1013.3,45,CLR,Mostly Clear,1-Nov-15,13
KMDW 02/Oct/2016 13,1237,CHI2016,2-Oct-16,2-Oct-16,2-Oct-16,1:00,13,DET,-3.5,CHI,31,U,48,2016,Week 4,60841,CHI,3.5,-3.5,NE,17,14,N,61500,0,45,64,0,Chicago,KMDW,KMDW4264513,KMDW,O,2-Oct-16,CST,41.786,-87.752,620,67,58,62,67,57,57,55,56,96,66,81,61,57,59,10,7,329,24,99,9.1,1846,421,2267,18,700,0,0,30.1,30.01,30.06,1018.7,1015.8,1017.4,40,MC,Overcast,KMDW,O,CST,41.786,-87.752,620,67,67,55,66,60,330,9,100,50,BKN,10,295,59,354,590,649,843,0,0,0,30.05,1017.2,42,MC,Mostly Cloudy,2-Oct-16,13
KMDW 03/Dec/2017 13,1238,CHI2017,3-Dec-17,3-Dec-17,3-Dec-17,1:00,13,CHI,-2.5,SF,29,U,42,2017,Week 13,61302,CHI,-2.5,2.5,SF,14,15,N,61500,0,46,76,0,Chicago,KMDW,KMDW4307213,KMDW,O,3-Dec-17,CST,41.786,-87.752,620,58,31,47,58,30,34,29,32,89,35,60,46,31,40,16,6,170,23,49,10,1589,179,1768,317,560,0,0,30.22,29.99,30.12,1024.1,1015.5,1020.6,52,PC,High Clouds,KMDW,O,CST,41.786,-87.752,620,56,54,32,40,45,170,9,70,250,BKN,10,239,30,269,303,333,433,0,0,0,30.14,1021,52,PC,High Clouds,3-Dec-17,13
KMDW 03/Jan/2016 13,1239,CHI2015,3-Jan-16,3-Jan-16,3-Jan-16,1:00,13,DET,-2.5,CHI,44,U,45,2015,Week 17,61177,CHI,2.5,-2.5,SF,20,24,Y,61500,0,44,44,0,Chicago,KMDW,KMDW4237213,KMDW,O,3-Jan-16,CST,41.786,-87.752,620,31,24,28,31,15,21,15,18,72,58,65,28,22,25,20,12,319,23,75,10,867,175,1043,0,554,0,0,30.28,29.95,30.14,1026.5,1015.6,1022,40,MC,Overcast,KMDW,O,CST,41.786,-87.752,620,31,18,19,61,27,330,20,100,27,OVC,10,154,31,185,308,339,440,0,0,0,30.16,1022.7,40,MC,Overcast,3-Jan-16,13
KMDW 04/Dec/2014 20,1240,CHI2014,4-Dec-14,4-Dec-14,4-Dec-14,8:25,20,DAL,-3.5,CHI,69,O,50,2014,Week 14,61558,CHI,3.5,-3.5,DEN,28,41,Y,61500,0,43,34,0,Chicago,KMDW,KMDW4197720,KMDW,O,4-Dec-14,CST,41.786,-87.752,620,37,25,33,36,18,25,11,20,64,49,58,32,23,28,12,8,86,24,91,9.9,1263,177,1440,126,558,0,0,30.42,30.26,30.35,1031.2,1025.6,1028.7,40,MC,Overcast,KMDW,O,CST,41.786,-87.752,620,36,29,23,59,31,150,9,100,42,OVC,10,0,0,0,0,0,0,0,0,0,30.29,1026.9,40,MC,Overcast,4-Dec-14,20
KMDW 04/Dec/2016 13,1241,CHI2016,4-Dec-16,4-Dec-16,4-Dec-16,1:00,13,SF,-1,CHI,32,U,44,2016,Week 13,59782,CHI,1,-1,HOU,26,6,Y,61500,0,45,35,0,Chicago,KMDW,KMDW4270813,KMDW,O,4-Dec-16,CST,41.786,-87.752,620,35,30,33,34,24,31,24,28,92,70,80,32,29,31,12,5,205,24,99,5.7,885,176,1061,0,558,0.45,5.5,30.25,29.89,30.04,1025.4,1013.1,1018.3,40,MC,Overcast,KMDW,O,CST,41.786,-87.752,620,33,27,29,85,31,120,7,100,8,VV,0.8,150,30,180,299,329,427,99,0.06,0.8,29.99,1016.6,9,SNOW,Light Snow,4-Dec-16,13
KMDW 04/Oct/2015 13,1242,CHI2015,4-Oct-15,4-Oct-15,4-Oct-15,1:00,13,OAK,-3,CHI,42,U,44.5,2015,Week 4,62409,CHI,3,-3,LAC,22,20,N,61500,0,44,56,0,Chicago,KMDW,KMDW4228113,KMDW,O,4-Oct-15,CST,41.786,-87.752,620,60,51,56,59,46,52,44,49,83,72,78,55,48,52,18,13,43,24,99,9.9,2155,417,2570,18,695,0,0,30.2,30.16,30.17,1022.9,1021.1,1021.8,40,MC,Overcast,KMDW,O,CST,41.786,-87.752,620,58,55,50,75,54,30,14,100,13,OVC,10,292,58,350,584,642,834,0,0,0,30.17,1021.8,40,MC,Overcast,4-Oct-15,13
KMDW 05/Dec/2019 13,1243,CHI2019,5-Dec-19,5-Dec-19,5-Dec-19,1:00,13,CHI,-4,DAL,55,O,42,2019,Week 14,61276,CHI,-4,4,DAL,31,24,Y,61500,0,48,60,0,Chicago,KMDW,KMDW4380413,KMDW,O,5-Dec-19,CST,41.783,-87.75,617,46,28,39,46,22,36,25,30,92,53,72,41,27,35,12,6,204,47,51,10,1339,176,1515,210,557,0,0,30.06,29.93,29.98,1018.9,1014,1016.1,42,MC,Mostly Cloudy,KMDW,O,CST,41.783,-87.75,617,44,40,28,53,38,200,8,95,250,BKN,10,210,30,240,299,329,428,0,0,0,29.99,1016.3,52,PC,High Clouds,5-Dec-19,13
KMDW 05/Sep/2019 20,1244,CHI2019,5-Sep-19,5-Sep-19,5-Sep-19,8:20,20,CHI,-3,GB,13,U,46.5,2019,Week 1,62435,CHI,-3,3,GB,3,10,Y,61500,0,48,45,0,Chicago,KMDW,KMDW4371320,KMDW,O,5-Sep-19,CST,41.783,-87.75,617,74,57,65,72,57,56,50,53,78,48,64,62,53,58,10,5,95,24,27,10,4964,582,5546,567,775,0,0,30.19,30,30.11,1021.9,1015.3,1019.2,45,CLR,Mostly Clear,KMDW,O,CST,41.783,-87.75,617,65,65,54,68,59,150,8,20,95,SCT,10,0,0,0,0,0,0,0,0,0,30.04,1016.9,44,PC,Partly Cloudy,5-Sep-19,20
KMDW 06/Dec/2015 13,1245,CHI2015,6-Dec-15,6-Dec-15,6-Dec-15,1:00,13,CHI,-6.5,SF,46,O,43,2015,Week 13,62088,CHI,-6.5,6.5,DAL,20,26,N,61500,0,44,46,0,Chicago,KMDW,KMDW4234413,KMDW,O,6-Dec-15,CST,41.786,-87.752,620,48,32,40,48,28,35,29,32,89,56,74,42,31,36,9,5,203,24,57,9.6,1561,176,1737,323,556,0,0,30.44,30.2,30.29,1031.7,1023.5,1026.5,45,CLR,Mostly Clear,KMDW,O,CST,41.786,-87.752,620,48,44,33,56,42,250,8,25,250,SCT,10,275,30,305,298,328,426,0,0,0,30.24,1024.7,54,CLR,Few High Clouds,6-Dec-15,13
KMDW 06/Oct/2013 13,1246,CHI2013,6-Oct-13,6-Oct-13,6-Oct-13,1:00,13,NO,-1,CHI,44,U,50.5,2013,Week 5,62361,CHI,1,-1,DAL,18,26,Y,61500,0,42,61,0,Chicago,KMDW,KMDW4155313,KMDW,O,6-Oct-13,CST,41.786,-87.752,620,62,48,55,66,44,57,37,44,90,48,68,64,43,50,16,11,247,24,77,9.6,2795,404,3199,162,689,0.06,0,29.79,29.69,29.76,1008.7,1005.3,1007.4,42,MC,Mostly Cloudy,KMDW,O,CST,41.786,-87.752,620,61,59,43,52,52,240,14,100,250,BKN,10,251,57,308,571,628,815,0,0,0,29.7,1005.4,42,MC,Mostly Cloudy,6-Oct-13,13
KMDW 07/Sep/2014 13,1247,CHI2014,7-Sep-14,7-Sep-14,7-Sep-14,1:00,13,CHI,-7,BUF,43,U,47.5,2014,Week 1,62425,CHI,-7,7,PIT,20,23,N,61500,0,43,77,0,Chicago,KMDW,KMDW4188913,KMDW,O,7-Sep-14,CST,41.786,-87.752,620,79,58,70,78,60,57,47,53,81,35,57,62,57,60,12,5,98,24,4,10,5386,571,5957,706,769,0,0,30.21,30.13,30.17,1022.4,1019.5,1021,46,CLR,Fair,KMDW,O,CST,41.786,-87.752,620,77,78,50,39,62,120,8,20,65,SCT,10,671,75,746,746,821,1066,0,0,0,30.18,1021.3,44,PC,Partly Cloudy,7-Sep-14,13
KMDW 08/Sep/2013 13,1248,CHI2013,8-Sep-13,8-Sep-13,8-Sep-13,1:00,13,CHI,-3,CIN,45,O,41.5,2013,Week 1,62213,CHI,-3,3,CAR,24,21,N,61500,0,42,77,0,Chicago,KMDW,KMDW4152513,KMDW,O,8-Sep-13,CST,41.786,-87.752,620,78,71,74,81,72,67,63,65,82,64,73,70,67,68,15,12,68,24,71,9.7,2884,564,3448,113,767,0,0,30.03,29.96,29.99,1015.8,1013.3,1014.6,40,MC,Overcast,KMDW,O,CST,41.786,-87.752,620,77,80,66,69,70,40,15,100,150,BKN,10,300,74,374,741,815,1059,0,0,0,30.01,1015.3,42,MC,Mostly Cloudy,8-Sep-13,13
KMDW 09/Dec/2013 20,1249,CHI2013,9-Dec-13,9-Dec-13,9-Dec-13,8:40,20,CHI,-1.5,DAL,73,O,49,2013,Week 14,62229,CHI,-1.5,1.5,NO,45,28,Y,61500,0,42,8,0,Chicago,KMDW,KMDW4161720,KMDW,O,9-Dec-13,CST,41.786,-87.752,620,26,3,17,26,-11,22,-6,9,86,54,73,25,2,16,21,14,258,30,84,7.8,976,170,1146,80,553,0,0,30.23,29.93,30.1,1025.9,1014.9,1021.1,9,SNOW,Light Snow,KMDW,O,CST,41.786,-87.752,620,8,-8,-2,63,6,260,14,100,250,OVC,10,0,0,0,0,0,0,0,0,0,30.23,1025.9,50,PC,High Overcast,9-Dec-13,20
KMDW 09/Dec/2018 20,1250,CHI2018,9-Dec-18,9-Dec-18,9-Dec-18,8:20,20,LAR,-3,CHI,21,U,51,2018,Week 14,61695,CHI,3,-3,LAR,15,6,Y,61500,0,47,30,0,Chicago,KMDW,KMDW4344320,KMDW,O,9-Dec-18,CST,41.783,-87.75,617,35,18,25,35,13,21,14,18,85,50,74,29,17,23,7,4,333,47,19,8.4,1428,170,1598,374,553,0,0,30.45,30.3,30.36,1032.7,1027.6,1029.8,45,CLR,Mostly Clear,KMDW,O,CST,41.783,-87.75,617,26,18,19,75,24,330,7,5,10,FEW,8,0,0,0,0,0,0,0,0,0,30.32,1028.4,45,CLR,Mostly Clear,9-Dec-18,20
KMDW 09/Oct/2017 20,1251,CHI2017,9-Oct-17,9-Oct-17,9-Oct-17,8:30,20,MIN,-3.5,CHI,37,U,41,2017,Week 5,61834,CHI,3.5,-3.5,MIN,17,20,N,61500,0,46,35,0,Chicago,KMDW,KMDW4301720,KMDW,O,9-Oct-17,CST,41.786,-87.752,620,82,55,67,81,56,62,51,54,87,37,65,64,53,60,14,5,42,14,16,10,3448,387,3835,545,681,0,0,30.06,29.78,29.92,1017.3,1007.8,1012.5,45,CLR,Mostly Clear,KMDW,O,CST,41.786,-87.752,620,66,65,62,87,64,30,14,20,9,SCT,10,0,0,0,0,0,0,0,0,0,30.01,1015.8,44,PC,Partly Cloudy,9-Oct-17,20
KMDW 10/Nov/2013 13,1252,CHI2013,10-Nov-13,10-Nov-13,10-Nov-13,1:00,13,DET,-1,CHI,40,U,52.5,2013,Week 10,62431,CHI,1,-1,PHI,19,21,Y,61500,0,42,47,0,Chicago,KMDW,KMDW4158813,KMDW,O,10-Nov-13,CST,41.786,-87.752,620,49,35,42,48,28,31,24,28,72,45,58,40,32,37,20,9,266,28,28,10,2338,239,2577,574,600,0,0,30.33,30.13,30.26,1027.7,1020.4,1025.2,46,CLR,Fair,KMDW,O,CST,41.786,-87.752,620,47,45,28,48,39,290,5,5,35,FEW,10,365,37,402,374,411,535,0,0,0,30.31,1026.8,46,CLR,Fair,10-Nov-13,13
KMDW 10/Nov/2019 13,1253,CHI2019,10-Nov-19,10-Nov-19,10-Nov-19,1:00,13,CHI,-8,DET,33,O,34,2019,Week 10,61758,CHI,-8,8,NYJ,20,13,N,61500,0,48,79,0,Chicago,KMDW,KMDW4377913,KMDW,O,10-Nov-19,CST,41.783,-87.75,617,44,36,41,44,29,35,30,32,89,60,71,39,36,37,14,9,2,24,100,9.8,1057,239,1297,0,600,0.01,0.2,30.13,29.9,30.02,1021,1013.1,1017.1,40,MC,Overcast,KMDW,O,CST,41.783,-87.75,617,42,35,35,76,39,30,12,100,15,OVC,10,187,37,224,374,411,535,0,0,0,30,1016.7,40,MC,Overcast,10-Nov-19,13
KMDW 10/Oct/2013 20,1254,CHI2013,10-Oct-13,10-Oct-13,10-Oct-13,8:25,20,CHI,-9,NYG,48,O,47.5,2013,Week 6,62374,CHI,-9,9,ATL,27,21,N,61500,0,42,63,0,Chicago,KMDW,KMDW4155720,KMDW,O,10-Oct-13,CST,41.786,-87.752,620,75,51,63,76,52,54,44,49,87,37,63,60,48,55,9,4,114,24,21,10,3317,384,3701,381,679,0,0,30.18,30.06,30.12,1021.8,1017.4,1019.6,46,CLR,Fair,KMDW,O,CST,41.786,-87.752,620,64,64,52,65,57,100,8,5,300,FEW,10,0,0,0,0,0,0,0,0,0,30.07,1018.1,45,CLR,Mostly Clear,10-Oct-13,20
KMDW 10/Sep/2017 13,1255,CHI2017,10-Sep-17,10-Sep-17,10-Sep-17,1:00,13,ATL,-7,CHI,40,U,48,2017,Week 1,61857,CHI,7,-7,ATL,17,23,N,61500,0,46,75,0,Chicago,KMDW,KMDW4298813,KMDW,O,10-Sep-17,CST,41.786,-87.752,620,70,53,63,69,52,54,41,47,70,38,58,58,49,54,13,8,109,16,1,10,5500,554,6054,753,761,0,0,30.47,30.33,30.39,1031.3,1026.6,1028.9,46,CLR,Fair,KMDW,O,CST,41.786,-87.752,620,69,69,48,47,58,110,10,0,201,CLR,10,730,73,803,730,803,1043,0,0,0,30.4,1029.1,46,CLR,Fair,10-Sep-17,13
KMDW 11/Nov/2018 13,1256,CHI2018,11-Nov-18,11-Nov-18,11-Nov-18,1:00,13,CHI,-7,DET,56,O,45,2018,Week 10,61393,CHI,-7,7,DET,34,22,Y,61500,0,47,72,0,Chicago,KMDW,KMDW4341513,KMDW,O,11-Nov-18,CST,41.783,-87.75,617,42,29,35,41,20,26,17,21,68,47,58,34,25,29,13,8,211,34,95,10,1686,238,1924,72,598,0,0,30.3,30.2,30.25,1027.4,1023.8,1025.6,52,PC,High Clouds,KMDW,O,CST,41.783,-87.75,617,39,32,21,48,33,220,12,95,250,BKN,10,257,37,294,370,407,529,0,0,0,30.21,1024,52,PC,High Clouds,11-Nov-18,13
KMDW 12/Nov/2017 13,1257,CHI2017,12-Nov-17,12-Nov-17,12-Nov-17,1:00,13,CHI,-5,GB,39,O,37.5,2017,Week 10,61285,CHI,-5,5,MIN,16,23,Y,61500,0,46,88,0,Chicago,KMDW,KMDW4305113,KMDW,O,12-Nov-17,CST,41.786,-87.752,620,41,38,39,40,32,37,26,34,97,57,83,39,34,37,8,5,333,8,100,8,1163,234,1398,0,596,0.1,0,30.43,30.25,30.32,1031.2,1025.4,1027.8,40,MC,Overcast,KMDW,O,CST,41.786,-87.752,620,40,36,37,89,39,30,5,100,24,OVC,6,183,37,220,366,403,522,99,0.02,0,30.3,1026.9,18,RAIN,Light Rain,12-Nov-17,13
KMDW 13/Dec/2015 13,1258,CHI2015,13-Dec-15,13-Dec-15,13-Dec-15,1:00,13,CHI,-4,WAS,45,O,43.5,2015,Week 14,61026,CHI,-4,4,NYJ,21,24,N,61500,0,44,58,0,Chicago,KMDW,KMDW4235113,KMDW,O,13-Dec-15,CST,41.786,-87.752,620,64,54,62,63,54,58,55,56,90,76,84,60,53,58,18,13,168,29,100,7.7,631,168,798,0,551,0.78,0,29.93,29.45,29.74,1013.2,996.7,1006.9,18,RAIN,Light Rain,KMDW,O,CST,41.786,-87.752,620,63,62,55,76,58,180,12,100,90,OVC,10,146,29,175,292,321,417,0,0,0,29.75,1007.2,40,MC,Overcast,13-Dec-15,13
KMDW 13/Sep/2015 13,1259,CHI2015,13-Sep-15,13-Sep-15,13-Sep-15,1:00,13,GB,-6.5,CHI,54,O,48.5,2015,Week 1,62442,CHI,6.5,-6.5,OAK,23,31,Y,61500,0,44,68,0,Chicago,KMDW,KMDW4226013,KMDW,O,13-Sep-15,CST,41.786,-87.752,620,71,50,62,70,49,46,42,44,77,37,55,56,48,53,14,8,259,47,16,10,4786,537,5322,603,753,0,0,30.06,29.98,30.02,1017.8,1014.8,1016.3,46,CLR,Fair,KMDW,O,CST,41.786,-87.752,620,70,70,43,38,56,250,10,20,60,SCT,10,642,71,713,713,784,1018,0,0,0,30.02,1016.4,44,PC,Partly Cloudy,13-Sep-15,13
KMDW 15/Dec/2014 20,1260,CHI2014,15-Dec-14,15-Dec-14,15-Dec-14,8:30,20,NO,-3.5,CHI,46,U,53.5,2014,Week 15,60996,CHI,3.5,-3.5,CAR,15,31,Y,61500,0,43,42,0,Chicago,KMDW,KMDW4198820,KMDW,O,15-Dec-14,CST,41.786,-87.752,620,48,43,46,48,38,45,41,44,97,86,91,47,43,45,16,11,167,24,100,2.6,838,168,1005,0,549,0.12,0,29.99,29.66,29.85,1015.9,1004.7,1011,40,MC,Overcast,KMDW,O,CST,41.786,-87.752,620,44,40,41,89,43,150,8,100,6,OVC,2,0,0,0,0,0,0,0,0,0,29.73,1007.1,21,RAIN,Light Drizzle,15-Dec-14,20
KMDW 15/Sep/2013 13,1261,CHI2013,15-Sep-13,15-Sep-13,15-Sep-13,1:00,13,CHI,-6,MIN,61,O,41,2013,Week 2,62181,CHI,-6,6,TB,31,30,N,61500,0,42,62,0,Chicago,KMDW,KMDW4153213,KMDW,O,15-Sep-13,CST,41.786,-87.752,620,62,58,60,62,57,58,39,51,90,46,71,59,50,55,9,5,196,24,100,8.7,2240,525,2767,0,747,0.24,0,30.16,30,30.06,1021.2,1015.8,1017.7,18,RAIN,Light Rain,KMDW,O,CST,41.786,-87.752,620,62,62,53,73,57,0,0,100,50,OVC,10,350,70,420,701,771,1001,99,0.01,0,30,1015.8,18,RAIN,Light Rain,15-Sep-13,13
KMDW 16/Dec/2018 13,1262,CHI2018,16-Dec-18,16-Dec-18,16-Dec-18,1:00,13,CHI,-5.5,GB,41,U,46.5,2018,Week 15,62372,CHI,-5.5,5.5,GB,24,17,Y,61500,0,47,72,0,Chicago,KMDW,KMDW4345013,KMDW,O,16-Dec-18,CST,41.783,-87.75,617,57,29,38,49,23,34,25,31,100,48,80,41,29,35,12,7,272,47,30,8.6,1458,167,1625,362,550,0,0,30.14,30.04,30.1,1020.9,1018,1019.8,45,CLR,Mostly Clear,KMDW,O,CST,41.783,-87.75,617,48,44,30,50,40,250,10,70,250,BKN,10,230,29,259,291,320,416,0,0,0,30.04,1018,52,PC,High Clouds,16-Dec-18,13
KMDW 16/Nov/2014 13,1263,CHI2014,16-Nov-14,16-Nov-14,16-Nov-14,1:00,13,CHI,-2.5,MIN,34,U,46.5,2014,Week 11,61792,CHI,-2.5,2.5,TB,21,13,Y,61500,0,43,32,0,Chicago,KMDW,KMDW4195913,KMDW,O,16-Nov-14,CST,41.786,-87.752,620,33,25,30,33,17,27,17,22,82,64,72,31,25,28,16,9,227,24,93,8.4,1097,218,1315,0,587,0,0,30.18,29.9,30.03,1023.2,1013.8,1018.3,9,SNOW,Light Snow,KMDW,O,CST,41.786,-87.752,620,32,23,27,82,30,210,12,100,21,OVC,3,174,35,210,349,384,499,0,0,0,30,1017.2,9,SNOW,Light Snow,16-Nov-14,13
KMDW 16/Oct/2016 13,1264,CHI2016,16-Oct-16,16-Oct-16,16-Oct-16,1:00,13,CHI,-2.5,JAX,33,U,46,2016,Week 6,61054,CHI,-2.5,2.5,PIT,16,17,N,61500,0,45,67,0,Chicago,KMDW,KMDW4265913,KMDW,O,16-Oct-16,CST,41.786,-87.752,620,72,65,69,72,65,65,60,64,93,73,83,67,63,65,12,8,189,34,95,8.2,1734,347,2079,0,662,0.43,0,29.92,29.82,29.88,1012.5,1008.9,1011.1,40,MC,Overcast,KMDW,O,CST,41.786,-87.752,620,71,71,65,81,67,240,8,100,20,OVC,8,251,50,301,502,552,718,0,0,0,29.89,1011.3,40,MC,Overcast,16-Oct-16,13
KMDW 17/Nov/2013 13,1265,CHI2013,17-Nov-13,17-Nov-13,17-Nov-13,1:00,13,CHI,-3,BAL,43,O,40,2013,Week 11,62367,CHI,-3,3,ARI,23,20,N,61500,0,42,68,0,Chicago,KMDW,KMDW4159513,KMDW,O,17-Nov-13,CST,41.786,-87.752,620,69,43,57,68,37,62,35,51,93,66,82,64,41,55,37,21,230,59,91,9.2,998,218,1215,0,585,0.77,0,29.73,29.21,29.47,1006.7,988.8,997.7,40,MC,Overcast,KMDW,O,CST,41.786,-87.752,620,56,51,53,90,54,210,26,100,60,OVC,0.8,173,35,208,346,381,494,99,0.49,0,29.26,990.7,14,SHWR,Heavy Thundershower,17-Nov-13,13
KMDW 17/Sep/2018 20,1266,CHI2018,17-Sep-18,17-Sep-18,17-Sep-18,8:15,20,CHI,-5,SEA,41,U,42.5,2018,Week 2,57960,CHI,-5,5,SEA,24,17,Y,61500,0,47,76,0,Chicago,KMDW,KMDW4336020,KMDW,O,17-Sep-18,CST,41.783,-87.75,617,92,69,80,95,69,67,62,64,84,42,61,74,66,70,9,3,93,24,12,10,4834,514,5348,637,742,0,0,29.97,29.88,29.93,1013.7,1010.5,1012.2,45,CLR,Mostly Clear,KMDW,O,CST,41.783,-87.75,617,81,83,63,54,69,0,0,5,65,FEW,10,0,0,0,0,0,0,0,0,0,29.91,1011.8,45,CLR,Mostly Clear,17-Sep-18,20
KMDW 18/Dec/2016 13,1267,CHI2016,18-Dec-16,18-Dec-16,18-Dec-16,1:00,13,GB,-4.5,CHI,57,O,39.5,2016,Week 15,61137,CHI,4.5,-4.5,DEN,27,30,N,61500,0,45,9,0,Chicago,KMDW,KMDW4272213,KMDW,O,18-Dec-16,CST,41.786,-87.752,620,20,-5,8,21,-19,12,-14,-3,77,50,63,19,-4,7,22,12,295,28,62,8.4,1600,166,1766,456,548,0,0,30.71,29.94,30.42,1042.8,1015.4,1032.5,9,SNOW,Light Snow,KMDW,O,CST,41.786,-87.752,620,10,-3,-2,58,8,290,9,5,20,FEW,10,284,29,313,291,320,415,0,0,0,30.48,1034.2,46,CLR,Fair,18-Dec-16,13
KMDW 18/Nov/2018 20,1268,CHI2018,18-Nov-18,18-Nov-18,18-Nov-18,8:20,20,CHI,-2.5,MIN,45,O,44,2018,Week 11,61651,CHI,-2.5,2.5,MIN,25,20,Y,61500,0,47,79,0,Chicago,KMDW,KMDW4342220,KMDW,O,18-Nov-18,CST,41.783,-87.75,617,38,25,32,37,20,30,20,26,92,62,76,34,25,30,8,6,296,24,60,8.4,1192,214,1406,153,583,0.03,0.1,30.29,30.15,30.23,1026.9,1022.2,1024.8,9,SNOW,Light Snow,KMDW,O,CST,41.783,-87.75,617,30,23,21,69,27,270,7,0,214,CLR,10,0,0,0,0,0,0,0,0,0,30.2,1023.8,46,CLR,Fair,18-Nov-18,20
KMDW 19/Nov/2017 13,1269,CHI2017,19-Nov-17,19-Nov-17,19-Nov-17,1:00,13,DET,-3,CHI,51,O,40.5,2017,Week 11,60635,CHI,3,-3,DET,24,27,N,61500,0,46,60,0,Chicago,KMDW,KMDW4305813,KMDW,O,19-Nov-17,CST,41.786,-87.752,620,38,30,33,38,19,27,17,21,73,48,62,35,26,29,17,12,285,23,45,10,1878,211,2089,373,581,0,0,30.08,29.86,30.02,1019.9,1011.9,1017.5,40,MC,Overcast,KMDW,O,CST,41.786,-87.752,620,35,26,20,54,30,280,15,25,250,SCT,10,310,34,344,339,373,485,0,0,0,30.04,1018.2,54,CLR,Few High Clouds,19-Nov-17,13
KMDW 19/Oct/2014 13,1270,CHI2014,19-Oct-14,19-Oct-14,19-Oct-14,1:00,13,CHI,-3,MIA,41,U,48,2014,Week 7,62413,CHI,-3,3,HOU,14,27,Y,61500,0,43,55,0,Chicago,KMDW,KMDW4193113,KMDW,O,19-Oct-14,CST,41.786,-87.752,620,57,36,48,56,34,45,33,39,89,55,73,49,35,44,16,9,209,24,72,10,2533,336,2869,133,655,0,0,30.22,29.9,30.09,1023.9,1012.7,1019.4,52,PC,High Clouds,KMDW,O,CST,41.786,-87.752,620,55,51,41,59,48,220,14,75,250,BKN,10,375,49,424,490,539,700,0,0,0,30.11,1019.8,52,PC,High Clouds,19-Oct-14,13
KMDW 19/Sep/2016 20,1271,CHI2016,19-Sep-16,19-Sep-16,19-Sep-16,8:35,20,CHI,-3,PHI,43,P,43,2016,Week 2,62268,CHI,-3,3,TEN,14,29,Y,61500,0,45,80,0,Chicago,KMDW,KMDW4263220,KMDW,O,19-Sep-16,CST,41.786,-87.752,620,89,63,77,89,64,61,47,53,76,24,48,66,57,63,17,9,207,25,32,10,4875,497,5372,597,736,0,0,30.08,29.97,30.02,1017.4,1013.8,1015.5,46,CLR,Fair,KMDW,O,CST,41.786,-87.752,620,81,81,51,35,64,200,8,100,150,SCT,10,0,0,0,0,0,0,0,0,0,30.03,1016,44,PC,Partly Cloudy,19-Sep-16,20
KMDW 20/Oct/2019 13,1272,CHI2019,20-Oct-19,20-Oct-19,20-Oct-19,1:00,13,CHI,-1,NO,61,O,39,2019,Week 7,62306,CHI,-1,1,DEN,25,36,Y,61500,0,48,88,0,Chicago,KMDW,KMDW4375813,KMDW,O,20-Oct-19,CST,41.783,-87.75,617,60,50,54,59,47,52,48,49,100,69,83,54,49,52,12,7,62,24,72,7.7,2685,331,3016,343,651,0,0,29.93,29.77,29.89,1013.6,1007.8,1011.9,40,MC,Overcast,KMDW,O,CST,41.783,-87.75,617,58,56,49,72,53,80,9,10,250,FEW,10,465,48,513,484,532,692,0,0,0,29.92,1013,45,CLR,Mostly Clear,20-Oct-19,13
KMDW 20/Sep/2015 13,1273,CHI2015,20-Sep-15,20-Sep-15,20-Sep-15,1:00,13,ARI,-2,CHI,71,O,46,2015,Week 2,62351,CHI,2,-2,BUF,23,48,Y,61500,0,44,69,0,Chicago,KMDW,KMDW4226713,KMDW,O,20-Sep-15,CST,41.786,-87.752,620,72,53,63,71,52,54,44,49,84,41,64,58,51,55,9,5,99,24,27,10,4251,497,4748,416,734,0,0,30.23,30.12,30.16,1023.3,1019.8,1021.1,45,CLR,Mostly Clear,KMDW,O,CST,41.786,-87.752,620,70,70,47,44,57,110,8,25,250,SCT,10,614,67,681,671,738,959,0,0,0,30.16,1021.1,54,CLR,Few High Clouds,20-Sep-15,13
KMDW 21/Dec/2014 13,1274,CHI2014,21-Dec-14,21-Dec-14,21-Dec-14,1:00,13,DET,-10,CHI,34,U,44.5,2014,Week 16,61420,CHI,10,-10,DAL,14,20,N,61500,0,43,36,0,Chicago,KMDW,KMDW4199413,KMDW,O,21-Dec-14,CST,41.786,-87.752,620,38,34,35,38,26,30,27,28,79,70,74,35,31,33,14,10,167,24,98,9.9,829,165,993,0,549,0,0,30.25,30.02,30.15,1025.3,1017.7,1021.9,40,MC,Overcast,KMDW,O,CST,41.786,-87.752,620,37,29,28,70,34,170,13,100,27,OVC,10,146,29,175,292,321,417,0,0,0,30.13,1021.3,40,MC,Overcast,21-Dec-14,13
KMDW 21/Oct/2018 13,1275,CHI2018,21-Oct-18,21-Oct-18,21-Oct-18,1:00,13,NE,-2,CHI,69,O,49.5,2018,Week 7,62389,CHI,2,-2,NE,31,38,Y,61500,0,47,66,0,Chicago,KMDW,KMDW4339413,KMDW,O,21-Oct-18,CST,41.783,-87.75,617,50,28,40,50,23,25,20,22,72,32,50,39,25,33,17,9,234,24,5,9.6,3169,327,3496,611,649,0,0,30.37,30.09,30.24,1029.4,1019.5,1025,45,CLR,Mostly Clear,KMDW,O,CST,41.783,-87.75,617,47,41,22,37,37,220,15,5,120,FEW,10,471,48,519,479,527,684,0,0,0,30.24,1025,45,CLR,Mostly Clear,21-Oct-18,13
KMDW 22/Dec/2019 13,1276,CHI2019,22-Dec-19,22-Dec-19,22-Dec-19,1:00,13,CHI,-1,KC,29,U,51,2019,Week 16,62213,CHI,-1,1,KC,3,26,Y,61500,0,48,70,0,Chicago,KMDW,KMDW4382113,KMDW,O,22-Dec-19,CST,41.783,-87.75,617,53,32,41,53,26,36,27,30,81,45,66,44,31,37,16,10,209,26,16,10,1552,166,1718,414,548,0,0,30.28,30.1,30.2,1026,1019.8,1023.4,45,CLR,Mostly Clear,KMDW,O,CST,41.783,-87.75,617,52,47,34,50,44,220,13,5,250,FEW,10,288,29,317,292,321,418,0,0,0,30.19,1022.9,45,CLR,Mostly Clear,22-Dec-19,13
KMDW 22/Nov/2015 13,1277,CHI2015,22-Nov-15,22-Nov-15,22-Nov-15,1:00,13,DEN,-2,CHI,32,U,41.5,2015,Week 11,62483,CHI,2,-2,HOU,15,17,N,61500,0,44,29,0,Chicago,KMDW,KMDW4233013,KMDW,O,22-Nov-15,CST,41.786,-87.752,620,29,13,22,28,4,19,8,13,84,60,70,25,13,19,13,8,204,24,44,10,1811,203,2013,381,576,0,0,30.22,30.04,30.15,1025.2,1018.5,1022.7,45,CLR,Mostly Clear,KMDW,O,CST,41.786,-87.752,620,26,16,16,66,23,180,10,25,95,SCT,10,288,33,321,329,362,470,0,0,0,30.18,1023.5,44,PC,Partly Cloudy,22-Nov-15,13
KMDW 22/Oct/2017 13,1278,CHI2017,22-Oct-17,22-Oct-17,22-Oct-17,1:00,13,CAR,-3,CHI,20,U,39.5,2017,Week 7,61256,CHI,3,-3,HOU,17,3,Y,61500,0,46,61,0,Chicago,KMDW,KMDW4303013,KMDW,O,22-Oct-17,CST,41.786,-87.752,620,72,52,62,72,46,64,51,56,100,63,80,65,51,58,21,14,178,29,99,7.8,1495,322,1817,0,646,0.56,0,30.05,29.91,29.97,1017.3,1012,1014.5,18,RAIN,Light Rain,KMDW,O,CST,41.786,-87.752,620,72,72,61,69,65,190,16,100,27,OVC,10,236,47,283,472,519,675,0,0,0,29.91,1012,40,MC,Overcast,22-Oct-17,13
KMDW 23/Nov/2014 13,1279,CHI2014,23-Nov-14,23-Nov-14,23-Nov-14,1:00,13,CHI,-4.5,TB,34,U,46.5,2014,Week 12,61109,CHI,-4.5,4.5,KC,21,13,Y,61500,0,43,53,0,Chicago,KMDW,KMDW4196613,KMDW,O,23-Nov-14,CST,41.786,-87.752,620,54,50,52,54,46,51,42,47,97,71,85,52,47,50,13,10,175,24,100,8.4,1002,201,1203,0,573,0.62,0,29.85,29.09,29.55,1010.9,985.1,1000.6,18,RAIN,Light Rain,KMDW,O,CST,41.786,-87.752,620,53,49,49,86,51,170,12,100,16,OVC,10,163,33,196,326,359,466,99,0.01,0,29.58,1001.7,18,RAIN,Light Rain,23-Nov-14,13
KMDW 24/Dec/2016 13,1280,CHI2016,24-Dec-16,24-Dec-16,24-Dec-16,1:00,13,WAS,-3,CHI,62,O,49,2016,Week 16,57953,CHI,3,-3,KC,21,41,Y,61500,0,45,35,0,Chicago,KMDW,KMDW4272813,KMDW,O,24-Dec-16,CST,41.786,-87.752,620,37,34,36,37,28,36,30,31,100,76,84,36,33,34,10,5,257,24,100,6.1,832,166,998,0,548,0,0,30.39,29.95,30.21,1030.1,1015.1,1024,40,MC,Overcast,KMDW,O,CST,41.786,-87.752,620,37,37,30,76,34,0,0,100,12,OVC,9,147,29,176,294,323,421,0,0,0,30.24,1025,40,MC,Overcast,24-Dec-16,13
KMDW 24/Dec/2017 13,1281,CHI2017,24-Dec-17,24-Dec-17,24-Dec-17,1:00,13,CHI,-5.5,CLE,23,U,36.5,2017,Week 16,58796,CHI,-5.5,5.5,DET,20,3,Y,61500,0,46,62,0,Chicago,KMDW,KMDW4309313,KMDW,O,24-Dec-17,CST,41.786,-87.752,620,25,19,22,25,6,21,7,15,89,52,75,24,17,20,16,10,308,24,95,5.9,830,166,996,0,548,0.08,2.7,30.27,30.01,30.12,1026.4,1017.9,1021.6,9,SNOW,Light Snow,KMDW,O,CST,41.786,-87.752,620,23,13,20,88,22,310,9,100,13,OVC,1,147,29,176,294,323,420,99,0.01,0.3,30.05,1019.1,9,SNOW,Light Snow,24-Dec-17,13
KMDW 24/Nov/2019 13,1282,CHI2019,24-Nov-19,24-Nov-19,24-Nov-19,1:00,13,CHI,-10,NYG,33,O,56,2019,Week 12,61581,CHI,-10,10,NYG,19,14,N,61500,0,48,88,0,Chicago,KMDW,KMDW4379313,KMDW,O,24-Nov-19,CST,41.783,-87.75,617,50,33,43,50,24,39,27,34,89,57,71,44,31,38,14,10,231,24,66,10,1561,198,1759,247,572,0,0,29.71,29.61,29.66,1007,1002.9,1005,42,MC,Mostly Cloudy,KMDW,O,CST,41.783,-87.75,617,49,45,35,59,43,220,10,100,250,BKN,10,171,32,203,324,356,463,0,0,0,29.62,1003.8,42,MC,Mostly Cloudy,24-Nov-19,13
KMDW 24/Sep/2017 13,1283,CHI2017,24-Sep-17,24-Sep-17,24-Sep-17,1:00,13,PIT,-7,CHI,40,U,43.5,2017,Week 3,61172,CHI,7,-7,PIT,23,17,N,61500,0,46,34,0,Chicago,KMDW,KMDW4300213,KMDW,O,24-Sep-17,CST,41.786,-87.752,620,92,73,82,92,74,65,58,62,74,33,54,71,67,70,13,6,153,17,4,10,4535,474,5009,673,723,0,0,30.1,30,30.05,1018,1014.4,1016.2,46,CLR,Fair,KMDW,O,CST,41.786,-87.752,620,91,92,60,35,71,170,7,20,70,SCT,10,581,65,646,646,711,923,0,0,0,30.04,1015.8,44,PC,Partly Cloudy,24-Sep-17,13
KMDW 27/Nov/2016 13,1284,CHI2016,27-Nov-16,27-Nov-16,27-Nov-16,1:00,13,TEN,-6.5,CHI,48,O,42,2016,Week 12,59494,CHI,6.5,-6.5,DAL,21,27,N,61500,0,45,38,0,Chicago,KMDW,KMDW4270113,KMDW,O,27-Nov-16,CST,41.786,-87.752,620,46,35,40,45,27,38,31,34,89,63,81,41,33,38,17,10,178,28,76,6.5,941,189,1129,4,567,0.05,0,30.13,29.71,29.97,1020.9,1006.7,1015.5,40,MC,Overcast,KMDW,O,CST,41.786,-87.752,620,40,35,36,86,38,180,8,100,5,OVC,4,156,31,187,312,343,446,0,0,0,29.99,1016.2,40,MC,Overcast,27-Nov-16,13
KMDW 27/Oct/2019 13,1285,CHI2019,27-Oct-19,27-Oct-19,27-Oct-19,1:00,13,CHI,-3,LAC,33,O,56,2019,Week 8,61632,CHI,-3,3,SF,16,17,N,61500,0,48,50,0,Chicago,KMDW,KMDW4376513,KMDW,O,27-Oct-19,CST,41.783,-87.75,617,59,44,51,58,38,47,36,42,93,47,74,50,43,47,18,10,252,37,27,9.7,2874,297,3171,589,633,0.03,0,29.99,29.49,29.86,1015.7,998.9,1011.3,46,CLR,Fair,KMDW,O,CST,41.783,-87.75,617,56,53,36,47,47,230,10,0,291,CLR,10,444,44,488,444,488,634,0,0,0,29.91,1013,46,CLR,Fair,27-Oct-19,13
KMDW 28/Oct/2018 13,1286,CHI2018,28-Oct-18,28-Oct-18,28-Oct-18,1:00,13,CHI,-8.5,NYJ,34,U,42,2018,Week 8,61397,CHI,-8.5,8.5,NYJ,24,10,Y,61500,0,47,29,0,Chicago,KMDW,KMDW4340113,KMDW,O,28-Oct-18,CST,41.783,-87.75,617,52,44,48,51,41,46,39,41,90,66,79,48,42,45,24,13,280,38,95,8.9,1466,293,1761,0,631,0.12,0,29.95,29.6,29.76,1014.7,1002.5,1008.1,19,RAIN,Moderate Rain,KMDW,O,CST,41.783,-87.75,617,49,43,41,74,45,290,18,100,21,OVC,10,219,44,263,438,482,626,0,0,0,29.62,1003.3,40,MC,Overcast,28-Oct-18,13
KMDW 28/Sep/2014 13,1287,CHI2014,28-Sep-14,28-Sep-14,28-Sep-14,1:00,13,GB,-2,CHI,55,O,51,2014,Week 4,61736,CHI,2,-2,KC,17,38,Y,61500,0,43,78,0,Chicago,KMDW,KMDW4191013,KMDW,O,28-Sep-14,CST,41.786,-87.752,620,79,58,69,80,58,60,55,57,93,45,70,66,57,62,9,3,76,24,35,9.3,3925,450,4375,421,712,0,0,30.17,30.05,30.12,1021.2,1016.9,1019.4,52,PC,High Clouds,KMDW,O,CST,41.786,-87.752,620,78,79,55,45,64,90,7,75,250,BKN,10,475,62,537,621,683,887,0,0,0,30.12,1019.1,52,PC,High Clouds,28-Sep-14,13
KMDW 29/Dec/2013 16,1288,CHI2013,29-Dec-13,29-Dec-13,29-Dec-13,4:25,16,GB,-3,CHI,61,O,51.5,2013,Week 17,62708,CHI,3,-3,CLE,28,33,Y,61500,0,42,26,0,Chicago,KMDW,KMDW4163716,KMDW,O,29-Dec-13,CST,41.786,-87.752,620,39,13,28,38,2,30,3,22,93,64,77,35,13,27,23,13,315,30,98,8.6,816,169,985,0,551,0,0,30.18,29.77,29.93,1023.7,1008.6,1014.6,40,MC,Overcast,KMDW,O,CST,41.786,-87.752,620,25,12,20,81,23,320,17,100,12,OVC,7,4,1,6,9,10,13,0,0,0,30,1017.1,40,MC,Overcast,29-Dec-13,16
KMDW 29/Sep/2019 16,1289,CHI2019,29-Sep-19,29-Sep-19,29-Sep-19,4:25,16,CHI, PK,MIN,22,U,38.5,2019,Week 4,62131,CHI, PK,PK,HOU,16,6,PK,61500,0,48,34,0,Chicago,KMDW,KMDW4373716,KMDW,O,29-Sep-19,CST,41.783,-87.75,617,69,62,65,69,61,66,59,63,100,84,92,67,61,64,15,9,92,24,94,7.6,2185,445,2631,0,709,0.8,0,30.18,30.08,30.13,1021.8,1018.2,1019.9,18,RAIN,Light Rain,KMDW,O,CST,41.783,-87.75,617,69,69,65,87,67,60,6,100,130,OVC,9,53,18,71,177,195,253,0,0,0,30.11,1019.2,40,MC,Overcast,29-Sep-19,16
KMDW 30/Sep/2018 13,1290,CHI2018,30-Sep-18,30-Sep-18,30-Sep-18,1:00,13,CHI,-3,TB,58,O,46,2018,Week 4,61893,CHI,-3,3,TB,48,10,Y,61500,0,47,71,0,Chicago,KMDW,KMDW4337313,KMDW,O,30-Sep-18,CST,41.783,-87.75,617,68,54,60,67,51,57,46,52,84,65,74,60,50,56,13,8,58,47,98,9.7,2138,439,2577,36,706,0.01,0,30.23,30.14,30.17,1023.6,1020.3,1021.6,40,MC,Overcast,KMDW,O,CST,41.783,-87.75,617,67,67,55,66,60,350,7,100,24,OVC,10,304,61,365,608,669,869,0,0,0,30.14,1020.4,40,MC,Overcast,30-Sep-18,13
KMDW 31/Oct/2016 20,1291,CHI2016,31-Oct-16,31-Oct-16,31-Oct-16,8:30,20,MIN,-5.5,CHI,30,U,39.5,2016,Week 8,60422,CHI,5.5,-5.5,MIN,20,10,Y,61500,0,45,57,0,Chicago,KMDW,KMDW4267420,KMDW,O,31-Oct-16,CST,41.786,-87.752,620,62,44,53,61,39,54,38,44,83,62,71,57,41,48,16,9,157,24,94,10,1775,275,2050,25,623,0,0,30.19,29.87,30.04,1022.7,1011.3,1017.6,50,PC,High Overcast,KMDW,O,CST,41.786,-87.752,620,59,56,49,69,54,160,14,90,250,BKN,10,0,0,0,0,0,0,0,0,0,29.89,1012.4,52,PC,High Clouds,31-Oct-16,20
KMKC 01/Dec/2013 16,1292,KCC2013,1-Dec-13,1-Dec-13,1-Dec-13,4:25,16,DEN,-5.5,KC,63,O,50,2013,Week 13,77065,KC,5.5,-5.5,HOU,28,35,Y,76416,0,41,55,0,Kansas City,KMKC,KMKC4160916,KMKC,O,1-Dec-13,CST,39.123,-94.593,758,57,27,41,56,27,35,25,31,96,44,72,46,26,37,6,1,54,6,13,5.6,2151,217,2368,572,578,0,0,30.15,29.88,30.04,1020.9,1012,1017.3,46,CLR,Fair,KMKC,O,CST,39.123,-94.593,758,56,56,34,44,46,0,0,0,201,CLR,8,55,6,61,55,61,79,0,0,0,29.98,1015.1,46,CLR,Fair,1-Dec-13,16
KMKC 01/Dec/2019 13,1293,KCC2019,1-Dec-19,1-Dec-19,1-Dec-19,1:00,13,KC,-13,OAK,49,O,42,2019,Week 13,73548,KC,-13,13,BAL,40,9,Y,76416,0,47,88,0,Kansas City,KMKC,KMKC4380013,KMKC,O,1-Dec-19,CST,39.117,-94.6,745,38,31,35,38,21,30,21,24,76,55,64,34,28,31,30,19,296,47,98,9.9,1079,217,1296,0,578,0,0,30.14,29.45,29.83,1021.2,997.2,1010.5,40,MC,Overcast,KMKC,O,CST,39.117,-94.6,745,35,25,22,59,30,310,16,100,31,OVC,10,190,38,228,379,417,541,0,0,0,29.86,1011.5,40,MC,Overcast,1-Dec-19,13
KMKC 02/Nov/2014 13,1294,KCC2014,2-Nov-14,2-Nov-14,2-Nov-14,1:00,13,KC,-8.5,NYJ,34,U,41.5,2014,Week 9,74127,KC,-8.5,8.5,CAR,24,10,Y,76416,0,42,64,0,Kansas City,KMKC,KMKC4194513,KMKC,O,2-Nov-14,CST,39.123,-94.593,758,66,49,56,66,45,39,21,31,44,31,37,52,38,45,23,17,185,33,45,10,2863,302,3165,463,628,0,0,30.24,30.01,30.11,1024.2,1016.3,1019.8,46,CLR,Fair,KMKC,O,CST,39.123,-94.593,758,64,62,34,33,50,190,23,0,201,CLR,10,488,49,537,488,537,697,0,0,0,30.07,1018.3,46,CLR,Fair,2-Nov-14,13
KMKC 02/Oct/2017 20,1295,KCC2017,2-Oct-17,2-Oct-17,2-Oct-17,8:30,20,KC,-7,WAS,49,O,48,2017,Week 4,74587,KC,-7,7,WAS,29,20,Y,76416,0,45,59,0,Kansas City,KMKC,KMKC4301020,KMKC,O,2-Oct-17,CST,39.123,-94.593,758,87,69,78,90,69,69,55,65,84,50,64,73,60,69,18,14,165,29,28,10,4049,458,4507,607,703,0,0,29.96,29.86,29.91,1014.6,1011.1,1012.8,46,CLR,Fair,KMKC,O,CST,39.123,-94.593,758,80,83,66,62,71,150,13,0,201,CLR,10,0,0,0,0,0,0,0,0,0,29.91,1012.9,46,CLR,Fair,2-Oct-17,20
KMKC 03/Jan/2016 16,1296,KCC2015,3-Jan-16,3-Jan-16,3-Jan-16,4:25,16,KC,-6.5,OAK,40,U,43.5,2015,Week 17,76114,KC,-6.5,6.5,BUF,23,17,N,76416,0,43,31,0,Kansas City,KMKC,KMKC4237216,KMKC,O,3-Jan-16,CST,39.123,-94.593,758,38,22,30,38,11,24,17,20,85,53,68,32,20,27,13,7,334,13,19,10,1997,204,2201,542,570,0,0,30.47,30.19,30.33,1031.7,1022.5,1027.1,46,CLR,Fair,KMKC,O,CST,39.123,-94.593,758,36,30,22,57,31,350,8,5,161,CLR,10,78,8,86,80,88,114,0,0,0,30.35,1027.6,46,CLR,Fair,3-Jan-16,16
KMKC 03/Nov/2019 13,1297,KCC2019,3-Nov-19,3-Nov-19,3-Nov-19,1:00,13,KC,PK,MIN,49,O,54,2019,Week 9,73615,KC,PK,PK,MIN,26,23,PK,76416,0,47,88,0,Kansas City,KMKC,KMKC4377213,KMKC,O,3-Nov-19,CST,39.117,-94.6,745,63,39,51,62,35,35,25,30,57,31,45,48,34,42,16,11,211,25,3,10,2992,300,3292,626,626,0,0,30.16,29.93,30.03,1021.4,1013.3,1016.8,46,CLR,Fair,KMKC,O,CST,39.117,-94.6,745,59,56,30,33,46,210,16,0,201,CLR,10,483,48,531,483,531,690,0,0,0,29.98,1015.3,46,CLR,Fair,3-Nov-19,13
KMKC 06/Nov/2016 13,1298,KCC2016,6-Nov-16,6-Nov-16,6-Nov-16,1:00,13,KC,-7,JAX,33,U,43,2016,Week 9,73294,KC,-7,7,PHI,19,14,N,76416,0,44,60,0,Kansas City,KMKC,KMKC4268013,KMKC,O,6-Nov-16,CST,39.123,-94.593,758,67,46,56,67,44,46,36,40,80,32,59,53,44,49,9,5,115,9,49,10,2769,284,3053,535,619,0,0,30.28,30.16,30.22,1025.4,1021.5,1023.5,46,CLR,Fair,KMKC,O,CST,39.123,-94.593,758,65,65,40,40,52,370,7,0,201,CLR,10,463,46,509,463,509,661,0,0,0,30.21,1022.9,46,CLR,Fair,6-Nov-16,13
KMKC 06/Oct/2019 13,1299,KCC2019,6-Oct-19,6-Oct-19,6-Oct-19,1:00,13,KC,-4.5,IND,32,U,56,2019,Week 5,73352,KC,-4.5,4.5,JAX,13,19,Y,76416,0,47,53,0,Kansas City,KMKC,KMKC4374413,KMKC,O,6-Oct-19,CST,39.117,-94.6,745,64,47,55,63,48,53,46,49,97,56,82,56,47,52,6,1,240,6,28,9.9,2705,435,3140,293,692,0,0,30.27,30.05,30.18,1025.1,1017.2,1021.9,46,CLR,Fair,KMKC,O,CST,39.117,-94.6,745,60,60,50,70,55,0,0,100,100,OVC,10,96,64,160,643,707,918,0,0,0,30.2,1022.5,40,MC,Overcast,6-Oct-19,13
KMKC 07/Oct/2018 13,1300,KCC2018,7-Oct-18,7-Oct-18,7-Oct-18,1:00,13,KC,-3,JAX,44,U,48,2018,Week 5,75289,KC,-3,3,JAX,30,14,Y,76416,0,46,52,0,Kansas City,KMKC,KMKC4338013,KMKC,O,7-Oct-18,CST,39.117,-94.6,745,68,54,61,67,52,65,52,58,94,84,90,65,53,59,9,5,55,18,100,7.7,2151,430,2583,0,690,2.44,0,30.07,29.88,30,1018,1011.5,1015.7,18,RAIN,Light Rain,KMKC,O,CST,39.117,-94.6,745,64,64,60,87,62,50,6,100,22,OVC,10,318,64,382,637,701,910,0,0,0,29.99,1015.4,40,MC,Overcast,7-Oct-18,13
KMKC 07/Sep/2014 13,1301,KCC2014,7-Sep-14,7-Sep-14,7-Sep-14,1:00,13,KC,-3,TEN,36,U,45,2014,Week 1,73569,KC,-3,3,LAC,10,26,Y,76416,0,42,77,0,Kansas City,KMKC,KMKC4188913,KMKC,O,7-Sep-14,CST,39.123,-94.593,758,79,57,68,79,57,56,52,54,90,40,63,64,55,60,9,5,111,9,0,10,5939,594,6533,766,766,0,0,30.21,30.05,30.13,1023,1017.6,1020.5,46,CLR,Fair,KMKC,O,CST,39.123,-94.593,758,77,78,54,45,63,80,6,0,201,CLR,10,807,81,888,807,888,1153,0,0,0,30.14,1020.7,46,CLR,Fair,7-Sep-14,13
KMKC 08/Dec/2016 20,1302,KCC2016,8-Dec-16,8-Dec-16,8-Dec-16,8:25,20,KC,-3.5,OAK,34,U,46,2016,Week 14,75191,KC,-3.5,3.5,CLE,21,13,Y,76416,0,44,23,0,Kansas City,KMKC,KMKC4271220,KMKC,O,8-Dec-16,CST,39.123,-94.593,758,27,16,21,27,3,11,6,9,68,51,59,22,14,18,14,8,297,22,0,10,2034,204,2238,571,571,0,0,30.7,30.52,30.64,1039.5,1033.4,1037.4,46,CLR,Fair,KMKC,O,CST,39.123,-94.593,758,22,22,10,60,19,270,3,0,201,CLR,10,0,0,0,0,0,0,0,0,0,30.7,1039.5,46,CLR,Fair,8-Dec-16,20
KMKC 09/Dec/2018 13,1303,KCC2018,9-Dec-18,9-Dec-18,9-Dec-18,1:00,13,KC,-6.5,BAL,51,O,49,2018,Week 14,74336,KC,-6.5,6.5,BAL,27,24,N,76416,0,46,47,0,Kansas City,KMKC,KMKC4344313,KMKC,O,9-Dec-18,CST,39.117,-94.6,745,38,17,28,38,10,21,13,17,85,41,65,31,17,24,6,2,43,7,25,9.4,2030,203,2233,565,570,0,0,30.42,30.32,30.36,1031,1027.3,1029.1,46,CLR,Fair,KMKC,O,CST,39.117,-94.6,745,33,33,15,48,27,0,0,0,248,CLR,10,366,37,403,366,403,522,0,0,0,30.36,1028.9,46,CLR,Fair,9-Dec-18,13
KMKC 10/Dec/2017 13,1304,KCC2017,10-Dec-17,10-Dec-17,10-Dec-17,1:00,13,KC,-4.5,OAK,41,U,48.5,2017,Week 14,74461,KC,-4.5,4.5,OAK,26,15,Y,76416,0,45,63,0,Kansas City,KMKC,KMKC4307913,KMKC,O,10-Dec-17,CST,39.123,-94.593,758,58,27,42,57,22,28,19,24,70,29,51,44,25,35,14,6,270,20,0,10,2023,201,2224,569,569,0,0,30.14,30.06,30.11,1021.2,1018.2,1020,46,CLR,Fair,KMKC,O,CST,39.123,-94.593,758,55,53,26,33,43,300,9,0,201,CLR,10,364,36,400,364,400,521,0,0,0,30.11,1019.8,46,CLR,Fair,10-Dec-17,13
KMKC 11/Nov/2018 13,1305,KCC2018,11-Nov-18,11-Nov-18,11-Nov-18,1:00,13,KC,-16,ARI,40,U,49.5,2018,Week 10,76712,KC,-16,16,ARI,26,14,N,76416,0,46,32,0,Kansas City,KMKC,KMKC4341513,KMKC,O,11-Nov-18,CST,39.117,-94.6,745,50,29,39,49,23,30,20,26,73,43,58,40,26,34,18,5,345,24,45,9.9,2533,269,2802,446,609,0,0,30.35,30.18,30.24,1028.2,1022.6,1024.5,46,CLR,Fair,KMKC,O,CST,39.117,-94.6,745,49,46,27,43,40,370,7,0,205,CLR,10,445,45,490,445,490,636,0,0,0,30.21,1023.3,46,CLR,Fair,11-Nov-18,13
KMKC 11/Oct/2015 13,1306,KCC2015,11-Oct-15,11-Oct-15,11-Oct-15,1:00,13,KC,-9.5,CHI,35,U,44.5,2015,Week 5,75799,KC,-9.5,9.5,NYG,17,18,N,76416,0,43,80,0,Kansas City,KMKC,KMKC4228813,KMKC,O,11-Oct-15,CST,39.123,-94.593,758,86,60,73,87,59,62,49,56,67,42,56,69,54,62,16,11,201,21,1,10,4083,408,4492,676,680,0,0,29.92,29.61,29.74,1013.1,1002.7,1007,46,CLR,Fair,KMKC,O,CST,39.123,-94.593,758,81,82,58,46,67,200,12,0,201,CLR,10,613,61,674,613,674,875,0,0,0,29.7,1005.9,46,CLR,Fair,11-Oct-15,13
KMKC 11/Sep/2016 13,1307,KCC2016,11-Sep-16,11-Sep-16,11-Sep-16,1:00,13,KC,-6.5,LAC,60,O,46,2016,Week 1,73238,KC,-6.5,6.5,PIT,33,27,N,76416,0,44,73,0,Kansas City,KMKC,KMKC4262413,KMKC,O,11-Sep-16,CST,39.123,-94.593,758,79,57,69,79,57,57,51,54,90,41,61,64,54,60,15,7,181,22,0,10,5673,567,6240,755,755,0,0,30.2,30,30.11,1022.6,1015.8,1019.6,46,CLR,Fair,KMKC,O,CST,39.123,-94.593,758,77,78,53,44,63,180,10,0,201,CLR,10,782,78,860,782,860,1117,0,0,0,30.11,1019.8,46,CLR,Fair,11-Sep-16,13
KMKC 13/Dec/2015 13,1308,KCC2015,13-Dec-15,13-Dec-15,13-Dec-15,1:00,13,KC,-12,LAC,13,U,41.5,2015,Week 14,72314,KC,-12,12,HOU,10,3,N,76416,0,43,60,0,Kansas City,KMKC,KMKC4235113,KMKC,O,13-Dec-15,CST,39.123,-94.593,758,65,47,60,65,43,61,44,57,97,81,90,63,47,59,17,9,164,24,100,8.1,998,199,1198,0,567,1.19,0,29.68,29.29,29.45,1005.1,991.8,997.2,18,RAIN,Light Rain,KMKC,O,CST,39.123,-94.593,758,61,60,60,97,60,80,7,100,14,OVC,7,181,36,217,362,398,517,99,0.07,0,29.39,995.2,18,RAIN,Light Rain,13-Dec-15,13
KMKC 13/Dec/2018 20,1309,KCC2018,13-Dec-18,13-Dec-18,13-Dec-18,8:20,20,KC,-3.5,LAC,57,O,54.5,2018,Week 15,75091,KC,-3.5,3.5,LAC,28,29,N,76416,0,46,53,0,Kansas City,KMKC,KMKC4344720,KMKC,O,13-Dec-18,CST,39.117,-94.6,745,49,37,42,49,30,39,31,35,86,54,73,43,35,39,12,7,353,12,100,9.8,1000,199,1198,2,567,0,0,30.1,29.84,29.94,1019.8,1011,1014.2,40,MC,Overcast,KMKC,O,CST,39.117,-94.6,745,39,35,32,76,36,340,5,100,15,OVC,10,0,0,0,0,0,0,0,0,0,30.04,1017.7,40,MC,Overcast,13-Dec-18,20
KMKC 13/Oct/2013 13,1310,KCC2013,13-Oct-13,13-Oct-13,13-Oct-13,1:00,13,KC,-8,OAK,31,U,41,2013,Week 6,76394,KC,-8,8,KC,24,7,Y,76416,0,41,70,0,Kansas City,KMKC,KMKC4156013,KMKC,O,13-Oct-13,CST,39.123,-94.593,758,71,45,57,71,45,44,35,39,90,28,56,54,44,49,14,5,70,21,3,10,3983,398,4381,673,675,0,0,30.41,30.28,30.33,1029.7,1025.5,1027,46,CLR,Fair,KMKC,O,CST,39.123,-94.593,758,70,70,35,28,53,80,13,0,201,CLR,10,600,60,660,600,660,858,0,0,0,30.35,1027.9,46,CLR,Fair,13-Oct-13,13
KMKC 13/Oct/2019 13,1311,KCC2019,13-Oct-19,13-Oct-19,13-Oct-19,1:00,13,KC,-7,HOU,55,O,60,2019,Week 6,73323,KC,-7,7,HOU,24,31,N,76416,0,47,50,0,Kansas City,KMKC,KMKC4375113,KMKC,O,13-Oct-19,CST,39.117,-94.6,745,64,38,51,64,39,42,28,35,89,28,58,49,38,44,7,3,263,7,0,10,3985,398,4383,675,675,0,0,30.02,29.92,29.97,1016.5,1013.1,1014.7,46,CLR,Fair,KMKC,O,CST,39.117,-94.6,745,61,61,28,29,46,220,6,0,201,CLR,10,601,60,661,601,661,858,0,0,0,29.97,1014.8,46,CLR,Fair,13-Oct-19,13
KMKC 14/Dec/2014 13,1312,KCC2014,14-Dec-14,14-Dec-14,14-Dec-14,1:00,13,KC,-11,OAK,44,O,41.5,2014,Week 15,72153,KC,-11,11,CAR,31,13,Y,76416,0,42,60,0,Kansas City,KMKC,KMKC4198713,KMKC,O,14-Dec-14,CST,39.123,-94.593,758,65,51,58,64,52,52,49,51,90,63,77,57,53,55,15,12,168,25,92,8.1,1045,199,1243,30,567,0.64,0,29.98,29.7,29.88,1015.4,1005.8,1012,40,MC,Overcast,KMKC,O,CST,39.123,-94.593,758,62,60,52,70,56,170,14,100,38,OVC,10,180,36,216,361,397,516,99,0.01,0,29.89,1012.1,18,RAIN,Light Rain,14-Dec-14,13
KMKC 15/Dec/2019 13,1313,KCC2019,15-Dec-19,15-Dec-19,15-Dec-19,1:00,13,KC,-9.5,DEN,26,O,44,2019,Week 15,73257,KC,-9.5,9.5,CAR,23,3,Y,76416,0,47,72,0,Kansas City,KMKC,KMKC4381413,KMKC,O,15-Dec-19,CST,39.117,-94.6,745,26,23,25,25,14,21,16,19,86,69,79,24,22,23,12,8,43,17,100,5.8,993,199,1191,0,567,0.13,2.7,30.1,29.95,30.03,1020.5,1015.1,1017.9,18,SHWR,Light Rain,KMKC,O,CST,39.117,-94.6,745,25,15,21,86,24,50,9,100,24,OVC,1,180,36,216,361,397,515,99,0,0.1,29.97,1016.2,9,SNOW,Light Snow,15-Dec-19,13
KMKC 15/Oct/2017 16,1314,KCC2017,15-Oct-17,15-Oct-17,15-Oct-17,4:25,16,KC,-3.5,PIT,32,U,46,2017,Week 6,76994,KC,-3.5,3.5,PIT,13,19,Y,76416,0,45,57,0,Kansas City,KMKC,KMKC4302316,KMKC,O,15-Oct-17,CST,39.123,-94.593,758,62,47,54,62,44,47,35,42,90,39,65,53,46,48,16,9,314,29,25,10,3573,388,3961,592,670,0,0,30.37,30.06,30.28,1028.6,1017.9,1025.5,46,CLR,Fair,KMKC,O,CST,39.123,-94.593,758,62,60,37,40,50,290,13,0,201,CLR,10,191,19,210,191,210,273,0,0,0,30.32,1026.6,46,CLR,Fair,15-Oct-17,16
KMKC 15/Sep/2013 13,1315,KCC2013,15-Sep-13,15-Sep-13,15-Sep-13,1:00,13,KC,-3,DAL,33,U,45.5,2013,Week 2,76952,KC,-3,3,SF,17,16,N,76416,0,41,79,0,Kansas City,KMKC,KMKC4153213,KMKC,O,15-Sep-13,CST,39.123,-94.593,758,86,63,72,87,62,66,50,59,90,46,63,71,58,64,17,10,182,23,59,8.8,3935,552,4486,282,746,0.49,0,30.17,29.91,30,1021.3,1013,1015.9,46,CLR,Fair,KMKC,O,CST,39.123,-94.593,758,79,81,63,58,69,370,3,5,75,FEW,10,746,77,823,765,842,1093,0,0,0,29.97,1015,45,CLR,Mostly Clear,15-Sep-13,13
KMKC 16/Dec/2017 20,1316,KCC2017,16-Dec-17,16-Dec-17,16-Dec-17,8:25,20,KC,PK,LAC,43,U,47,2017,Week 15,75011,KC,PK,PK,LAC,30,13,PK,76416,0,45,35,0,Kansas City,KMKC,KMKC4308520,KMKC,O,16-Dec-17,CST,39.123,-94.593,758,62,38,49,61,31,28,23,26,55,27,41,46,33,39,17,11,208,28,22,10,1979,198,2177,566,566,0,0,29.97,29.86,29.91,1014.9,1011.1,1012.8,46,CLR,Fair,KMKC,O,CST,39.123,-94.593,758,50,47,26,39,40,200,8,100,301,OVC,10,0,0,0,0,0,0,0,0,0,29.95,1014.2,50,PC,High Overcast,16-Dec-17,20
KMKC 16/Nov/2014 13,1317,KCC2014,16-Nov-14,16-Nov-14,16-Nov-14,1:00,13,SEA,-1,KC,44,O,43.5,2014,Week 11,76463,KC,1,-1,CLE,24,20,Y,76416,0,42,21,0,Kansas City,KMKC,KMKC4195913,KMKC,O,16-Nov-14,CST,39.123,-94.593,758,32,18,24,32,7,27,8,13,88,48,66,29,16,21,13,7,294,20,44,8.9,2261,252,2513,413,600,0,0,30.25,30.13,30.18,1024.3,1020.2,1022,46,CLR,Fair,KMKC,O,CST,39.123,-94.593,758,21,9,10,62,18,280,12,22,301,SCT,10,377,42,419,424,466,606,0,0,0,30.19,1022.5,46,CLR,Fair,16-Nov-14,13
KMKC 17/Sep/2015 20,1318,KCC2015,17-Sep-15,17-Sep-15,17-Sep-15,8:25,20,KC,-3,DEN,55,O,42,2015,Week 2,76404,KC,-3,3,SEA,24,31,Y,76416,0,43,80,0,Kansas City,KMKC,KMKC4226420,KMKC,O,17-Sep-15,CST,39.123,-94.593,758,92,76,83,100,76,72,67,69,74,50,64,77,70,74,22,15,193,31,32,10,4920,540,5460,450,741,0,0,29.9,29.74,29.81,1012.4,1007.1,1009.6,46,CLR,Fair,KMKC,O,CST,39.123,-94.593,758,84,89,71,65,75,190,10,71,301,BKN,10,0,0,0,0,0,0,0,0,0,29.78,1008.4,46,CLR,Fair,17-Sep-15,20
KMKC 17/Sep/2017 13,1319,KCC2017,17-Sep-17,17-Sep-17,17-Sep-17,1:00,13,KC,-4.5,PHI,47,P,47,2017,Week 2,74971,KC,-4.5,4.5,SF,27,20,Y,76416,0,45,25,0,Kansas City,KMKC,KMKC4299513,KMKC,O,17-Sep-17,CST,39.123,-94.593,758,77,65,70,80,64,67,64,65,97,64,87,69,64,67,17,7,25,25,88,9.5,3396,540,3936,144,741,0.36,0,30.17,30.01,30.09,1021.1,1015.4,1018.5,40,MC,Overcast,KMKC,O,CST,39.123,-94.593,758,70,70,65,84,67,130,7,100,34,OVC,10,377,75,452,754,829,1078,0,0,0,30.15,1020.3,40,MC,Overcast,17-Sep-17,13
KMKC 18/Dec/2016 13,1320,KCC2016,18-Dec-16,18-Dec-16,18-Dec-16,1:00,13,KC,-6,TEN,36,U,43.5,2016,Week 15,68084,KC,-6,6,LAR,17,19,N,76416,0,44,2,0,Kansas City,KMKC,KMKC4272213,KMKC,O,18-Dec-16,CST,39.123,-94.593,758,10,-5,3,10,-19,-3,-12,-7,72,52,64,8,-6,2,14,6,288,22,67,10,1768,196,1965,360,565,0,0,30.79,30.44,30.68,1042.7,1030.7,1038.9,46,CLR,Fair,KMKC,O,CST,39.123,-94.593,758,5,5,-5,63,3,0,0,0,201,CLR,10,360,36,396,360,396,514,0,0,0,30.71,1039.8,46,CLR,Fair,18-Dec-16,13
KMKC 20/Nov/2016 13,1321,KCC2016,20-Nov-16,20-Nov-16,20-Nov-16,1:00,13,KC,-7,TB,36,U,45,2016,Week 11,72277,KC,-7,7,NYJ,17,19,N,76416,0,44,43,0,Kansas City,KMKC,KMKC4269413,KMKC,O,20-Nov-16,CST,39.123,-94.593,758,52,26,39,52,20,27,21,24,89,35,58,41,26,33,12,6,108,12,54,10,2288,239,2527,532,592,0,0,30.44,30.16,30.3,1030.8,1021.3,1026,46,CLR,Fair,KMKC,O,CST,39.123,-94.593,758,49,45,25,39,39,140,9,0,191,CLR,10,406,41,447,406,447,580,0,0,0,30.27,1025,46,CLR,Fair,20-Nov-16,13
KMKC 20/Oct/2013 16,1322,KCC2013,20-Oct-13,20-Oct-13,20-Oct-13,4:25,16,KC,-7,HOU,33,U,39,2013,Week 7,74118,KC,-7,7,JAX,17,16,N,76416,0,41,70,0,Kansas City,KMKC,KMKC4156716,KMKC,O,20-Oct-13,CST,39.123,-94.593,758,72,46,58,70,45,46,37,41,75,34,55,55,43,49,14,7,223,23,28,10,3319,363,3682,521,658,0,0,29.95,29.77,29.84,1014.1,1008.2,1010.6,46,CLR,Fair,KMKC,O,CST,39.123,-94.593,758,69,69,41,36,54,210,13,41,166,CLR,10,133,17,150,167,184,238,0,0,0,29.78,1008.4,46,CLR,Fair,20-Oct-13,16
KMKC 21/Oct/2018 20,1323,KCC2018,21-Oct-18,21-Oct-18,21-Oct-18,8:20,20,KC,-6.5,CIN,55,U,56.5,2018,Week 7,75676,KC,-6.5,6.5,CIN,45,10,Y,76416,0,46,84,0,Kansas City,KMKC,KMKC4339420,KMKC,O,21-Oct-18,CST,39.117,-94.6,745,65,35,51,65,31,39,23,32,62,34,48,52,32,42,14,8,189,14,30,10,3571,357,3929,630,655,0,0,30.42,30.11,30.26,1030,1019.4,1024.8,46,CLR,Fair,KMKC,O,CST,39.117,-94.6,745,56,54,39,53,48,200,9,25,369,CLR,10,0,0,0,0,0,0,0,0,0,30.11,1019.6,46,CLR,Fair,21-Oct-18,20
KMKC 22/Dec/2013 13,1324,KCC2013,22-Dec-13,22-Dec-13,22-Dec-13,1:00,13,KC,-7.5,IND,30,U,47,2013,Week 16,75396,KC,-7.5,7.5,DEN,7,23,Y,76416,0,41,25,0,Kansas City,KMKC,KMKC4163013,KMKC,O,22-Dec-13,CST,39.123,-94.593,758,26,18,22,26,11,22,8,16,88,71,77,25,14,21,14,8,318,22,66,5.9,982,197,1180,60,565,0.01,0.1,30.39,29.77,30.11,1030,1008,1019.7,35,HAZY,Haze,KMKC,O,CST,39.123,-94.593,758,25,16,18,75,23,310,9,100,16,OVC,6,180,36,216,361,397,516,0,0,0,30.14,1020.5,35,HAZY,Haze,22-Dec-13,13
KMKC 22/Sep/2019 13,1325,KCC2019,22-Sep-19,22-Sep-19,22-Sep-19,1:00,13,KC,-4.5,BAL,61,O,52,2019,Week 3,73390,KC,-4.5,4.5,ARI,33,28,Y,76416,0,47,35,0,Kansas City,KMKC,KMKC4373013,KMKC,O,22-Sep-19,CST,39.117,-94.6,745,82,63,71,85,65,72,60,65,94,71,82,74,63,68,15,7,227,33,69,8.6,2636,513,3151,114,727,2.5,0,30.04,29.82,29.91,1016.7,1009.1,1012.1,42,MC,Mostly Cloudy,KMKC,O,CST,39.117,-94.6,745,77,81,70,79,72,180,8,100,60,SCT,10,312,73,385,726,799,1037,0,0,0,29.84,1009.7,42,MC,Mostly Cloudy,22-Sep-19,13
KMKC 23/Oct/2016 13,1326,KCC2016,23-Oct-16,23-Oct-16,23-Oct-16,1:00,13,KC,-6.5,NO,48,U,51.5,2016,Week 7,76282,KC,-6.5,6.5,DET,27,21,N,76416,0,44,69,0,Kansas City,KMKC,KMKC4266613,KMKC,O,23-Oct-16,CST,39.123,-94.593,758,76,53,65,77,54,53,45,48,87,40,57,61,51,56,12,5,233,18,1,10,3430,344,3774,651,651,0,0,30.21,29.96,30.06,1023.1,1014.7,1017.8,46,CLR,Fair,KMKC,O,CST,39.123,-94.593,758,74,76,49,41,60,370,3,0,201,CLR,10,536,54,590,536,590,766,0,0,0,30.02,1016.7,46,CLR,Fair,23-Oct-16,13
KMKC 23/Sep/2018 13,1327,KCC2018,23-Sep-18,23-Sep-18,23-Sep-18,1:00,13,KC,-6,SF,65,O,53.5,2018,Week 3,76023,KC,-6,6,SF,38,27,Y,76416,0,46,44,0,Kansas City,KMKC,KMKC4336613,KMKC,O,23-Sep-18,CST,39.117,-94.6,745,82,57,69,81,57,59,49,54,87,34,61,64,55,60,12,6,116,12,4,10,5063,509,5572,712,725,0,0,30.11,29.95,30.03,1019.1,1013.8,1016.4,46,CLR,Fair,KMKC,O,CST,39.117,-94.6,745,78,79,53,42,63,120,9,0,235,CLR,10,720,72,792,720,792,1029,0,0,0,30.03,1016.5,46,CLR,Fair,23-Sep-18,13
KMKC 24/Dec/2017 13,1328,KCC2017,24-Dec-17,24-Dec-17,24-Dec-17,1:00,13,KC,-11,MIA,42,U,43.5,2017,Week 16,65325,KC,-11,11,TB,29,13,Y,76416,0,45,31,0,Kansas City,KMKC,KMKC4309313,KMKC,O,24-Dec-17,CST,39.123,-94.593,758,27,21,23,26,10,18,9,13,85,51,66,22,19,21,16,9,298,25,64,8.7,1197,197,1396,200,565,0,1.1,30.4,30.24,30.32,1030.4,1024.8,1027.7,46,CLR,Fair,KMKC,O,CST,39.123,-94.593,758,25,13,14,63,22,320,13,100,34,SCT,10,181,36,217,362,398,518,0,0,0,30.32,1027.7,40,MC,Overcast,24-Dec-17,13
KMKC 24/Nov/2013 13,1329,KCC2013,24-Nov-13,24-Nov-13,24-Nov-13,1:00,13,KC,-3.5,LAC,79,O,43.5,2013,Week 12,75259,KC,-3.5,3.5,ATL,38,41,N,76416,0,41,28,0,Kansas City,KMKC,KMKC4160213,KMKC,O,24-Nov-13,CST,39.123,-94.593,758,30,13,23,30,4,12,3,7,67,31,53,23,12,18,10,6,148,10,52,10,1768,231,1999,308,586,0,0,30.8,30.37,30.62,1043.1,1028.6,1036.9,46,CLR,Fair,KMKC,O,CST,39.123,-94.593,758,28,22,4,35,22,370,5,37,301,BKN,10,324,40,364,397,437,567,0,0,0,30.61,1036.7,46,CLR,Fair,24-Nov-13,13
KMKC 25/Dec/2016 20,1330,KCC2016,25-Dec-16,25-Dec-16,25-Dec-16,8:30,20,KC,-3,DEN,43,O,38,2016,Week 16,76671,KC,-3,3,MIA,33,10,Y,76416,0,44,60,0,Kansas City,KMKC,KMKC4272920,KMKC,O,25-Dec-16,CST,39.123,-94.593,758,67,40,53,67,35,59,40,49,100,65,87,62,40,51,18,11,143,30,91,6.8,1045,198,1245,18,566,0.2,0,30.09,29.67,29.87,1019.1,1004.8,1011.5,18,RAIN,Light Rain,KMKC,O,CST,39.123,-94.593,758,53,51,46,77,49,240,8,100,55,OVC,10,0,0,0,0,0,0,99,0.03,0,29.76,1007.9,18,RAIN,Light Rain,25-Dec-16,20
KMKC 25/Oct/2015 13,1331,KCC2015,25-Oct-15,25-Oct-15,25-Oct-15,1:00,13,KC,-3.5,PIT,36,U,41.5,2015,Week 7,76365,KC,-3.5,3.5,TB,23,13,Y,76416,0,43,64,0,Kansas City,KMKC,KMKC4230213,KMKC,O,25-Oct-15,CST,39.123,-94.593,758,66,39,53,66,40,44,35,39,96,33,65,52,39,46,10,4,73,10,0,10,3383,338,3721,646,646,0,0,30.37,30.26,30.3,1028.4,1024.6,1025.9,46,CLR,Fair,KMKC,O,CST,39.123,-94.593,758,64,64,39,40,52,80,10,0,201,CLR,10,530,53,583,530,583,757,0,0,0,30.29,1025.8,46,CLR,Fair,25-Oct-15,13
KMKC 25/Sep/2016 16,1332,KCC2016,25-Sep-16,25-Sep-16,25-Sep-16,4:25,16,KC,-3,NYJ,27,U,44.5,2016,Week 3,71587,KC,-3,3,KC,24,3,Y,76416,0,44,65,0,Kansas City,KMKC,KMKC4263816,KMKC,O,25-Sep-16,CST,39.123,-94.593,758,71,61,67,71,63,69,54,60,94,68,81,70,58,64,13,6,281,20,82,9.9,2580,492,3073,4,721,0.18,0,30.2,30,30.11,1022.3,1014.9,1019,50,PC,High Overcast,KMKC,O,CST,39.123,-94.593,758,66,66,55,68,60,300,6,100,120,BKN,10,225,30,255,298,328,425,0,0,0,30.12,1019.3,42,MC,Mostly Cloudy,25-Sep-16,16
KMKC 26/Nov/2017 13,1333,KCC2017,26-Nov-17,26-Nov-17,26-Nov-17,1:00,13,KC,-9,BUF,26,U,47,2017,Week 12,74929,KC,-9,9,BUF,10,16,N,76416,0,45,47,0,Kansas City,KMKC,KMKC4306513,KMKC,O,26-Nov-17,CST,39.123,-94.593,758,67,36,51,66,37,37,29,32,86,25,53,50,35,42,18,5,210,25,33,10,1556,224,1779,319,583,0,0,30.26,30.05,30.17,1024.9,1017.5,1021.6,46,CLR,Fair,KMKC,O,CST,39.123,-94.593,758,64,63,32,30,49,210,13,100,301,OVC,10,196,39,234,391,430,559,0,0,0,30.16,1021.4,50,PC,High Overcast,26-Nov-17,13
KMKC 26/Oct/2014 13,1334,KCC2014,26-Oct-14,26-Oct-14,26-Oct-14,1:00,13,KC,-7,LAR,41,U,44,2014,Week 8,75972,KC,-7,7,DET,34,7,Y,76416,0,42,85,0,Kansas City,KMKC,KMKC4193813,KMKC,O,26-Oct-14,CST,39.123,-94.593,758,87,56,72,87,55,61,50,55,81,32,58,69,53,62,22,12,175,36,4,9.9,3317,333,3650,634,644,0,0,29.97,29.6,29.76,1014.8,1002.3,1007.9,46,CLR,Fair,KMKC,O,CST,39.123,-94.593,758,85,85,59,42,69,170,15,0,201,CLR,10,525,52,577,525,577,749,0,0,0,29.71,1006,46,CLR,Fair,26-Oct-14,13
KMKC 27/Dec/2015 13,1335,KCC2015,27-Dec-15,27-Dec-15,27-Dec-15,1:00,13,KC,-11.5,CLE,30,U,42.5,2015,Week 16,69115,KC,-11.5,11.5,DAL,17,13,N,76416,0,43,34,0,Kansas City,KMKC,KMKC4236513,KMKC,O,27-Dec-15,CST,39.123,-94.593,758,37,33,34,37,22,32,26,28,89,72,80,35,31,32,21,17,189,31,100,9.4,991,198,1190,0,566,0.04,0,30.35,30.13,30.26,1027.7,1020.2,1024.7,40,MC,Overcast,KMKC,O,CST,39.123,-94.593,758,35,25,28,76,32,200,16,100,21,OVC,10,182,36,218,365,401,521,0,0,0,30.3,1026.2,40,MC,Overcast,27-Dec-15,13
KMKC 27/Oct/2013 13,1336,KCC2013,27-Oct-13,27-Oct-13,27-Oct-13,1:00,13,KC,-7,CLE,40,O,39,2013,Week 8,74307,KC,-7,7,BAL,23,17,N,76416,0,41,61,0,Kansas City,KMKC,KMKC4157413,KMKC,O,27-Oct-13,CST,39.123,-94.593,758,64,33,48,64,34,36,29,31,89,28,58,48,33,41,13,4,204,13,0,9.2,3291,331,3622,642,642,0,0,30.15,29.95,30.04,1021,1014.1,1017.4,46,CLR,Fair,KMKC,O,CST,39.123,-94.593,758,61,60,30,31,47,200,10,0,201,CLR,10,519,52,571,519,571,742,0,0,0,30.01,1016.4,46,CLR,Fair,27-Oct-13,13
KMKC 27/Oct/2019 13,1337,KCC2019,27-Oct-19,27-Oct-19,27-Oct-19,1:00,13,KC,-7,GB,55,O,54.5,2019,Week 8,73558,KC,-7,7,LAR,24,31,N,76416,0,47,85,0,Kansas City,KMKC,KMKC4376513,KMKC,O,27-Oct-19,CST,39.117,-94.6,745,59,40,48,58,41,42,35,39,96,54,73,50,40,44,15,6,342,22,25,9.5,3288,331,3619,559,642,0,0,30.09,29.79,29.95,1019,1008.9,1014.3,46,CLR,Fair,KMKC,O,CST,39.117,-94.6,745,56,55,41,57,49,370,6,0,201,CLR,10,519,52,571,519,571,742,0,0,0,29.95,1014.3,46,CLR,Fair,27-Oct-19,13
KMKC 28/Dec/2014 13,1338,KCC2014,28-Dec-14,28-Dec-14,28-Dec-14,1:00,13,KC,-3,LAC,26,U,42,2014,Week 17,73952,KC,-3,3,MIA,19,7,Y,76416,0,42,37,0,Kansas City,KMKC,KMKC4200113,KMKC,O,28-Dec-14,CST,39.123,-94.593,758,41,19,31,41,13,23,16,19,89,38,64,33,19,26,8,4,212,8,25,9.9,1973,199,2172,501,567,0,0,30.29,30.15,30.23,1025.8,1021.1,1023.7,46,CLR,Fair,KMKC,O,CST,39.123,-94.593,758,38,33,17,43,31,220,6,0,201,CLR,10,366,37,403,366,403,523,0,0,0,30.2,1022.7,46,CLR,Fair,28-Dec-14,13
KMKC 28/Oct/2018 13,1339,KCC2018,28-Oct-18,28-Oct-18,28-Oct-18,1:00,13,KC,-9,DEN,53,P,53,2018,Week 8,77103,KC,-9,9,DEN,30,23,N,76416,0,46,50,0,Kansas City,KMKC,KMKC4340113,KMKC,O,28-Oct-18,CST,39.117,-94.6,745,67,45,57,66,46,45,30,38,79,27,52,53,43,49,14,7,307,29,7,10,3247,324,3571,640,640,0,0,30.13,29.86,30.05,1019.9,1010.7,1017.4,46,CLR,Fair,KMKC,O,CST,39.117,-94.6,745,65,64,33,31,50,330,14,0,201,CLR,10,514,51,565,514,565,734,0,0,0,30.1,1018.8,46,CLR,Fair,28-Oct-18,13
KMKC 29/Nov/2015 13,1340,KCC2015,29-Nov-15,29-Nov-15,29-Nov-15,1:00,13,KC,-4.5,BUF,52,O,41,2015,Week 12,72493,KC,-4.5,4.5,CAR,30,22,Y,76416,0,43,34,0,Kansas City,KMKC,KMKC4233713,KMKC,O,29-Nov-15,CST,39.123,-94.593,758,37,34,36,37,26,35,32,34,97,89,92,36,33,35,12,8,42,12,100,7.1,1094,219,1314,0,579,0.36,0,30.35,30.14,30.26,1027.7,1020.8,1024.6,18,RAIN,Light Rain,KMKC,O,CST,39.123,-94.593,758,36,30,34,93,35,60,8,100,9,OVC,3,192,38,230,383,421,547,99,0.06,0,30.24,1024,19,RAIN,Moderate Rain,29-Nov-15,13
KMKC 29/Sep/2013 13,1341,KCC2013,29-Sep-13,29-Sep-13,29-Sep-13,1:00,13,KC,-3.5,NYG,38,U,44,2013,Week 4,73386,KC,-3.5,3.5,BUF,31,7,Y,76416,0,41,73,0,Kansas City,KMKC,KMKC4154613,KMKC,O,29-Sep-13,CST,39.123,-94.593,758,75,52,63,76,52,54,46,50,100,37,68,59,51,56,8,2,127,8,12,6.8,4628,474,5102,650,710,0,0,30.11,29.93,30.03,1019.6,1013.6,1016.7,46,CLR,Fair,KMKC,O,CST,39.123,-94.593,758,73,76,46,38,58,70,6,0,201,CLR,10,685,68,753,685,753,978,0,0,0,30.02,1016.5,46,CLR,Fair,29-Sep-13,13
KMKC 29/Sep/2014 20,1342,KCC2014,29-Sep-14,29-Sep-14,29-Sep-14,8:30,20,NE,-3,KC,55,O,45.5,2014,Week 4,76613,KC,3,-3,NE,41,14,Y,76416,0,42,72,0,Kansas City,KMKC,KMKC4191120,KMKC,O,29-Sep-14,CST,39.123,-94.593,758,86,61,73,85,61,63,57,60,93,40,68,68,59,65,7,2,106,7,7,8.2,4602,474,5076,656,710,0,0,30.07,29.92,29.99,1018.3,1013.2,1015.7,46,CLR,Fair,KMKC,O,CST,39.123,-94.593,758,72,72,60,66,65,70,5,8,216,CLR,10,0,0,0,0,0,0,0,0,0,29.93,1013.4,46,CLR,Fair,29-Sep-14,20
KMKC 30/Dec/2018 16,1343,KCC2018,30-Dec-18,30-Dec-18,30-Dec-18,4:25,16,KC,-14,OAK,38,U,53.5,2018,Week 17,77550,KC,-14,14,OAK,35,3,Y,76416,0,46,47,0,Kansas City,KMKC,KMKC4346416,KMKC,O,30-Dec-18,CST,39.117,-94.6,745,45,20,34,45,12,26,12,20,71,44,59,37,18,28,15,8,185,23,61,10,1814,202,2017,312,568,0,0,30.19,29.84,29.98,1023.4,1011,1016.1,46,CLR,Fair,KMKC,O,CST,39.117,-94.6,745,43,36,24,47,36,180,13,90,357,CLR,10,40,7,47,72,79,103,0,0,0,29.89,1012.8,46,CLR,Fair,30-Dec-18,16
KMKC 30/Nov/2014 20,1344,KCC2014,30-Nov-14,30-Nov-14,30-Nov-14,8:30,20,KC,PK,DEN,45,U,49.5,2014,Week 13,76894,KC,PK,PK,CLE,16,29,PK,76416,0,42,25,0,Kansas City,KMKC,KMKC4197320,KMKC,O,30-Nov-14,CST,39.123,-94.593,758,57,23,35,57,11,44,9,23,86,48,64,51,20,32,17,13,357,26,46,9.2,1321,218,1538,202,578,0,0,30.46,29.58,30.04,1032.4,1001.6,1017.2,46,CLR,Fair,KMKC,O,CST,39.123,-94.593,758,26,16,10,51,22,350,10,41,301,BKN,10,0,0,0,0,0,0,0,0,0,30.36,1028,46,CLR,Fair,30-Nov-14,20
KMKC 30/Oct/2017 20,1345,KCC2017,30-Oct-17,30-Oct-17,30-Oct-17,8:30,20,KC,-7,DEN,48,O,42,2017,Week 8,76573,KC,-7,7,DEN,29,19,Y,76416,0,45,67,0,Kansas City,KMKC,KMKC4303820,KMKC,O,30-Oct-17,CST,39.123,-94.593,758,53,39,48,53,33,43,20,27,74,31,46,47,33,40,21,13,326,32,61,10,2519,315,2834,342,635,0,0,30.24,29.83,30.04,1024.3,1009.9,1017.3,40,MC,Overcast,KMKC,O,CST,39.123,-94.593,758,41,34,22,47,34,320,13,100,201,OVC,10,0,0,0,0,0,0,0,0,0,30.19,1022.3,40,MC,Overcast,30-Oct-17,20
KNEW 01/Nov/2015 13,1346,NOS2015,1-Nov-15,1-Nov-15,1-Nov-15,1:00,13,NO,-3,NYG,101,O,52,2015,Week 8,73019,NO,-3,3,MIA,52,49,N,73208,0,40,72,1,New Orleans,KNEW,KNEW4230913,KNEW,O,1-Nov-15,CST,30.042,-90.028,7,71,68,69,70,67,67,64,66,94,84,90,68,66,67,17,13,69,17,99,7.1,2085,417,2502,11,659,1.55,0,29.93,29.84,29.89,1012.8,1009.7,1011.4,18,RAIN,Light Rain,KNEW,O,CST,30.042,-90.028,7,69,69,67,93,68,100,15,100,75,OVC,2,306,61,367,612,673,874,99,0.11,0,29.87,1010.8,18,RAIN,Light Rain,1-Nov-15,13
KNEW 03/Dec/2017 16,1347,NOS2017,3-Dec-17,3-Dec-17,3-Dec-17,4:25,16,NO,-6,CAR,52,O,48,2017,Week 13,73171,NO,-6,6,SF,31,21,Y,73208,0,42,56,0,New Orleans,KNEW,KNEW4307216,KNEW,O,3-Dec-17,CST,30.042,-90.028,7,71,57,63,70,56,59,48,56,100,47,80,62,56,59,12,6,85,12,51,5.7,2722,323,3045,455,620,0,0,30.21,30.11,30.15,1022.4,1018.9,1020.3,46,CLR,Fair,KNEW,O,CST,30.042,-90.028,7,69,69,48,47,58,100,6,0,201,CLR,10,86,9,95,86,95,122,0,0,0,30.12,1019.2,46,CLR,Fair,3-Dec-17,16
KNEW 04/Dec/2016 13,1348,NOS2016,4-Dec-16,4-Dec-16,4-Dec-16,1:00,13,NO,-6.5,DET,41,U,53.5,2016,Week 13,73137,NO,-6.5,6.5,NO,13,28,Y,73208,0,41,72,1,New Orleans,KNEW,KNEW4270813,KNEW,O,4-Dec-16,CST,30.042,-90.028,7,68,61,63,66,57,65,60,62,100,88,96,65,59,62,21,9,37,28,100,4.4,1719,319,2039,0,619,0.81,0,30.01,29.88,29.92,1015.3,1011.2,1012.6,40,MC,Overcast,KNEW,O,CST,30.042,-90.028,7,66,66,64,94,65,320,5,100,80,OVC,2,252,50,302,505,555,721,99,0.01,0,29.88,1011.2,18,RAIN,Light Rain,4-Dec-16,13
KNEW 04/Nov/2018 16,1349,NOS2018,4-Nov-18,4-Nov-18,4-Nov-18,4:25,16,LAR,-2,NO,80,O,57.5,2018,Week 9,73086,NO,2,-2,LAR,45,35,Y,73208,0,43,72,0,New Orleans,KNEW,KNEW4340816,KNEW,O,4-Nov-18,CST,30.05,-90.033,10,79,65,70,80,64,67,56,62,93,62,76,69,60,65,23,13,113,26,56,9.2,2402,405,2804,180,653,0.87,0,30.12,29.97,30.05,1019.4,1014.1,1017,46,CLR,Fair,KNEW,O,CST,30.05,-90.033,10,75,78,66,74,69,150,14,100,110,OVC,9,38,13,51,126,139,180,0,0,0,29.98,1014.5,18,RAIN,Light Rain,4-Nov-18,16
KNEW 04/Oct/2015 20,1350,NOS2015,4-Oct-15,4-Oct-15,4-Oct-15,8:30,20,NO,-3,DAL,46,U,48.5,2015,Week 4,73009,NO,-3,3,JAX,26,20,Y,73208,0,40,72,1,New Orleans,KNEW,KNEW4228120,KNEW,O,4-Oct-15,CST,30.042,-90.028,7,68,59,63,68,57,57,51,54,78,68,73,62,55,58,24,15,352,24,76,10,2727,541,3268,87,705,0,0,29.95,29.85,29.89,1013.4,1010,1011.4,40,MC,Overcast,KNEW,O,CST,30.042,-90.028,7,64,62,56,75,59,360,21,6,301,SCT,10,0,0,0,0,0,0,0,0,0,29.92,1012.4,54,CLR,Few High Clouds,4-Oct-15,20
KNEW 05/Nov/2017 13,1351,NOS2017,5-Nov-17,5-Nov-17,5-Nov-17,1:00,13,NO,-7,TB,40,U,54.5,2017,Week 9,73121,NO,-7,7,OAK,30,10,Y,73208,0,42,55,0,New Orleans,KNEW,KNEW4304413,KNEW,O,5-Nov-17,CST,30.042,-90.028,7,82,68,74,84,68,71,67,69,96,62,84,73,67,70,14,7,163,14,26,8.7,3217,402,3619,440,651,0,0,30.11,30.02,30.06,1018.8,1015.8,1017.1,46,CLR,Fair,KNEW,O,CST,30.042,-90.028,7,77,81,70,79,72,50,8,100,50,BKN,10,297,59,356,594,653,848,0,0,0,30.04,1016.6,42,MC,Mostly Cloudy,5-Nov-17,13
KNEW 05/Oct/2014 13,1352,NOS2014,5-Oct-14,5-Oct-14,5-Oct-14,1:00,13,NO,-11,TB,68,O,48,2014,Week 5,73004,NO,-11,11,DEN,37,31,N,73208,0,39,72,1,New Orleans,KNEW,KNEW4191713,KNEW,O,5-Oct-14,CST,30.042,-90.028,7,79,63,71,79,63,63,42,52,81,33,52,65,54,60,14,8,129,14,1,10,5364,536,5900,704,704,0,0,30.07,29.97,30.01,1018.2,1014.8,1016.3,46,CLR,Fair,KNEW,O,CST,30.042,-90.028,7,77,77,49,37,61,160,8,0,201,CLR,10,749,75,824,749,824,1070,0,0,0,30,1015.9,46,CLR,Fair,5-Oct-14,13
KNEW 06/Dec/2015 16,1353,NOS2015,6-Dec-15,6-Dec-15,6-Dec-15,4:25,16,CAR,-6,NO,79,O,50.5,2015,Week 13,73097,NO,6,-6,PIT,38,41,N,73208,0,40,72,1,New Orleans,KNEW,KNEW4234416,KNEW,O,6-Dec-15,CST,30.042,-90.028,7,67,55,59,66,52,58,49,53,93,69,81,60,52,56,15,6,48,15,60,9.4,1856,318,2174,83,617,0,0,30.42,30.27,30.34,1029.5,1024.4,1026.8,46,CLR,Fair,KNEW,O,CST,30.042,-90.028,7,64,64,58,81,60,320,5,95,93,CLR,10,45,9,54,86,95,123,0,0,0,30.28,1024.5,46,CLR,Fair,6-Dec-15,16
KNEW 06/Oct/2019 13,1354,NOS2019,6-Oct-19,6-Oct-19,6-Oct-19,1:00,13,NO,-10.5,TB,55,O,53,2019,Week 5,73029,NO,-10.5,10.5,TB,31,24,N,73208,0,44,28,0,New Orleans,KNEW,KNEW4374413,KNEW,O,6-Oct-19,CST,30.05,-90.033,10,89,72,82,96,74,76,66,73,87,55,75,78,69,76,20,11,99,26,29,10,3757,531,4288,376,702,0.14,0,30.04,29.95,30,1016.4,1013.7,1015,46,CLR,Fair,KNEW,O,CST,30.05,-90.033,10,88,96,73,61,78,90,17,95,50,OVC,10,130,74,204,744,818,1063,0,0,0,30,1015.1,42,MC,Mostly Cloudy,6-Oct-19,13
KNEW 07/Dec/2014 13,1355,NOS2014,7-Dec-14,7-Dec-14,7-Dec-14,1:00,13,NO,-9.5,CAR,51,O,50.5,2014,Week 14,73006,NO,-9.5,9.5,ATL,10,41,Y,73208,0,39,72,1,New Orleans,KNEW,KNEW4198013,KNEW,O,7-Dec-14,CST,30.042,-90.028,7,61,51,54,61,47,50,42,45,77,60,71,56,47,50,21,14,272,21,66,10,1661,316,1975,18,617,0,0,30.32,30.21,30.26,1026.7,1022.9,1024.6,40,MC,Overcast,KNEW,O,CST,30.042,-90.028,7,56,54,43,62,49,40,9,70,22,BKN,10,327,50,377,503,553,718,0,0,0,30.25,1024.3,42,MC,Mostly Cloudy,7-Dec-14,13
KNEW 08/Dec/2013 20,1356,NOS2013,8-Dec-13,8-Dec-13,8-Dec-13,8:30,20,NO,-3,CAR,44,U,47.5,2013,Week 14,73089,NO,-3,3,OAK,31,13,Y,73208,0,38,72,1,New Orleans,KNEW,KNEW4161620,KNEW,O,8-Dec-13,CST,30.042,-90.028,7,55,45,50,54,40,53,43,48,100,89,94,53,44,49,10,8,34,10,100,2.6,1580,315,1896,0,616,0,0,30.22,30.02,30.1,1023.3,1016.5,1019.1,34,FOG,Fog,KNEW,O,CST,30.042,-90.028,7,54,54,53,97,53,60,3,100,2,VV,0.2,0,0,0,0,0,0,0,0,0,30.04,1017.2,34,FOG,Fog,8-Dec-13,20
KNEW 08/Dec/2019 13,1357,NOS2019,8-Dec-19,8-Dec-19,8-Dec-19,1:00,13,NO,-8.5,SF,94,O,46,2019,Week 14,73038,NO,-8.5,8.5,JAX,46,48,N,73208,0,44,73,0,New Orleans,KNEW,KNEW4380713,KNEW,O,8-Dec-19,CST,30.05,-90.033,10,66,56,60,64,56,55,50,53,88,68,78,59,53,56,9,5,33,9,33,9.8,3061,315,3376,544,617,0,0,30.18,30.01,30.1,1021.1,1015.4,1018.5,46,CLR,Fair,KNEW,O,CST,30.05,-90.033,10,64,64,55,73,59,340,8,0,147,CLR,10,502,50,552,502,552,717,0,0,0,30.09,1018,46,CLR,Fair,8-Dec-19,13
KNEW 08/Nov/2015 13,1358,NOS2015,8-Nov-15,8-Nov-15,8-Nov-15,1:00,13,NO,-6.5,TEN,62,O,50,2015,Week 9,73075,NO,-6.5,6.5,ARI,28,34,N,73208,0,40,72,1,New Orleans,KNEW,KNEW4231613,KNEW,O,8-Nov-15,CST,30.042,-90.028,7,67,59,64,67,55,64,56,59,94,81,87,65,57,61,31,24,22,37,100,9.1,1952,391,2343,0,647,0.38,0,30.07,29.97,30.03,1017.7,1014.1,1016.1,40,MC,Overcast,KNEW,O,CST,30.042,-90.028,7,64,62,59,83,61,20,20,100,15,OVC,10,290,58,348,581,639,830,0,0,0,30.01,1015.4,40,MC,Overcast,8-Nov-15,13
KNEW 08/Oct/2018 20,1359,NOS2018,8-Oct-18,8-Oct-18,8-Oct-18,8:15,20,NO,-6,WAS,62,O,52,2018,Week 5,73028,NO,-6,6,WAS,43,19,Y,73208,0,43,63,0,New Orleans,KNEW,KNEW4338120,KNEW,O,8-Oct-18,CST,30.05,-90.033,10,86,75,80,91,76,75,70,73,91,65,81,77,74,76,22,14,93,36,43,9.9,4667,522,5189,523,699,0.31,0,29.98,29.88,29.93,1014.5,1011,1012.7,45,CLR,Mostly Clear,KNEW,O,CST,30.05,-90.033,10,76,80,73,91,74,100,17,100,50,BKN,7,0,0,0,0,0,0,99,0.15,0,29.9,1011.8,18,RAIN,Light Rain,8-Oct-18,20
KNEW 08/Sep/2013 13,1360,NOS2013,8-Sep-13,8-Sep-13,8-Sep-13,1:00,13,NO,-3.5,ATL,40,U,55,2013,Week 1,72348,NO,-3.5,3.5,CHI,23,17,Y,73208,0,38,72,1,New Orleans,KNEW,KNEW4152513,KNEW,O,8-Sep-13,CST,30.042,-90.028,7,91,80,84,98,81,76,69,73,85,52,69,78,74,76,12,7,120,12,7,9.1,5933,656,6589,656,752,0,0,29.99,29.92,29.96,1015.7,1013.3,1014.4,46,CLR,Fair,KNEW,O,CST,30.042,-90.028,7,89,96,71,55,76,120,6,5,38,FEW,10,857,88,945,879,967,1255,0,0,0,29.95,1014.2,45,CLR,Mostly Clear,8-Sep-13,13
KNEW 09/Nov/2014 13,1361,NOS2014,9-Nov-14,9-Nov-14,9-Nov-14,1:00,13,NO,-5.5,SF,51,O,49.5,2014,Week 10,73129,NO,-5.5,5.5,DAL,24,27,N,73208,0,39,72,1,New Orleans,KNEW,KNEW4195213,KNEW,O,9-Nov-14,CST,30.042,-90.028,7,65,54,61,65,54,49,45,47,72,51,58,55,50,54,17,10,219,17,11,10,3867,386,4253,646,646,0,0,30.09,29.98,30.02,1018.8,1015.2,1016.6,46,CLR,Fair,KNEW,O,CST,30.042,-90.028,7,64,64,47,54,55,310,6,0,201,CLR,10,577,58,635,577,635,825,0,0,0,30.01,1016.1,46,CLR,Fair,9-Nov-14,13
KNEW 09/Sep/2018 13,1362,NOS2018,9-Sep-18,9-Sep-18,9-Sep-18,1:00,13,NO,-10,TB,88,O,49.5,2018,Week 1,73038,NO,-10,10,TB,40,48,N,73208,0,43,23,0,New Orleans,KNEW,KNEW4335213,KNEW,O,9-Sep-18,CST,30.05,-90.033,10,89,76,83,98,77,76,73,74,90,61,77,79,75,77,20,7,280,20,16,9.6,5616,652,6268,581,750,0.47,0,29.92,29.81,29.87,1012.4,1008.9,1010.9,46,CLR,Fair,KNEW,O,CST,30.05,-90.033,10,87,96,74,65,78,10,5,25,160,SCT,10,792,87,879,875,962,1250,0,0,0,29.86,1010.4,44,PC,Partly Cloudy,9-Sep-18,13
KNEW 09/Sep/2019 19,1363,NOS2019,9-Sep-19,9-Sep-19,9-Sep-19,7:10,19,NO,-7,HOU,58,O,52,2019,Week 1,73039,NO,-7,7,NE,30,28,N,73208,0,44,63,0,New Orleans,KNEW,KNEW4371719,KNEW,O,9-Sep-19,CST,30.05,-90.033,10,94,84,88,108,85,80,69,76,83,46,68,82,76,80,13,7,130,13,17,7.6,5531,652,6183,572,750,0,0,30.09,30,30.05,1018.2,1015.2,1016.8,46,CLR,Fair,KNEW,O,CST,30.05,-90.033,10,87,96,75,67,78,130,7,0,217,CLR,8,0,0,0,0,0,0,0,0,0,30.06,1017.1,46,CLR,Fair,9-Sep-19,19
KNEW 10/Nov/2013 20,1364,NOS2013,10-Nov-13,10-Nov-13,10-Nov-13,8:30,20,NO,-6.5,DAL,66,O,55,2013,Week 10,73018,NO,-6.5,6.5,DEN,49,17,Y,73208,0,38,72,1,New Orleans,KNEW,KNEW4158820,KNEW,O,10-Nov-13,CST,30.042,-90.028,7,74,63,67,77,61,63,54,58,90,62,77,65,59,62,17,8,14,17,35,10,3388,384,3773,469,644,0,0,30.25,30.17,30.2,1024.3,1021.6,1022.7,46,CLR,Fair,KNEW,O,CST,30.042,-90.028,7,66,66,63,90,64,0,0,0,201,CLR,10,0,0,0,0,0,0,0,0,0,30.21,1022.9,46,CLR,Fair,10-Nov-13,20
KNEW 10/Nov/2019 13,1365,NOS2019,10-Nov-19,10-Nov-19,10-Nov-19,1:00,13,NO,-7,ATL,35,O,33,2019,Week 10,73283,NO,-7,7,ATL,9,26,Y,73208,0,44,66,0,New Orleans,KNEW,KNEW4377913,KNEW,O,10-Nov-19,CST,30.05,-90.033,10,70,51,60,69,51,57,42,51,87,59,70,61,47,55,9,7,85,9,1,10,3802,384,4186,630,644,0,0,30.24,30.1,30.17,1023.4,1018.6,1020.9,46,CLR,Fair,KNEW,O,CST,30.05,-90.033,10,66,66,55,68,60,30,8,0,400,CLR,10,573,57,630,573,630,819,0,0,0,30.16,1020.6,46,CLR,Fair,10-Nov-19,13
KNEW 11/Sep/2016 13,1366,NOS2016,11-Sep-16,11-Sep-16,11-Sep-16,1:00,13,NO,-3,OAK,69,O,50.5,2016,Week 1,73028,NO,-3,3,CAR,34,35,N,73208,0,41,72,1,New Orleans,KNEW,KNEW4262413,KNEW,O,11-Sep-16,CST,30.042,-90.028,7,90,77,82,98,78,77,69,74,88,59,77,80,72,76,23,8,65,28,58,10,5239,638,5877,293,747,0.01,0,30.1,30,30.06,1018.7,1015.1,1017.2,46,CLR,Fair,KNEW,O,CST,30.042,-90.028,7,88,96,73,61,78,110,9,97,301,CLR,10,777,86,863,863,949,1233,0,0,0,30.06,1017.1,50,PC,High Overcast,11-Sep-16,13
KNEW 13/Nov/2016 13,1367,NOS2016,13-Nov-16,13-Nov-16,13-Nov-16,1:00,13,NO,-3,DEN,48,U,50,2016,Week 10,73138,NO,-3,3,LAR,23,25,N,73208,0,41,72,1,New Orleans,KNEW,KNEW4268713,KNEW,O,13-Nov-16,CST,30.042,-90.028,7,68,58,63,67,55,52,48,50,72,51,62,58,53,56,17,11,11,17,74,9.2,2234,369,2604,106,641,0,0,30.21,30.11,30.15,1022.4,1019,1020.4,50,PC,High Overcast,KNEW,O,CST,30.042,-90.028,7,66,66,50,56,57,350,10,64,301,SCT,8,379,56,435,558,614,797,0,0,0,30.13,1020,54,CLR,Few High Clouds,13-Nov-16,13
KNEW 15/Oct/2015 20,1368,NOS2015,15-Oct-15,15-Oct-15,15-Oct-15,8:25,20,ATL,-3,NO,52,U,52.5,2015,Week 6,73018,NO,3,-3,LAR,31,21,Y,73208,0,40,72,1,New Orleans,KNEW,KNEW4229220,KNEW,O,15-Oct-15,CST,30.042,-90.028,7,88,63,75,88,65,67,42,57,87,20,57,69,59,64,12,5,159,12,0,9.9,4900,491,5391,686,687,0,0,30.14,30.07,30.1,1020,1017.5,1018.7,46,CLR,Fair,KNEW,O,CST,30.042,-90.028,7,73,76,55,53,62,160,6,0,201,CLR,10,0,0,0,0,0,0,0,0,0,30.13,1019.7,46,CLR,Fair,15-Oct-15,20
KNEW 15/Oct/2017 13,1369,NOS2017,15-Oct-17,15-Oct-17,15-Oct-17,1:00,13,NO,-5.5,DET,90,O,50.5,2017,Week 6,73117,NO,-5.5,5.5,CAR,52,38,Y,73208,0,42,78,0,New Orleans,KNEW,KNEW4302313,KNEW,O,15-Oct-17,CST,30.042,-90.028,7,85,76,80,94,77,78,72,75,94,72,87,79,74,76,9,6,106,22,71,9.1,3179,491,3669,99,687,1.19,0,30.09,30.01,30.05,1018.2,1015.6,1016.7,54,CLR,Few High Clouds,KNEW,O,CST,30.042,-90.028,7,77,81,72,85,74,140,8,76,110,SCT,10,509,70,579,697,767,995,99,0.02,0,30.03,1016.4,18,RAIN,Light Rain,15-Oct-17,13
KNEW 16/Dec/2019 13,1370,NOS2019,16-Dec-19,16-Dec-19,16-Dec-19,1:00,13,NO,-5,IND,41,U,53,2019,Week 15,73053,NO,-5,5,CLE,34,7,Y,73208,0,44,29,0,New Orleans,KNEW,KNEW4381513,KNEW,O,16-Dec-19,CST,30.05,-90.033,10,81,62,71,85,62,70,61,67,96,70,87,73,61,68,23,13,171,33,59,7,1886,310,2196,229,614,0,0,30.03,29.87,29.94,1016.4,1011,1013.5,42,MC,Mostly Cloudy,KNEW,O,CST,30.05,-90.033,10,77,81,70,79,72,170,12,100,38,BKN,10,249,50,299,498,548,711,0,0,0,29.95,1013.3,40,MC,Overcast,16-Dec-19,13
KNEW 16/Nov/2014 13,1371,NOS2014,16-Nov-14,16-Nov-14,16-Nov-14,1:00,13,NO,-8,CIN,37,U,51.5,2014,Week 11,73073,NO,-8,8,PIT,10,27,Y,73208,0,39,72,1,New Orleans,KNEW,KNEW4195913,KNEW,O,16-Nov-14,CST,30.042,-90.028,7,80,56,69,81,53,68,52,61,87,56,76,70,54,64,26,16,169,36,60,9.9,2210,363,2573,193,636,0,0,30.13,29.8,29.95,1020.3,1009.2,1014.2,46,CLR,Fair,KNEW,O,CST,30.042,-90.028,7,79,81,62,56,68,170,23,70,25,CLR,10,358,55,413,551,606,788,0,0,0,29.92,1012.5,46,CLR,Fair,16-Nov-14,13
KNEW 16/Oct/2016 13,1372,NOS2016,16-Oct-16,16-Oct-16,16-Oct-16,1:00,13,CAR,-3,NO,79,O,54,2016,Week 6,73138,NO,3,-3,CLE,41,38,N,73208,0,41,72,1,New Orleans,KNEW,KNEW4265913,KNEW,O,16-Oct-16,CST,30.042,-90.028,7,86,74,79,90,74,72,69,71,89,61,78,76,71,73,13,9,80,13,10,9.9,4303,481,4783,548,685,0,0,30.1,29.98,30.04,1018.6,1014.5,1016.5,46,CLR,Fair,KNEW,O,CST,30.042,-90.028,7,84,90,72,66,76,30,9,5,30,FEW,10,670,69,739,687,756,981,0,0,0,30.03,1016.2,45,CLR,Mostly Clear,16-Oct-16,13
KNEW 16/Sep/2018 13,1373,NOS2018,16-Sep-18,16-Sep-18,16-Sep-18,1:00,13,NO,-9.5,CLE,39,U,51,2018,Week 2,73086,NO,-9.5,9.5,CLE,21,18,N,73208,0,43,50,0,New Orleans,KNEW,KNEW4335913,KNEW,O,16-Sep-18,CST,30.05,-90.033,10,93,83,87,105,83,78,74,76,85,58,71,81,78,79,13,7,303,13,2,10,6202,622,6824,730,737,0,0,29.92,29.83,29.87,1012.5,1009.5,1010.9,46,CLR,Fair,KNEW,O,CST,30.05,-90.033,10,90,103,77,66,81,270,6,0,176,CLR,10,844,84,928,844,928,1206,0,0,0,29.88,1011.1,46,CLR,Fair,16-Sep-18,13
KNEW 17/Dec/2017 13,1374,NOS2017,17-Dec-17,17-Dec-17,17-Dec-17,1:00,13,NO,-16,NYJ,50,O,47,2017,Week 15,73018,NO,-16,16,CAR,31,19,N,73208,0,42,64,0,New Orleans,KNEW,KNEW4308613,KNEW,O,17-Dec-17,CST,30.042,-90.028,7,70,58,66,69,55,66,58,64,100,87,95,67,56,65,21,9,153,29,96,5.2,1544,310,1854,0,613,2.26,0,30.14,30.04,30.1,1019.9,1016.5,1018.4,40,MC,Overcast,KNEW,O,CST,30.042,-90.028,7,66,66,66,100,66,0,0,100,37,OVC,1.5,249,50,299,498,548,711,99,0.05,0,30.1,1018.6,19,RAIN,Moderate Rain,17-Dec-17,13
KNEW 17/Nov/2013 16,1375,NOS2013,17-Nov-13,17-Nov-13,17-Nov-13,4:25,16,NO,-3,SF,43,U,50,2013,Week 11,73025,NO,-3,3,BAL,23,20,N,73208,0,38,72,1,New Orleans,KNEW,KNEW4159516,KNEW,O,17-Nov-13,CST,30.042,-90.028,7,82,65,74,86,65,74,64,71,100,74,89,75,64,72,15,9,184,15,91,6.1,2009,363,2373,87,636,0.02,0,29.98,29.88,29.93,1015,1012,1013.7,45,CLR,Mostly Clear,KNEW,O,CST,30.042,-90.028,7,80,84,71,74,74,200,13,100,21,OVC,10,49,10,59,98,108,141,0,0,0,29.89,1012.2,45,CLR,Mostly Clear,17-Nov-13,16
KNEW 17/Sep/2017 13,1376,NOS2017,17-Sep-17,17-Sep-17,17-Sep-17,1:00,13,NE,-6,NO,56,O,55.5,2017,Week 2,73168,NO,6,-6,HOU,20,36,Y,73208,0,42,28,0,New Orleans,KNEW,KNEW4299513,KNEW,O,17-Sep-17,CST,30.042,-90.028,7,90,77,82,101,78,79,73,76,93,59,81,81,75,78,9,6,79,9,10,9.9,5428,617,6045,594,736,0,0,30.09,30,30.04,1018.1,1015.3,1016.4,46,CLR,Fair,KNEW,O,CST,30.042,-90.028,7,87,98,77,72,80,10,9,5,25,FEW,10,819,84,903,840,924,1199,0,0,0,30.05,1016.9,46,CLR,Fair,17-Sep-17,13
KNEW 18/Nov/2018 16,1377,NOS2018,18-Nov-18,18-Nov-18,18-Nov-18,4:25,16,NO,-7,PHI,55,U,57,2018,Week 11,73042,NO,-7,7,PHI,48,7,Y,73208,0,43,41,0,New Orleans,KNEW,KNEW4342216,KNEW,O,18-Nov-18,CST,30.05,-90.033,10,67,50,58,66,49,54,47,51,92,56,79,58,49,54,8,5,70,8,0,9.9,3576,357,3933,634,634,0,0,30.26,30.16,30.2,1024,1020.6,1021.8,46,CLR,Fair,KNEW,O,CST,30.05,-90.033,10,65,65,52,63,58,360,6,0,339,CLR,10,96,10,106,96,106,138,0,0,0,30.16,1020.7,46,CLR,Fair,18-Nov-18,16
KNEW 19/Nov/2017 13,1378,NOS2017,19-Nov-17,19-Nov-17,19-Nov-17,1:00,13,NO,-9,WAS,65,O,53,2017,Week 11,73138,NO,-9,9,WAS,34,31,N,73208,0,42,89,0,New Orleans,KNEW,KNEW4305813,KNEW,O,19-Nov-17,CST,30.042,-90.028,7,64,52,58,64,45,49,33,38,66,37,50,57,46,49,31,22,5,39,20,10,3536,354,3890,622,633,0,0,30.23,30.04,30.16,1023.1,1016.6,1020.8,46,CLR,Fair,KNEW,O,CST,30.042,-90.028,7,62,60,36,38,49,340,16,0,201,CLR,10,541,54,595,541,595,773,0,0,0,30.16,1020.4,46,CLR,Fair,19-Nov-17,13
KNEW 20/Sep/2015 13,1379,NOS2015,20-Sep-15,20-Sep-15,20-Sep-15,1:00,13,NO,-9,TB,45,U,47,2015,Week 2,73006,NO,-9,9,PHI,19,26,N,73208,0,40,72,1,New Orleans,KNEW,KNEW4226713,KNEW,O,20-Sep-15,CST,30.042,-90.028,7,92,78,84,96,78,74,65,70,87,41,65,77,72,74,10,6,249,10,8,9.6,6051,604,6655,730,730,0,0,30,29.9,29.95,1015.3,1011.8,1013.5,46,CLR,Fair,KNEW,O,CST,30.042,-90.028,7,90,96,69,50,76,340,7,0,201,CLR,10,825,83,908,825,908,1179,0,0,0,29.96,1013.9,46,CLR,Fair,20-Sep-15,13
KNEW 21/Dec/2014 13,1380,NOS2014,21-Dec-14,21-Dec-14,21-Dec-14,1:00,13,NO,-6,ATL,44,U,56,2014,Week 16,73164,NO,-6,6,OAK,14,30,Y,73208,0,39,72,1,New Orleans,KNEW,KNEW4199413,KNEW,O,21-Dec-14,CST,30.042,-90.028,7,59,53,56,58,49,55,47,50,90,77,81,56,50,53,15,8,81,15,93,8.6,1817,307,2125,75,613,0,0,30.13,29.92,30.04,1020.2,1013.2,1017.2,40,MC,Overcast,KNEW,O,CST,30.042,-90.028,7,57,57,50,78,53,60,3,100,10,OVC,10,250,50,300,499,549,713,0,0,0,30.03,1017.1,40,MC,Overcast,21-Dec-14,13
KNEW 21/Dec/2015 20,1381,NOS2015,21-Dec-15,21-Dec-15,21-Dec-15,8:30,20,NO,-2.5,DET,62,O,52,2015,Week 15,73017,NO,-2.5,2.5,NYJ,27,35,Y,73208,0,40,72,1,New Orleans,KNEW,KNEW4235920,KNEW,O,21-Dec-15,CST,30.042,-90.028,7,73,61,66,72,60,68,56,63,100,79,90,68,59,64,15,9,145,20,62,8.2,2059,307,2367,190,613,1.85,0,30.16,29.94,30.06,1020.7,1013,1017.2,46,CLR,Fair,KNEW,O,CST,30.042,-90.028,7,64,64,64,100,64,320,10,100,21,OVC,2,0,0,0,0,0,0,99,1.02,0,29.99,1014.9,19,RAIN,Moderate Rain,21-Dec-15,20
KNEW 21/Sep/2014 13,1382,NOS2014,21-Sep-14,21-Sep-14,21-Sep-14,1:00,13,NO,-10,MIN,29,U,49.5,2014,Week 3,73005,NO,-10,10,SF,20,9,Y,73208,0,39,72,1,New Orleans,KNEW,KNEW4190313,KNEW,O,21-Sep-14,CST,30.042,-90.028,7,88,76,81,92,76,71,66,69,82,51,68,75,71,73,14,9,67,14,0,10,6004,601,6605,729,729,0,0,30.02,29.95,29.98,1016.6,1014.2,1015.3,46,CLR,Fair,KNEW,O,CST,30.042,-90.028,7,87,92,69,55,75,200,10,0,201,CLR,10,820,82,902,820,902,1172,0,0,0,29.99,1015.7,46,CLR,Fair,21-Sep-14,13
KNEW 22/Nov/2018 20,1383,NOS2018,22-Nov-18,22-Nov-18,22-Nov-18,8:20,20,NO,-12.5,ATL,48,U,60.5,2018,Week 12,73017,NO,-12.5,12.5,ATL,31,17,Y,73208,0,43,78,0,New Orleans,KNEW,KNEW4342620,KNEW,O,22-Nov-18,CST,30.05,-90.033,10,61,50,54,61,47,50,39,42,80,44,64,51,46,48,16,9,64,19,15,10,2803,346,3149,443,629,0,0,30.35,30.17,30.25,1027,1020.8,1023.7,46,CLR,Fair,KNEW,O,CST,30.05,-90.033,10,51,49,43,74,47,160,6,0,357,CLR,10,0,0,0,0,0,0,0,0,0,30.22,1022.8,46,CLR,Fair,22-Nov-18,20
KNEW 22/Sep/2013 13,1384,NOS2013,22-Sep-13,22-Sep-13,22-Sep-13,1:00,13,NO,-7.5,ARI,38,U,48.5,2013,Week 3,73057,NO,-7.5,7.5,GB,31,7,Y,73208,0,38,72,1,New Orleans,KNEW,KNEW4153913,KNEW,O,22-Sep-13,CST,30.042,-90.028,7,82,73,77,84,73,71,63,67,94,60,73,73,68,70,24,17,48,24,90,9.7,2807,596,3403,37,727,0.26,0,29.8,29.72,29.76,1009.2,1006.3,1007.9,19,RAIN,Moderate Rain,KNEW,O,CST,30.042,-90.028,7,80,83,66,62,71,40,9,75,25,BKN,10,510,82,592,816,898,1166,0,0,0,29.77,1008.1,45,CLR,Mostly Clear,22-Sep-13,13
KNEW 23/Dec/2018 16,1385,NOS2018,23-Dec-18,23-Dec-18,23-Dec-18,4:25,16,NO,-6.5,PIT,59,O,53.5,2018,Week 16,73086,NO,-6.5,6.5,PIT,31,28,N,73208,0,43,81,0,New Orleans,KNEW,KNEW4345716,KNEW,O,23-Dec-18,CST,30.05,-90.033,10,71,54,60,68,52,57,49,54,93,66,83,62,52,57,16,7,225,16,58,9.3,1798,308,2106,193,613,0,0,30.28,30.14,30.2,1024.6,1019.8,1022,40,MC,Overcast,KNEW,O,CST,30.05,-90.033,10,63,63,57,81,60,330,3,0,153,CLR,9,100,10,110,100,110,143,0,0,0,30.19,1021.5,46,CLR,Fair,23-Dec-18,16
KNEW 24/Dec/2016 16,1386,NOS2016,24-Dec-16,24-Dec-16,24-Dec-16,4:25,16,NO,-3,TB,55,O,53,2016,Week 16,73177,NO,-3,3,PIT,31,24,Y,73208,0,41,72,1,New Orleans,KNEW,KNEW4272816,KNEW,O,24-Dec-16,CST,30.042,-90.028,7,78,56,65,81,56,68,56,63,100,67,93,71,56,64,12,8,107,12,49,3.9,2204,308,2510,296,613,0,0,30.25,30.17,30.2,1023.5,1020.9,1022,42,MC,Mostly Cloudy,KNEW,O,CST,30.042,-90.028,7,72,72,66,83,68,100,7,100,38,BKN,8,52,10,62,103,113,147,0,0,0,30.17,1021,40,MC,Overcast,24-Dec-16,16
KNEW 24/Dec/2017 13,1387,NOS2017,24-Dec-17,24-Dec-17,24-Dec-17,1:00,13,NO,-5.5,ATL,36,U,52,2017,Week 16,73188,NO,-5.5,5.5,NE,23,13,Y,73208,0,42,78,0,New Orleans,KNEW,KNEW4309313,KNEW,O,24-Dec-17,CST,30.042,-90.028,7,62,50,55,61,46,49,42,47,83,63,75,54,48,51,28,12,341,29,40,9.9,2852,308,3160,507,613,0,0,30.35,30.14,30.21,1027,1019.8,1022.2,46,CLR,Fair,KNEW,O,CST,30.042,-90.028,7,57,55,49,75,53,330,8,0,201,CLR,10,502,50,552,502,552,717,0,0,0,30.16,1020.5,46,CLR,Fair,24-Dec-17,13
KNEW 24/Nov/2014 20,1388,NOS2014,24-Nov-14,24-Nov-14,24-Nov-14,8:30,20,NO,-3,BAL,61,O,50.5,2014,Week 12,73373,NO,-3,3,MIA,27,34,Y,73208,0,39,72,1,New Orleans,KNEW,KNEW4196720,KNEW,O,24-Nov-14,CST,30.042,-90.028,7,69,57,63,68,53,66,41,55,93,58,80,67,50,59,22,13,289,22,37,7.2,3335,340,3675,564,628,0,0,30.07,29.72,29.88,1018.3,1006.6,1011.9,46,CLR,Fair,KNEW,O,CST,30.042,-90.028,7,59,56,51,75,55,340,13,79,301,OVC,10,0,0,0,0,0,0,0,0,0,30,1015.8,46,CLR,Fair,24-Nov-14,20
KNEW 24/Nov/2019 13,1389,NOS2019,24-Nov-19,24-Nov-19,24-Nov-19,1:00,13,NO,-9,CAR,65,O,42,2019,Week 12,73068,NO,-9,9,CAR,34,31,N,73208,0,44,65,0,New Orleans,KNEW,KNEW4379313,KNEW,O,24-Nov-19,CST,30.05,-90.033,10,58,46,51,58,40,46,38,40,80,53,67,50,42,46,20,8,354,20,3,10,3388,340,3728,614,628,0,0,30.12,29.96,30.04,1019.2,1014,1016.4,46,CLR,Fair,KNEW,O,CST,30.05,-90.033,10,54,52,38,55,46,300,7,0,400,CLR,10,527,53,580,527,580,753,0,0,0,30.03,1016.3,46,CLR,Fair,24-Nov-19,13
KNEW 26/Oct/2014 20,1390,NOS2014,26-Oct-14,26-Oct-14,26-Oct-14,8:30,20,NO,-2,GB,67,O,55.5,2014,Week 8,73146,NO,-2,2,PIT,44,23,Y,73208,0,39,72,1,New Orleans,KNEW,KNEW4193820,KNEW,O,26-Oct-14,CST,30.042,-90.028,7,82,69,73,83,69,66,60,63,82,49,69,70,64,67,9,6,294,9,0,9.8,4413,440,4853,668,668,0,0,30.09,29.98,30.03,1018.9,1015.2,1016.8,46,CLR,Fair,KNEW,O,CST,30.042,-90.028,7,73,77,63,71,67,200,8,0,201,CLR,10,0,0,0,0,0,0,0,0,0,30.01,1016.3,46,CLR,Fair,26-Oct-14,20
KNEW 26/Sep/2016 20,1391,NOS2016,26-Sep-16,26-Sep-16,26-Sep-16,8:30,20,NO,-3,ATL,77,O,54.5,2016,Week 3,73003,NO,-3,3,HOU,32,45,Y,73208,0,41,72,1,New Orleans,KNEW,KNEW4263920,KNEW,O,26-Sep-16,CST,30.042,-90.028,7,91,81,84,97,81,74,67,72,77,45,68,78,74,76,15,7,327,15,22,10,5622,574,6196,584,720,0,0,30.04,29.92,29.99,1016.5,1012.7,1014.8,46,CLR,Fair,KNEW,O,CST,30.042,-90.028,7,83,88,71,67,75,270,6,87,301,BKN,10,0,0,0,0,0,0,0,0,0,29.98,1014.6,52,PC,High Clouds,26-Sep-16,20
KNEW 27/Dec/2015 16,1392,NOS2015,27-Dec-15,27-Dec-15,27-Dec-15,4:05,16,NO,-2.5,JAX,65,O,53.5,2015,Week 16,73064,NO,-2.5,2.5,HOU,38,27,Y,73208,0,40,72,1,New Orleans,KNEW,KNEW4236516,KNEW,O,27-Dec-15,CST,30.042,-90.028,7,78,71,74,81,71,72,70,71,100,82,92,73,71,72,28,18,145,38,100,9.2,1562,310,1871,3,613,0,0,29.95,29.74,29.86,1013.4,1006.6,1010.6,40,MC,Overcast,KNEW,O,CST,30.042,-90.028,7,76,80,71,85,73,160,21,100,25,BKN,9,53,11,64,106,117,152,0,0,0,29.8,1008.4,42,MC,Mostly Cloudy,27-Dec-15,16
KNEW 27/Nov/2016 13,1393,NOS2016,27-Nov-16,27-Nov-16,27-Nov-16,1:00,13,NO,-8,LAR,70,O,45,2016,Week 12,73067,NO,-8,8,PIT,49,21,Y,73208,0,41,72,1,New Orleans,KNEW,KNEW4270113,KNEW,O,27-Nov-16,CST,30.042,-90.028,7,67,51,58,65,48,55,38,47,87,46,65,57,46,52,15,9,84,15,16,9.6,2971,332,3303,437,624,0,0,30.25,29.96,30.12,1023.5,1013.8,1019.1,46,CLR,Fair,KNEW,O,CST,30.042,-90.028,7,65,65,47,52,55,50,3,0,201,CLR,10,517,52,569,517,569,739,0,0,0,30.11,1019,46,CLR,Fair,27-Nov-16,13
KNEW 27/Oct/2013 13,1394,NOS2013,27-Oct-13,27-Oct-13,27-Oct-13,1:00,13,NO,-10.5,BUF,52,O,48.5,2013,Week 8,72405,NO,-10.5,10.5,DET,35,17,Y,73208,0,38,72,1,New Orleans,KNEW,KNEW4157413,KNEW,O,27-Oct-13,CST,30.042,-90.028,7,75,57,67,77,58,65,54,60,93,57,77,66,56,62,10,5,130,10,40,10,2931,438,3369,175,666,0,0,30.15,30.06,30.1,1021,1017.9,1019.3,46,CLR,Fair,KNEW,O,CST,30.042,-90.028,7,74,77,58,57,64,170,9,93,301,OVC,10,340,64,404,636,700,908,0,0,0,30.09,1018.8,46,CLR,Fair,27-Oct-13,13
KNEW 27/Oct/2019 13,1395,NOS2019,27-Oct-19,27-Oct-19,27-Oct-19,1:00,13,NO,-14.5,ARI,40,O,56,2019,Week 8,73064,NO,-14.5,14.5,ARI,31,9,Y,73208,0,44,45,0,New Orleans,KNEW,KNEW4376513,KNEW,O,27-Oct-19,CST,30.05,-90.033,10,68,60,63,67,58,56,51,53,81,61,71,60,56,58,12,8,12,12,40,10,3692,438,4130,455,666,0,0,30.07,29.95,30.02,1017.4,1013.6,1015.9,46,CLR,Fair,KNEW,O,CST,30.05,-90.033,10,66,66,53,63,59,360,9,35,75,CLR,10,525,64,589,636,700,908,0,0,0,30.03,1016.2,46,CLR,Fair,27-Oct-19,13
KNEW 29/Dec/2013 16,1396,NOS2013,29-Dec-13,29-Dec-13,29-Dec-13,4:25,16,NO,-10.5,TB,59,O,46.5,2013,Week 17,73150,NO,-10.5,10.5,HOU,42,17,Y,73208,0,38,72,1,New Orleans,KNEW,KNEW4163716,KNEW,O,29-Dec-13,CST,30.042,-90.028,7,57,49,52,57,44,49,41,46,97,55,82,51,47,49,15,9,296,15,47,8.9,2801,312,3113,419,615,0,0,30.13,29.98,30.06,1020.1,1015.2,1017.8,46,CLR,Fair,KNEW,O,CST,30.042,-90.028,7,56,53,47,72,51,290,12,40,301,BKN,10,88,11,99,110,121,157,0,0,0,30.04,1017.3,46,CLR,Fair,29-Dec-13,16
KNEW 29/Oct/2017 13,1397,NOS2017,29-Oct-17,29-Oct-17,29-Oct-17,1:00,13,NO,-8.5,CHI,32,U,46,2017,Week 8,73192,NO,-8.5,8.5,CHI,20,12,N,73208,0,42,76,0,New Orleans,KNEW,KNEW4303713,KNEW,O,29-Oct-17,CST,30.042,-90.028,7,62,49,55,62,44,44,34,38,66,40,53,50,44,47,15,11,312,15,0,10,4289,429,4718,663,663,0,0,30.1,30,30.04,1018.7,1015.2,1016.6,46,CLR,Fair,KNEW,O,CST,30.042,-90.028,7,58,56,38,48,48,300,10,0,201,CLR,10,626,63,689,626,689,894,0,0,0,30.02,1016,46,CLR,Fair,29-Oct-17,13
KNEW 29/Sep/2019 20,1398,NOS2019,29-Sep-19,29-Sep-19,29-Sep-19,8:20,20,DAL,-2.5,NO,22,U,47.5,2019,Week 4,73086,NO,2.5,-2.5,DAL,12,10,N,73208,0,44,59,0,New Orleans,KNEW,KNEW4373720,KNEW,O,29-Sep-19,CST,30.05,-90.033,10,89,77,83,98,78,76,70,74,88,59,74,78,74,76,18,10,113,25,13,10,4687,565,5250,522,714,0,0,30.13,30.05,30.09,1019.7,1016.7,1018.1,46,CLR,Fair,KNEW,O,CST,30.05,-90.033,10,82,89,74,77,76,120,8,0,241,CLR,10,0,0,0,0,0,0,0,0,0,30.09,1018.3,46,CLR,Fair,29-Sep-19,20
KNEW 30/Dec/2018 13,1399,NOS2018,30-Dec-18,30-Dec-18,30-Dec-18,1:00,13,NO,-8,CAR,47,O,41.5,2018,Week 17,73028,NO,-8,8,CAR,14,33,Y,73208,0,43,28,0,New Orleans,KNEW,KNEW4346413,KNEW,O,30-Dec-18,CST,30.05,-90.033,10,71,56,63,71,55,69,56,62,100,90,95,69,56,62,16,8,107,21,100,1.4,1558,313,1872,0,614,0,0,30.13,29.97,30.05,1019.6,1014.2,1016.9,34,FOG,Fog,KNEW,O,CST,30.05,-90.033,10,61,60,60,97,60,20,7,100,2,VV,0.1,254,51,306,509,560,727,0,0,0,30.03,1016.1,34,FOG,Fog,30-Dec-18,13
KNEW 30/Oct/2016 13,1400,NOS2016,30-Oct-16,30-Oct-16,30-Oct-16,1:00,13,SEA,-1,NO,45,U,50,2016,Week 8,73188,NO,1,-1,TEN,25,20,Y,73208,0,41,72,1,New Orleans,KNEW,KNEW4267313,KNEW,O,30-Oct-16,CST,30.042,-90.028,7,84,69,75,84,69,70,58,64,96,41,73,71,66,68,12,6,67,12,27,8.3,4168,421,4589,610,661,0,0,30.21,30.11,30.14,1022.2,1018.8,1020,46,CLR,Fair,KNEW,O,CST,30.042,-90.028,7,84,84,58,41,68,100,9,0,166,CLR,10,616,62,678,616,678,881,0,0,0,30.13,1019.6,46,CLR,Fair,30-Oct-16,13
KNEW 30/Sep/2013 20,1401,NOS2013,30-Sep-13,30-Sep-13,30-Sep-13,8:40,20,NO,-7,MIA,55,O,49,2013,Week 4,73118,NO,-7,7,NO,38,17,Y,73208,0,38,72,1,New Orleans,KNEW,KNEW4154720,KNEW,O,30-Sep-13,CST,30.042,-90.028,7,83,77,79,89,78,74,70,72,87,67,79,76,73,74,13,7,138,13,85,9.9,3000,561,3560,28,713,0.04,0,29.97,29.9,29.93,1014.2,1012.6,1013.4,31,TSTM,Thunder,KNEW,O,CST,30.042,-90.028,7,78,83,72,82,74,120,6,100,50,BKN,10,0,0,0,0,0,0,0,0,0,29.93,1013.7,31,TSTM,Thunder,30-Sep-13,20
KNIP 01/Dec/2019 13,1402,JAC2019,1-Dec-19,1-Dec-19,1-Dec-19,1:00,13,JAX,-4.5,TB,39,O,56,2019,Week 13,62633,JAX,-4.5,4.5,OAK,11,28,Y,67814,0,24,57,0,Jacksonville,KNIP,KNIP4380013,KNIP,O,1-Dec-19,EST,30.217,-81.667,23,84,64,73,86,63,66,56,64,97,53,76,71,62,67,25,15,231,44,78,8.8,1723,324,2048,75,621,0,0,29.95,29.76,29.85,1013.6,1007.2,1010.2,42,MC,Mostly Cloudy,KNIP,O,EST,30.217,-81.667,23,82,85,66,58,71,230,25,95,250,BKN,10,356,54,410,536,590,766,0,0,0,29.8,1008.6,52,PC,High Clouds,1-Dec-19,13
KNIP 02/Dec/2018 13,1403,JAC2018,2-Dec-18,2-Dec-18,2-Dec-18,1:00,13,IND,-4.5,JAX,6,U,45.5,2018,Week 13,67030,JAX,4.5,-4.5,IND,6,0,Y,67814,0,23,35,0,Jacksonville,KNIP,KNIP4343613,KNIP,O,2-Dec-18,EST,30.217,-81.667,23,82,66,73,88,65,75,66,71,100,74,91,76,66,71,15,10,187,28,86,9.8,1348,322,1670,13,619,0,0,29.94,29.85,29.9,1013.7,1010.3,1012.3,40,MC,Overcast,KNIP,O,EST,30.217,-81.667,23,79,83,72,79,74,200,12,100,250,OVC,10,107,53,160,535,588,764,0,0,0,29.89,1011.9,50,PC,High Overcast,2-Dec-18,13
KNIP 03/Dec/2017 13,1404,JAC2017,3-Dec-17,3-Dec-17,3-Dec-17,1:00,13,JAX,-10,IND,40,U,41,2017,Week 13,61207,JAX,-10,10,BAL,30,10,Y,64428,0,22,45,0,Jacksonville,KNIP,KNIP4307213,KNIP,O,3-Dec-17,EST,30.234,-81.675,20,72,61,64,71,62,63,57,60,100,71,86,65,60,62,12,6,19,12,56,7.2,2269,321,2590,177,619,0,0,30.2,30.11,30.15,1022.2,1019.3,1020.5,42,MC,Mostly Cloudy,KNIP,O,EST,30.234,-81.675,20,71,71,62,73,65,30,8,45,250,SCT,10,434,53,487,532,585,760,0,0,0,30.13,1019.9,44,PC,Partly Cloudy,3-Dec-17,13
KNIP 03/Nov/2019 13,1405,JAC2019,3-Nov-19,3-Nov-19,3-Nov-19,1:00,13,JAX,PK,HOU,29,O,55,2019,Week 9,84771,JAX,PK,PK,HOU,3,26,PK,67814,0,24,55,0,Jacksonville,KNIP,KNIP4377213,KNIP,O,3-Nov-19,EST,30.217,-81.667,23,76,55,66,78,51,58,43,52,71,50,61,64,49,58,18,12,19,22,37,10,3727,407,4134,446,654,0,0,30.19,30.11,30.14,1021.7,1019.1,1020.2,45,CLR,Mostly Clear,KNIP,O,EST,30.217,-81.667,23,75,77,55,50,63,60,13,25,250,SCT,10,578,63,641,632,695,903,0,0,0,30.14,1020.1,54,CLR,Few High Clouds,3-Nov-19,13
KNIP 04/Dec/2016 13,1406,JAC2016,4-Dec-16,4-Dec-16,4-Dec-16,1:00,13,DEN,-3.5,JAX,30,U,38.5,2016,Week 13,63075,JAX,3.5,-3.5,LAR,10,20,Y,64428,0,21,75,0,Jacksonville,KNIP,KNIP4270813,KNIP,O,4-Dec-16,EST,30.234,-81.675,20,78,58,69,79,58,64,55,60,90,54,74,68,57,63,17,9,140,17,64,10,1767,317,2084,111,618,0,0,30.15,30.01,30.07,1020.6,1015.6,1017.8,52,PC,High Clouds,KNIP,O,EST,30.234,-81.675,20,76,78,59,56,65,180,12,100,250,BKN,10,180,53,233,529,582,755,0,0,0,30.06,1017.5,42,MC,Mostly Cloudy,4-Dec-16,13
KNIP 05/Dec/2013 20,1407,JAC2013,5-Dec-13,5-Dec-13,5-Dec-13,8:25,20,HOU,-3,JAX,47,O,43.5,2013,Week 14,60414,JAX,3,-3,GB,27,20,Y,67246,0,18,72,0,Jacksonville,KNIP,KNIP4161320,KNIP,O,5-Dec-13,EST,30.234,-81.675,20,83,62,72,84,63,65,60,63,93,51,75,70,61,66,10,6,166,10,42,9.4,2546,317,2863,191,617,0,0,30.19,30.1,30.14,1022,1018.7,1020,52,PC,High Clouds,KNIP,O,EST,30.234,-81.675,20,73,77,64,74,67,160,9,75,250,BKN,10,0,0,0,0,0,0,0,0,0,30.14,1020,52,PC,High Clouds,5-Dec-13,20
KNIP 05/Nov/2017 13,1408,JAC2017,5-Nov-17,5-Nov-17,5-Nov-17,1:00,13,JAX,-5.5,CIN,30,U,38,2017,Week 9,60720,JAX,-5.5,5.5,DAL,23,7,Y,64428,0,22,79,0,Jacksonville,KNIP,KNIP4304413,KNIP,O,5-Nov-17,EST,30.234,-81.675,20,80,66,72,83,66,69,64,68,100,69,87,72,65,69,15,10,12,15,81,7.7,2559,398,2958,159,652,0,0,30.11,30.06,30.08,1019.2,1017.3,1018.2,40,MC,Overcast,KNIP,O,EST,30.234,-81.675,20,79,83,69,72,72,30,12,95,60,BKN,10,327,62,389,623,685,890,0,0,0,30.08,1018,42,MC,Mostly Cloudy,5-Nov-17,13
KNIP 05/Oct/2014 13,1409,JAC2014,5-Oct-14,5-Oct-14,5-Oct-14,1:00,13,PIT,-6,JAX,26,U,47.5,2014,Week 5,66198,JAX,6,-6,MIA,9,17,Y,67297,0,19,73,0,Jacksonville,KNIP,KNIP4191713,KNIP,O,5-Oct-14,EST,30.234,-81.675,20,76,59,68,76,58,53,35,42,61,23,40,59,52,54,16,8,356,16,1,10,5330,535,5865,701,704,0,0,30.08,29.97,30.03,1018.2,1014.5,1016.4,46,CLR,Fair,KNIP,O,EST,30.234,-81.675,20,73,74,35,25,54,50,5,0,201,CLR,10,779,78,857,779,857,1113,0,0,0,30.04,1016.8,46,CLR,Fair,5-Oct-14,13
KNIP 07/Dec/2014 13,1410,JAC2014,7-Dec-14,7-Dec-14,7-Dec-14,1:00,13,HOU,-6.5,JAX,40,U,42,2014,Week 14,61070,JAX,6.5,-6.5,NYG,13,27,Y,67297,0,19,58,0,Jacksonville,KNIP,KNIP4198013,KNIP,O,7-Dec-14,EST,30.234,-81.675,20,68,58,62,68,54,63,51,55,87,67,78,65,54,58,22,15,0,30,100,9.1,1548,316,1865,0,616,0.02,0,30.2,30.08,30.15,1022.3,1018.1,1020.4,40,MC,Overcast,KNIP,O,EST,30.234,-81.675,20,62,60,51,67,56,10,18,100,25,OVC,10,263,53,316,526,579,751,0,0,0,30.15,1020.6,40,MC,Overcast,7-Dec-14,13
KNIP 08/Dec/2019 13,1411,JAC2019,8-Dec-19,8-Dec-19,8-Dec-19,1:00,13,LAC,-1,JAX,55,O,31,2019,Week 14,57866,JAX,1,-1,WAS,10,45,Y,67814,0,24,77,0,Jacksonville,KNIP,KNIP4380713,KNIP,O,8-Dec-19,EST,30.217,-81.667,23,67,58,63,66,58,61,55,58,90,75,84,62,57,60,15,10,35,18,80,9.6,1476,314,1793,0,615,0,0,30.27,30.18,30.22,1024.7,1021.6,1022.7,40,MC,Overcast,KNIP,O,EST,30.217,-81.667,23,64,63,58,81,60,40,15,100,14,OVC,10,262,52,314,525,577,750,0,0,0,30.23,1023.1,40,MC,Overcast,8-Dec-19,13
KNIP 08/Sep/2013 13,1412,JAC2013,8-Sep-13,8-Sep-13,8-Sep-13,1:00,13,KC,-3.5,JAX,30,U,42.5,2013,Week 1,59416,JAX,3.5,-3.5,DET,2,28,Y,67246,0,18,87,0,Jacksonville,KNIP,KNIP4152513,KNIP,O,8-Sep-13,EST,30.234,-81.675,20,89,73,81,89,73,72,61,68,94,42,67,74,70,72,13,7,53,13,7,9.8,6126,655,6782,651,752,0,0,30.01,29.94,29.98,1015.8,1013.2,1014.6,46,CLR,Fair,KNIP,O,EST,30.234,-81.675,20,87,89,64,46,72,30,9,5,50,FEW,10,882,90,972,905,995,1292,0,0,0,29.97,1014.5,46,CLR,Fair,8-Sep-13,13
KNIP 08/Sep/2019 13,1413,JAC2019,8-Sep-19,8-Sep-19,8-Sep-19,1:03,13,KC,-3.5,JAX,66,O,49,2019,Week 1,60157,JAX,3.5,-3.5,LAR,26,40,Y,67814,0,24,61,0,Jacksonville,KNIP,KNIP4371613,KNIP,O,8-Sep-19,EST,30.217,-81.667,23,96,76,86,100,76,75,63,70,82,34,60,78,72,75,12,6,147,12,5,9.9,6378,655,7033,699,752,0,0,30.06,29.96,30,1017.3,1013.9,1015.5,46,CLR,Fair,KNIP,O,EST,30.217,-81.667,23,94,100,68,43,76,120,7,5,50,FEW,10,882,90,972,905,995,1293,0,0,0,30.01,1015.6,45,CLR,Mostly Clear,8-Sep-19,13
KNIP 09/Nov/2014 13,1414,JAC2014,9-Nov-14,9-Nov-14,9-Nov-14,1:00,13,DAL,-7.5,JAX,48,O,45,2014,Week 10,83603,JAX,7.5,-7.5,IND,17,31,Y,67297,0,19,42,0,Jacksonville,KNIP,KNIP4195213,KNIP,O,9-Nov-14,EST,30.234,-81.675,20,71,59,65,71,58,59,50,55,84,57,71,62,55,59,14,9,359,14,68,10,2565,384,2949,162,645,0.08,0,29.98,29.9,29.94,1014.6,1012.1,1013.2,42,MC,Mostly Cloudy,KNIP,O,EST,30.234,-81.675,20,70,70,55,59,61,30,10,100,250,BKN,10,315,61,376,606,667,866,0,0,0,29.92,1012.8,42,MC,Mostly Cloudy,9-Nov-14,13
KNIP 10/Dec/2017 16,1415,JAC2017,10-Dec-17,10-Dec-17,10-Dec-17,4:25,16,JAX,-2.5,SEA,54,O,41,2017,Week 14,64431,JAX,-2.5,2.5,SEA,30,24,Y,64428,0,22,58,0,Jacksonville,KNIP,KNIP4307916,KNIP,O,10-Dec-17,EST,30.234,-81.675,20,54,37,44,54,30,36,26,30,79,35,59,43,34,38,12,8,295,12,0,10,3113,310,3423,614,614,0,0,30.35,30.21,30.28,1027.1,1022.5,1024.9,46,CLR,Fair,KNIP,O,EST,30.234,-81.675,20,54,53,27,35,43,270,5,0,201,CLR,10,158,16,174,158,174,226,0,0,0,30.26,1024.1,46,CLR,Fair,10-Dec-17,16
KNIP 11/Dec/2016 13,1416,JAC2016,11-Dec-16,11-Dec-16,11-Dec-16,1:00,13,MIN,-3.5,JAX,41,O,38,2016,Week 14,62701,JAX,3.5,-3.5,DEN,16,25,Y,64428,0,21,66,0,Jacksonville,KNIP,KNIP4271513,KNIP,O,11-Dec-16,EST,30.234,-81.675,20,74,49,61,77,44,62,45,54,90,57,78,65,47,56,15,7,8,15,59,10,2687,310,2997,392,614,0,0,30.35,30.2,30.28,1027.3,1022.2,1024.8,42,MC,Mostly Cloudy,KNIP,O,EST,30.234,-81.675,20,70,70,56,61,62,120,5,30,250,SCT,10,463,52,515,520,572,743,0,0,0,30.28,1024.8,54,CLR,Few High Clouds,11-Dec-16,13
KNIP 11/Sep/2016 13,1417,JAC2016,11-Sep-16,11-Sep-16,11-Sep-16,1:00,13,GB,-3.5,JAX,50,O,47.5,2016,Week 1,63179,JAX,3.5,-3.5,CHI,23,27,Y,64428,0,21,91,0,Jacksonville,KNIP,KNIP4262413,KNIP,O,11-Sep-16,EST,30.234,-81.675,20,95,79,85,103,79,76,69,74,88,47,70,78,76,77,15,6,119,15,40,10,5584,640,6224,445,747,0,0,30.12,30.02,30.08,1019.3,1016.2,1018.1,45,CLR,Mostly Clear,KNIP,O,EST,30.234,-81.675,20,92,98,69,47,76,140,5,40,250,SCT,10,746,89,835,888,977,1269,0,0,0,30.08,1018.1,44,PC,Partly Cloudy,11-Sep-16,13
KNIP 12/Nov/2017 13,1418,JAC2017,12-Nov-17,12-Nov-17,12-Nov-17,1:00,13,JAX,-5,LAC,37,U,40.5,2017,Week 10,60835,JAX,-5,5,BAL,20,17,N,64428,0,22,57,0,Jacksonville,KNIP,KNIP4305113,KNIP,O,12-Nov-17,EST,30.234,-81.675,20,80,65,71,81,64,67,62,64,93,56,80,69,64,67,14,11,32,14,52,9.8,2983,373,3355,353,641,0,0,30.27,30.18,30.23,1024.5,1021.5,1023,44,PC,Partly Cloudy,KNIP,O,EST,30.234,-81.675,20,79,81,62,56,68,50,12,45,85,SCT,10,460,59,519,594,653,848,0,0,0,30.21,1022.5,44,PC,Partly Cloudy,12-Nov-17,13
KNIP 13/Dec/2015 13,1419,JAC2015,13-Dec-15,13-Dec-15,13-Dec-15,1:00,13,JAX,-1,IND,67,O,46,2015,Week 14,62372,JAX,-1,1,HOU,51,16,Y,66851,0,20,77,0,Jacksonville,KNIP,KNIP4235113,KNIP,O,13-Dec-15,EST,30.234,-81.675,20,82,65,72,83,67,68,63,65,91,58,79,71,65,68,15,7,93,15,57,8.9,2240,309,2549,226,613,0.06,0,30.19,30.02,30.11,1021.9,1016,1019.2,46,CLR,Fair,KNIP,O,EST,30.234,-81.675,20,80,82,64,58,70,120,15,100,250,BKN,10,177,52,229,520,572,743,0,0,0,30.1,1018.8,42,MC,Mostly Cloudy,13-Dec-15,13
KNIP 13/Nov/2016 13,1420,JAC2016,13-Nov-16,13-Nov-16,13-Nov-16,1:00,13,JAX,-3,HOU,45,O,42,2016,Week 10,62091,JAX,-3,3,PHI,21,24,N,64428,0,21,71,0,Jacksonville,KNIP,KNIP4268713,KNIP,O,13-Nov-16,EST,30.234,-81.675,20,73,60,66,77,61,61,52,58,87,66,77,66,58,62,17,12,14,17,90,9.9,2632,367,2999,126,640,0,0,30.17,30.07,30.11,1021,1017.9,1019.2,40,MC,Overcast,KNIP,O,EST,30.234,-81.675,20,72,72,61,69,65,20,13,100,250,BKN,10,346,59,405,586,645,837,0,0,0,30.1,1018.8,52,PC,High Clouds,13-Nov-16,13
KNIP 13/Oct/2019 13,1421,JAC2019,13-Oct-19,13-Oct-19,13-Oct-19,1:00,13,NO,-4,JAX,19,O,55,2019,Week 6,64341,JAX,4,-4,NO,6,13,Y,67814,0,24,40,0,Jacksonville,KNIP,KNIP4375113,KNIP,O,13-Oct-19,EST,30.217,-81.667,23,84,70,76,86,70,67,63,65,87,51,70,72,67,69,14,8,166,14,21,10,4349,498,4848,442,689,0,0,30.09,30.02,30.05,1018.3,1016,1017.1,46,CLR,Fair,KNIP,O,EST,30.217,-81.667,23,83,85,63,51,70,180,5,20,44,SCT,10,663,74,737,737,811,1053,0,0,0,30.05,1017,44,PC,Partly Cloudy,13-Oct-19,13
KNIP 13/Sep/2015 13,1422,JAC2015,13-Sep-15,13-Sep-15,13-Sep-15,1:00,13,CAR,-3,JAX,29,U,41,2015,Week 1,60733,JAX,3,-3,HOU,9,20,Y,66851,0,20,81,0,Jacksonville,KNIP,KNIP4226013,KNIP,O,13-Sep-15,EST,30.234,-81.675,20,86,75,79,85,75,72,52,61,89,35,58,74,63,68,14,7,346,14,62,10,4122,634,4757,166,744,0,0,30.08,29.87,29.97,1018.1,1011.1,1014.3,52,PC,High Clouds,KNIP,O,EST,30.234,-81.675,20,82,82,58,44,67,10,7,75,250,BKN,10,676,88,764,884,972,1263,0,0,0,29.97,1014.5,52,PC,High Clouds,13-Sep-15,13
KNIP 15/Dec/2013 13,1423,JAC2013,15-Dec-13,15-Dec-13,15-Dec-13,1:00,13,BUF,-4,JAX,47,O,43.5,2013,Week 15,60085,JAX,4,-4,HOU,20,27,Y,67246,0,18,66,0,Jacksonville,KNIP,KNIP4162313,KNIP,O,15-Dec-13,EST,30.234,-81.675,20,68,50,61,68,48,65,40,54,93,66,80,66,46,58,24,9,294,37,95,9.4,662,308,970,0,612,0.14,0,30.19,29.87,30.01,1021.8,1011.2,1015.8,42,MC,Mostly Cloudy,KNIP,O,EST,30.234,-81.675,20,65,65,57,76,60,290,8,100,250,BKN,10,49,52,101,519,571,742,0,0,0,29.98,1014.8,42,MC,Mostly Cloudy,15-Dec-13,13
KNIP 15/Oct/2017 16,1424,JAC2017,15-Oct-17,15-Oct-17,15-Oct-17,4:05,16,JAX,-1,LAR,44,O,42,2017,Week 6,56232,JAX,-1,1,NYG,17,27,Y,64428,0,22,85,0,Jacksonville,KNIP,KNIP4302316,KNIP,O,15-Oct-17,EST,30.234,-81.675,20,88,76,81,95,76,76,72,74,94,63,81,77,74,76,13,7,49,13,53,9.9,2577,488,3065,130,686,0,0,30.14,30.03,30.08,1020.2,1016.5,1018.2,42,MC,Mostly Cloudy,KNIP,O,EST,30.234,-81.675,20,86,93,73,65,77,80,10,40,45,SCT,10,230,29,259,287,316,411,0,0,0,30.03,1016.5,44,PC,Partly Cloudy,15-Oct-17,16
KNIP 16/Dec/2018 13,1425,JAC2018,16-Dec-18,16-Dec-18,16-Dec-18,1:00,13,JAX,-7.5,WAS,29,U,36.5,2018,Week 15,67577,JAX,-7.5,7.5,WAS,13,16,N,67814,0,23,84,0,Jacksonville,KNIP,KNIP4345013,KNIP,O,16-Dec-18,EST,30.217,-81.667,23,67,50,59,66,51,56,46,50,93,54,74,58,49,54,15,8,292,21,39,10,2512,308,2820,431,613,0,0,30.15,30.04,30.1,1021,1017.1,1019.2,46,CLR,Fair,KNIP,O,EST,30.217,-81.667,23,64,63,49,58,56,260,13,35,260,OVC,10,428,52,480,519,571,741,0,0,0,30.07,1018.2,40,MC,Overcast,16-Dec-18,13
KNIP 16/Sep/2018 16,1426,JAC2018,16-Sep-18,16-Sep-18,16-Sep-18,4:25,16,NE,-1.5,JAX,51,O,44.5,2018,Week 2,68527,JAX,1.5,-1.5,NE,31,20,Y,67814,0,23,65,0,Jacksonville,KNIP,KNIP4335916,KNIP,O,16-Sep-18,EST,30.217,-81.667,23,97,79,86,108,79,79,72,76,97,46,73,82,76,79,16,9,230,25,54,10,4429,621,5050,313,738,0,0,29.93,29.78,29.84,1013.1,1008.1,1010,45,CLR,Mostly Clear,KNIP,O,EST,30.217,-81.667,23,89,98,74,61,78,200,12,100,250,BKN,10,127,44,171,437,481,625,0,0,0,29.82,1009.2,31,TSTM,Thunder,16-Sep-18,16
KNIP 17/Dec/2017 13,1427,JAC2017,17-Dec-17,17-Dec-17,17-Dec-17,1:00,13,JAX,-10.5,HOU,52,O,39,2017,Week 15,64701,JAX,-10.5,10.5,DEN,45,7,Y,64428,0,22,51,0,Jacksonville,KNIP,KNIP4308613,KNIP,O,17-Dec-17,EST,30.234,-81.675,20,78,51,63,79,51,61,45,51,93,47,68,65,48,56,8,4,136,8,72,9.9,1936,307,2243,18,612,0,0,30.31,30.2,30.25,1026,1022.1,1023.8,52,PC,High Clouds,KNIP,O,EST,30.234,-81.675,20,76,78,56,50,64,180,6,95,250,BKN,10,361,52,413,519,571,741,0,0,0,30.23,1023.2,52,PC,High Clouds,17-Dec-17,13
KNIP 17/Nov/2013 13,1428,JAC2013,17-Nov-13,17-Nov-13,17-Nov-13,1:00,13,ARI,-9,JAX,41,O,40.5,2013,Week 11,59862,JAX,9,-9,PIT,14,27,Y,67246,0,18,79,0,Jacksonville,KNIP,KNIP4159513,KNIP,O,17-Nov-13,EST,30.234,-81.675,20,81,68,73,84,68,70,65,68,93,67,83,73,66,69,9,5,165,9,94,9.2,1637,359,1997,24,635,0.21,0,30.12,30.02,30.07,1019.6,1016,1017.8,42,MC,Mostly Cloudy,KNIP,O,EST,30.234,-81.675,20,77,81,70,79,72,170,9,90,60,BKN,10,316,58,374,575,633,822,0,0,0,30.06,1017.5,42,MC,Mostly Cloudy,17-Nov-13,13
KNIP 17/Sep/2017 13,1429,JAC2017,17-Sep-17,17-Sep-17,17-Sep-17,1:00,13,TEN,-1.5,JAX,53,O,41.5,2017,Week 2,61709,JAX,1.5,-1.5,BUF,16,37,Y,64428,0,22,58,0,Jacksonville,KNIP,KNIP4299513,KNIP,O,17-Sep-17,EST,30.234,-81.675,20,89,74,81,93,75,72,67,70,90,48,71,75,72,73,14,9,7,14,9,9.8,5565,617,6182,616,736,0,0,30.06,29.97,30.01,1017.4,1014.4,1015.8,46,CLR,Fair,KNIP,O,EST,30.234,-81.675,20,89,93,67,48,74,40,13,40,65,SCT,10,694,87,781,867,954,1238,0,0,0,30.02,1016.1,44,PC,Partly Cloudy,17-Sep-17,13
KNIP 18/Dec/2014 20,1430,JAC2014,18-Dec-14,18-Dec-14,18-Dec-14,8:25,20,JAX,-4.5,TEN,34,U,39,2014,Week 16,61202,JAX,-4.5,4.5,CLE,21,13,Y,67297,0,19,54,0,Jacksonville,KNIP,KNIP4199120,KNIP,O,18-Dec-14,EST,30.234,-81.675,20,66,48,56,65,48,46,41,43,77,44,63,54,46,50,8,3,300,8,69,10,2295,306,2601,117,612,0,0,30.21,30.1,30.14,1022.5,1018.8,1020.3,52,PC,High Clouds,KNIP,O,EST,30.234,-81.675,20,60,60,46,60,53,310,5,91,250,BKN,10,0,0,0,0,0,0,0,0,0,30.13,1019.9,52,PC,High Clouds,18-Dec-14,20
KNIP 18/Nov/2018 13,1431,JAC2018,18-Nov-18,18-Nov-18,18-Nov-18,1:00,13,PIT,-4,JAX,36,U,47,2018,Week 11,67683,JAX,4,-4,PIT,16,20,N,67814,0,23,75,0,Jacksonville,KNIP,KNIP4342213,KNIP,O,18-Nov-18,EST,30.217,-81.667,23,77,58,66,79,56,65,57,61,97,56,85,68,57,63,12,7,358,12,65,9.6,2595,356,2951,128,634,0,0,30.22,30.12,30.16,1022.8,1019.5,1020.9,52,PC,High Clouds,KNIP,O,EST,30.217,-81.667,23,75,78,61,62,66,10,7,90,250,BKN,10,395,57,452,572,629,817,0,0,0,30.16,1020.9,52,PC,High Clouds,18-Nov-18,13
KNIP 18/Oct/2015 13,1432,JAC2015,18-Oct-15,18-Oct-15,18-Oct-15,1:00,13,JAX,-3,HOU,51,O,43,2015,Week 6,58085,JAX,-3,3,KC,20,31,Y,66851,0,20,70,0,Jacksonville,KNIP,KNIP4229513,KNIP,O,18-Oct-15,EST,30.234,-81.675,20,76,64,70,78,65,57,49,54,68,50,57,65,57,61,26,17,23,33,60,10,2144,475,2619,49,681,0,0,30.32,30.13,30.23,1026.2,1019.8,1023.4,52,PC,High Clouds,KNIP,O,EST,30.234,-81.675,20,73,77,57,57,64,30,25,100,250,BKN,10,242,71,313,711,782,1016,0,0,0,30.25,1024,42,MC,Mostly Cloudy,18-Oct-15,13
KNIP 19/Nov/2015 20,1433,JAC2015,19-Nov-15,19-Nov-15,19-Nov-15,8:25,20,JAX,-3,TEN,32,U,41.5,2015,Week 11,60121,JAX,-3,3,TEN,19,13,Y,66851,0,20,71,0,Jacksonville,KNIP,KNIP4232720,KNIP,O,19-Nov-15,EST,30.234,-81.675,20,81,73,76,86,73,74,69,72,91,79,88,76,71,73,10,6,224,25,99,8.3,848,352,1201,0,632,0.72,0,30.09,30.01,30.04,1018.4,1015.6,1016.8,40,MC,Overcast,KNIP,O,EST,30.234,-81.675,20,75,79,72,89,73,330,10,100,120,OVC,10,0,0,0,0,0,0,0,0,0,30.06,1017.4,40,MC,Overcast,19-Nov-15,20
KNIP 19/Oct/2014 13,1434,JAC2014,19-Oct-14,19-Oct-14,19-Oct-14,1:00,13,CLE,-4.5,JAX,30,U,45,2014,Week 7,61341,JAX,4.5,-4.5,ARI,24,6,Y,67297,0,19,74,0,Jacksonville,KNIP,KNIP4193113,KNIP,O,19-Oct-14,EST,30.234,-81.675,20,80,66,72,80,65,61,52,56,73,41,58,65,58,63,16,11,12,16,44,10,3853,469,4322,319,679,0,0,30.1,29.97,30.05,1018.9,1014.4,1017.1,52,PC,High Clouds,KNIP,O,EST,30.234,-81.675,20,79,79,53,41,64,50,12,25,250,SCT,10,646,71,717,706,777,1009,0,0,0,30.06,1017.4,54,CLR,Few High Clouds,19-Oct-14,13
KNIP 19/Sep/2019 20,1435,JAC2019,19-Sep-19,19-Sep-19,19-Sep-19,8:20,20,TEN,-1.5,JAX,27,U,38,2019,Week 3,58613,JAX,1.5,-1.5,TEN,20,7,Y,67814,0,24,64,0,Jacksonville,KNIP,KNIP4372720,KNIP,O,19-Sep-19,EST,30.217,-81.667,23,85,70,78,86,70,70,61,65,90,49,65,72,67,70,20,13,47,33,75,8.8,3890,608,4497,226,732,0.55,0,30.14,30.03,30.09,1020.2,1016.5,1018.5,42,MC,Mostly Cloudy,KNIP,O,EST,30.217,-81.667,23,74,78,67,79,69,50,16,100,250,BKN,7,0,0,0,0,0,0,0,0,0,30.12,1019.4,42,MC,Mostly Cloudy,19-Sep-19,20
KNIP 20/Dec/2015 13,1436,JAC2015,20-Dec-15,20-Dec-15,20-Dec-15,1:00,13,JAX,-2,ATL,40,U,48,2015,Week 15,64016,JAX,-2,2,TEN,17,23,Y,66851,0,20,68,0,Jacksonville,KNIP,KNIP4235813,KNIP,O,20-Dec-15,EST,30.234,-81.675,20,70,50,60,70,45,57,32,46,84,40,60,60,43,52,14,10,12,24,32,10,2689,306,2996,396,612,0,0,30.49,30.34,30.43,1031.9,1026.9,1030,46,CLR,Fair,KNIP,O,EST,30.234,-81.675,20,70,70,50,49,59,90,12,10,250,FEW,10,498,52,550,519,571,741,0,0,0,30.41,1029.1,45,CLR,Mostly Clear,20-Dec-15,13
KNIP 20/Oct/2013 13,1437,JAC2013,20-Oct-13,20-Oct-13,20-Oct-13,1:00,13,LAC,-7,JAX,30,U,45,2013,Week 7,59550,JAX,7,-7,CAR,6,24,Y,67246,0,18,77,0,Jacksonville,KNIP,KNIP4156713,KNIP,O,20-Oct-13,EST,30.234,-81.675,20,79,69,74,80,69,68,58,62,88,54,69,72,63,67,15,10,15,15,96,10,2112,466,2578,9,677,0.02,0,30.02,29.91,29.98,1016.2,1012.5,1014.7,42,MC,Mostly Cloudy,KNIP,O,EST,30.234,-81.675,20,78,80,61,56,67,30,8,95,250,BKN,10,487,70,557,701,771,1001,0,0,0,29.99,1015,52,PC,High Clouds,20-Oct-13,13
KNIP 20/Sep/2015 16,1438,JAC2015,20-Sep-15,20-Sep-15,20-Sep-15,4:05,16,MIA,-6,JAX,43,O,42,2015,Week 2,65443,JAX,6,-6,DEN,23,20,N,66851,0,20,83,0,Jacksonville,KNIP,KNIP4226716,KNIP,O,20-Sep-15,EST,30.234,-81.675,20,94,76,84,96,76,72,64,69,85,38,63,75,72,74,10,6,47,10,15,10,5509,604,6113,588,731,0,0,29.98,29.87,29.93,1014.9,1011,1013,45,CLR,Mostly Clear,KNIP,O,EST,30.234,-81.675,20,93,96,64,38,74,100,9,25,250,SCT,10,381,42,423,416,458,594,0,0,0,29.9,1011.9,54,CLR,Few High Clouds,20-Sep-15,16
KNIP 21/Oct/2018 13,1439,JAC2018,21-Oct-18,21-Oct-18,21-Oct-18,1:00,13,JAX,-3.5,HOU,27,U,42.5,2018,Week 7,66534,JAX,-3.5,3.5,HOU,7,20,Y,67814,0,23,74,0,Jacksonville,KNIP,KNIP4339413,KNIP,O,21-Oct-18,EST,30.217,-81.667,23,76,63,69,81,62,70,50,55,85,50,62,72,56,61,21,15,4,23,40,10,4038,462,4500,478,676,0,0,30.19,29.97,30.11,1022,1014.5,1019.1,44,PC,Partly Cloudy,KNIP,O,EST,30.217,-81.667,23,72,72,52,50,60,20,18,40,250,SCT,10,585,70,655,696,766,994,0,0,0,30.12,1019.6,44,PC,Partly Cloudy,21-Oct-18,13
KNIP 21/Sep/2014 13,1440,JAC2014,21-Sep-14,21-Sep-14,21-Sep-14,1:00,13,IND,-6.5,JAX,61,O,45,2014,Week 3,60601,JAX,6.5,-6.5,TEN,17,44,Y,67297,0,19,85,0,Jacksonville,KNIP,KNIP4190313,KNIP,O,21-Sep-14,EST,30.234,-81.675,20,91,70,80,90,70,66,56,62,82,32,58,70,66,69,14,7,348,14,8,10,5840,598,6438,655,729,0,0,30.05,29.94,30,1017.1,1013.5,1015.3,45,CLR,Mostly Clear,KNIP,O,EST,30.234,-81.675,20,86,87,61,43,70,0,0,5,250,FEW,10,835,85,920,848,933,1212,0,0,0,30,1015.4,45,CLR,Mostly Clear,21-Sep-14,13
KNIP 22/Dec/2013 13,1441,JAC2013,22-Dec-13,22-Dec-13,22-Dec-13,1:00,13,TEN,-4.5,JAX,36,U,44,2013,Week 16,60559,JAX,4.5,-4.5,IND,16,20,N,67246,0,18,82,0,Jacksonville,KNIP,KNIP4163013,KNIP,O,22-Dec-13,EST,30.234,-81.675,20,84,69,75,85,69,68,66,67,93,58,78,71,68,70,15,9,175,15,70,9.9,1564,305,1869,38,612,0,0,30.15,30.08,30.11,1020.5,1018.1,1019.2,42,MC,Mostly Cloudy,KNIP,O,EST,30.234,-81.675,20,78,81,67,69,71,170,10,100,250,BKN,10,177,52,229,520,572,742,0,0,0,30.11,1019,42,MC,Mostly Cloudy,22-Dec-13,13
KNIP 23/Oct/2016 13,1442,JAC2016,23-Oct-16,23-Oct-16,23-Oct-16,1:00,13,JAX,-2,OAK,49,O,47.5,2016,Week 7,62614,JAX,-2,2,NYG,16,33,Y,64428,0,21,72,0,Jacksonville,KNIP,KNIP4266613,KNIP,O,23-Oct-16,EST,30.234,-81.675,20,75,56,65,76,54,51,39,45,64,36,50,60,49,54,14,8,9,14,1,10,4442,447,4889,665,672,0,0,30.27,30.12,30.22,1024.7,1019.3,1022.8,46,CLR,Fair,KNIP,O,EST,30.234,-81.675,20,74,76,46,37,59,40,10,0,201,CLR,10,681,68,749,681,749,972,0,0,0,30.24,1023.6,46,CLR,Fair,23-Oct-16,13
KNIP 23/Sep/2018 13,1443,JAC2018,23-Sep-18,23-Sep-18,23-Sep-18,1:00,13,JAX,-10,TEN,15,U,39.5,2018,Week 3,64015,JAX,-10,10,TEN,6,9,N,67814,0,23,53,0,Jacksonville,KNIP,KNIP4336613,KNIP,O,23-Sep-18,EST,30.217,-81.667,23,92,77,83,98,78,74,69,72,85,48,70,76,75,76,13,6,95,13,33,10,4268,588,4856,411,725,0,0,30.07,29.99,30.03,1017.7,1015,1016.3,45,CLR,Mostly Clear,KNIP,O,EST,30.217,-81.667,23,90,96,69,50,76,110,9,40,250,SCT,10,705,84,789,839,923,1199,0,0,0,30.03,1016.4,44,PC,Partly Cloudy,23-Sep-18,13
KNIP 24/Dec/2016 13,1444,JAC2016,24-Dec-16,24-Dec-16,24-Dec-16,1:00,13,TEN,-4.5,JAX,55,O,44,2016,Week 16,59621,JAX,4.5,-4.5,DEN,38,17,Y,64428,0,21,65,0,Jacksonville,KNIP,KNIP4272813,KNIP,O,24-Dec-16,EST,30.234,-81.675,20,78,57,64,79,56,63,57,60,100,56,87,67,57,61,7,4,19,7,46,5.4,2497,305,2802,378,612,0,0,30.33,30.26,30.29,1026.7,1024.1,1025.1,46,CLR,Fair,KNIP,O,EST,30.234,-81.675,20,71,71,61,71,65,10,5,5,25,FEW,8,508,52,560,521,573,744,0,0,0,30.29,1025.2,46,CLR,Fair,24-Dec-16,13
KNIP 24/Sep/2017 21,1445,JAC2017,24-Sep-17,24-Sep-17,24-Sep-17,9:30,21,BAL,-3,JAX,51,O,35,2017,Week 3,84592,JAX,3,-3,MIN,44,7,Y,64428,0,22,39,0,Jacksonville,KNIP,KNIP4300221,KNIP,O,24-Sep-17,EST,30.234,-81.675,20,87,79,82,92,79,74,70,72,82,61,72,77,74,75,18,11,38,18,60,10,2079,585,2664,105,724,0,0,29.97,29.91,29.93,1014.5,1012.3,1013.1,42,MC,Mostly Cloudy,KNIP,O,EST,30.234,-81.675,20,79,83,72,79,74,30,10,25,250,SCT,10,0,0,0,0,0,0,0,0,0,29.93,1013.1,54,CLR,Few High Clouds,24-Sep-17,21
KNIP 25/Sep/2016 13,1446,JAC2016,25-Sep-16,25-Sep-16,25-Sep-16,1:00,13,BAL,-2,JAX,36,U,45,2016,Week 3,60127,JAX,2,-2,TB,17,19,N,64428,0,21,87,0,Jacksonville,KNIP,KNIP4263813,KNIP,O,25-Sep-16,EST,30.234,-81.675,20,91,77,83,96,78,74,70,72,85,52,70,77,75,76,15,7,24,15,53,10,4472,576,5048,265,722,0,0,30.07,29.99,30.03,1017.8,1015.1,1016.5,52,PC,High Clouds,KNIP,O,EST,30.234,-81.675,20,90,96,70,52,76,60,9,90,250,BKN,10,569,82,651,825,907,1178,0,0,0,30.03,1016.6,52,PC,High Clouds,25-Sep-16,13
KNIP 26/Oct/2014 13,1447,JAC2014,26-Oct-14,26-Oct-14,26-Oct-14,1:00,13,MIA,-6.5,JAX,40,U,42,2014,Week 8,65633,JAX,6.5,-6.5,MIN,13,27,Y,67297,0,19,81,0,Jacksonville,KNIP,KNIP4193813,KNIP,O,26-Oct-14,EST,30.234,-81.675,20,83,56,70,82,55,63,49,54,78,40,60,67,52,61,10,4,200,10,0,9.9,4366,439,4805,664,667,0,0,30.03,29.95,29.99,1016.3,1013.7,1015.1,46,CLR,Fair,KNIP,O,EST,30.234,-81.675,20,79,79,54,42,64,100,8,0,201,CLR,10,670,67,737,670,737,958,0,0,0,29.98,1014.8,46,CLR,Fair,26-Oct-14,13
KNIP 27/Oct/2019 13,1448,JAC2019,27-Oct-19,27-Oct-19,27-Oct-19,1:00,13,JAX,-4,NYJ,44,O,53,2019,Week 8,57833,JAX,-4,4,PHI,29,15,Y,67814,0,24,51,0,Jacksonville,KNIP,KNIP4376513,KNIP,O,27-Oct-19,EST,30.217,-81.667,23,83,76,79,90,76,74,72,73,91,72,83,77,73,75,12,8,204,12,78,9.8,1827,435,2263,8,665,0.01,0,30.01,29.91,29.96,1015.8,1012.4,1014.2,42,MC,Mostly Cloudy,KNIP,O,EST,30.217,-81.667,23,83,90,74,74,77,220,8,100,250,BKN,10,210,67,277,666,733,951,0,0,0,29.96,1013.9,18,RAIN,Light Rain,27-Oct-19,13
KNIP 29/Nov/2015 13,1449,JAC2015,29-Nov-15,29-Nov-15,29-Nov-15,1:00,13,JAX,-5,LAC,56,O,47,2015,Week 12,59477,JAX,-5,5,GB,25,31,Y,66851,0,20,75,0,Jacksonville,KNIP,KNIP4233713,KNIP,O,29-Nov-15,EST,30.234,-81.675,20,78,61,69,79,63,62,53,58,87,44,71,65,60,63,9,5,15,9,49,9.9,3007,329,3336,455,622,0,0,30.2,30.1,30.15,1022.3,1018.7,1020.5,52,PC,High Clouds,KNIP,O,EST,30.234,-81.675,20,77,78,55,47,64,10,9,10,250,FEW,10,518,54,572,540,594,772,0,0,0,30.14,1020.1,45,CLR,Mostly Clear,29-Nov-15,13
KNIP 29/Sep/2013 13,1450,JAC2013,29-Sep-13,29-Sep-13,29-Sep-13,1:00,13,IND,-9,JAX,40,U,42.5,2013,Week 4,59695,JAX,9,-9,IND,3,37,Y,67246,0,18,80,0,Jacksonville,KNIP,KNIP4154613,KNIP,O,29-Sep-13,EST,30.234,-81.675,20,83,69,76,85,69,69,64,66,90,60,74,72,67,70,18,12,33,18,67,10,2274,562,2836,52,715,0,0,30.05,29.97,30.01,1017,1014.5,1015.9,42,MC,Mostly Cloudy,KNIP,O,EST,30.234,-81.675,20,82,85,67,60,72,40,14,100,250,BKN,10,356,81,437,809,890,1156,0,0,0,30.01,1015.8,42,MC,Mostly Cloudy,29-Sep-13,13
KNIP 30/Nov/2014 13,1451,JAC2014,30-Nov-14,30-Nov-14,30-Nov-14,1:00,13,NYG,-3,JAX,49,O,44,2014,Week 13,64687,JAX,3,-3,JAX,25,24,N,67297,0,19,72,0,Jacksonville,KNIP,KNIP4197313,KNIP,O,30-Nov-14,EST,30.234,-81.675,20,76,50,63,77,50,59,46,53,87,50,73,64,48,57,9,3,89,9,7,9.1,3070,325,3395,557,621,0,0,30.38,30.29,30.33,1028.3,1025.4,1026.6,46,CLR,Fair,KNIP,O,EST,30.234,-81.675,20,75,77,56,52,64,120,6,20,36,SCT,10,484,54,538,538,592,769,0,0,0,30.33,1026.5,44,PC,Partly Cloudy,30-Nov-14,13
KNIP 30/Sep/2018 13,1452,JAC2018,30-Sep-18,30-Sep-18,30-Sep-18,1:00,13,JAX,-7.5,NYJ,43,O,40,2018,Week 4,65353,JAX,-7.5,7.5,NYJ,31,12,Y,67814,0,23,29,0,Jacksonville,KNIP,KNIP4337313,KNIP,O,30-Sep-18,EST,30.217,-81.667,23,89,78,83,97,79,77,73,75,94,63,78,80,76,78,16,8,50,16,74,10,2719,557,3276,56,713,0.01,0,30.19,30.11,30.15,1021.8,1019.2,1020.4,52,PC,High Clouds,KNIP,O,EST,30.217,-81.667,23,87,96,75,67,78,60,13,90,250,BKN,10,555,80,635,805,885,1150,0,0,0,30.15,1020.4,52,PC,High Clouds,30-Sep-18,13
KPHL 01/Dec/2013 13,1453,PHI2013,1-Dec-13,1-Dec-13,1-Dec-13,1:00,13,PHI,-3.5,ARI,45,U,48.5,2013,Week 13,69144,PHI,-3.5,3.5,ARI,24,21,N,69796,0,10,47,0,Philadelphia,KPHL,KPHL4160913,KPHL,O,1-Dec-13,EST,39.872,-75.241,36,48,33,41,48,31,31,25,28,70,46,59,40,31,36,9,4,257,21,69,10,1688,207,1895,267,574,0,0,30.36,30.04,30.18,1028,1017.4,1022,45,CLR,Mostly Clear,KPHL,O,EST,39.872,-75.241,36,46,44,28,50,39,260,5,25,100,SCT,10,320,35,355,350,385,499,0,0,0,30.14,1020.6,45,CLR,Mostly Clear,1-Dec-13,13
KPHL 01/Jan/2017 13,1454,PHI2016,1-Jan-17,1-Jan-17,1-Jan-17,1:00,13,PHI,-6.5,DAL,40,U,44,2016,Week 17,69596,PHI,-6.5,6.5,DAL,27,13,Y,69796,0,13,77,0,Philadelphia,KPHL,KPHL4273613,KPHL,O,1-Jan-17,EST,39.872,-75.241,36,51,33,44,51,29,29,24,26,76,36,49,41,31,37,18,9,254,25,53,10,1631,195,1826,385,565,0,0,30.42,29.93,30.2,1030.1,1013.6,1022.6,45,CLR,Mostly Clear,KPHL,O,EST,39.872,-75.241,36,50,46,28,43,41,270,9,30,45,SCT,10,311,35,346,347,382,495,0,0,0,30.2,1022.6,45,CLR,Mostly Clear,1-Jan-17,13
KPHL 05/Nov/2017 13,1455,PHI2017,5-Nov-17,5-Nov-17,5-Nov-17,1:00,13,PHI,-7,DEN,74,O,41,2017,Week 9,69596,PHI,-7,7,DEN,51,23,Y,69796,0,14,65,0,Philadelphia,KPHL,KPHL4304413,KPHL,O,5-Nov-17,EST,39.872,-75.241,36,68,51,59,67,49,58,48,55,93,73,87,62,50,56,10,6,109,10,100,9.3,1284,282,1565,0,619,0.13,0,30.28,30.03,30.16,1025.2,1016.8,1021.4,40,MC,Overcast,KPHL,O,EST,39.872,-75.241,36,65,65,58,78,61,150,3,100,15,OVC,10,220,44,264,441,485,630,0,0,0,30.16,1021.2,40,MC,Overcast,5-Nov-17,13
KPHL 05/Oct/2014 13,1456,PHI2014,5-Oct-14,5-Oct-14,5-Oct-14,1:00,13,PHI,-4,LAR,62,O,48,2014,Week 5,69596,PHI,-4,4,LAR,34,28,Y,69796,0,11,60,0,Philadelphia,KPHL,KPHL4191713,KPHL,O,5-Oct-14,EST,39.872,-75.241,36,61,43,53,61,39,41,32,35,71,36,52,48,39,45,14,8,254,21,16,10,3851,433,4284,525,694,0,0,30.01,29.81,29.91,1016.1,1009.5,1012.6,45,CLR,Mostly Clear,KPHL,O,EST,39.872,-75.241,36,60,58,35,39,48,230,12,20,50,SCT,10,556,62,618,618,680,883,0,0,0,29.87,1011.6,44,PC,Partly Cloudy,5-Oct-14,13
KPHL 07/Dec/2014 16,1457,PHI2014,7-Dec-14,7-Dec-14,7-Dec-14,4:25,16,SEA,-1.5,PHI,38,U,48,2014,Week 14,69596,PHI,1.5,-1.5,SEA,14,24,Y,69796,0,11,39,0,Philadelphia,KPHL,KPHL4198016,KPHL,O,7-Dec-14,EST,39.872,-75.241,36,48,32,40,48,22,36,7,19,82,28,48,40,26,34,25,18,53,37,40,10,1806,197,2003,404,567,0,0,30.59,30.23,30.44,1035.9,1023.7,1031,45,CLR,Mostly Clear,KPHL,O,EST,39.872,-75.241,36,46,39,15,29,35,200,18,5,250,FEW,10,19,2,21,19,21,28,0,0,0,30.48,1032.3,45,CLR,Mostly Clear,7-Dec-14,16
KPHL 07/Sep/2014 13,1458,PHI2014,7-Sep-14,7-Sep-14,7-Sep-14,1:00,13,PHI,-10,JAX,51,O,50,2014,Week 1,69596,PHI,-10,10,JAX,34,17,Y,69796,0,11,80,0,Philadelphia,KPHL,KPHL4188913,KPHL,O,7-Sep-14,EST,39.872,-75.241,36,83,66,73,82,66,63,50,57,79,35,60,67,62,64,15,7,7,21,80,10,4707,586,5293,272,767,0,0,30.18,29.97,30.09,1022.1,1014.9,1018.9,45,CLR,Mostly Clear,KPHL,O,EST,39.872,-75.241,36,78,79,55,45,64,40,3,60,50,SCT,10,601,78,679,781,859,1116,0,0,0,30.1,1019.3,44,PC,Partly Cloudy,7-Sep-14,13
KPHL 08/Dec/2013 13,1459,PHI2013,8-Dec-13,8-Dec-13,8-Dec-13,1:00,13,PHI,-2.5,DET,54,O,51,2013,Week 14,69144,PHI,-2.5,2.5,DET,34,20,Y,69796,0,10,27,0,Philadelphia,KPHL,KPHL4161613,KPHL,O,8-Dec-13,EST,39.872,-75.241,36,33,27,29,33,18,28,14,21,92,51,72,29,24,27,16,10,27,21,82,5.9,953,196,1147,0,566,0.57,8.6,30.61,30.33,30.52,1036.7,1027,1033.4,42,MC,Mostly Cloudy,KPHL,O,EST,39.872,-75.241,36,27,19,24,89,26,200,8,100,4,VV,0.2,169,34,203,338,372,483,99,0.13,2.2,30.55,1034.7,6,SNOW,Heavy Snow,8-Dec-13,13
KPHL 08/Oct/2017 13,1460,PHI2017,8-Oct-17,8-Oct-17,8-Oct-17,1:00,13,PHI,-6.5,ARI,41,U,45,2017,Week 5,69596,PHI,-6.5,6.5,ARI,34,7,Y,69796,0,14,75,0,Philadelphia,KPHL,KPHL4301613,KPHL,O,8-Oct-17,EST,39.872,-75.241,36,81,74,77,86,74,74,69,71,91,74,83,75,71,73,15,10,206,15,100,9.7,1536,416,1952,0,686,0.02,0,30,29.94,29.96,1015.9,1013.8,1014.7,45,CLR,Mostly Clear,KPHL,O,EST,39.872,-75.241,36,79,83,72,79,74,240,13,100,40,OVC,10,315,60,375,600,660,857,0,0,0,29.95,1014.1,18,RAIN,Light Rain,8-Oct-17,13
KPHL 10/Nov/2014 20,1461,PHI2014,10-Nov-14,10-Nov-14,10-Nov-14,8:30,20,PHI,-7,CAR,66,O,48.5,2014,Week 10,69596,PHI,-7,7,CAR,45,21,Y,69796,0,11,49,0,Philadelphia,KPHL,KPHL4195320,KPHL,O,10-Nov-14,EST,39.872,-75.241,36,63,37,50,63,38,40,31,36,82,37,62,50,35,43,8,2,195,21,11,10,2551,264,2815,521,608,0,0,30.19,30.04,30.14,1022.2,1017.4,1020.6,45,CLR,Mostly Clear,KPHL,O,EST,39.872,-75.241,36,50,50,39,66,45,0,0,5,260,FEW,10,0,0,0,0,0,0,0,0,0,30.18,1021.9,45,CLR,Mostly Clear,10-Nov-14,20
KPHL 11/Dec/2016 13,1462,PHI2016,11-Dec-16,11-Dec-16,11-Dec-16,1:00,13,WAS,-2.5,PHI,49,O,48.5,2016,Week 14,69596,PHI,2.5,-2.5,WAS,22,27,Y,69796,0,13,33,0,Philadelphia,KPHL,KPHL4271513,KPHL,O,11-Dec-16,EST,39.872,-75.241,36,35,26,32,35,22,24,14,18,67,48,55,30,24,27,9,5,167,21,99,9.9,814,191,1003,0,563,0,0,30.59,30.17,30.45,1036,1021.8,1031.3,42,MC,Mostly Cloudy,KPHL,O,EST,39.872,-75.241,36,33,26,15,48,27,200,8,100,100,OVC,10,100,33,133,334,367,478,0,0,0,30.49,1032.4,42,MC,Mostly Cloudy,11-Dec-16,13
KPHL 11/Oct/2015 13,1463,PHI2015,11-Oct-15,11-Oct-15,11-Oct-15,1:00,13,PHI,-6.5,NO,56,O,49.5,2015,Week 5,69296,PHI,-6.5,6.5,NO,39,17,Y,69796,0,12,67,0,Philadelphia,KPHL,KPHL4228813,KPHL,O,11-Oct-15,EST,39.872,-75.241,36,70,47,59,70,47,50,41,45,86,39,63,56,45,51,10,5,240,21,17,10,3587,402,3989,457,679,0,0,30.06,29.89,29.97,1018,1012.3,1014.9,46,CLR,Fair,KPHL,O,EST,39.872,-75.241,36,67,67,43,42,54,190,10,5,250,FEW,10,573,58,631,582,640,831,0,0,0,29.94,1013.9,45,CLR,Mostly Clear,11-Oct-15,13
KPHL 11/Sep/2016 13,1464,PHI2016,11-Sep-16,11-Sep-16,11-Sep-16,1:00,13,PHI,-3.5,CLE,39,U,41,2016,Week 1,69596,PHI,-3.5,3.5,CLE,29,10,Y,69796,0,13,83,0,Philadelphia,KPHL,KPHL4262413,KPHL,O,11-Sep-16,EST,39.872,-75.241,36,85,70,80,86,71,73,45,59,82,33,54,76,57,68,20,12,312,26,91,10,2644,560,3204,19,756,0,0,30.16,29.88,30.01,1021.2,1011.7,1016.2,45,CLR,Mostly Clear,KPHL,O,EST,39.872,-75.241,36,81,81,53,38,64,310,10,100,50,BKN,10,502,75,577,755,830,1079,0,0,0,30.03,1016.8,45,CLR,Mostly Clear,11-Sep-16,13
KPHL 12/Oct/2014 20,1465,PHI2014,12-Oct-14,12-Oct-14,12-Oct-14,8:30,20,PHI,-1.5,NYG,27,U,51,2014,Week 6,69596,PHI,-1.5,1.5,NYG,27,0,Y,69796,0,11,57,0,Philadelphia,KPHL,KPHL4192420,KPHL,O,12-Oct-14,EST,39.872,-75.241,36,64,46,55,63,43,48,38,43,89,41,67,52,44,49,10,5,93,21,43,10,3355,394,3749,379,676,0,0,30.32,30.18,30.27,1026.6,1022.1,1024.9,45,CLR,Mostly Clear,KPHL,O,EST,39.872,-75.241,36,55,53,47,74,51,160,7,20,130,SCT,10,0,0,0,0,0,0,0,0,0,30.29,1025.9,44,PC,Partly Cloudy,12-Oct-14,20
KPHL 13/Dec/2015 13,1466,PHI2015,13-Dec-15,13-Dec-15,13-Dec-15,1:00,13,PHI,-1,BUF,43,U,48.5,2015,Week 14,69596,PHI,-1,1,BUF,23,20,Y,69796,0,12,69,0,Philadelphia,KPHL,KPHL4235113,KPHL,O,13-Dec-15,EST,39.872,-75.241,36,71,52,60,71,52,56,49,53,87,59,77,62,51,56,8,3,210,21,83,7.9,1336,190,1526,60,563,0,0,30.17,30.08,30.13,1021.8,1018.6,1020.2,42,MC,Mostly Cloudy,KPHL,O,EST,39.872,-75.241,36,70,70,55,59,61,200,5,75,200,BKN,9,258,33,291,334,367,478,0,0,0,30.12,1020.1,45,CLR,Mostly Clear,13-Dec-15,13
KPHL 13/Nov/2016 13,1467,PHI2016,13-Nov-16,13-Nov-16,13-Nov-16,1:00,13,PHI,-1.5,ATL,39,U,49,2016,Week 10,69596,PHI,-1.5,1.5,ATL,24,15,Y,69796,0,13,54,0,Philadelphia,KPHL,KPHL4268713,KPHL,O,13-Nov-16,EST,39.872,-75.241,36,60,37,47,59,32,34,23,28,70,26,49,44,33,39,14,9,239,21,11,10,2361,249,2610,528,602,0,0,30.24,30.1,30.17,1024.1,1019.4,1021.7,45,CLR,Mostly Clear,KPHL,O,EST,39.872,-75.241,36,57,54,25,29,44,230,13,20,280,SCT,10,377,40,417,401,441,573,0,0,0,30.15,1021.1,54,CLR,Few High Clouds,13-Nov-16,13
KPHL 14/Dec/2014 20,1468,PHI2014,14-Dec-14,14-Dec-14,14-Dec-14,8:30,20,PHI,-3.5,DAL,65,O,55,2014,Week 15,69596,PHI,-3.5,3.5,DAL,27,38,Y,69796,0,11,42,0,Philadelphia,KPHL,KPHL4198720,KPHL,O,14-Dec-14,EST,39.872,-75.241,36,47,37,42,47,31,34,27,31,74,58,64,41,34,38,17,9,321,24,99,9.9,948,189,1140,0,562,0,0,30.02,29.91,29.96,1016.5,1012.9,1014.6,40,MC,Overcast,KPHL,O,EST,39.872,-75.241,36,46,41,32,58,40,340,10,100,31,OVC,10,0,0,0,0,0,0,0,0,0,29.99,1015.6,40,MC,Overcast,14-Dec-14,20
KPHL 15/Nov/2015 13,1469,PHI2015,15-Nov-15,15-Nov-15,15-Nov-15,1:00,13,PHI,-6,MIA,39,U,49.5,2015,Week 10,69596,PHI,-6,6,MIA,19,20,N,69796,0,12,59,0,Philadelphia,KPHL,KPHL4232313,KPHL,O,15-Nov-15,EST,39.872,-75.241,36,61,37,50,61,32,37,26,31,76,31,51,48,34,42,15,11,236,21,16,10,2264,248,2512,427,598,0,0,30.37,30.24,30.29,1028.6,1023.9,1025.8,45,CLR,Mostly Clear,KPHL,O,EST,39.872,-75.241,36,60,58,29,31,46,230,13,5,250,FEW,10,391,40,431,397,437,567,0,0,0,30.27,1025,45,CLR,Mostly Clear,15-Nov-15,13
KPHL 15/Sep/2013 13,1470,PHI2013,15-Sep-13,15-Sep-13,15-Sep-13,1:00,13,PHI,-7.5,LAC,63,O,52.5,2013,Week 2,69144,PHI,-7.5,7.5,LAC,30,33,N,69796,0,10,72,0,Philadelphia,KPHL,KPHL4153213,KPHL,O,15-Sep-13,EST,39.872,-75.241,36,74,50,63,76,50,55,43,48,77,40,61,60,47,54,10,5,212,21,51,10,4362,545,4907,311,747,0,0,30.24,30.1,30.17,1024.2,1019.3,1021.6,42,MC,Mostly Cloudy,KPHL,O,EST,39.872,-75.241,36,72,72,47,41,58,230,7,75,55,CLR,10,565,74,639,738,812,1054,0,0,0,30.19,1022.2,45,CLR,Mostly Clear,15-Sep-13,13
KPHL 17/Nov/2013 13,1471,PHI2013,17-Nov-13,17-Nov-13,17-Nov-13,1:00,13,PHI,-4.5,WAS,40,U,55,2013,Week 11,69144,PHI,-4.5,4.5,WAS,24,16,Y,69796,0,10,67,0,Philadelphia,KPHL,KPHL4159513,KPHL,O,17-Nov-13,EST,39.872,-75.241,36,69,51,60,68,51,58,46,52,84,59,76,60,49,55,14,6,172,21,96,9,1329,241,1569,42,594,0,0,30.26,29.8,30.08,1024.8,1009,1018.6,42,MC,Mostly Cloudy,KPHL,O,EST,39.872,-75.241,36,68,68,53,59,60,230,6,100,30,BKN,10,158,39,197,390,429,557,0,0,0,30.1,1019.2,42,MC,Mostly Cloudy,17-Nov-13,13
KPHL 19/Oct/2015 20,1472,PHI2015,19-Oct-15,19-Oct-15,19-Oct-15,8:30,20,PHI,-3.5,NYG,34,U,50.5,2015,Week 6,69296,PHI,-3.5,3.5,NYG,27,7,Y,69796,0,12,44,0,Philadelphia,KPHL,KPHL4229620,KPHL,O,19-Oct-15,EST,39.872,-75.241,36,55,35,45,54,29,36,24,29,78,35,56,43,33,38,14,8,237,21,1,10,3552,359,3911,650,659,0,0,30.54,30.32,30.43,1034.1,1026.9,1030.6,46,CLR,Fair,KPHL,O,EST,39.872,-75.241,36,49,45,32,52,42,210,9,0,301,SCT,10,0,0,0,0,0,0,0,0,0,30.37,1028.4,46,CLR,Fair,19-Oct-15,20
KPHL 19/Sep/2013 20,1473,PHI2013,19-Sep-13,19-Sep-13,19-Sep-13,8:25,20,PHI,-3.5,KC,42,U,50.5,2013,Week 3,69144,PHI,-3.5,3.5,KC,16,26,Y,69796,0,10,73,0,Philadelphia,KPHL,KPHL4153620,KPHL,O,19-Sep-13,EST,39.872,-75.241,36,76,52,65,76,54,54,46,51,83,38,64,61,51,57,10,4,228,21,7,10,4971,522,5493,648,736,0,0,30.22,30.1,30.16,1023.2,1019.2,1021.2,46,CLR,Fair,KPHL,O,EST,39.872,-75.241,36,67,67,54,63,60,210,10,0,201,CLR,10,0,0,0,0,0,0,0,0,0,30.13,1020.2,46,CLR,Fair,19-Sep-13,20
KPHL 20/Dec/2015 20,1474,PHI2015,20-Dec-15,20-Dec-15,20-Dec-15,8:30,20,ARI,-4,PHI,57,O,51.5,2015,Week 15,69596,PHI,4,-4,ARI,17,40,Y,69796,0,12,34,0,Philadelphia,KPHL,KPHL4235820,KPHL,O,20-Dec-15,EST,39.872,-75.241,36,43,30,36,43,22,22,15,18,57,38,48,34,26,30,15,9,251,21,28,10,1693,188,1881,343,560,0,0,30.58,30.4,30.51,1035.6,1029.4,1033,46,CLR,Fair,KPHL,O,EST,39.872,-75.241,36,37,33,21,52,31,170,5,20,196,CLR,10,0,0,0,0,0,0,0,0,0,30.5,1032.8,46,CLR,Fair,20-Dec-15,20
KPHL 20/Oct/2013 13,1475,PHI2013,20-Oct-13,20-Oct-13,20-Oct-13,1:00,13,PHI,-3,DAL,20,U,55.5,2013,Week 7,69144,PHI,-3,3,DAL,3,17,Y,69796,0,10,62,0,Philadelphia,KPHL,KPHL4156713,KPHL,O,20-Oct-13,EST,39.872,-75.241,36,63,48,55,63,46,47,32,37,77,31,52,52,42,47,18,10,292,23,1,10,3517,353,3870,645,657,0,0,30.1,29.85,30,1019.4,1010.7,1016,46,CLR,Fair,KPHL,O,EST,39.872,-75.241,36,61,59,33,35,48,280,12,0,201,CLR,10,527,53,580,527,580,753,0,0,0,30,1016,46,CLR,Fair,20-Oct-13,13
KPHL 20/Sep/2015 16,1476,PHI2015,20-Sep-15,20-Sep-15,20-Sep-15,4:25,16,PHI,-6.5,DAL,30,U,54,2015,Week 2,69296,PHI,-6.5,6.5,DAL,10,20,Y,69796,0,12,74,0,Philadelphia,KPHL,KPHL4226716,KPHL,O,20-Sep-15,EST,39.872,-75.241,36,80,65,72,80,66,68,45,54,90,34,57,70,55,63,21,12,83,28,63,10,2834,516,3350,267,733,0,0,30.09,29.88,29.99,1019.1,1011.7,1015.6,42,MC,Mostly Cloudy,KPHL,O,EST,39.872,-75.241,36,79,79,49,35,62,340,9,10,50,FEW,10,260,27,287,271,298,387,0,0,0,29.98,1015.4,45,CLR,Mostly Clear,20-Sep-15,16
KPHL 21/Sep/2014 13,1477,PHI2014,21-Sep-14,21-Sep-14,21-Sep-14,1:00,13,PHI,-4,WAS,71,O,50,2014,Week 3,69596,PHI,-4,4,WAS,37,34,N,69796,0,11,76,0,Philadelphia,KPHL,KPHL4190313,KPHL,O,21-Sep-14,EST,39.872,-75.241,36,79,65,72,81,65,66,61,64,93,64,79,70,63,67,14,6,258,21,91,8.6,2559,511,3069,36,731,0,0,30.01,29.64,29.78,1016.3,1003.6,1008.6,45,CLR,Mostly Clear,KPHL,O,EST,39.872,-75.241,36,76,79,66,72,69,130,7,100,20,BKN,10,446,70,516,703,773,1005,0,0,0,29.74,1007.1,45,CLR,Mostly Clear,21-Sep-14,13
KPHL 22/Dec/2013 20,1478,PHI2013,22-Dec-13,22-Dec-13,22-Dec-13,8:30,20,PHI,-3,CHI,65,O,54,2013,Week 16,69144,PHI,-3,3,CHI,54,11,Y,69796,0,10,62,0,Philadelphia,KPHL,KPHL4163020,KPHL,O,22-Dec-13,EST,39.872,-75.241,36,68,59,64,68,59,61,54,57,84,75,79,63,57,60,26,14,213,36,99,9.7,844,188,1030,0,560,0.04,0,29.99,29.85,29.93,1015.6,1011,1013.6,42,MC,Mostly Cloudy,KPHL,O,EST,39.872,-75.241,36,60,59,55,84,57,200,8,97,120,SCT,10,0,0,0,0,0,0,0,0,0,29.98,1015.1,44,PC,Partly Cloudy,22-Dec-13,20
KPHL 22/Dec/2016 20,1479,PHI2016,22-Dec-16,22-Dec-16,22-Dec-16,8:25,20,PHI,-1,NYG,43,O,42.5,2016,Week 16,69596,PHI,-1,1,NYG,24,19,Y,69796,0,13,41,0,Philadelphia,KPHL,KPHL4272620,KPHL,O,22-Dec-16,EST,39.872,-75.241,36,53,30,42,52,32,29,22,25,75,31,54,41,29,35,22,10,290,29,62,10,1486,188,1674,278,560,0,0,30.28,29.94,30.09,1025.4,1013.8,1018.9,45,CLR,Mostly Clear,KPHL,O,EST,39.872,-75.241,36,43,37,25,49,36,290,12,100,55,OVC,10,0,0,0,0,0,0,0,0,0,30.2,1022.7,40,MC,Overcast,22-Dec-16,20
KPHL 22/Nov/2015 13,1480,PHI2015,22-Nov-15,22-Nov-15,22-Nov-15,1:00,13,PHI,-6.5,TB,62,O,45.5,2015,Week 11,69596,PHI,-6.5,6.5,TB,17,45,Y,69796,0,12,48,0,Philadelphia,KPHL,KPHL4233013,KPHL,O,22-Nov-15,EST,39.872,-75.241,36,53,40,48,52,35,46,21,29,83,36,52,49,35,41,16,13,317,40,87,10,996,226,1222,6,586,0,0,30.01,29.88,29.95,1016.1,1012,1014.1,45,CLR,Mostly Clear,KPHL,O,EST,39.872,-75.241,36,49,44,23,36,39,340,12,100,90,OVC,10,233,37,270,373,410,533,0,0,0,29.96,1014.6,45,CLR,Mostly Clear,22-Nov-15,13
KPHL 23/Nov/2014 13,1481,PHI2014,23-Nov-14,23-Nov-14,23-Nov-14,1:00,13,PHI,-11.5,TEN,67,O,49,2014,Week 12,69596,PHI,-11.5,11.5,TEN,43,24,Y,69796,0,11,53,0,Philadelphia,KPHL,KPHL4196613,KPHL,O,23-Nov-14,EST,39.872,-75.241,36,57,38,48,57,35,52,23,30,78,35,50,53,34,40,12,7,195,21,92,9.9,1611,224,1835,61,584,0,0,30.25,29.91,30.15,1024.4,1013,1021.1,45,CLR,Mostly Clear,KPHL,O,EST,39.872,-75.241,36,52,48,25,35,41,210,12,80,100,BKN,10,276,37,313,369,406,528,0,0,0,30.18,1022,45,CLR,Mostly Clear,23-Nov-14,13
KPHL 23/Oct/2016 13,1482,PHI2016,23-Oct-16,23-Oct-16,23-Oct-16,1:00,13,MIN,-3,PHI,31,U,39,2016,Week 7,69596,PHI,3,-3,MIN,21,10,Y,69796,0,13,61,0,Philadelphia,KPHL,KPHL4266613,KPHL,O,23-Oct-16,EST,39.872,-75.241,36,66,47,56,65,40,47,31,39,69,37,55,52,41,48,24,14,263,32,30,10,2523,336,2858,419,649,0,0,29.94,29.81,29.9,1014,1009.4,1012.6,45,CLR,Mostly Clear,KPHL,O,EST,39.872,-75.241,36,64,62,37,37,51,290,24,70,60,BKN,10,328,50,378,504,554,720,0,0,0,29.91,1012.9,42,MC,Mostly Cloudy,23-Oct-16,13
KPHL 23/Oct/2017 20,1483,PHI2017,23-Oct-17,23-Oct-17,23-Oct-17,8:30,20,PHI,-5.5,WAS,58,O,49,2017,Week 7,69596,PHI,-5.5,5.5,WAS,34,24,Y,69796,0,14,82,0,Philadelphia,KPHL,KPHL4303120,KPHL,O,23-Oct-17,EST,39.872,-75.241,36,77,59,69,80,58,65,59,63,100,64,83,69,56,64,14,9,128,20,100,8.2,1477,340,1816,0,649,0,0,30.33,29.92,30.15,1026.8,1013.1,1020.8,40,MC,Overcast,KPHL,O,EST,39.872,-75.241,36,70,70,65,84,67,140,10,100,130,OVC,10,0,0,0,0,0,0,0,0,0,30,1015.7,40,MC,Overcast,23-Oct-17,20
KPHL 24/Sep/2017 13,1484,PHI2017,24-Sep-17,24-Sep-17,24-Sep-17,1:00,13,PHI,-5.5,NYG,51,O,42.5,2017,Week 3,69596,PHI,-5.5,5.5,NYG,27,24,N,69796,0,14,27,0,Philadelphia,KPHL,KPHL4300213,KPHL,O,24-Sep-17,EST,39.872,-75.241,36,92,69,80,94,70,67,59,63,79,41,58,73,64,69,12,5,69,12,3,10,4879,494,5373,697,723,0,0,30.1,30.01,30.05,1019.1,1016.1,1017.6,46,CLR,Fair,KPHL,O,EST,39.872,-75.241,36,90,92,63,41,72,90,12,5,250,FEW,10,676,69,745,686,755,979,0,0,0,30.04,1017.3,45,CLR,Mostly Clear,24-Sep-17,13
KPHL 25/Dec/2017 20,1485,PHI2017,25-Dec-17,25-Dec-17,25-Dec-17,8:30,20,PHI,-10,OAK,29,U,46.5,2017,Week 16,69596,PHI,-10,10,OAK,19,10,N,69796,0,14,41,0,Philadelphia,KPHL,KPHL4309420,KPHL,O,25-Dec-17,EST,39.872,-75.241,36,40,29,35,40,18,37,7,18,93,32,56,39,23,30,30,19,277,43,67,9.8,1343,189,1532,241,561,0.02,0,30.32,29.74,30.02,1026.5,1007,1016.4,44,PC,Partly Cloudy,KPHL,O,EST,39.872,-75.241,36,30,19,7,38,24,270,14,20,150,SCT,10,0,0,0,0,0,0,0,0,0,30.27,1025,44,PC,Partly Cloudy,25-Dec-17,20
KPHL 25/Sep/2016 16,1486,PHI2016,25-Sep-16,25-Sep-16,25-Sep-16,4:25,16,PIT,-4,PHI,37,U,46.5,2016,Week 3,69596,PHI,4,-4,PIT,34,3,Y,69796,0,13,71,0,Philadelphia,KPHL,KPHL4263816,KPHL,O,25-Sep-16,EST,39.872,-75.241,36,74,53,64,72,51,51,39,42,70,30,47,56,48,53,13,7,350,21,13,10,4699,481,5180,644,720,0,0,30.23,30.13,30.18,1023.6,1020.2,1021.9,54,CLR,Few High Clouds,KPHL,O,EST,39.872,-75.241,36,72,72,39,30,55,320,7,20,280,SCT,10,223,24,247,237,261,339,0,0,0,30.13,1020.2,54,CLR,Few High Clouds,25-Sep-16,16
KPHL 26/Dec/2015 20,1487,PHI2015,26-Dec-15,26-Dec-15,26-Dec-15,8:25,20,PHI,-3.5,WAS,62,O,48.5,2015,Week 16,69596,PHI,-3.5,3.5,WAS,24,38,Y,69796,0,12,50,0,Philadelphia,KPHL,KPHL4236420,KPHL,O,26-Dec-15,EST,39.872,-75.241,36,63,50,55,62,48,59,34,43,90,47,67,60,45,50,17,10,64,25,100,9.2,947,189,1137,0,562,0,0,30.47,30.24,30.37,1031.7,1024.2,1028.5,40,MC,Overcast,KPHL,O,EST,39.872,-75.241,36,52,50,44,75,48,80,7,100,19,OVC,10,0,0,0,0,0,0,0,0,0,30.39,1029,40,MC,Overcast,26-Dec-15,20
KPHL 26/Nov/2017 13,1488,PHI2017,26-Nov-17,26-Nov-17,26-Nov-17,1:00,13,PHI,-13.5,CHI,34,U,43.5,2017,Week 12,69596,PHI,-13.5,13.5,CHI,31,3,Y,69796,0,14,64,0,Philadelphia,KPHL,KPHL4306513,KPHL,O,26-Nov-17,EST,39.872,-75.241,36,53,37,46,52,33,36,24,28,68,36,49,45,33,39,17,11,291,24,32,10,1738,216,1954,278,579,0,0,30.04,29.83,29.98,1017.3,1010,1015.2,46,CLR,Fair,KPHL,O,EST,39.872,-75.241,36,50,44,26,39,40,300,17,90,300,BKN,10,264,36,300,362,398,517,0,0,0,29.99,1015.4,52,PC,High Clouds,26-Nov-17,13
KPHL 27/Oct/2013 13,1489,PHI2013,27-Oct-13,27-Oct-13,27-Oct-13,1:00,13,PHI,-5.5,NYG,22,U,50,2013,Week 8,69144,PHI,-5.5,5.5,NYG,7,15,Y,69796,0,10,58,0,Philadelphia,KPHL,KPHL4157413,KPHL,O,27-Oct-13,EST,39.872,-75.241,36,59,43,51,58,39,33,28,30,58,33,45,45,38,42,16,10,277,23,23,10,2758,320,3078,453,639,0,0,30.18,29.92,30.04,1021.9,1013.3,1017.2,45,CLR,Mostly Clear,KPHL,O,EST,39.872,-75.241,36,58,55,29,33,45,270,16,25,60,SCT,10,446,49,495,487,536,696,0,0,0,30,1016,45,CLR,Mostly Clear,27-Oct-13,13
KPHL 28/Nov/2016 20,1490,PHI2016,28-Nov-16,28-Nov-16,28-Nov-16,8:30,20,PHI,-4,GB,40,U,47.5,2016,Week 12,69596,PHI,-4,4,GB,13,27,Y,69796,0,13,47,0,Philadelphia,KPHL,KPHL4270220,KPHL,O,28-Nov-16,EST,39.872,-75.241,36,53,32,44,53,31,41,27,32,86,40,63,44,31,39,13,6,182,21,72,9.9,1837,209,2046,281,576,0,0,30.23,30.11,30.17,1023.7,1019.5,1021.6,44,PC,Partly Cloudy,KPHL,O,EST,39.872,-75.241,36,48,45,37,66,43,160,6,100,50,OVC,10,0,0,0,0,0,0,0,0,0,30.13,1020.4,44,PC,Partly Cloudy,28-Nov-16,20
KPHL 29/Oct/2017 13,1491,PHI2017,29-Oct-17,29-Oct-17,29-Oct-17,1:00,13,PHI,-13,SF,43,U,44.5,2017,Week 8,69596,PHI,-13,13,SF,33,10,Y,69796,0,14,32,0,Philadelphia,KPHL,KPHL4303713,KPHL,O,29-Oct-17,EST,39.872,-75.241,36,67,57,63,67,58,64,54,60,100,75,90,65,58,62,17,9,87,23,100,7.9,1559,312,1870,0,635,1.96,0,29.83,29.01,29.48,1009.9,982.6,998.4,18,RAIN,Light Rain,KPHL,O,EST,39.872,-75.241,36,66,66,64,93,65,120,10,100,25,OVC,10,238,48,286,477,525,681,0,0,0,29.49,998.7,18,RAIN,Light Rain,29-Oct-17,13
KPHL 31/Dec/2017 13,1492,PHI2017,31-Dec-17,31-Dec-17,31-Dec-17,1:00,13,DAL,-4,PHI,6,U,41,2017,Week 17,69596,PHI,4,-4,DAL,0,6,Y,69796,0,14,55,0,Philadelphia,KPHL,KPHL4310013,KPHL,O,31-Dec-17,EST,39.872,-75.241,36,20,9,15,20,-2,3,-5,-1,55,41,48,16,8,12,18,12,309,24,39,10,1278,193,1471,85,564,0,0,30.4,30.15,30.31,1029.5,1020.8,1026.4,46,CLR,Fair,KPHL,O,EST,39.872,-75.241,36,17,2,-2,43,13,300,16,100,190,OVC,10,224,34,258,344,378,492,0,0,0,30.32,1026.8,40,MC,Overcast,31-Dec-17,13
KSAN 01/Dec/2013 16,1493,LAC2013,1-Dec-13,1-Dec-13,1-Dec-13,4:25,16,CIN,-1.5,LAC,27,U,48.5,2013,Week 13,61536,LAC,1.5,-1.5,OAK,10,17,Y,70561,0,46,77,0,San Diego,KSAN,KSAN4160916,KSAN,O,1-Dec-13,PST,32.734,-117.19,16,74,55,64,75,55,51,39,46,72,31,55,59,50,54,10,3,318,21,39,9.2,2274,293,2567,229,609,0,0,30.2,30.1,30.14,1022.6,1019.3,1020.8,42,MC,Mostly Cloudy,KSAN,O,PST,32.734,-117.19,16,69,69,51,53,59,310,9,75,200,BKN,9,30,4,34,39,43,56,0,0,0,30.1,1019.3,45,CLR,Mostly Clear,1-Dec-13,16
KSAN 01/Jan/2017 16,1494,LAC2016,1-Jan-17,1-Jan-17,1-Jan-17,4:25,16,KC,-6,LAC,64,O,44.5,2016,Week 17,54915,LAC,6,-6,SEA,27,37,Y,70561,0,49,52,0,San Diego,KSAN,KSAN4273616,KSAN,O,1-Jan-17,PST,32.734,-117.19,16,59,49,55,59,48,47,42,44,86,54,70,51,47,49,12,5,156,21,83,9.9,1784,281,2064,149,603,0,0,30.06,29.89,29.97,1018,1012.3,1015,45,CLR,Mostly Clear,KSAN,O,PST,32.734,-117.19,16,58,56,42,56,50,200,9,100,33,BKN,10,20,6,26,64,70,92,0,0,0,29.99,1015.5,44,PC,Partly Cloudy,1-Jan-17,16
KSAN 02/Oct/2016 16,1495,LAC2016,2-Oct-16,2-Oct-16,2-Oct-16,4:25,16,LAC,-4,NO,69,O,54,2016,Week 4,60641,LAC,-4,4,NO,34,35,N,70561,0,49,73,0,San Diego,KSAN,KSAN4264516,KSAN,O,2-Oct-16,PST,32.734,-117.19,16,73,67,69,77,68,62,55,58,78,59,69,65,60,63,12,6,234,21,54,10,4567,516,5084,465,707,0,0,30.01,29.96,29.98,1016.4,1014.4,1015.2,42,MC,Mostly Cloudy,KSAN,O,PST,32.734,-117.19,16,71,71,58,63,63,220,7,5,19,FEW,10,195,20,215,200,220,285,0,0,0,29.96,1014.4,45,CLR,Mostly Clear,2-Oct-16,16
KSAN 04/Dec/2016 16,1496,LAC2016,4-Dec-16,4-Dec-16,4-Dec-16,4:25,16,LAC,-3.5,TB,49,P,49,2016,Week 13,53832,LAC,-3.5,3.5,PIT,21,28,Y,70561,0,49,71,0,San Diego,KSAN,KSAN4270816,KSAN,O,4-Dec-16,PST,32.734,-117.19,16,70,46,58,69,48,56,26,39,96,20,53,57,40,49,8,3,269,21,22,9.4,2842,288,3130,583,606,0,0,30.1,30,30.04,1019.2,1015.8,1017.4,46,CLR,Fair,KSAN,O,PST,32.734,-117.19,16,63,63,51,65,56,300,8,5,250,FEW,10,38,4,42,39,43,55,0,0,0,30,1016,45,CLR,Mostly Clear,4-Dec-16,16
KSAN 04/Oct/2015 16,1497,LAC2015,4-Oct-15,4-Oct-15,4-Oct-15,4:05,16,LAC,-5,CLE,57,O,44.5,2015,Week 4,63710,LAC,-5,5,SF,30,27,N,70561,0,48,68,0,San Diego,KSAN,KSAN4228116,KSAN,O,4-Oct-15,PST,32.734,-117.19,16,73,67,70,72,67,64,56,60,82,59,71,66,61,64,13,8,218,21,98,9.6,2570,514,3082,0,704,0.14,0,29.77,29.62,29.69,1008.2,1003,1005.2,44,PC,Partly Cloudy,KSAN,O,PST,32.734,-117.19,16,70,70,57,64,62,230,12,100,20,BKN,10,97,19,116,194,213,277,0,0,0,29.69,1005.3,44,PC,Partly Cloudy,4-Oct-15,16
KSAN 05/Oct/2014 16,1498,LAC2014,5-Oct-14,5-Oct-14,5-Oct-14,4:25,16,LAC,-7,NYJ,31,U,44.5,2014,Week 5,63471,LAC,-7,7,NYG,31,0,Y,70561,0,47,83,0,San Diego,KSAN,KSAN4191716,KSAN,O,5-Oct-14,PST,32.734,-117.19,16,89,63,75,87,63,66,37,50,93,18,48,67,56,62,8,2,220,21,4,9.1,5048,510,5558,684,701,0,0,29.93,29.86,29.9,1013.6,1011.3,1012.4,45,CLR,Mostly Clear,KSAN,O,PST,32.734,-117.19,16,79,79,53,41,64,160,5,5,4,FEW,10,184,19,203,189,208,269,0,0,0,29.87,1011.4,45,CLR,Mostly Clear,5-Oct-14,16
KSAN 06/Dec/2015 16,1499,LAC2015,6-Dec-15,6-Dec-15,6-Dec-15,4:05,16,DEN,-6,LAC,20,U,45,2015,Week 13,68631,LAC,6,-6,TB,3,17,Y,70561,0,48,71,0,San Diego,KSAN,KSAN4234416,KSAN,O,6-Dec-15,PST,32.734,-117.19,16,76,52,63,76,53,52,27,37,65,16,40,60,43,50,12,3,324,21,75,10,2057,287,2344,59,604,0,0,30.28,30.13,30.19,1025.3,1020.6,1022.4,44,PC,Partly Cloudy,KSAN,O,PST,32.734,-117.19,16,71,71,43,36,56,320,7,90,200,BKN,10,29,4,33,40,44,57,0,0,0,30.14,1020.6,44,PC,Partly Cloudy,6-Dec-15,16
KSAN 06/Nov/2016 16,1500,LAC2016,6-Nov-16,6-Nov-16,6-Nov-16,4:25,16,LAC,-4,TEN,78,O,47.5,2016,Week 9,52281,LAC,-4,4,SEA,43,35,Y,70561,0,49,74,0,San Diego,KSAN,KSAN4268016,KSAN,O,6-Nov-16,PST,32.734,-117.19,16,75,57,65,77,58,60,55,58,93,55,79,64,56,61,12,4,318,21,56,6.9,2861,362,3223,318,642,0,0,30.1,30.02,30.06,1019.2,1016.6,1018,45,CLR,Mostly Clear,KSAN,O,PST,32.734,-117.19,16,69,69,60,73,64,300,12,25,5,BKN,10,62,7,69,68,75,97,0,0,0,30.05,1017.6,45,CLR,Mostly Clear,6-Nov-16,16
KSAN 07/Dec/2014 20,1501,LAC2014,7-Dec-14,7-Dec-14,7-Dec-14,8:30,20,NE,-4,LAC,37,U,54,2014,Week 14,68815,LAC,4,-4,CLE,14,23,Y,70561,0,47,64,0,San Diego,KSAN,KSAN4198020,KSAN,O,7-Dec-14,PST,32.734,-117.19,16,77,56,65,77,56,59,52,56,97,52,74,63,55,60,17,3,307,22,79,8.2,2056,284,2340,133,605,0,0,30.19,30.09,30.13,1022.3,1018.9,1020.4,45,CLR,Mostly Clear,KSAN,O,PST,32.734,-117.19,16,66,66,55,68,60,0,0,70,250,BKN,10,0,0,0,0,0,0,0,0,0,30.1,1019.3,52,PC,High Clouds,7-Dec-14,20
KSAN 08/Dec/2013 16,1502,LAC2013,8-Dec-13,8-Dec-13,8-Dec-13,4:25,16,LAC,-4.5,NYG,51,O,47,2013,Week 14,65132,LAC,-4.5,4.5,NO,37,14,Y,70561,0,46,53,0,San Diego,KSAN,KSAN4161616,KSAN,O,8-Dec-13,PST,32.734,-117.19,16,57,49,54,57,48,37,32,35,59,40,48,47,44,46,13,7,247,21,78,9.8,1264,282,1546,28,604,0,0,30.22,30.13,30.17,1023.2,1020.4,1021.6,42,MC,Mostly Cloudy,KSAN,O,PST,32.734,-117.19,16,56,54,32,40,45,210,7,90,40,BKN,10,26,4,30,40,44,58,0,0,0,30.14,1020.6,44,PC,Partly Cloudy,8-Dec-13,16
KSAN 09/Nov/2015 20,1503,LAC2015,9-Nov-15,9-Nov-15,9-Nov-15,8:30,20,LAC,-3.5,CHI,41,U,49.5,2015,Week 9,68033,LAC,-3.5,3.5,ATL,19,22,N,70561,0,48,61,0,San Diego,KSAN,KSAN4231720,KSAN,O,9-Nov-15,PST,32.734,-117.19,16,69,59,64,69,60,61,48,52,93,55,66,62,55,57,12,5,274,21,63,10,1635,354,1989,118,637,0.03,0,30.07,29.97,30.02,1018.2,1015,1016.4,45,CLR,Mostly Clear,KSAN,O,PST,32.734,-117.19,16,63,63,48,58,55,300,7,45,35,SCT,10,0,0,0,0,0,0,0,0,0,30.05,1017.6,45,CLR,Mostly Clear,9-Nov-15,20
KSAN 09/Sep/2013 22,1504,LAC2013,9-Sep-13,9-Sep-13,9-Sep-13,10:20,22,HOU,-6,LAC,59,O,44.5,2013,Week 1,59522,LAC,6,-6,BAL,28,31,N,70561,0,46,70,0,San Diego,KSAN,KSAN4152622,KSAN,O,9-Sep-13,PST,32.734,-117.19,16,75,67,70,77,68,63,60,62,81,64,75,67,63,65,12,6,302,21,61,10,5396,634,6030,395,753,0,0,29.84,29.77,29.81,1010.4,1008.2,1009.3,45,CLR,Mostly Clear,KSAN,O,PST,32.734,-117.19,16,68,68,60,76,63,250,3,75,16,BKN,10,0,0,0,0,0,0,0,0,0,29.83,1010.2,46,CLR,Fair,9-Sep-13,22
KSAN 10/Nov/2013 16,1505,LAC2013,10-Nov-13,10-Nov-13,10-Nov-13,4:25,16,DEN,-7,LAC,48,U,57.5,2013,Week 10,68847,LAC,7,-7,PIT,20,28,Y,70561,0,46,78,0,San Diego,KSAN,KSAN4158816,KSAN,O,10-Nov-13,PST,32.734,-117.19,16,78,59,67,77,59,56,16,38,70,10,40,60,47,53,8,3,237,21,34,9.8,3245,352,3597,463,635,0,0,30.14,30.03,30.07,1020.5,1016.9,1018.4,45,CLR,Mostly Clear,KSAN,O,PST,32.734,-117.19,16,75,75,22,14,51,200,5,5,200,FEW,10,61,6,67,62,68,89,0,0,0,30.04,1017.4,45,CLR,Mostly Clear,10-Nov-13,16
KSAN 12/Oct/2015 20,1506,LAC2015,12-Oct-15,12-Oct-15,12-Oct-15,8:30,20,LAC,-4,PIT,44,U,45.5,2015,Week 5,67658,LAC,-4,4,ARI,20,24,N,70561,0,48,76,0,San Diego,KSAN,KSAN4228920,KSAN,O,12-Oct-15,PST,32.734,-117.19,16,94,75,82,95,76,66,56,60,62,31,49,72,64,68,12,3,287,21,72,9.9,2600,475,3075,1,688,0,0,29.99,29.84,29.92,1015.5,1010.6,1013.1,45,CLR,Mostly Clear,KSAN,O,PST,32.734,-117.19,16,81,83,63,54,69,0,0,95,100,BKN,10,0,0,0,0,0,0,0,0,0,29.94,1013.8,45,CLR,Mostly Clear,12-Oct-15,20
KSAN 13/Nov/2016 16,1507,LAC2016,13-Nov-16,13-Nov-16,13-Nov-16,4:05,16,LAC,-4.5,MIA,55,O,49,2016,Week 10,55107,LAC,-4.5,4.5,PIT,24,31,Y,70561,0,49,84,0,San Diego,KSAN,KSAN4268716,KSAN,O,13-Nov-16,PST,32.734,-117.19,16,84,64,73,82,64,48,38,42,59,22,36,60,54,57,13,4,329,21,47,10,2866,337,3203,349,630,0,0,30.09,30.02,30.06,1019,1016.5,1017.9,45,CLR,Mostly Clear,KSAN,O,PST,32.734,-117.19,16,81,81,44,27,60,320,8,5,250,FEW,10,54,5,59,55,60,78,0,0,0,30.02,1016.5,45,CLR,Mostly Clear,13-Nov-16,16
KSAN 13/Oct/2016 20,1508,LAC2016,13-Oct-16,13-Oct-16,13-Oct-16,8:25,20,DEN,-3,LAC,34,U,44.5,2016,Week 6,58904,LAC,3,-3,DEN,21,13,Y,70561,0,49,69,0,San Diego,KSAN,KSAN4265620,KSAN,O,13-Oct-16,PST,32.734,-117.19,16,73,62,67,72,62,58,54,56,78,59,70,64,58,61,15,7,310,21,40,10,4345,466,4811,539,685,0,0,30.06,29.97,30.02,1018,1014.9,1016.6,45,CLR,Mostly Clear,KSAN,O,PST,32.734,-117.19,16,66,66,58,75,61,320,5,10,18,FEW,10,0,0,0,0,0,0,0,0,0,30,1015.8,45,CLR,Mostly Clear,13-Oct-16,20
KSAN 13/Sep/2015 16,1509,LAC2015,13-Sep-15,13-Sep-15,13-Sep-15,4:05,16,LAC,-3.5,DET,61,O,45.5,2015,Week 1,66093,LAC,-3.5,3.5,DEN,33,28,Y,70561,0,48,82,0,San Diego,KSAN,KSAN4226016,KSAN,O,13-Sep-15,PST,32.734,-117.19,16,85,75,79,87,75,67,62,65,76,51,64,72,69,70,9,5,244,21,4,10,6012,615,6627,696,745,0,0,29.89,29.78,29.84,1012.3,1008.4,1010.7,45,CLR,Mostly Clear,KSAN,O,PST,32.734,-117.19,16,83,85,64,53,71,290,8,5,60,FEW,10,296,30,326,304,334,435,0,0,0,29.78,1008.5,45,CLR,Mostly Clear,13-Sep-15,16
KSAN 14/Dec/2014 16,1510,LAC2014,14-Dec-14,14-Dec-14,14-Dec-14,4:05,16,DEN,-4,LAC,32,U,49.5,2014,Week 15,68682,LAC,4,-4,PHI,10,22,Y,70561,0,47,62,0,San Diego,KSAN,KSAN4198716,KSAN,O,14-Dec-14,PST,32.734,-117.19,16,65,50,57,64,50,49,41,46,75,52,66,55,46,51,10,2,285,21,42,10,2469,276,2745,333,601,0,0,30.15,30.07,30.1,1021,1018.3,1019.4,45,CLR,Mostly Clear,KSAN,O,PST,32.734,-117.19,16,62,62,48,60,54,290,8,95,15,BKN,10,29,4,33,42,46,60,0,0,0,30.08,1018.5,45,CLR,Mostly Clear,14-Dec-14,16
KSAN 14/Oct/2013 20,1511,LAC2013,14-Oct-13,14-Oct-13,14-Oct-13,8:40,20,IND,-1.5,LAC,28,U,51,2013,Week 6,57954,LAC,1.5,-1.5,MIN,19,9,Y,70561,0,46,69,0,San Diego,KSAN,KSAN4156120,KSAN,O,14-Oct-13,PST,32.734,-117.19,16,74,55,64,77,55,60,49,55,84,51,73,64,52,59,14,5,302,21,2,8.2,4628,465,5093,671,684,0,0,30.03,29.91,29.97,1016.8,1012.8,1014.9,46,CLR,Fair,KSAN,O,PST,32.734,-117.19,16,66,66,60,81,62,300,3,5,18,FEW,8,0,0,0,0,0,0,0,0,0,29.95,1014.1,45,CLR,Mostly Clear,14-Oct-13,20
KSAN 14/Sep/2014 16,1512,LAC2014,14-Sep-14,14-Sep-14,14-Sep-14,4:05,16,SEA,-5,LAC,51,O,45,2014,Week 2,67916,LAC,5,-5,PIT,30,21,Y,70561,0,47,85,0,San Diego,KSAN,KSAN4189616,KSAN,O,14-Sep-14,PST,32.734,-117.19,16,85,73,78,88,73,71,65,68,88,55,71,74,68,71,13,5,293,21,16,9.7,5438,613,6051,540,743,0,0,29.78,29.71,29.74,1008.6,1006,1007.2,45,CLR,Mostly Clear,KSAN,O,PST,32.734,-117.19,16,84,87,67,57,73,300,6,45,50,SCT,10,248,30,278,297,327,424,0,0,0,29.71,1006.1,45,CLR,Mostly Clear,14-Sep-14,16
KSAN 16/Nov/2014 16,1513,LAC2014,16-Nov-14,16-Nov-14,16-Nov-14,4:05,16,LAC,-10,OAK,19,U,45.5,2014,Week 11,66720,LAC,-10,10,LAC,13,6,N,70561,0,47,71,0,San Diego,KSAN,KSAN4195916,KSAN,O,16-Nov-14,PST,32.734,-117.19,16,73,59,65,76,60,54,21,47,78,20,57,61,45,56,16,4,327,21,44,10,2880,331,3211,340,627,0,0,30.16,30.05,30.11,1021.4,1017.5,1019.6,45,CLR,Mostly Clear,KSAN,O,PST,32.734,-117.19,16,69,69,51,53,59,330,16,25,35,SCT,10,48,5,53,52,57,75,0,0,0,30.09,1018.9,45,CLR,Mostly Clear,16-Nov-14,16
KSAN 18/Dec/2016 16,1514,LAC2016,18-Dec-16,18-Dec-16,18-Dec-16,4:25,16,OAK,-2.5,LAC,35,U,51,2016,Week 15,68352,LAC,2.5,-2.5,NO,16,19,Y,70561,0,49,60,0,San Diego,KSAN,KSAN4272216,KSAN,O,18-Dec-16,PST,32.734,-117.19,16,62,42,52,61,42,38,18,30,68,21,47,48,37,43,9,3,323,21,4,10,2705,276,2981,570,600,0,0,30.2,30.14,30.17,1022.8,1020.6,1021.5,45,CLR,Mostly Clear,KSAN,O,PST,32.734,-117.19,16,61,60,27,27,46,310,8,5,250,FEW,10,45,5,50,46,51,66,0,0,0,30.14,1020.8,45,CLR,Mostly Clear,18-Dec-16,16
KSAN 18/Sep/2016 16,1515,LAC2016,18-Sep-16,18-Sep-16,18-Sep-16,4:25,16,LAC,-3,JAX,52,O,47.5,2016,Week 2,52165,LAC,-3,3,CAR,38,14,Y,70561,0,49,78,0,San Diego,KSAN,KSAN4263116,KSAN,O,18-Sep-16,PST,32.734,-117.19,16,76,61,68,77,61,63,59,62,97,69,82,67,60,64,9,4,308,21,36,6.4,5217,586,5803,510,735,0,0,29.95,29.89,29.92,1014.1,1012.1,1013.2,46,CLR,Fair,KSAN,O,PST,32.734,-117.19,16,74,77,63,69,67,300,7,10,200,FEW,10,261,27,288,273,300,390,0,0,0,29.91,1012.7,45,CLR,Mostly Clear,18-Sep-16,16
KSAN 19/Oct/2014 16,1516,LAC2014,19-Oct-14,19-Oct-14,19-Oct-14,4:05,16,LAC,-3,KC,43,U,46,2014,Week 7,65260,LAC,-3,3,SEA,20,23,N,70561,0,47,71,0,San Diego,KSAN,KSAN4193116,KSAN,O,19-Oct-14,PST,32.734,-117.19,16,75,67,70,77,67,62,57,59,78,60,69,65,61,64,14,4,286,21,36,10,3498,443,3941,452,674,0,0,29.93,29.85,29.89,1013.7,1011,1012.2,44,PC,Partly Cloudy,KSAN,O,PST,32.734,-117.19,16,72,72,60,66,65,310,8,5,20,FEW,10,123,13,136,126,139,180,0,0,0,29.85,1011,45,CLR,Mostly Clear,19-Oct-14,16
KSAN 20/Dec/2015 16,1517,LAC2015,20-Dec-15,20-Dec-15,20-Dec-15,4:25,16,LAC,-1,MIA,44,U,47,2015,Week 15,66676,LAC,-1,1,IND,30,14,Y,70561,0,48,60,0,San Diego,KSAN,KSAN4235816,KSAN,O,20-Dec-15,PST,32.734,-117.19,16,63,53,59,62,52,46,39,41,65,43,53,54,48,50,13,6,291,21,85,10,1520,275,1796,61,600,0,0,30.22,30.09,30.17,1023.4,1019,1021.6,44,PC,Partly Cloudy,KSAN,O,PST,32.734,-117.19,16,60,60,42,52,51,220,6,90,43,BKN,10,31,5,36,48,53,69,0,0,0,30.15,1021.1,44,PC,Partly Cloudy,20-Dec-15,16
KSAN 22/Dec/2013 16,1518,LAC2013,22-Dec-13,22-Dec-13,22-Dec-13,4:25,16,LAC,-10,OAK,39,U,50.5,2013,Week 16,65675,LAC,-10,10,NO,26,13,Y,70561,0,46,69,0,San Diego,KSAN,KSAN4163016,KSAN,O,22-Dec-13,PST,32.734,-117.19,16,67,48,58,67,49,52,43,47,80,47,68,57,46,52,9,3,311,21,0,9.3,2740,275,3015,597,600,0,0,30.26,30.09,30.19,1024.6,1018.8,1022.2,46,CLR,Fair,KSAN,O,PST,32.734,-117.19,16,65,65,51,61,57,300,5,0,143,CLR,10,50,5,55,50,55,72,0,0,0,30.17,1021.7,46,CLR,Fair,22-Dec-13,16
KSAN 22/Nov/2015 16,1519,LAC2015,22-Nov-15,22-Nov-15,22-Nov-15,4:05,16,KC,-3,LAC,36,U,45.5,2015,Week 11,65837,LAC,3,-3,KC,3,33,Y,70561,0,48,78,0,San Diego,KSAN,KSAN4233016,KSAN,O,22-Nov-15,PST,32.734,-117.19,16,84,58,70,83,59,46,26,34,45,12,29,57,47,52,9,2,306,40,1,10,3130,315,3445,610,618,0,0,29.98,29.87,29.92,1015.1,1011.5,1013.2,46,CLR,Fair,KSAN,O,PST,32.734,-117.19,16,81,81,35,19,57,300,6,5,200,FEW,10,44,5,49,45,50,65,0,0,0,29.87,1011.5,45,CLR,Mostly Clear,22-Nov-15,16
KSAN 23/Nov/2014 16,1520,LAC2014,23-Nov-14,23-Nov-14,23-Nov-14,4:05,16,LAC,-5,LAR,51,O,43.5,2014,Week 12,66040,LAC,-5,5,NYG,27,24,N,70561,0,47,72,0,San Diego,KSAN,KSAN4196616,KSAN,O,23-Nov-14,PST,32.734,-117.19,16,71,56,64,70,57,55,40,51,81,38,65,61,53,57,10,3,332,21,48,10,2537,310,2847,240,617,0,0,30.15,30.04,30.09,1020.9,1017.2,1018.9,52,PC,High Clouds,KSAN,O,PST,32.734,-117.19,16,70,70,52,53,60,320,10,70,250,BKN,10,36,5,41,45,50,64,0,0,0,30.06,1017.9,52,PC,High Clouds,23-Nov-14,16
KSAN 25/Oct/2015 16,1521,LAC2015,25-Oct-15,25-Oct-15,25-Oct-15,4:05,16,LAC,-3.5,OAK,66,O,48.5,2015,Week 7,67542,LAC,-3.5,3.5,DAL,29,37,Y,70561,0,48,77,0,San Diego,KSAN,KSAN4230216,KSAN,O,25-Oct-15,PST,32.734,-117.19,16,78,67,72,80,68,68,45,59,87,42,63,70,56,64,7,2,195,21,75,10,3036,414,3450,108,663,0,0,29.96,29.88,29.92,1014.4,1011.7,1013.1,45,CLR,Mostly Clear,KSAN,O,PST,32.734,-117.19,16,75,78,68,79,70,0,0,95,10,BKN,10,69,10,79,105,115,150,0,0,0,29.89,1012.2,45,CLR,Mostly Clear,25-Oct-15,16
KSAN 28/Sep/2014 16,1522,LAC2014,28-Sep-14,28-Sep-14,28-Sep-14,4:05,16,LAC,-12,JAX,47,O,44.5,2014,Week 4,56553,LAC,-12,12,OAK,33,14,Y,70561,0,47,72,0,San Diego,KSAN,KSAN4191016,KSAN,O,28-Sep-14,PST,32.734,-117.19,16,74,66,69,77,67,58,55,57,71,57,64,64,60,62,12,7,212,21,52,10,3529,544,4072,188,715,0,0,29.96,29.88,29.92,1014.5,1011.9,1013.2,45,CLR,Mostly Clear,KSAN,O,PST,32.734,-117.19,16,71,71,58,63,63,250,12,100,24,BKN,10,112,22,134,223,245,319,0,0,0,29.91,1012.8,42,MC,Mostly Cloudy,28-Sep-14,16
KSAN 29/Dec/2013 16,1523,LAC2013,29-Dec-13,29-Dec-13,29-Dec-13,4:25,16,LAC,-14.5,KC,51,O,46,2013,Week 17,66374,LAC,-14.5,14.5,CIN,27,24,N,70561,0,46,73,0,San Diego,KSAN,KSAN4163716,KSAN,O,29-Dec-13,PST,32.734,-117.19,16,70,47,58,70,47,48,31,39,83,29,52,55,41,49,10,3,314,21,2,9.2,2772,278,3050,596,602,0,0,30.15,30.01,30.06,1021.1,1016.3,1018.1,46,CLR,Fair,KSAN,O,PST,32.734,-117.19,16,66,66,42,42,54,310,10,5,4,FEW,10,58,6,64,59,65,84,0,0,0,30.03,1016.9,45,CLR,Mostly Clear,29-Dec-13,16
KSAN 29/Sep/2013 16,1524,LAC2013,29-Sep-13,29-Sep-13,29-Sep-13,4:25,16,DAL,-1.5,LAC,51,O,47,2013,Week 4,68601,LAC,1.5,-1.5,LAC,30,21,Y,70561,0,46,80,0,San Diego,KSAN,KSAN4154616,KSAN,O,29-Sep-13,PST,32.734,-117.19,16,81,60,70,80,61,63,35,49,84,24,50,66,49,59,14,3,295,21,2,10,5386,537,5923,712,713,0,0,30.07,29.98,30.03,1018.2,1015.4,1016.8,46,CLR,Fair,KSAN,O,PST,32.734,-117.19,16,76,77,53,45,63,290,7,0,201,CLR,10,219,22,241,219,241,313,0,0,0,29.98,1015.4,46,CLR,Fair,29-Sep-13,16
KSJC 01/Dec/2013 16,1525,SFN2013,1-Dec-13,1-Dec-13,1-Dec-13,4:05,16,SF,-7.5,LAR,36,U,40.5,2013,Week 13,69732,SF,-7.5,7.5,SF,23,13,Y,69732,0,42,66,0,San Jose,KSJC,KSJC4160916,KSJC,O,1-Dec-13,PST,37.363,-121.929,62,67,42,54,66,43,45,40,42,89,40,67,54,42,48,10,2,315,10,2,9.9,2339,236,2575,564,587,0,0,30.34,30.21,30.27,1027.3,1023.1,1024.9,46,CLR,Fair,KSJC,O,PST,37.363,-121.929,62,66,66,41,40,53,330,9,5,180,FEW,10,47,5,52,48,53,68,0,0,0,30.22,1023.5,45,CLR,Mostly Clear,1-Dec-13,16
KSJC 01/Jan/2017 16,1526,SFN2016,1-Jan-17,1-Jan-17,1-Jan-17,4:25,16,SEA,-11.5,SF,48,O,44.5,2016,Week 17,70178,SF,11.5,-11.5,CHI,23,25,N,75000,0,2,36,0,San Jose,KSJC,KSJC4273616,KSJC,O,1-Jan-17,PST,37.363,-121.929,62,56,39,47,55,33,39,33,36,82,47,66,47,37,42,16,6,209,16,84,9.9,1399,224,1624,132,579,0,0,30.01,29.92,29.96,1016.1,1013.2,1014.7,45,CLR,Mostly Clear,KSJC,O,PST,37.363,-121.929,62,54,50,34,47,45,300,15,95,30,BKN,10,36,7,43,69,76,99,0,0,0,29.93,1013.4,45,CLR,Mostly Clear,1-Jan-17,16
KSJC 01/Nov/2015 16,1527,OAK2015,1-Nov-15,1-Nov-15,1-Nov-15,4:05,16,NYJ,-3,OAK,54,O,44,2015,Week 8,54700,OAK,3,-3,BAL,34,20,Y,56057,0,49,68,0,San Jose,KSJC,KSJC4230916,KSJC,O,1-Nov-15,PST,37.363,-121.929,62,73,54,64,72,56,60,52,56,90,57,76,63,54,60,14,5,309,14,57,10,2788,329,3117,447,636,0,0,30.16,29.94,30.08,1021.5,1013.8,1018.5,45,CLR,Mostly Clear,KSJC,O,PST,37.363,-121.929,62,71,71,58,63,63,300,12,5,28,FEW,10,100,10,110,103,113,147,0,0,0,30.04,1017.3,45,CLR,Mostly Clear,1-Nov-15,16
KSJC 02/Nov/2014 16,1528,SFN2014,2-Nov-14,2-Nov-14,2-Nov-14,4:05,16,SF,-10.5,LAR,23,U,44,2014,Week 9,70799,SF,-10.5,10.5,WAS,10,13,N,75000,1,0,64,0,San Jose,KSJC,KSJC4194516,KSJC,O,2-Nov-14,PST,37.363,-121.929,62,65,45,54,64,45,48,40,44,93,43,73,54,44,49,17,5,307,17,5,10,3164,325,3489,603,634,0,0,30.17,30.05,30.13,1021.8,1017.6,1020.2,45,CLR,Mostly Clear,KSJC,O,PST,37.363,-121.929,62,63,62,40,43,51,290,12,5,34,FEW,10,97,10,107,99,109,142,0,0,0,30.12,1019.9,45,CLR,Mostly Clear,2-Nov-14,16
KSJC 02/Oct/2016 16,1529,SFN2016,2-Oct-16,2-Oct-16,2-Oct-16,4:25,16,DAL,-1.5,SF,41,U,44,2016,Week 4,70178,SF,1.5,-1.5,NYJ,17,24,Y,75000,0,2,68,0,San Jose,KSJC,KSJC4264516,KSJC,O,2-Oct-16,PST,37.363,-121.929,62,72,51,61,71,51,51,42,46,78,41,60,60,47,53,17,7,288,17,41,9.9,2899,471,3370,268,703,0,0,30.08,30.03,30.06,1018.7,1016.8,1017.8,45,CLR,Mostly Clear,KSJC,O,PST,37.363,-121.929,62,68,68,45,44,56,310,15,45,18,SCT,10,182,24,206,235,259,336,0,0,0,30.03,1016.9,45,CLR,Mostly Clear,2-Oct-16,16
KSJC 03/Dec/2017 16,1530,OAK2017,3-Dec-17,3-Dec-17,3-Dec-17,4:25,16,OAK,-9.5,NYG,41,U,42.5,2017,Week 13,54994,OAK,-9.5,9.5,BUF,24,17,N,56057,0,51,55,0,San Jose,KSJC,KSJC4307216,KSJC,O,3-Dec-17,PST,37.363,-121.929,62,59,46,53,59,44,51,35,41,93,44,66,52,42,48,14,8,282,25,27,9.9,2165,234,2399,513,584,0,0,30.23,30.04,30.17,1023.5,1017,1021.6,46,CLR,Fair,KSJC,O,PST,37.363,-121.929,62,58,55,37,46,48,300,14,10,50,FEW,10,46,5,51,48,53,69,0,0,0,30.17,1021.5,44,PC,Partly Cloudy,3-Dec-17,16
KSJC 03/Jan/2016 16,1531,SFN2015,3-Jan-16,3-Jan-16,3-Jan-16,4:25,16,LAR,-3,SF,35,U,38.5,2015,Week 17,70799,SF,3,-3,SEA,19,16,N,75000,0,1,89,0,San Jose,KSJC,KSJC4237216,KSJC,O,3-Jan-16,PST,37.363,-121.929,62,55,43,49,55,40,44,35,39,80,59,67,48,40,44,9,4,275,9,91,9.2,1464,227,1691,20,580,0,0,29.96,29.79,29.86,1014.4,1008.8,1011,45,CLR,Mostly Clear,KSJC,O,PST,37.363,-121.929,62,54,52,40,59,47,260,8,95,55,BKN,10,48,7,55,72,79,103,0,0,0,29.79,1008.8,45,CLR,Mostly Clear,3-Jan-16,16
KSJC 03/Nov/2013 16,1532,OAK2013,3-Nov-13,3-Nov-13,3-Nov-13,4:05,16,OAK,-1,PHI,69,O,45.5,2013,Week 9,51751,OAK,-1,1,WAS,20,49,Y,53286,0,47,62,0,San Jose,KSJC,KSJC4158116,KSJC,O,3-Nov-13,PST,37.363,-121.929,62,64,45,54,63,47,45,26,39,90,25,61,49,45,47,18,7,293,18,44,10,2350,321,2671,151,632,0,0,30.04,29.93,29.98,1017.4,1013.5,1015.2,45,CLR,Mostly Clear,KSJC,O,PST,37.363,-121.929,62,61,59,30,31,47,300,13,100,55,OVC,10,60,10,70,96,106,137,0,0,0,29.94,1013.9,45,CLR,Mostly Clear,3-Nov-13,16
KSJC 03/Nov/2019 13,1533,OAK2019,3-Nov-19,3-Nov-19,3-Nov-19,1:00,13,OAK,-3,DET,55,O,57,2019,Week 9,53318,OAK,-3,3,DET,31,24,Y,56057,0,53,69,0,San Jose,KSJC,KSJC4377213,KSJC,O,3-Nov-19,PST,37.367,-121.917,79,78,43,59,78,42,41,27,32,56,15,39,54,38,47,8,3,323,8,1,10,3192,321,3513,623,632,0,0,30.05,29.93,29.99,1017.4,1013.5,1015.5,46,CLR,Fair,KSJC,O,PST,37.367,-121.917,79,74,74,30,20,53,320,6,0,201,CLR,10,499,50,549,499,549,714,0,0,0,29.97,1014.9,46,CLR,Fair,3-Nov-19,13
KSJC 04/Dec/2016 16,1534,OAK2016,4-Dec-16,4-Dec-16,4-Dec-16,4:05,16,OAK,-3,BUF,62,O,48.5,2016,Week 13,54759,OAK,-3,3,DAL,38,24,Y,56057,0,50,55,0,San Jose,KSJC,KSJC4270816,KSJC,O,4-Dec-16,PST,37.363,-121.929,62,62,42,52,61,43,51,37,44,90,50,74,53,40,47,13,5,318,13,57,9.9,1510,229,1739,43,583,0,0,30.21,30.12,30.15,1023.1,1020,1021.2,45,CLR,Mostly Clear,KSJC,O,PST,37.363,-121.929,62,59,58,44,58,51,290,7,95,50,BKN,10,31,5,36,47,52,67,0,0,0,30.12,1020.1,45,CLR,Mostly Clear,4-Dec-16,16
KSJC 04/Oct/2015 16,1535,SFN2015,4-Oct-15,4-Oct-15,4-Oct-15,4:25,16,GB,-7.5,SF,20,U,48,2015,Week 4,70799,SF,7.5,-7.5,NO,3,17,Y,75000,0,1,76,0,San Jose,KSJC,KSJC4228116,KSJC,O,4-Oct-15,PST,37.363,-121.929,62,81,52,64,81,52,54,44,49,87,31,62,62,50,56,18,7,297,23,8,9.9,4462,468,4930,609,699,0,0,29.72,29.48,29.6,1006.4,998.2,1002.4,45,CLR,Mostly Clear,KSJC,O,PST,37.363,-121.929,62,73,76,54,51,62,300,16,25,80,SCT,10,206,23,229,228,251,325,0,0,0,29.6,1002.4,45,CLR,Mostly Clear,4-Oct-15,16
KSJC 05/Nov/2017 16,1536,SFN2017,5-Nov-17,5-Nov-17,5-Nov-17,4:05,16,ARI,-2.5,SF,30,U,39,2017,Week 9,70133,SF,2.5,-2.5,ARI,10,20,Y,75000,0,3,70,0,San Jose,KSJC,KSJC4304416,KSJC,O,5-Nov-17,PST,37.363,-121.929,62,62,44,53,61,42,44,37,41,83,42,67,50,43,47,10,5,325,10,27,10,2824,314,3138,533,628,0,0,30.18,30.09,30.13,1021.8,1018.9,1020.1,46,CLR,Fair,KSJC,O,PST,37.363,-121.929,62,60,59,37,42,49,310,8,5,34,FEW,10,88,9,97,90,99,129,0,0,0,30.09,1018.9,44,PC,Partly Cloudy,5-Nov-17,16
KSJC 05/Oct/2014 16,1537,SFN2014,5-Oct-14,5-Oct-14,5-Oct-14,4:25,16,SF,-5,KC,39,U,43.5,2014,Week 5,70799,SF,-5,5,TEN,22,17,N,75000,1,0,88,0,San Jose,KSJC,KSJC4191716,KSJC,O,5-Oct-14,PST,37.363,-121.929,62,90,58,72,89,58,53,38,45,59,17,42,64,50,57,10,3,299,10,3,10,4529,460,4989,662,697,0,0,29.96,29.86,29.91,1014.6,1011.1,1012.9,45,CLR,Mostly Clear,KSJC,O,PST,37.363,-121.929,62,88,88,38,17,61,290,10,5,200,FEW,10,219,22,241,223,245,319,0,0,0,29.86,1011.2,45,CLR,Mostly Clear,5-Oct-14,16
KSJC 06/Dec/2015 16,1538,OAK2015,6-Dec-15,6-Dec-15,6-Dec-15,4:05,16,KC,-3,OAK,54,O,45.5,2015,Week 13,55010,OAK,3,-3,DET,20,34,Y,56057,0,49,60,0,San Jose,KSJC,KSJC4234416,KSJC,O,6-Dec-15,PST,37.363,-121.929,62,70,49,59,69,47,54,38,46,78,42,63,59,46,52,15,6,134,15,75,10,1288,229,1517,15,582,0,0,30.31,30.23,30.27,1026.5,1023.8,1025,45,CLR,Mostly Clear,KSJC,O,PST,37.363,-121.929,62,67,67,53,61,59,160,6,100,16,BKN,10,18,5,23,47,52,67,0,0,0,30.24,1024,45,CLR,Mostly Clear,6-Dec-15,16
KSJC 06/Nov/2016 16,1539,SFN2016,6-Nov-16,6-Nov-16,6-Nov-16,4:05,16,NO,-5,SF,64,O,53,2016,Week 9,70178,SF,5,-5,TEN,23,41,Y,75000,0,2,68,0,San Jose,KSJC,KSJC4268016,KSJC,O,6-Nov-16,PST,37.363,-121.929,62,74,54,63,72,53,58,51,55,90,57,77,62,53,58,8,4,138,8,84,10,1871,304,2175,43,626,0,0,30.12,30.06,30.09,1020,1018,1019.1,45,CLR,Mostly Clear,KSJC,O,PST,37.363,-121.929,62,71,71,56,59,62,310,7,100,24,BKN,10,32,8,40,84,92,120,0,0,0,30.09,1019,45,CLR,Mostly Clear,6-Nov-16,16
KSJC 06/Nov/2016 20,1540,OAK2016,6-Nov-16,6-Nov-16,6-Nov-16,8:30,20,OAK,-1,DEN,50,O,44.5,2016,Week 9,54957,OAK,-1,1,BAL,30,20,Y,56057,0,50,67,0,San Jose,KSJC,KSJC4268020,KSJC,O,6-Nov-16,PST,37.363,-121.929,62,74,54,63,72,53,58,51,55,90,57,77,62,53,58,8,4,138,8,84,10,1871,304,2175,43,626,0,0,30.12,30.06,30.09,1020,1018,1019.1,45,CLR,Mostly Clear,KSJC,O,PST,37.363,-121.929,62,64,64,58,81,60,290,6,95,20,BKN,10,0,0,0,0,0,0,0,0,0,30.12,1020,45,CLR,Mostly Clear,6-Nov-16,20
KSJC 06/Oct/2013 20,1541,SFN2013,6-Oct-13,6-Oct-13,6-Oct-13,8:30,20,SF,-4.5,HOU,37,U,43.5,2013,Week 5,69732,SF,-4.5,4.5,CIN,34,3,Y,69732,0,42,76,0,San Jose,KSJC,KSJC4155320,KSJC,O,6-Oct-13,PST,37.363,-121.929,62,83,51,67,83,52,40,29,34,50,14,32,58,44,51,10,4,311,10,51,10,3270,457,3727,108,695,0,0,30.12,29.99,30.05,1019.9,1015.7,1017.7,45,CLR,Mostly Clear,KSJC,O,PST,37.363,-121.929,62,69,69,40,35,54,230,5,18,180,FEW,10,0,0,0,0,0,0,0,0,0,30.01,1016.2,45,CLR,Mostly Clear,6-Oct-13,20
KSJC 06/Oct/2013 22,1542,OAK2013,6-Oct-13,6-Oct-13,6-Oct-13,11:35,22,LAC,-5.5,OAK,44,U,47,2013,Week 5,48834,OAK,5.5,-5.5,LAR,27,17,Y,53286,0,47,70,0,San Jose,KSJC,KSJC4155322,KSJC,O,6-Oct-13,PST,37.363,-121.929,62,83,51,67,83,52,40,29,34,50,14,32,58,44,51,10,4,311,10,51,10,3270,457,3727,108,695,0,0,30.12,29.99,30.05,1019.9,1015.7,1017.7,45,CLR,Mostly Clear,KSJC,O,PST,37.363,-121.929,62,67,67,37,33,52,0,0,46,180,SCT,10,0,0,0,0,0,0,0,0,0,30.01,1016.2,44,PC,Partly Cloudy,6-Oct-13,22
KSJC 06/Oct/2016 20,1543,SFN2016,6-Oct-16,6-Oct-16,6-Oct-16,8:25,20,ARI,-3.5,SF,54,O,42.5,2016,Week 5,70178,SF,3.5,-3.5,BUF,21,33,Y,75000,0,2,72,0,San Jose,KSJC,KSJC4264920,KSJC,O,6-Oct-16,PST,37.363,-121.929,62,78,50,64,78,51,49,42,46,80,29,56,59,48,54,17,6,298,28,29,10,3360,449,3809,300,695,0,0,30.08,29.97,30.03,1018.6,1014.8,1016.8,45,CLR,Mostly Clear,KSJC,O,PST,37.363,-121.929,62,65,65,47,52,55,320,5,5,80,FEW,10,0,0,0,0,0,0,0,0,0,30.01,1016.1,45,CLR,Mostly Clear,6-Oct-16,20
KSJC 07/Dec/2014 16,1544,OAK2014,7-Dec-14,7-Dec-14,7-Dec-14,4:25,16,SF,-8.5,OAK,37,U,40.5,2014,Week 14,55300,OAK,8.5,-8.5,TB,24,13,Y,56057,0,48,61,0,San Jose,KSJC,KSJC4198016,KSJC,O,7-Dec-14,PST,37.363,-121.929,62,65,51,57,65,52,56,51,53,100,68,88,59,51,55,8,2,120,8,60,9.5,1386,228,1614,48,581,0,0,30.21,30.14,30.17,1023,1020.5,1021.7,45,CLR,Mostly Clear,KSJC,O,PST,37.363,-121.929,62,62,62,55,78,58,80,5,100,21,BKN,10,29,5,34,47,52,67,0,0,0,30.15,1020.9,45,CLR,Mostly Clear,7-Dec-14,16
KSJC 07/Nov/2019 13,1545,OAK2019,7-Nov-19,7-Nov-19,7-Nov-19,1:00,13,LAC,-4,OAK,50,U,50.5,2019,Week 10,51954,OAK,4,-4,JAX,26,24,N,56057,0,53,85,0,San Jose,KSJC,KSJC4377613,KSJC,O,7-Nov-19,PST,37.367,-121.917,79,67,50,56,66,50,51,46,50,97,56,83,57,48,53,12,3,332,12,69,5.4,2186,304,2490,216,624,0,0,30.17,30.03,30.1,1021.5,1016.8,1019.3,64,HAZY,Mist,KSJC,O,PST,37.367,-121.917,79,64,64,51,63,57,320,6,30,110,SCT,4,422,48,470,480,528,686,0,0,0,30.09,1019,35,HAZY,Haze,7-Nov-19,13
KSJC 07/Oct/2019 13,1546,SFN2019,7-Oct-19,7-Oct-19,7-Oct-19,1:00,13,SF,-2.5,CLE,34,U,50,2019,Week 5,70585,SF,-2.5,2.5,CLE,31,3,Y,75000,0,5,62,0,San Jose,KSJC,KSJC4374513,KSJC,O,7-Oct-19,PST,37.367,-121.917,79,88,56,71,87,58,50,43,47,62,24,44,64,51,57,13,5,326,15,26,10,3988,449,4437,449,692,0,0,30,29.88,29.94,1015.6,1011.8,1013.8,46,CLR,Fair,KSJC,O,PST,37.367,-121.917,79,85,85,47,27,63,330,9,10,80,FEW,10,618,65,683,651,716,929,0,0,0,29.92,1013.1,46,CLR,Fair,7-Oct-19,13
KSJC 08/Dec/2013 16,1547,SFN2013,8-Dec-13,8-Dec-13,8-Dec-13,4:25,16,SF,-2.5,SEA,36,U,41.5,2013,Week 14,69732,SF,-2.5,2.5,JAX,19,17,N,69732,0,42,45,0,San Jose,KSJC,KSJC4161616,KSJC,O,8-Dec-13,PST,37.363,-121.929,62,47,31,38,47,29,30,14,23,82,30,59,37,30,33,12,3,320,12,22,10,2089,228,2317,426,580,0,0,30.33,30.22,30.27,1027,1023.4,1025,46,CLR,Fair,KSJC,O,PST,37.363,-121.929,62,46,41,20,35,36,310,10,11,150,FEW,10,46,5,51,47,52,67,0,0,0,30.22,1023.4,45,CLR,Mostly Clear,8-Dec-13,16
KSJC 08/Dec/2019 13,1548,OAK2019,8-Dec-19,8-Dec-19,8-Dec-19,1:00,13,OAK,PK,TEN,63,O,55,2019,Week 14,52760,OAK,PK,PK,HOU,21,42,PK,56057,0,53,39,0,San Jose,KSJC,KSJC4380713,KSJC,O,8-Dec-19,PST,37.367,-121.917,79,62,54,56,61,51,55,50,52,100,68,87,57,53,54,12,5,327,12,82,9.1,1297,228,1525,82,580,0.05,0,30.12,29.95,30.02,1020.2,1014.4,1016.6,42,MC,Mostly Cloudy,KSJC,O,PST,37.367,-121.917,79,61,60,52,72,56,330,9,95,50,SCT,10,204,39,243,388,427,554,0,0,0,30.01,1016.1,42,MC,Mostly Cloudy,8-Dec-19,13
KSJC 08/Nov/2015 16,1549,SFN2015,8-Nov-15,8-Nov-15,8-Nov-15,4:05,16,ATL,-8.5,SF,33,U,43.5,2015,Week 9,70799,SF,8.5,-8.5,PHI,17,16,N,75000,0,1,58,0,San Jose,KSJC,KSJC4231616,KSJC,O,8-Nov-15,PST,37.363,-121.929,62,61,44,53,61,42,55,42,48,90,58,81,56,44,50,12,3,136,12,65,9.7,1580,301,1881,15,622,0.04,0,30.05,29.96,30,1017.6,1014.5,1016,45,CLR,Mostly Clear,KSJC,O,PST,37.363,-121.929,62,58,58,54,87,56,130,3,95,13,BKN,10,43,8,51,82,90,116,0,0,0,29.96,1014.7,45,CLR,Mostly Clear,8-Nov-15,16
KSJC 08/Oct/2017 16,1550,OAK2017,8-Oct-17,8-Oct-17,8-Oct-17,4:05,16,OAK,-3,BAL,47,O,40.5,2017,Week 5,54980,OAK,-3,3,TEN,17,30,Y,56057,0,51,70,0,San Jose,KSJC,KSJC4301616,KSJC,O,8-Oct-17,PST,37.363,-121.929,62,85,52,67,85,53,53,25,43,84,12,50,60,51,55,14,5,294,20,1,9.8,4446,445,4891,685,690,0,0,29.83,29.76,29.8,1010.2,1007.7,1009.1,46,CLR,Fair,KSJC,O,PST,37.363,-121.929,62,82,82,37,20,58,300,12,1,301,SCT,9,207,21,228,208,229,297,0,0,0,29.76,1007.8,46,CLR,Fair,8-Oct-17,16
KSJC 08/Sep/2013 16,1551,SFN2013,8-Sep-13,8-Sep-13,8-Sep-13,4:25,16,SF,-5.5,GB,62,O,47.5,2013,Week 1,69732,SF,-5.5,5.5,NYG,34,28,Y,69732,0,42,69,0,San Jose,KSJC,KSJC4152516,KSJC,O,8-Sep-13,PST,37.363,-121.929,62,88,60,72,86,61,60,48,56,90,27,63,66,59,63,12,5,304,12,1,10,6015,602,6617,753,760,0,0,29.88,29.75,29.82,1011.7,1007.4,1009.8,46,CLR,Fair,KSJC,O,PST,37.363,-121.929,62,84,84,55,37,66,300,9,0,201,CLR,10,378,38,416,378,416,539,0,0,0,29.76,1007.7,46,CLR,Fair,8-Sep-13,16
KSJC 09/Nov/2014 16,1552,OAK2014,9-Nov-14,9-Nov-14,9-Nov-14,4:05,16,DEN,-12.5,OAK,58,O,51,2014,Week 10,54803,OAK,12.5,-12.5,NO,17,41,Y,56057,0,48,69,0,San Jose,KSJC,KSJC4195216,KSJC,O,9-Nov-14,PST,37.363,-121.929,62,75,49,60,76,49,56,46,51,96,38,77,61,47,55,12,2,294,12,3,9.9,2937,296,3233,598,620,0,0,30.02,29.83,29.91,1016.7,1010,1012.9,45,CLR,Mostly Clear,KSJC,O,PST,37.363,-121.929,62,68,68,54,61,60,290,12,5,150,FEW,10,78,8,86,79,87,113,0,0,0,29.85,1010.7,45,CLR,Mostly Clear,9-Nov-14,16
KSJC 09/Oct/2016 16,1553,OAK2016,9-Oct-16,9-Oct-16,9-Oct-16,4:25,16,OAK,-3.5,LAC,65,O,51,2016,Week 5,54275,OAK,-3.5,3.5,OAK,34,31,N,56057,0,50,78,0,San Jose,KSJC,KSJC4265216,KSJC,O,9-Oct-16,PST,37.363,-121.929,62,86,56,70,86,56,55,34,42,73,18,40,60,48,55,12,5,291,12,20,10,4088,434,4522,516,687,0,0,29.96,29.91,29.93,1014.7,1012.7,1013.7,45,CLR,Mostly Clear,KSJC,O,PST,37.363,-121.929,62,84,84,41,22,60,290,12,30,55,SCT,10,174,20,194,198,218,282,0,0,0,29.91,1012.7,45,CLR,Mostly Clear,9-Oct-16,16
KSJC 09/Sep/2019 22,1554,OAK2019,9-Sep-19,9-Sep-19,9-Sep-19,10:15,22,DEN,-3,OAK,40,U,42.5,2019,Week 1,52359,OAK,3,-3,DEN,24,16,Y,56057,0,53,64,0,San Jose,KSJC,KSJC4371722,KSJC,O,9-Sep-19,PST,37.367,-121.917,79,78,56,67,79,57,58,51,54,83,47,65,65,54,59,18,8,318,20,13,10,5646,598,6244,660,759,0,0,29.99,29.89,29.94,1015.5,1012,1013.8,45,CLR,Mostly Clear,KSJC,O,PST,37.367,-121.917,79,63,63,53,70,57,280,5,15,40,FEW,10,0,0,0,0,0,0,0,0,0,29.93,1013.3,45,CLR,Mostly Clear,9-Sep-19,22
KSJC 10/Nov/2013 16,1555,SFN2013,10-Nov-13,10-Nov-13,10-Nov-13,4:05,16,SF,-6,CAR,19,U,43.5,2013,Week 10,69732,SF,-6,6,CHI,9,10,N,69732,0,42,62,0,San Jose,KSJC,KSJC4158816,KSJC,O,10-Nov-13,PST,37.363,-121.929,62,65,45,53,64,42,51,45,48,100,54,83,55,45,50,9,4,298,9,36,7.1,2517,293,2809,394,619,0,0,30.13,30.04,30.09,1020.2,1017.3,1018.8,45,CLR,Mostly Clear,KSJC,O,PST,37.363,-121.929,62,63,62,49,60,55,300,9,5,200,FEW,9,76,8,84,77,85,110,0,0,0,30.08,1018.5,45,CLR,Mostly Clear,10-Nov-13,16
KSJC 10/Sep/2017 16,1556,SFN2017,10-Sep-17,10-Sep-17,10-Sep-17,4:25,16,CAR,-4.5,SF,26,U,45,2017,Week 1,70178,SF,4.5,-4.5,GB,3,23,Y,75000,0,3,70,0,San Jose,KSJC,KSJC4298816,KSJC,O,10-Sep-17,PST,37.363,-121.929,62,95,64,79,94,65,63,58,61,90,30,59,72,62,67,13,5,295,13,34,9.9,5421,593,6014,490,756,0,0,29.97,29.85,29.92,1014.9,1010.8,1013,46,CLR,Fair,KSJC,O,PST,37.363,-121.929,62,94,94,58,30,71,290,13,100,160,BKN,10,214,37,251,365,402,522,0,0,0,29.86,1011.1,42,MC,Mostly Cloudy,10-Sep-17,16
KSJC 11/Dec/2016 16,1557,SFN2016,11-Dec-16,11-Dec-16,11-Dec-16,4:05,16,SF,-3,NYJ,40,U,43,2016,Week 14,70178,SF,-3,3,SEA,17,23,Y,75000,0,2,53,0,San Jose,KSJC,KSJC4271516,KSJC,O,11-Dec-16,PST,37.363,-121.929,62,55,48,52,55,47,49,40,43,92,61,73,51,46,48,8,4,312,8,90,10,1508,221,1729,63,578,0,0,30.22,30.14,30.17,1023.2,1020.6,1021.5,45,CLR,Mostly Clear,KSJC,O,PST,37.363,-121.929,62,54,54,41,62,48,0,0,100,15,OVC,10,24,5,29,46,51,66,0,0,0,30.15,1021,45,CLR,Mostly Clear,11-Dec-16,16
KSJC 11/Nov/2019 13,1558,SFN2019,11-Nov-19,11-Nov-19,11-Nov-19,1:00,13,SF,-1.5,SEA,51,O,49,2019,Week 10,71404,SF,-1.5,1.5,SEA,24,27,Y,75000,0,5,88,0,San Jose,KSJC,KSJC4378013,KSJC,O,11-Nov-19,PST,37.367,-121.917,79,78,47,61,77,48,49,43,46,90,30,62,59,46,53,7,2,325,7,49,10,1911,291,2202,89,616,0,0,30.07,30.01,30.04,1018.3,1016,1017,42,MC,Mostly Cloudy,KSJC,O,PST,37.367,-121.917,79,75,76,45,34,59,340,5,95,110,BKN,10,292,46,338,463,509,662,0,0,0,30.02,1016.3,42,MC,Mostly Cloudy,11-Nov-19,13
KSJC 11/Oct/2015 16,1559,OAK2015,11-Oct-15,11-Oct-15,11-Oct-15,4:25,16,DEN,-5.5,OAK,26,U,45,2015,Week 5,54500,OAK,5.5,-5.5,GB,10,16,Y,56057,0,49,76,0,San Jose,KSJC,KSJC4228816,KSJC,O,11-Oct-15,PST,37.363,-121.929,62,82,56,66,82,56,60,54,56,93,38,74,67,55,60,13,4,295,13,3,10,4274,430,4704,673,682,0,0,30.03,29.92,29.98,1017,1013.2,1015.4,46,CLR,Fair,KSJC,O,PST,37.363,-121.929,62,78,80,60,54,67,290,13,1,201,SCT,10,191,19,210,192,211,274,0,0,0,29.92,1013.3,46,CLR,Fair,11-Oct-15,16
KSJC 12/Nov/2017 16,1560,SFN2017,12-Nov-17,12-Nov-17,12-Nov-17,4:25,16,NYG,-3,SF,52,O,41.5,2017,Week 10,70133,SF,3,-3,NYG,31,21,Y,75000,0,3,46,0,San Jose,KSJC,KSJC4305116,KSJC,O,12-Nov-17,PST,37.363,-121.929,62,69,48,57,69,45,50,45,48,93,42,73,56,47,52,10,4,150,10,28,10,2613,287,2900,471,614,0,0,30.18,30.08,30.12,1021.8,1018.4,1019.9,46,CLR,Fair,KSJC,O,PST,37.363,-121.929,62,67,67,46,47,56,300,9,10,110,FEW,10,70,7,77,73,80,105,0,0,0,30.09,1018.7,54,CLR,Few High Clouds,12-Nov-17,16
KSJC 12/Oct/2014 16,1561,OAK2014,12-Oct-14,12-Oct-14,12-Oct-14,4:05,16,LAC,-7.5,OAK,59,O,44,2014,Week 6,53329,OAK,7.5,-7.5,LAR,28,31,N,56057,0,48,86,0,San Jose,KSJC,KSJC4192416,KSJC,O,12-Oct-14,PST,37.363,-121.929,62,87,54,71,87,56,56,28,42,93,12,49,59,53,56,14,5,292,20,0,10,4238,423,4661,679,680,0,0,30,29.87,29.93,1015.8,1011.6,1013.6,46,CLR,Fair,KSJC,O,PST,37.363,-121.929,62,87,87,28,12,58,290,10,0,301,SCT,10,188,19,207,188,207,268,0,0,0,29.87,1011.6,46,CLR,Fair,12-Oct-14,16
KSJC 12/Sep/2016 22,1562,SFN2016,12-Sep-16,12-Sep-16,12-Sep-16,10:20,22,LAR,-2.5,SF,28,U,43.5,2016,Week 1,70178,SF,2.5,-2.5,JAX,28,0,Y,75000,0,2,43,0,San Jose,KSJC,KSJC4262522,KSJC,O,12-Sep-16,PST,37.363,-121.929,62,76,57,63,76,54,53,45,49,81,43,63,61,52,56,20,11,81,21,30,10,5621,578,6199,706,751,0,0,29.93,29.83,29.88,1013.7,1010.3,1011.9,45,CLR,Mostly Clear,KSJC,O,PST,37.363,-121.929,62,59,58,45,60,52,170,6,70,16,SCT,10,0,0,0,0,0,0,0,0,0,29.85,1011.2,42,MC,Mostly Cloudy,12-Sep-16,22
KSJC 13/Oct/2013 16,1563,SFN2013,13-Oct-13,13-Oct-13,13-Oct-13,4:25,16,SF,-10,ARI,52,O,40.5,2013,Week 6,69732,SF,-10,10,TB,32,20,Y,69732,0,42,67,0,San Jose,KSJC,KSJC4156016,KSJC,O,13-Oct-13,PST,37.363,-121.929,62,73,47,59,72,47,47,41,44,90,33,61,56,46,51,16,5,289,23,2,10,4122,419,4541,659,679,0,0,30.07,29.94,30,1018.4,1014,1016.1,46,CLR,Fair,KSJC,O,PST,37.363,-121.929,62,71,71,41,34,55,290,15,5,55,FEW,10,177,18,195,182,200,260,0,0,0,29.98,1015.4,45,CLR,Mostly Clear,13-Oct-13,16
KSJC 13/Sep/2015 16,1564,OAK2015,13-Sep-15,13-Sep-15,13-Sep-15,4:25,16,CIN,-3,OAK,46,O,43,2015,Week 1,54500,OAK,3,-3,DET,13,33,Y,56057,0,49,75,0,San Jose,KSJC,KSJC4226016,KSJC,O,13-Sep-15,PST,37.363,-121.929,62,81,61,68,81,62,61,56,59,87,44,73,67,60,63,9,3,297,9,75,10,2945,578,3523,38,748,0,0,29.9,29.72,29.8,1012.6,1006.3,1009.2,44,PC,Partly Cloudy,KSJC,O,PST,37.363,-121.929,62,80,81,57,45,66,290,8,90,40,BKN,10,229,35,264,349,384,498,0,0,0,29.72,1006.4,44,PC,Partly Cloudy,13-Sep-15,16
KSJC 14/Sep/2014 16,1565,OAK2014,14-Sep-14,14-Sep-14,14-Sep-14,4:25,16,HOU,-3,OAK,44,O,41,2014,Week 2,54063,OAK,3,-3,OAK,14,30,Y,56057,0,48,73,0,San Jose,KSJC,KSJC4189616,KSJC,O,14-Sep-14,PST,37.363,-121.929,62,79,59,68,79,60,59,48,56,93,35,70,66,58,61,12,6,299,12,20,9.3,5357,572,5931,576,747,0,0,29.86,29.79,29.83,1011.2,1008.8,1010,45,CLR,Mostly Clear,KSJC,O,PST,37.363,-121.929,62,79,79,49,35,62,310,10,5,200,FEW,10,336,34,370,342,376,489,0,0,0,29.8,1009,45,CLR,Mostly Clear,14-Sep-14,16
KSJC 14/Sep/2014 20,1566,SFN2014,14-Sep-14,14-Sep-14,14-Sep-14,8:30,20,SF,-7,CHI,48,O,47.5,2014,Week 2,70799,SF,-7,7,GB,20,28,Y,75000,1,0,73,0,San Jose,KSJC,KSJC4189620,KSJC,O,14-Sep-14,PST,37.363,-121.929,62,79,59,68,79,60,59,48,56,93,35,70,66,58,61,12,6,299,12,20,9.3,5357,572,5931,576,747,0,0,29.86,29.79,29.83,1011.2,1008.8,1010,45,CLR,Mostly Clear,KSJC,O,PST,37.363,-121.929,62,68,68,56,66,61,310,8,0,201,CLR,10,0,0,0,0,0,0,0,0,0,29.81,1009.6,46,CLR,Fair,14-Sep-14,20
KSJC 14/Sep/2015 22,1567,SFN2015,14-Sep-15,14-Sep-15,14-Sep-15,10:20,22,MIN,-2.5,SF,23,U,42.5,2015,Week 1,70499,SF,2.5,-2.5,CLE,20,3,Y,75000,0,1,64,0,San Jose,KSJC,KSJC4226122,KSJC,O,14-Sep-15,PST,37.363,-121.929,62,74,59,65,72,58,58,55,57,86,61,74,64,58,60,20,11,153,28,75,10,3598,572,4170,29,747,0,0,29.8,29.72,29.76,1009.1,1006.3,1007.8,45,CLR,Mostly Clear,KSJC,O,PST,37.363,-121.929,62,65,64,56,73,60,160,12,25,9,BKN,10,0,0,0,0,0,0,0,0,0,29.79,1008.9,45,CLR,Mostly Clear,14-Sep-15,22
KSJC 15/Dec/2013 16,1568,OAK2013,15-Dec-13,15-Dec-13,15-Dec-13,4:05,16,KC,-6.5,OAK,87,O,44.5,2013,Week 15,49571,OAK,6.5,-6.5,OAK,31,56,Y,53286,0,47,64,0,San Jose,KSJC,KSJC4162316,KSJC,O,15-Dec-13,PST,37.363,-121.929,62,62,31,47,61,35,37,31,34,89,35,65,48,33,41,6,1,302,6,35,9.3,1803,220,2023,221,576,0,0,30.36,30.24,30.29,1028.1,1023.9,1025.9,45,CLR,Mostly Clear,KSJC,O,PST,37.363,-121.929,62,58,58,34,41,47,280,3,70,200,BKN,8,37,5,42,49,54,70,0,0,0,30.24,1024.2,42,MC,Mostly Cloudy,15-Dec-13,16
KSJC 15/Dec/2019 13,1569,SFN2019,15-Dec-19,15-Dec-19,15-Dec-19,1:00,13,SF,-1.5,ATL,51,O,41,2019,Week 15,70910,SF,-1.5,1.5,ATL,22,29,Y,75000,0,5,24,0,San Jose,KSJC,KSJC4381413,KSJC,O,15-Dec-19,PST,37.367,-121.917,79,57,42,50,55,42,43,39,42,82,55,74,49,42,46,12,5,309,16,31,10,1836,220,2056,307,576,0,0,30.29,30.07,30.2,1025.7,1018.7,1022.9,45,CLR,Mostly Clear,KSJC,O,PST,37.367,-121.917,79,55,53,41,59,48,300,8,25,41,SCT,10,334,38,372,382,420,546,0,0,0,30.22,1023.5,44,PC,Partly Cloudy,15-Dec-19,13
KSJC 15/Dec/2019 13,1570,OAK2019,15-Dec-19,15-Dec-19,15-Dec-19,1:00,13,OAK,PK,JAX,36,O,60,2019,Week 15,52788,OAK,PK,PK,JAX,16,20,PK,56057,0,53,28,0,San Jose,KSJC,KSJC4381413,KSJC,O,15-Dec-19,PST,37.367,-121.917,79,57,42,50,55,42,43,39,42,82,55,74,49,42,46,12,5,309,16,31,10,1836,220,2056,307,576,0,0,30.29,30.07,30.2,1025.7,1018.7,1022.9,45,CLR,Mostly Clear,KSJC,O,PST,37.367,-121.917,79,55,53,41,59,48,300,8,25,41,SCT,10,334,38,372,382,420,546,0,0,0,30.22,1023.5,44,PC,Partly Cloudy,15-Dec-19,13
KSJC 15/Nov/2015 16,1571,OAK2015,15-Nov-15,15-Nov-15,15-Nov-15,4:05,16,OAK,-3,MIN,44,P,44,2015,Week 10,54700,OAK,-3,3,LAC,14,30,Y,56057,0,49,57,0,San Jose,KSJC,KSJC4232316,KSJC,O,15-Nov-15,PST,37.363,-121.929,62,59,48,53,59,44,53,37,44,100,49,72,53,44,49,26,15,268,33,58,9.3,2075,276,2351,205,609,0.45,0,30.1,29.79,29.92,1019.2,1008.7,1013.1,45,CLR,Mostly Clear,KSJC,O,PST,37.363,-121.929,62,57,53,38,49,48,270,20,95,36,BKN,10,42,7,49,67,74,96,0,0,0,29.93,1013.6,45,CLR,Mostly Clear,15-Nov-15,16
KSJC 15/Oct/2017 16,1572,OAK2017,15-Oct-17,15-Oct-17,15-Oct-17,4:25,16,OAK,-3,LAC,33,U,48,2017,Week 6,54685,OAK,-3,3,LAC,16,17,N,56057,0,51,59,0,San Jose,KSJC,KSJC4302316,KSJC,O,15-Oct-17,PST,37.363,-121.929,62,86,48,66,85,46,42,28,35,56,14,35,60,42,51,10,3,44,10,8,10,3794,408,4202,573,674,0,0,30.14,30.06,30.1,1020.7,1018,1019.3,45,CLR,Mostly Clear,KSJC,O,PST,37.363,-121.929,62,83,83,41,23,60,310,10,25,100,SCT,10,156,17,173,172,189,245,0,0,0,30.06,1018.1,45,CLR,Mostly Clear,15-Oct-17,16
KSJC 15/Sep/2013 16,1573,OAK2013,15-Sep-13,15-Sep-13,15-Sep-13,4:25,16,OAK,-4,JAX,28,U,41,2013,Week 2,49400,OAK,-4,4,BAL,19,9,Y,53286,0,47,76,0,San Jose,KSJC,KSJC4153216,KSJC,O,15-Sep-13,PST,37.363,-121.929,62,78,58,66,79,58,59,52,55,87,45,70,64,55,60,15,8,319,24,43,10,5313,568,5881,604,744,0,0,29.88,29.82,29.85,1011.9,1009.8,1010.8,46,CLR,Fair,KSJC,O,PST,37.363,-121.929,62,75,77,55,50,63,310,15,2,301,SCT,10,333,34,367,336,370,480,0,0,0,29.82,1009.9,46,CLR,Fair,15-Sep-13,16
KSJC 15/Sep/2019 16,1574,OAK2019,15-Sep-19,15-Sep-19,15-Sep-19,4:05,16,KC,-7,OAK,38,U,53,2019,Week 2,52748,OAK,7,-7,KC,10,28,Y,56057,0,53,71,0,San Jose,KSJC,KSJC4372316,KSJC,O,15-Sep-19,PST,37.367,-121.917,79,78,58,68,78,59,61,55,58,90,47,73,65,57,62,18,8,338,18,72,10,3704,568,4272,145,744,0,0,29.92,29.84,29.89,1013.2,1010.5,1012,42,MC,Mostly Cloudy,KSJC,O,PST,37.367,-121.917,79,76,78,58,54,65,350,15,95,160,BKN,10,212,34,246,336,370,480,0,0,0,29.84,1010.5,42,MC,Mostly Cloudy,15-Sep-19,16
KSJC 16/Oct/2016 16,1575,OAK2016,16-Oct-16,16-Oct-16,16-Oct-16,4:05,16,KC,-2,OAK,36,U,47,2016,Week 6,54211,OAK,2,-2,NYJ,10,26,Y,56057,0,50,61,0,San Jose,KSJC,KSJC4265916,KSJC,O,16-Oct-16,PST,37.363,-121.929,62,68,61,64,67,61,63,53,59,93,63,84,64,58,61,17,12,144,29,95,8.4,1996,398,2393,12,671,0.4,0,29.91,29.76,29.82,1013,1007.8,1009.9,18,RAIN,Light Rain,KSJC,O,PST,37.363,-121.929,62,65,64,59,81,62,220,17,95,1,BKN,9,85,16,101,162,178,232,99,0.02,0,29.77,1008.2,18,RAIN,Light Rain,16-Oct-16,16
KSJC 17/Dec/2017 16,1576,SFN2017,17-Dec-17,17-Dec-17,17-Dec-17,4:25,16,SF,-2.5,TEN,48,O,44.5,2017,Week 15,70133,SF,-2.5,2.5,TEN,25,23,N,75000,0,3,34,0,San Jose,KSJC,KSJC4308616,KSJC,O,17-Dec-17,PST,37.363,-121.929,62,68,46,57,67,49,28,16,21,45,15,26,47,39,42,16,8,314,23,12,10,2135,218,2353,531,576,0,0,30.12,29.99,30.04,1019.9,1015.3,1017,46,CLR,Fair,KSJC,O,PST,37.363,-121.929,62,67,67,18,15,47,350,10,10,200,FEW,10,48,5,53,50,55,72,0,0,0,30.01,1016.1,54,CLR,Few High Clouds,17-Dec-17,16
KSJC 17/Dec/2017 20,1577,OAK2017,17-Dec-17,17-Dec-17,17-Dec-17,8:30,20,DAL,-3,OAK,37,U,46.5,2017,Week 15,55372,OAK,3,-3,DAL,17,20,N,56057,0,51,64,0,San Jose,KSJC,KSJC4308620,KSJC,O,17-Dec-17,PST,37.363,-121.929,62,68,46,57,67,49,28,16,21,45,15,26,47,39,42,16,8,314,23,12,10,2135,218,2353,531,576,0,0,30.12,29.99,30.04,1019.9,1015.3,1017,46,CLR,Fair,KSJC,O,PST,37.363,-121.929,62,57,57,25,29,44,360,3,11,400,CLR,10,0,0,0,0,0,0,0,0,0,30.08,1018.4,46,CLR,Fair,17-Dec-17,20
KSJC 17/Nov/2019 13,1578,OAK2019,17-Nov-19,17-Nov-19,17-Nov-19,1:00,13,OAK,-3.5,CIN,27,O,51,2019,Week 11,51921,OAK,-3.5,3.5,CIN,17,10,Y,56057,0,53,45,0,San Jose,KSJC,KSJC4378613,KSJC,O,17-Nov-19,PST,37.367,-121.917,79,74,48,60,76,49,51,44,48,87,41,66,60,47,54,7,2,328,7,8,10,2593,271,2864,538,605,0,0,30.13,30,30.06,1020.1,1015.8,1017.8,46,CLR,Fair,KSJC,O,PST,37.367,-121.917,79,70,70,49,47,58,0,0,10,100,FEW,10,417,44,461,439,483,627,0,0,0,30.05,1017.5,46,CLR,Fair,17-Nov-19,13
KSJC 17/Nov/2019 13,1579,SFN2019,17-Nov-19,17-Nov-19,17-Nov-19,1:00,13,SF,-8.5,ARI,62,O,34,2019,Week 11,69419,SF,-8.5,8.5,ARI,36,26,Y,75000,0,5,39,0,San Jose,KSJC,KSJC4378613,KSJC,O,17-Nov-19,PST,37.367,-121.917,79,74,48,60,76,49,51,44,48,87,41,66,60,47,54,7,2,328,7,8,10,2593,271,2864,538,605,0,0,30.13,30,30.06,1020.1,1015.8,1017.8,46,CLR,Fair,KSJC,O,PST,37.367,-121.917,79,70,70,49,47,58,0,0,10,100,FEW,10,417,44,461,439,483,627,0,0,0,30.05,1017.5,46,CLR,Fair,17-Nov-19,13
KSJC 17/Sep/2017 16,1580,OAK2017,17-Sep-17,17-Sep-17,17-Sep-17,4:05,16,OAK,-14,NYJ,65,O,44,2017,Week 2,54729,OAK,-14,14,SEA,45,20,Y,56057,0,51,79,0,San Jose,KSJC,KSJC4299516,KSJC,O,17-Sep-17,PST,37.363,-121.929,62,81,57,67,80,57,58,52,55,87,39,70,65,55,60,18,6,326,18,20,9.7,5332,559,5891,594,739,0,0,29.98,29.91,29.95,1015.3,1012.8,1014,46,CLR,Fair,KSJC,O,PST,37.363,-121.929,62,76,78,54,47,63,310,15,0,301,SCT,10,325,33,358,325,358,465,0,0,0,29.93,1013.3,54,CLR,Few High Clouds,17-Sep-17,16
KSJC 18/Oct/2015 16,1581,SFN2015,18-Oct-15,18-Oct-15,18-Oct-15,4:25,16,BAL,-2.5,SF,45,O,43.5,2015,Week 6,70799,SF,2.5,-2.5,OAK,25,20,Y,75000,0,1,68,0,San Jose,KSJC,KSJC4229516,KSJC,O,18-Oct-15,PST,37.363,-121.929,62,71,57,64,71,58,59,51,55,93,51,73,61,55,59,16,7,278,18,82,9.9,2113,394,2507,116,667,0,0,30.01,29.96,29.99,1016.4,1014.6,1015.4,45,CLR,Mostly Clear,KSJC,O,PST,37.363,-121.929,62,69,69,51,53,59,270,13,45,40,SCT,10,127,16,143,158,174,226,0,0,0,29.97,1014.8,45,CLR,Mostly Clear,18-Oct-15,16
KSJC 18/Sep/2016 16,1582,OAK2016,18-Sep-16,18-Sep-16,18-Sep-16,4:25,16,OAK,-4,ATL,63,O,48,2016,Week 2,54081,OAK,-4,4,CAR,28,35,Y,56057,0,50,83,0,San Jose,KSJC,KSJC4263116,KSJC,O,18-Sep-16,PST,37.363,-121.929,62,93,58,75,92,58,58,42,53,81,19,52,66,54,62,13,4,296,13,5,10,5236,548,5785,679,737,0,0,29.98,29.88,29.93,1015.2,1011.6,1013.3,46,CLR,Fair,KSJC,O,PST,37.363,-121.929,62,92,92,49,23,66,300,13,5,65,FEW,10,308,32,340,316,348,452,0,0,0,29.88,1011.7,46,CLR,Fair,18-Sep-16,16
KSJC 19/Nov/2017 16,1583,OAK2017,19-Nov-17,19-Nov-17,19-Nov-17,4:25,16,NE,-7,OAK,41,U,55.5,2017,Week 11,56426,OAK,7,-7,GB,8,33,Y,56057,0,51,25,0,San Jose,KSJC,KSJC4305816,KSJC,O,19-Nov-17,PST,37.363,-121.929,62,65,42,54,65,43,48,40,43,89,45,69,54,42,48,7,2,230,7,63,10,1863,266,2129,120,602,0,0,30.18,30.05,30.12,1021.9,1017.6,1019.9,42,MC,Mostly Cloudy,KSJC,O,PST,37.363,-121.929,62,65,65,43,45,54,310,6,95,180,BKN,10,40,6,46,60,66,85,0,0,0,30.05,1017.6,50,PC,High Overcast,19-Nov-17,16
KSJC 19/Oct/2014 16,1584,OAK2014,19-Oct-14,19-Oct-14,19-Oct-14,4:25,16,ARI,-3.5,OAK,37,U,46.5,2014,Week 7,52101,OAK,3.5,-3.5,WAS,13,24,Y,56057,0,48,70,0,San Jose,KSJC,KSJC4193116,KSJC,O,19-Oct-14,PST,37.363,-121.929,62,75,55,64,78,54,58,53,56,100,54,80,64,54,59,17,5,307,17,31,9,3514,389,3903,483,664,0,0,29.93,29.84,29.89,1013.5,1010.6,1012.1,45,CLR,Mostly Clear,KSJC,O,PST,37.363,-121.929,62,70,70,58,66,63,310,16,5,30,FEW,10,149,15,164,153,168,218,0,0,0,29.84,1010.6,45,CLR,Mostly Clear,19-Oct-14,16
KSJC 19/Oct/2017 20,1585,OAK2017,19-Oct-17,19-Oct-17,19-Oct-17,8:25,20,KC,-3,OAK,61,O,46.5,2017,Week 7,55090,OAK,3,-3,CHI,31,30,N,56057,0,51,84,0,San Jose,KSJC,KSJC4302720,KSJC,O,19-Oct-17,PST,37.363,-121.929,62,71,55,62,70,55,57,51,53,90,55,74,60,53,57,20,6,318,32,92,9.6,2185,389,2574,103,664,0.2,0,30.02,29.89,29.96,1016.5,1012.1,1014.5,45,CLR,Mostly Clear,KSJC,O,PST,37.363,-121.929,62,65,65,55,70,59,170,7,95,1,BKN,10,0,0,0,0,0,0,0,0,0,29.9,1012.6,45,CLR,Mostly Clear,19-Oct-17,20
KSJC 20/Dec/2014 20,1586,SFN2014,20-Dec-14,20-Dec-14,20-Dec-14,8:25,20,SF,-1.5,LAC,73,O,40.5,2014,Week 16,70699,SF,-1.5,1.5,ARI,35,38,Y,75000,1,0,58,0,San Jose,KSJC,KSJC4199320,KSJC,O,20-Dec-14,PST,37.363,-121.929,62,62,54,58,62,52,55,49,53,100,67,85,58,54,55,7,2,135,7,97,9.4,999,218,1219,0,575,0.06,0,30.26,30.13,30.19,1024.8,1020.2,1022.5,45,CLR,Mostly Clear,KSJC,O,PST,37.363,-121.929,62,59,59,53,81,56,0,0,79,38,BKN,10,0,0,0,0,0,0,0,0,0,30.24,1024,42,MC,Mostly Cloudy,20-Dec-14,20
KSJC 20/Dec/2015 16,1587,SFN2015,20-Dec-15,20-Dec-15,20-Dec-15,4:25,16,CIN,-6.5,SF,38,U,41,2015,Week 15,70799,SF,6.5,-6.5,JAX,14,24,Y,75000,0,1,52,0,San Jose,KSJC,KSJC4235816,KSJC,O,20-Dec-15,PST,37.363,-121.929,62,54,37,48,54,35,46,35,41,93,59,78,50,37,44,15,10,117,15,79,9.9,926,218,1146,6,575,0,0,30.26,30.15,30.18,1024.6,1020.9,1022.1,45,CLR,Mostly Clear,KSJC,O,PST,37.363,-121.929,62,54,50,42,64,48,110,15,100,25,BKN,10,26,5,32,53,58,75,0,0,0,30.17,1021.7,45,CLR,Mostly Clear,20-Dec-15,16
KSJC 20/Dec/2015 16,1588,OAK2015,20-Dec-15,20-Dec-15,20-Dec-15,4:05,16,GB,-4,OAK,50,O,47,2015,Week 15,55087,OAK,4,-4,NYJ,20,30,Y,56057,0,49,51,0,San Jose,KSJC,KSJC4235816,KSJC,O,20-Dec-15,PST,37.363,-121.929,62,54,37,48,54,35,46,35,41,93,59,78,50,37,44,15,10,117,15,79,9.9,926,218,1146,6,575,0,0,30.26,30.15,30.18,1024.6,1020.9,1022.1,45,CLR,Mostly Clear,KSJC,O,PST,37.363,-121.929,62,54,50,42,64,48,110,15,100,25,BKN,10,26,5,32,53,58,75,0,0,0,30.17,1021.7,45,CLR,Mostly Clear,20-Dec-15,16
KSJC 20/Nov/2014 20,1589,OAK2014,20-Nov-14,20-Nov-14,20-Nov-14,8:25,20,KC,-7.5,OAK,44,O,42,2014,Week 12,52865,OAK,7.5,-7.5,DEN,24,20,N,56057,0,48,55,0,San Jose,KSJC,KSJC4196320,KSJC,O,20-Nov-14,PST,37.363,-121.929,62,59,50,55,59,51,58,50,53,100,75,94,58,51,54,10,4,139,10,83,9.2,1032,263,1296,3,601,0.12,0,30.11,29.98,30.06,1019.6,1015.2,1017.9,45,CLR,Mostly Clear,KSJC,O,PST,37.363,-121.929,62,55,55,54,96,54,70,3,95,10,BKN,10,0,0,0,0,0,0,0,0,0,30.02,1016.6,45,CLR,Mostly Clear,20-Nov-14,20
KSJC 20/Nov/2016 16,1590,SFN2016,20-Nov-16,20-Nov-16,20-Nov-16,4:25,16,NE,-11.5,SF,47,U,51.5,2016,Week 11,70178,SF,11.5,-11.5,HOU,17,30,Y,75000,0,2,61,0,San Jose,KSJC,KSJC4269416,KSJC,O,20-Nov-16,PST,37.363,-121.929,62,64,54,58,64,53,56,50,53,93,65,85,58,53,55,12,6,142,12,98,9.1,1240,260,1500,13,601,0.34,0,29.95,29.9,29.93,1014.3,1012.5,1013.4,45,CLR,Mostly Clear,KSJC,O,PST,37.363,-121.929,62,56,55,53,90,54,350,6,100,1,OVC,5,28,6,34,57,63,81,99,0.01,0,29.9,1012.6,19,RAIN,Moderate Rain,20-Nov-16,16
KSJC 20/Sep/2015 16,1591,OAK2015,20-Sep-15,20-Sep-15,20-Sep-15,4:05,16,BAL,-6,OAK,70,O,42,2015,Week 2,53500,OAK,6,-6,MIA,37,33,N,56057,0,49,89,0,San Jose,KSJC,KSJC4226716,KSJC,O,20-Sep-15,PST,37.363,-121.929,62,95,59,76,93,59,54,39,48,64,15,41,66,53,60,13,4,311,13,8,10,5255,541,5796,663,733,0,0,29.88,29.77,29.82,1011.8,1008,1009.9,45,CLR,Mostly Clear,KSJC,O,PST,37.363,-121.929,62,93,93,39,15,63,310,12,5,200,FEW,10,303,31,334,308,339,440,0,0,0,29.77,1008.2,45,CLR,Mostly Clear,20-Sep-15,16
KSJC 21/Dec/2014 16,1592,OAK2014,21-Dec-14,21-Dec-14,21-Dec-14,4:25,16,BUF,-6.5,OAK,50,O,41.5,2014,Week 16,53436,OAK,6.5,-6.5,CLE,26,24,N,56057,0,48,62,0,San Jose,KSJC,KSJC4199416,KSJC,O,21-Dec-14,PST,37.363,-121.929,62,62,56,59,62,56,58,52,55,93,81,88,59,54,57,10,6,302,10,96,9.8,1040,218,1257,9,575,0,0,30.32,30.25,30.28,1026.9,1024.3,1025.4,45,CLR,Mostly Clear,KSJC,O,PST,37.363,-121.929,62,61,60,58,90,59,320,8,100,8,BKN,10,27,5,32,54,59,78,0,0,0,30.26,1024.7,45,CLR,Mostly Clear,21-Dec-14,16
KSJC 21/Dec/2019 13,1593,SFN2019,21-Dec-19,21-Dec-19,21-Dec-19,1:00,13,LAR,-2,SF,65,O,38,2019,Week 16,70103,SF,2,-2,TB,34,31,Y,75000,0,5,56,0,San Jose,KSJC,KSJC4382013,KSJC,O,21-Dec-19,PST,37.367,-121.917,79,60,44,53,59,41,48,37,45,100,55,78,53,44,49,21,7,169,21,47,8.6,1397,218,1615,468,576,0,0,30.11,29.76,29.95,1019.2,1007.6,1014.1,45,CLR,Mostly Clear,KSJC,O,PST,37.367,-121.917,79,58,55,48,70,53,200,13,5,24,FEW,10,239,38,277,383,421,547,0,0,0,29.95,1014.1,45,CLR,Mostly Clear,21-Dec-19,13
KSJC 21/Nov/2016 20,1594,OAK2016,21-Nov-16,21-Nov-16,21-Nov-16,8:30,20,OAK,-6.5,HOU,47,O,46,2016,Week 11,56426,OAK,-6.5,6.5,SF,27,20,Y,56057,0,50,28,0,San Jose,KSJC,KSJC4269520,KSJC,O,21-Nov-16,PST,37.363,-121.929,62,63,49,56,63,51,51,43,48,89,58,76,56,47,52,15,5,302,15,55,9.9,2038,256,2294,366,599,0,0,30.17,29.95,30.06,1021.6,1014.2,1017.9,45,CLR,Mostly Clear,KSJC,O,PST,37.363,-121.929,62,56,55,46,70,51,300,6,95,12,BKN,10,0,0,0,0,0,0,0,0,0,30.14,1020.5,45,CLR,Mostly Clear,21-Nov-16,20
KSJC 21/Sep/2017 20,1595,SFN2017,21-Sep-17,21-Sep-17,21-Sep-17,8:25,20,LAR,-3,SF,80,O,40.5,2017,Week 3,70178,SF,3,-3,LAR,39,41,N,75000,0,3,42,0,San Jose,KSJC,KSJC4299920,KSJC,O,21-Sep-17,PST,37.363,-121.929,62,72,54,62,71,55,49,44,46,72,41,56,58,51,54,16,10,274,24,12,10,4924,536,5461,603,730,0,0,29.93,29.87,29.9,1013.6,1011.5,1012.5,46,CLR,Fair,KSJC,O,PST,37.363,-121.929,62,60,58,44,56,52,270,12,10,140,FEW,10,0,0,0,0,0,0,0,0,0,29.93,1013.5,45,CLR,Mostly Clear,21-Sep-17,20
KSJC 22/Oct/2015 20,1596,SFN2015,22-Oct-15,22-Oct-15,22-Oct-15,8:25,20,SEA,-6.5,SF,23,U,42,2015,Week 7,70799,SF,6.5,-6.5,CHI,3,20,Y,75000,0,1,66,0,San Jose,KSJC,KSJC4229920,KSJC,O,22-Oct-15,PST,37.363,-121.929,62,77,53,64,77,53,57,46,51,87,40,65,62,50,57,10,3,301,10,10,10,3531,373,3904,535,658,0,0,29.98,29.9,29.94,1015.2,1012.4,1013.7,45,CLR,Mostly Clear,KSJC,O,PST,37.363,-121.929,62,66,66,54,65,59,300,8,0,201,CLR,10,0,0,0,0,0,0,0,0,0,29.94,1014,46,CLR,Fair,22-Oct-15,20
KSJC 22/Oct/2017 16,1597,SFN2017,22-Oct-17,22-Oct-17,22-Oct-17,4:05,16,DAL,-6.5,SF,50,O,48,2017,Week 7,70133,SF,6.5,-6.5,DAL,10,40,Y,75000,0,3,48,0,San Jose,KSJC,KSJC4303016,KSJC,O,22-Oct-17,PST,37.363,-121.929,62,75,50,62,77,51,55,47,52,92,45,71,62,49,56,14,4,310,14,1,10,3703,373,4076,648,658,0,0,30.37,30.24,30.3,1028.5,1024,1026.1,46,CLR,Fair,KSJC,O,PST,37.363,-121.929,62,74,76,51,45,61,290,10,1,301,SCT,10,140,14,154,141,155,201,0,0,0,30.26,1024.5,54,CLR,Few High Clouds,22-Oct-17,16
KSJC 22/Sep/2013 16,1598,SFN2013,22-Sep-13,22-Sep-13,22-Sep-13,4:25,16,SF,-10.5,IND,34,U,46,2013,Week 3,69732,SF,-10.5,10.5,SEA,7,27,Y,69732,0,42,66,0,San Jose,KSJC,KSJC4153916,KSJC,O,22-Sep-13,PST,37.363,-121.929,62,72,53,62,72,53,55,47,52,93,44,72,59,52,56,20,7,301,20,21,10,4805,531,5336,565,728,0,0,30.02,29.92,29.97,1016.6,1013.3,1014.9,45,CLR,Mostly Clear,KSJC,O,PST,37.363,-121.929,62,71,71,50,47,59,310,20,1,301,SCT,10,296,30,326,297,327,425,0,0,0,29.96,1014.4,46,CLR,Fair,22-Sep-13,16
KSJC 22/Sep/2019 16,1599,SFN2019,22-Sep-19,22-Sep-19,22-Sep-19,4:25,16,SF,-6.5,PIT,44,U,44.5,2019,Week 3,69439,SF,-6.5,6.5,PIT,24,20,N,75000,0,5,32,0,San Jose,KSJC,KSJC4373016,KSJC,O,22-Sep-19,PST,37.367,-121.917,79,83,58,69,81,59,60,49,54,81,36,61,67,54,60,17,5,338,17,32,10,3935,531,4466,315,728,0,0,29.95,29.88,29.91,1014.1,1011.8,1012.9,46,CLR,Fair,KSJC,O,PST,37.367,-121.917,79,78,79,56,47,65,340,13,45,120,SCT,10,239,30,269,297,327,425,0,0,0,29.88,1011.9,44,PC,Partly Cloudy,22-Sep-19,16
KSJC 23/Dec/2013 20,1600,SFN2013,23-Dec-13,23-Dec-13,23-Dec-13,8:40,20,SF,-14.5,ATL,58,O,46.5,2013,Week 16,69732,SF,-14.5,14.5,ARI,34,24,N,69732,0,42,60,0,San Jose,KSJC,KSJC4163120,KSJC,O,23-Dec-13,PST,37.363,-121.929,62,63,38,50,63,39,40,35,37,86,40,63,51,37,44,8,2,306,8,3,9.7,2156,219,2375,543,575,0,0,30.38,30.29,30.34,1028.8,1025.6,1027.3,46,CLR,Fair,KSJC,O,PST,37.363,-121.929,62,50,50,39,66,45,140,3,0,201,CLR,8,0,0,0,0,0,0,0,0,0,30.33,1027.2,46,CLR,Fair,23-Dec-13,20
KSJC 23/Nov/2014 16,1601,SFN2014,23-Nov-14,23-Nov-14,23-Nov-14,4:25,16,SF,-9.5,WAS,30,U,44,2014,Week 12,70799,SF,-9.5,9.5,BAL,17,13,N,75000,1,0,63,0,San Jose,KSJC,KSJC4196616,KSJC,O,23-Nov-14,PST,37.363,-121.929,62,65,45,54,64,44,48,35,42,93,34,68,51,44,48,9,5,278,9,25,10,1998,254,2252,254,596,0,0,30.33,30.24,30.29,1027,1024.1,1025.6,46,CLR,Fair,KSJC,O,PST,37.363,-121.929,62,64,64,35,34,50,290,8,75,80,BKN,10,39,5,44,54,59,78,0,0,0,30.25,1024.3,45,CLR,Mostly Clear,23-Nov-14,16
KSJC 23/Oct/2016 16,1602,SFN2016,23-Oct-16,23-Oct-16,23-Oct-16,4:05,16,SF,-1,TB,51,O,45.5,2016,Week 7,70178,SF,-1,1,CIN,17,34,Y,75000,0,2,69,0,San Jose,KSJC,KSJC4266616,KSJC,O,23-Oct-16,PST,37.363,-121.929,62,75,51,61,76,49,52,45,49,83,41,66,60,48,54,22,7,179,28,52,10,3074,364,3438,284,655,0,0,29.95,29.87,29.91,1014.1,1011.4,1012.7,45,CLR,Mostly Clear,KSJC,O,PST,37.363,-121.929,62,67,66,50,55,58,220,14,95,23,BKN,10,83,13,96,132,145,188,0,0,0,29.87,1011.4,45,CLR,Mostly Clear,23-Oct-16,16
KSJC 24/Dec/2015 20,1603,OAK2015,24-Dec-15,24-Dec-15,24-Dec-15,8:25,20,OAK,-4,LAC,43,U,45.5,2015,Week 16,54400,OAK,-4,4,NYJ,23,20,N,56057,0,49,46,0,San Jose,KSJC,KSJC4236220,KSJC,O,24-Dec-15,PST,37.363,-121.929,62,53,40,46,51,37,45,37,40,90,64,79,48,40,44,18,8,224,31,69,9.8,1260,219,1481,84,575,0.3,0,30.09,29.95,30,1018.8,1014.3,1015.8,45,CLR,Mostly Clear,KSJC,O,PST,37.363,-121.929,62,45,41,38,77,42,260,7,5,12,FEW,10,0,0,0,0,0,0,0,0,0,30.04,1017.4,45,CLR,Mostly Clear,24-Dec-15,20
KSJC 24/Dec/2016 16,1604,OAK2016,24-Dec-16,24-Dec-16,24-Dec-16,4:05,16,OAK,-3.5,IND,58,O,52.5,2016,Week 16,54896,OAK,-3.5,3.5,CAR,33,25,Y,56057,0,50,48,0,San Jose,KSJC,KSJC4272816,KSJC,O,24-Dec-16,PST,37.363,-121.929,62,52,37,45,52,32,40,34,37,89,50,74,44,36,41,15,7,281,15,17,9.9,1850,220,2070,399,575,0,0,30.01,29.86,29.91,1016.4,1011.2,1012.8,45,CLR,Mostly Clear,KSJC,O,PST,37.363,-121.929,62,51,46,36,56,44,300,14,45,32,SCT,10,44,6,50,57,63,82,0,0,0,29.89,1012.3,45,CLR,Mostly Clear,24-Dec-16,16
KSJC 24/Dec/2017 16,1605,SFN2017,24-Dec-17,24-Dec-17,24-Dec-17,4:05,16,JAX,-4,SF,77,O,43,2017,Week 16,70133,SF,4,-4,DET,44,33,Y,75000,0,3,73,0,San Jose,KSJC,KSJC4309316,KSJC,O,24-Dec-17,PST,37.363,-121.929,62,56,45,50,54,45,40,38,39,77,55,66,47,43,45,6,2,240,6,86,7.9,1019,219,1237,23,575,0,0,30.23,30.17,30.19,1023.5,1021.5,1022.2,40,MC,Overcast,KSJC,O,PST,37.363,-121.929,62,54,54,38,55,46,280,3,100,130,OVC,7,30,6,36,57,63,81,0,0,0,30.19,1022.2,40,MC,Overcast,24-Dec-17,16
KSJC 24/Nov/2013 16,1606,OAK2013,24-Nov-13,24-Nov-13,24-Nov-13,4:05,16,TEN,-2.5,OAK,42,P,42,2013,Week 12,46001,OAK,2.5,-2.5,BAL,19,23,Y,53286,0,47,59,0,San Jose,KSJC,KSJC4160216,KSJC,O,24-Nov-13,PST,37.363,-121.929,62,65,41,52,64,41,41,36,40,89,35,65,51,41,46,9,3,298,9,1,10,2496,253,2749,583,595,0,0,30.25,30.11,30.18,1024.5,1019.7,1022,46,CLR,Fair,KSJC,O,PST,37.363,-121.929,62,63,62,38,40,51,300,9,5,201,SCT,10,53,5,58,54,59,77,0,0,0,30.17,1021.6,46,CLR,Fair,24-Nov-13,16
KSJC 24/Nov/2019 13,1607,SFN2019,24-Nov-19,24-Nov-19,24-Nov-19,1:00,13,SF,PK,GB,45,O,50,2019,Week 12,71500,SF,PK,PK,PIT,37,8,PK,75000,0,5,23,0,San Jose,KSJC,KSJC4379313,KSJC,O,24-Nov-19,PST,37.367,-121.917,79,69,42,55,69,43,45,37,40,77,32,60,54,41,47,14,4,283,14,14,9.7,2199,253,2452,420,595,0,0,30.21,30.07,30.14,1022.8,1018.1,1020.5,46,CLR,Fair,KSJC,O,PST,37.367,-121.917,79,69,69,40,35,54,350,7,95,250,BKN,10,289,42,331,416,458,595,0,0,0,30.12,1019.9,52,PC,High Clouds,24-Nov-19,13
KSJC 26/Nov/2017 16,1608,SFN2017,26-Nov-17,26-Nov-17,26-Nov-17,4:05,16,SEA,-6.5,SF,37,U,45,2017,Week 12,70134,SF,6.5,-6.5,ATL,13,24,Y,75000,0,3,71,0,San Jose,KSJC,KSJC4306516,KSJC,O,26-Nov-17,PST,37.363,-121.929,62,69,58,64,68,57,60,46,54,93,53,72,62,52,59,14,7,147,21,94,9.7,906,247,1152,12,592,0.05,0,30.02,29.93,29.97,1016.3,1013.4,1014.8,50,PC,High Overcast,KSJC,O,PST,37.363,-121.929,62,64,64,59,84,61,170,9,100,70,OVC,10,26,5,30,51,56,74,0,0,0,29.94,1013.6,40,MC,Overcast,26-Nov-17,16
KSJC 26/Nov/2017 16,1609,OAK2017,26-Nov-17,26-Nov-17,26-Nov-17,4:25,16,OAK,-4,DEN,35,U,41,2017,Week 12,53930,OAK,-4,4,IND,21,14,Y,56057,0,51,33,0,San Jose,KSJC,KSJC4306516,KSJC,O,26-Nov-17,PST,37.363,-121.929,62,69,58,64,68,57,60,46,54,93,53,72,62,52,59,14,7,147,21,94,9.7,906,247,1152,12,592,0.05,0,30.02,29.93,29.97,1016.3,1013.4,1014.8,50,PC,High Overcast,KSJC,O,PST,37.363,-121.929,62,64,64,59,84,61,170,9,100,70,OVC,10,26,5,30,51,56,74,0,0,0,29.94,1013.6,40,MC,Overcast,26-Nov-17,16
KSJC 27/Nov/2014 20,1610,SFN2014,27-Nov-14,27-Nov-14,27-Nov-14,8:30,20,SF,-1.5,SEA,22,U,40.5,2014,Week 13,70799,SF,-1.5,1.5,HOU,3,19,Y,75000,1,0,58,0,San Jose,KSJC,KSJC4197020,KSJC,O,27-Nov-14,PST,37.363,-121.929,62,69,43,54,69,45,47,40,43,86,39,69,56,43,49,5,1,328,5,32,9.3,1806,245,2051,308,591,0,0,30.2,30.05,30.12,1022.6,1017.6,1020,45,CLR,Mostly Clear,KSJC,O,PST,37.363,-121.929,62,52,52,44,75,48,0,0,5,2,FEW,8,0,0,0,0,0,0,0,0,0,30.06,1017.8,45,CLR,Mostly Clear,27-Nov-14,20
KSJC 27/Nov/2016 16,1611,OAK2016,27-Nov-16,27-Nov-16,27-Nov-16,4:25,16,OAK,-3.5,CAR,67,O,48.5,2016,Week 12,54909,OAK,-3.5,3.5,NO,35,32,N,56057,0,50,56,0,San Jose,KSJC,KSJC4270116,KSJC,O,27-Nov-16,PST,37.363,-121.929,62,59,50,53,59,46,48,41,44,89,51,72,50,47,49,16,8,291,16,78,9.7,1967,243,2210,261,591,0.3,0,30.12,29.92,30.05,1019.9,1013.2,1017.7,45,CLR,Mostly Clear,KSJC,O,PST,37.363,-121.929,62,57,54,41,55,49,300,12,95,32,BKN,10,32,5,37,50,55,71,0,0,0,30.1,1019.2,45,CLR,Mostly Clear,27-Nov-16,16
KSJC 27/Oct/2013 16,1612,OAK2013,27-Oct-13,27-Oct-13,27-Oct-13,4:05,16,PIT,-3,OAK,39,U,40,2013,Week 8,52950,OAK,3,-3,DAL,21,18,N,53286,0,47,59,0,San Jose,KSJC,KSJC4157416,KSJC,O,27-Oct-13,PST,37.363,-121.929,62,63,50,55,63,49,52,44,48,100,56,79,55,50,52,28,8,281,28,65,8.8,2768,351,3119,307,647,0,0,30.03,29.73,29.9,1017,1006.9,1012.4,45,CLR,Mostly Clear,KSJC,O,PST,37.363,-121.929,62,60,57,45,58,52,270,16,5,24,FEW,10,118,12,130,121,133,173,0,0,0,29.84,1010.4,45,CLR,Mostly Clear,27-Oct-13,16
KSJC 27/Oct/2019 13,1613,SFN2019,27-Oct-19,27-Oct-19,27-Oct-19,1:00,13,SF,-2.5,CAR,64,O,39,2019,Week 8,69083,SF,-2.5,2.5,MIA,51,13,Y,75000,0,5,33,0,San Jose,KSJC,KSJC4376513,KSJC,O,27-Oct-19,PST,37.367,-121.917,79,71,53,62,71,53,53,19,26,93,16,34,55,42,47,26,12,344,40,4,9.9,3474,351,3825,630,647,0,0,30.01,29.76,29.87,1016,1007.5,1011.4,46,CLR,Fair,KSJC,O,PST,37.367,-121.917,79,68,67,22,17,48,10,21,5,1,FEW,9,523,54,577,536,590,765,0,0,0,29.87,1011.5,46,CLR,Fair,27-Oct-19,13
KSJC 28/Dec/2014 16,1614,SFN2014,28-Dec-14,28-Dec-14,28-Dec-14,4:25,16,SF,-6.5,ARI,37,U,37.5,2014,Week 17,70699,SF,-6.5,6.5,CAR,20,17,N,75000,1,0,56,0,San Jose,KSJC,KSJC4200116,KSJC,O,28-Dec-14,PST,37.363,-121.929,62,57,37,46,56,37,42,34,37,89,46,72,49,36,42,8,2,299,8,22,10,2186,220,2406,547,577,0,0,30.36,30.24,30.3,1028.1,1024,1025.9,46,CLR,Fair,KSJC,O,PST,37.363,-121.929,62,56,55,41,57,49,300,6,6,200,FEW,10,61,6,67,62,68,89,0,0,0,30.24,1024.1,45,CLR,Mostly Clear,28-Dec-14,16
KSJC 28/Sep/2014 16,1615,SFN2014,28-Sep-14,28-Sep-14,28-Sep-14,4:25,16,SF,-4,PHI,47,U,49.5,2014,Week 4,70799,SF,-4,4,ATL,26,21,Y,75000,1,0,75,0,San Jose,KSJC,KSJC4191016,KSJC,O,28-Sep-14,PST,37.363,-121.929,62,75,58,64,77,56,58,53,55,87,48,74,63,55,59,17,8,318,17,61,10,3449,497,3946,208,713,0,0,29.96,29.83,29.89,1014.7,1010.3,1012.2,45,CLR,Mostly Clear,KSJC,O,PST,37.363,-121.929,62,70,70,58,66,63,290,17,75,40,BKN,10,191,26,217,261,287,373,0,0,0,29.88,1011.9,45,CLR,Mostly Clear,28-Sep-14,16
KSJC 29/Dec/2013 16,1616,OAK2013,29-Dec-13,29-Dec-13,29-Dec-13,4:25,16,DEN,-10,OAK,48,U,54,2013,Week 17,51500,OAK,10,-10,DEN,14,34,Y,53286,0,47,71,0,San Jose,KSJC,KSJC4163716,KSJC,O,29-Dec-13,PST,37.363,-121.929,62,67,36,50,67,33,31,19,27,76,17,47,47,34,40,7,2,202,7,1,10,2196,222,2418,562,577,0,0,30.17,30.09,30.12,1021.7,1018.9,1020.1,46,CLR,Fair,KSJC,O,PST,37.363,-121.929,62,66,66,22,19,47,300,3,5,250,FEW,10,64,7,71,65,72,93,0,0,0,30.09,1019.2,45,CLR,Mostly Clear,29-Dec-13,16
KSJC 29/Nov/2015 16,1617,SFN2015,29-Nov-15,29-Nov-15,29-Nov-15,4:05,16,ARI,-8.5,SF,32,U,45,2015,Week 12,70799,SF,8.5,-8.5,DEN,13,19,N,75000,0,1,57,0,San Jose,KSJC,KSJC4233716,KSJC,O,29-Nov-15,PST,37.363,-121.929,62,59,32,44,58,26,33,27,29,82,32,59,45,30,38,7,4,217,7,17,10,2378,242,2620,504,588,0,0,30.22,30.14,30.17,1023.3,1020.7,1021.9,46,CLR,Fair,KSJC,O,PST,37.363,-121.929,62,57,56,28,33,44,250,7,45,50,SCT,10,41,5,46,49,54,70,0,0,0,30.14,1020.8,45,CLR,Mostly Clear,29-Nov-15,16
KSJC 29/Sep/2013 16,1618,OAK2013,29-Sep-13,29-Sep-13,29-Sep-13,4:25,16,WAS,-3.5,OAK,38,U,45.5,2013,Week 4,53549,OAK,3.5,-3.5,SF,14,24,Y,53286,0,47,77,0,San Jose,KSJC,KSJC4154616,KSJC,O,29-Sep-13,PST,37.363,-121.929,62,77,54,66,78,55,61,53,56,93,47,74,64,54,60,14,6,309,20,18,10,4286,492,4778,466,711,0,0,30.11,30.05,30.08,1019.7,1017.5,1018.7,45,CLR,Mostly Clear,KSJC,O,PST,37.363,-121.929,62,75,77,56,52,64,290,14,5,32,FEW,10,251,26,277,257,283,367,0,0,0,30.05,1017.5,45,CLR,Mostly Clear,29-Sep-13,16
KSTP 01/Dec/2013 13,1619,MIN2013,1-Dec-13,1-Dec-13,1-Dec-13,1:00,13,MIN,-1,CHI,43,U,50,2013,Week 13,64134,MIN,-1,1,IND,23,20,Y,64121,0,31,72,1,Minnesota,KSTP,KSTP4160913,KSTP,O,1-Dec-13,CST,44.935,-93.06,705,36,19,28,35,15,24,17,22,89,61,77,31,19,26,6,2,194,6,41,7.1,1045,148,1194,252,543,0,0,30.22,29.96,30.13,1023.5,1014.4,1020.2,46,CLR,Fair,KSTP,O,CST,44.935,-93.06,705,35,30,23,61,31,160,6,20,85,SCT,8,247,27,274,274,301,391,0,0,0,30.15,1020.9,44,PC,Partly Cloudy,1-Dec-13,13
KSTP 01/Dec/2016 20,1620,MIN2016,1-Dec-16,1-Dec-16,1-Dec-16,8:25,20,DAL,-3,MIN,32,U,43.5,2016,Week 13,66860,MIN,3,-3,JAX,15,17,N,66655,1,0,72,1,Minnesota,KSTP,KSTP4270520,KSTP,O,1-Dec-16,CST,44.935,-93.06,705,38,32,36,38,23,35,23,30,97,70,83,36,29,34,15,11,316,20,100,10,730,145,873,0,543,0,0,30.07,29.69,29.88,1018.3,1005.3,1012,40,MC,Overcast,KSTP,O,CST,44.935,-93.06,705,35,28,27,72,32,350,9,100,28,OVC,10,0,0,0,0,0,0,0,0,0,30,1015.8,40,MC,Overcast,1-Dec-16,20
KSTP 01/Jan/2017 13,1621,MIN2016,1-Jan-17,1-Jan-17,1-Jan-17,1:00,13,MIN,-6.5,CHI,48,O,44,2016,Week 17,66808,MIN,-6.5,6.5,MIA,38,10,Y,66655,1,0,36,0,Minnesota,KSTP,KSTP4273613,KSTP,O,1-Jan-17,CST,44.935,-93.06,705,32,20,27,31,14,21,17,19,85,64,73,27,20,24,10,6,96,10,39,10,1069,136,1206,323,532,0,0,30.14,29.81,30.03,1020.8,1009.5,1016.8,46,CLR,Fair,KSTP,O,CST,44.935,-93.06,705,31,25,20,64,27,40,6,70,26,BKN,10,174,27,201,267,294,381,0,0,0,30.05,1017.7,42,MC,Mostly Cloudy,1-Jan-17,13
KSTP 01/Oct/2017 13,1622,MIN2017,1-Oct-17,1-Oct-17,1-Oct-17,1:00,13,MIN,-2.5,DET,21,U,43,2017,Week 4,66730,MIN,-2.5,2.5,NYJ,7,14,Y,66655,0,1,66,0,Minnesota,KSTP,KSTP4300913,KSTP,O,1-Oct-17,CST,44.935,-93.06,705,63,56,59,62,53,54,45,50,83,56,70,58,51,54,17,12,140,26,98,9.7,2324,399,2724,18,704,0.12,0,30.12,29.87,29.97,1020.1,1011.5,1014.9,18,RAIN,Light Rain,KSTP,O,CST,44.935,-93.06,705,57,54,52,83,54,140,14,100,100,OVC,5,290,58,348,580,638,829,99,0.05,0,29.92,1013.3,18,RAIN,Light Rain,1-Oct-17,13
KSTP 02/Nov/2014 13,1623,MIN2014,2-Nov-14,2-Nov-14,2-Nov-14,1:00,13,MIN, PK,WAS,55,O,44,2014,Week 9,52252,MIN, PK,PK,LAC,29,26,PK,50805,1,0,54,0,Minnesota,KSTP,KSTP4194513,KSTP,O,2-Nov-14,CST,44.935,-93.06,705,57,34,46,57,27,30,23,26,64,33,49,44,30,37,18,13,158,28,21,10,2306,231,2537,537,605,0,0,30.21,29.91,30.03,1023,1012.7,1016.9,46,CLR,Fair,KSTP,O,CST,44.935,-93.06,705,55,51,27,34,43,160,18,0,201,CLR,10,384,38,422,384,422,549,0,0,0,29.98,1015.3,46,CLR,Fair,2-Nov-14,13
KSTP 03/Oct/2016 20,1624,MIN2016,3-Oct-16,3-Oct-16,3-Oct-16,8:30,20,MIN,-4,NYG,34,U,42.5,2016,Week 4,66690,MIN,-4,4,IND,24,10,Y,66655,1,0,72,1,Minnesota,KSTP,KSTP4264620,KSTP,O,3-Oct-16,CST,44.935,-93.06,705,74,50,62,77,51,56,50,52,97,48,74,62,51,56,15,8,134,22,5,9.7,3801,381,4182,695,695,0,0,30.08,29.89,29.99,1018.7,1012.2,1015.5,46,CLR,Fair,KSTP,O,CST,44.935,-93.06,705,64,63,52,65,57,140,12,27,301,SCT,10,0,0,0,0,0,0,0,0,0,29.91,1012.9,46,CLR,Fair,3-Oct-16,20
KSTP 04/Nov/2018 13,1625,MIN2018,4-Nov-18,4-Nov-18,4-Nov-18,1:00,13,MIN,-5,DET,33,U,47,2018,Week 9,66825,MIN,-5,5,DET,24,9,Y,66860,0,2,70,0,Minnesota,KSTP,KSTP4340813,KSTP,O,4-Nov-18,CST,44.933,-93.05,719,39,35,37,39,28,35,33,34,93,86,88,37,35,36,12,8,17,20,100,8.3,1124,224,1347,0,600,0.15,0,30.16,29.71,29.88,1021.7,1006.3,1012.3,18,RAIN,Light Rain,KSTP,O,CST,44.933,-93.05,719,37,31,33,86,35,40,8,100,9,OVC,6,187,37,224,374,411,535,0,0.02,0,29.81,1009.8,18,RAIN,Light Rain,4-Nov-18,13
KSTP 06/Dec/2015 13,1626,MIN2015,6-Dec-15,6-Dec-15,6-Dec-15,1:00,13,SEA,-2.5,MIN,45,O,43,2015,Week 13,52430,MIN,2.5,-2.5,ATL,7,38,Y,50805,0,1,36,0,Minnesota,KSTP,KSTP4234413,KSTP,O,6-Dec-15,CST,44.935,-93.06,705,40,32,37,40,26,37,30,34,93,82,88,38,31,36,7,3,278,7,100,6.9,698,140,839,0,535,0,0,30.3,30.25,30.28,1026.2,1024.4,1025.5,40,MC,Overcast,KSTP,O,CST,44.935,-93.06,705,39,35,34,82,37,290,5,100,11,OVC,5,132,26,158,265,291,378,0,0,0,30.29,1025.6,35,HAZY,Haze,6-Dec-15,13
KSTP 06/Nov/2016 13,1627,MIN2016,6-Nov-16,6-Nov-16,6-Nov-16,1:00,13,MIN,-5.5,DET,38,U,42.5,2016,Week 9,66807,MIN,-5.5,5.5,SF,16,22,Y,66655,1,0,72,1,Minnesota,KSTP,KSTP4268013,KSTP,O,6-Nov-16,CST,44.935,-93.06,705,69,43,55,69,42,47,42,44,97,39,72,55,44,49,15,8,153,21,0,9.8,2135,213,2348,595,595,0,0,30.26,30.15,30.2,1024.6,1021.1,1022.7,46,CLR,Fair,KSTP,O,CST,44.935,-93.06,705,68,68,44,42,55,170,10,0,201,CLR,10,359,36,395,359,395,512,0,0,0,30.19,1022.3,46,CLR,Fair,6-Nov-16,13
KSTP 07/Dec/2014 13,1628,MIN2014,7-Dec-14,7-Dec-14,7-Dec-14,1:00,13,MIN,-4,NYJ,54,O,40,2014,Week 14,52152,MIN,-4,4,NYJ,30,24,Y,50805,1,0,34,0,Minnesota,KSTP,KSTP4198013,KSTP,O,7-Dec-14,CST,44.935,-93.06,705,35,23,31,35,15,32,18,25,96,71,80,33,21,28,20,13,157,26,80,8.2,1136,139,1276,85,534,0,0,30.58,30.06,30.33,1035.6,1017.8,1027,40,MC,Overcast,KSTP,O,CST,44.935,-93.06,705,34,24,28,79,32,160,14,88,80,FEW,8,252,26,278,263,289,376,0,0,0,30.3,1026.1,45,CLR,Mostly Clear,7-Dec-14,13
KSTP 07/Nov/2013 20,1629,MIN2013,7-Nov-13,7-Nov-13,7-Nov-13,8:25,20,WAS,-1.5,MIN,61,O,48.5,2013,Week 10,64011,MIN,1.5,-1.5,SEA,34,27,Y,64121,0,31,72,1,Minnesota,KSTP,KSTP4158520,KSTP,O,7-Nov-13,CST,44.935,-93.06,705,37,25,30,36,22,28,23,26,92,73,84,33,25,29,9,4,251,9,50,7.4,1109,214,1326,74,592,0,0,30.26,30.2,30.23,1024.8,1022.6,1023.8,46,CLR,Fair,KSTP,O,CST,44.935,-93.06,705,28,28,26,92,27,0,0,0,201,CLR,5,0,0,0,0,0,0,0,0,0,30.24,1024.1,46,CLR,Fair,7-Nov-13,20
KSTP 08/Dec/2019 13,1630,MIN2019,8-Dec-19,8-Dec-19,8-Dec-19,1:00,13,MIN,-8,DET,27,O,57,2019,Week 14,66776,MIN,-8,8,SEA,20,7,Y,66860,0,3,70,0,Minnesota,KSTP,KSTP4380713,KSTP,O,8-Dec-19,CST,44.933,-93.05,719,42,30,34,41,19,30,27,28,87,57,78,36,29,32,15,6,341,20,63,9,756,136,892,91,533,0,0.6,29.8,29.68,29.75,1009.9,1005.8,1008.1,40,MC,Overcast,KSTP,O,CST,44.933,-93.05,719,34,27,28,81,32,320,8,100,12,OVC,6,131,26,157,262,288,374,0,0,0,29.79,1009.6,35,HAZY,Haze,8-Dec-19,13
KSTP 08/Nov/2015 13,1631,MIN2015,8-Nov-15,8-Nov-15,8-Nov-15,1:00,13,MIN,-1,LAR,39,U,40,2015,Week 9,52406,MIN,-1,1,WAS,21,18,Y,50805,0,1,57,0,Minnesota,KSTP,KSTP4231613,KSTP,O,8-Nov-15,CST,44.935,-93.06,705,60,38,47,59,32,35,27,32,70,39,57,47,34,40,17,11,175,30,0,10,2097,209,2306,590,590,0,0,30.28,30.09,30.17,1025.3,1018.9,1021.7,46,CLR,Fair,KSTP,O,CST,44.935,-93.06,705,59,56,34,39,47,200,13,0,201,CLR,10,354,35,389,354,389,506,0,0,0,30.15,1020.9,46,CLR,Fair,8-Nov-15,13
KSTP 08/Sep/2019 13,1632,MIN2019,8-Sep-19,8-Sep-19,8-Sep-19,1:03,13,MIN,-3.5,ATL,40,U,46.5,2019,Week 1,66714,MIN,-3.5,3.5,DET,28,12,Y,66860,0,3,42,0,Minnesota,KSTP,KSTP4371613,KSTP,O,8-Sep-19,CST,44.933,-93.05,719,61,53,57,61,51,54,48,51,87,75,82,57,51,54,10,7,99,10,99,9.8,2674,534,3210,0,772,0.16,0,30.16,30.11,30.14,1021.1,1019.5,1020.4,19,RAIN,Moderate Rain,KSTP,O,CST,44.933,-93.05,719,58,57,53,84,55,90,6,100,17,OVC,10,361,72,433,722,794,1031,0,0,0,30.15,1020.8,40,MC,Overcast,8-Sep-19,13
KSTP 09/Oct/2016 13,1633,MIN2016,9-Oct-16,9-Oct-16,9-Oct-16,1:00,13,MIN,-6,HOU,44,O,38.5,2016,Week 5,66683,MIN,-6,6,BAL,31,13,Y,66655,1,0,72,1,Minnesota,KSTP,KSTP4265213,KSTP,O,9-Oct-16,CST,44.935,-93.06,705,59,34,48,58,36,42,34,38,97,51,73,49,35,43,14,7,147,14,0,9.9,3455,345,3800,676,676,0,0,30.43,30.18,30.33,1030.4,1022.1,1027,46,CLR,Fair,KSTP,O,CST,44.935,-93.06,705,56,53,39,53,48,120,12,0,201,CLR,10,521,52,573,521,573,745,0,0,0,30.35,1027.8,46,CLR,Fair,9-Oct-16,13
KSTP 09/Sep/2018 13,1634,MIN2018,9-Sep-18,9-Sep-18,9-Sep-18,1:00,13,MIN,-6.5,SF,40,U,46,2018,Week 1,66673,MIN,-6.5,6.5,SF,24,16,Y,66860,0,2,26,0,Minnesota,KSTP,KSTP4335213,KSTP,O,9-Sep-18,CST,44.933,-93.05,719,72,53,62,71,51,55,47,51,86,53,69,61,51,56,13,8,143,13,2,10,5145,529,5674,744,768,0,0,30.18,30.03,30.1,1021.6,1016.6,1019.1,46,CLR,Fair,KSTP,O,CST,44.933,-93.05,719,71,71,53,53,61,170,13,35,217,CLR,10,591,72,663,716,788,1023,0,0,0,30.09,1018.6,46,CLR,Fair,9-Sep-18,13
KSTP 11/Sep/2017 19,1635,MIN2017,11-Sep-17,11-Sep-17,11-Sep-17,7:10,19,MIN,-3,NO,48,O,47.5,2017,Week 1,66606,MIN,-3,3,SEA,29,19,Y,66655,0,1,40,0,Minnesota,KSTP,KSTP4298919,KSTP,O,11-Sep-17,CST,44.935,-93.06,705,81,59,68,82,58,66,52,59,100,54,73,70,55,63,12,5,173,12,8,9.4,5151,517,5668,643,763,0,0,30.19,30.06,30.13,1021.9,1017.5,1019.7,46,CLR,Fair,KSTP,O,CST,44.935,-93.06,705,71,71,66,84,68,0,0,0,201,CLR,10,0,0,0,0,0,0,0,0,0,30.07,1017.8,46,CLR,Fair,11-Sep-17,19
KSTP 12/Oct/2014 13,1636,MIN2014,12-Oct-14,12-Oct-14,12-Oct-14,1:00,13,MIN,-1.5,DET,20,U,43,2014,Week 6,52213,MIN,-1.5,1.5,JAX,3,17,Y,50805,1,0,61,0,Minnesota,KSTP,KSTP4192413,KSTP,O,12-Oct-14,CST,44.935,-93.06,705,63,37,50,62,31,47,34,39,89,41,69,50,36,44,22,12,150,26,36,10,3243,333,3575,529,667,0,0,29.98,29.78,29.86,1015.4,1008.6,1011.2,46,CLR,Fair,KSTP,O,CST,44.935,-93.06,705,62,59,38,41,50,160,20,22,201,SCT,10,453,51,504,509,560,727,0,0,0,29.81,1009.6,46,CLR,Fair,12-Oct-14,13
KSTP 13/Oct/2013 13,1637,MIN2013,13-Oct-13,13-Oct-13,13-Oct-13,1:00,13,MIN,-2.5,CAR,45,P,45,2013,Week 6,63963,MIN,-2.5,2.5,PHI,10,35,Y,64121,0,31,72,1,Minnesota,KSTP,KSTP4156013,KSTP,O,13-Oct-13,CST,44.935,-93.06,705,60,38,48,59,39,40,31,37,96,36,68,47,38,43,10,1,328,16,0,10,3280,329,3609,662,664,0,0,30.45,30.25,30.38,1031.1,1024.3,1028.8,46,CLR,Fair,KSTP,O,CST,44.935,-93.06,705,58,57,33,39,47,320,7,0,201,CLR,10,502,50,552,502,552,717,0,0,0,30.41,1029.8,46,CLR,Fair,13-Oct-13,13
KSTP 13/Oct/2019 13,1638,MIN2019,13-Oct-19,13-Oct-19,13-Oct-19,1:00,13,MIN,-2.5,PHI,58,O,32,2019,Week 6,66837,MIN,-2.5,2.5,SF,38,20,Y,66860,0,3,33,0,Minnesota,KSTP,KSTP4375113,KSTP,O,13-Oct-19,CST,44.933,-93.05,719,43,35,38,42,27,34,30,31,89,65,78,38,33,35,18,11,273,31,77,9.8,1645,329,1976,6,664,0.02,0,29.96,29.67,29.8,1014.9,1005,1009.4,40,MC,Overcast,KSTP,O,CST,44.933,-93.05,719,41,34,31,67,37,290,13,100,36,OVC,10,251,50,301,502,552,717,0,0,0,29.78,1008.8,40,MC,Overcast,13-Oct-19,13
KSTP 14/Oct/2018 13,1639,MIN2018,14-Oct-18,14-Oct-18,14-Oct-18,1:00,13,MIN,-9.5,ARI,44,O,43.5,2018,Week 6,66801,MIN,-9.5,9.5,ARI,27,17,Y,66860,0,2,56,0,Minnesota,KSTP,KSTP4338713,KSTP,O,14-Oct-18,CST,44.933,-93.05,719,40,32,36,41,24,30,20,26,92,54,67,36,30,33,15,10,317,15,100,8.5,1622,325,1947,3,661,0.05,0.3,30.17,30,30.12,1022.3,1016.1,1020.3,40,MC,Overcast,KSTP,O,CST,44.933,-93.05,719,35,28,29,78,33,320,9,100,70,OVC,10,248,50,298,495,545,708,0,0,0,30.14,1021.1,40,MC,Overcast,14-Oct-18,13
KSTP 14/Sep/2014 13,1640,MIN2014,14-Sep-14,14-Sep-14,14-Sep-14,1:00,13,NE,-3,MIN,37,U,49,2014,Week 2,52350,MIN,3,-3,NO,7,30,Y,50805,1,0,65,0,Minnesota,KSTP,KSTP4189613,KSTP,O,14-Sep-14,CST,44.935,-93.06,705,64,49,56,63,46,46,37,42,80,38,61,52,46,49,16,9,257,25,54,10,4633,501,5135,537,754,0,0,30.16,30.1,30.13,1021.2,1019.3,1020.3,46,CLR,Fair,KSTP,O,CST,44.935,-93.06,705,63,62,39,41,51,260,13,20,55,FEW,10,670,69,739,687,756,981,0,0,0,30.12,1019.9,45,CLR,Mostly Clear,14-Sep-14,13
KSTP 15/Dec/2013 13,1641,MIN2013,15-Dec-13,15-Dec-13,15-Dec-13,1:00,13,PHI,-6.5,MIN,78,O,53,2013,Week 15,64087,MIN,6.5,-6.5,DEN,48,30,Y,64121,0,31,72,1,Minnesota,KSTP,KSTP4162313,KSTP,O,15-Dec-13,CST,44.935,-93.06,705,4,0,1,4,-19,-8,-13,-10,69,51,60,2,-2,0,15,9,331,15,73,10,1087,131,1217,331,528,0,0,30.22,30.15,30.19,1023.2,1020.9,1022.3,40,MC,Overcast,KSTP,O,CST,44.935,-93.06,705,2,-8,-11,54,0,320,5,0,201,CLR,10,256,26,282,256,282,366,0,0,0,30.19,1022.3,46,CLR,Fair,15-Dec-13,13
KSTP 15/Oct/2017 13,1642,MIN2017,15-Oct-17,15-Oct-17,15-Oct-17,1:00,13,GB,-3,MIN,33,U,46,2017,Week 6,66848,MIN,3,-3,PHI,23,10,Y,66655,0,1,70,0,Minnesota,KSTP,KSTP4302313,KSTP,O,15-Oct-17,CST,44.935,-93.06,705,52,40,46,52,33,44,32,39,97,48,78,46,40,43,21,9,307,37,72,9.9,2426,318,2745,146,657,0.01,0,30.23,29.91,30.15,1023.7,1013,1020.9,40,MC,Overcast,KSTP,O,CST,44.935,-93.06,705,52,48,39,61,46,280,13,90,35,BKN,10,269,49,318,489,538,699,0,0,0,30.2,1022.6,44,PC,Partly Cloudy,15-Oct-17,13
KSTP 16/Dec/2018 13,1643,MIN2018,16-Dec-18,16-Dec-18,16-Dec-18,1:00,13,MIN,-7.5,MIA,58,O,45,2018,Week 15,66841,MIN,-7.5,7.5,MIA,41,17,Y,66860,0,2,58,0,Minnesota,KSTP,KSTP4345013,KSTP,O,16-Dec-18,CST,44.933,-93.05,719,46,28,36,46,23,27,19,23,82,41,62,38,26,31,14,8,300,22,2,10,1306,131,1437,507,527,0,0,30.22,30.04,30.12,1023.7,1017.8,1020.5,46,CLR,Fair,KSTP,O,CST,44.933,-93.05,719,44,39,26,49,37,290,10,0,392,CLR,10,256,26,282,256,282,365,0,0,0,30.12,1020.3,46,CLR,Fair,16-Dec-18,13
KSTP 17/Dec/2017 13,1644,MIN2017,17-Dec-17,17-Dec-17,17-Dec-17,1:00,13,MIN,-13,CIN,41,U,42.5,2017,Week 15,66833,MIN,-13,13,CAR,34,7,Y,66655,0,1,75,0,Minnesota,KSTP,KSTP4308613,KSTP,O,17-Dec-17,CST,44.935,-93.06,705,28,19,25,28,12,25,16,22,100,78,90,27,19,24,7,3,157,7,90,5.1,656,131,788,0,527,0,0,30.13,29.95,30.05,1021.3,1014.9,1018.6,40,MC,Overcast,KSTP,O,CST,44.935,-93.06,705,27,21,24,89,26,160,5,100,9,OVC,5,128,26,154,255,281,364,0,0,0,30.06,1018.7,40,MC,Overcast,17-Dec-17,13
KSTP 17/Nov/2019 13,1645,MIN2019,17-Nov-19,17-Nov-19,17-Nov-19,1:00,13,MIN,-6,DEN,50,O,60,2019,Week 11,66883,MIN,-6,6,CIN,27,23,N,66860,0,3,78,0,Minnesota,KSTP,KSTP4378613,KSTP,O,17-Nov-19,CST,44.933,-93.05,719,39,32,36,39,24,36,24,30,97,72,81,37,29,34,16,8,311,16,100,7.7,901,179,1079,0,568,0.1,0.1,29.97,29.86,29.9,1015.1,1011.5,1013,40,MC,Overcast,KSTP,O,CST,44.933,-93.05,719,38,29,31,76,35,320,15,100,31,OVC,10,158,32,190,316,348,451,0,0,0,29.88,1012.4,40,MC,Overcast,17-Nov-19,13
KSTP 18/Dec/2016 13,1646,MIN2016,18-Dec-16,18-Dec-16,18-Dec-16,1:00,13,MIN,-5,IND,40,U,44,2016,Week 15,66820,MIN,-5,5,CAR,6,34,Y,66655,1,0,72,1,Minnesota,KSTP,KSTP4272213,KSTP,O,18-Dec-16,CST,44.935,-93.06,705,-6,-18,-12,-7,-34,-13,-23,-19,78,55,69,-8,-17,-12,13,8,202,13,77,9.7,933,130,1062,199,527,0,0,30.59,30.36,30.52,1035.9,1028,1033.4,46,CLR,Fair,KSTP,O,CST,44.935,-93.06,705,-8,-23,-20,55,-9,230,7,100,201,OVC,10,128,25,152,255,280,364,0,0,0,30.57,1035.2,46,CLR,Fair,18-Dec-16,13
KSTP 18/Oct/2015 13,1647,MIN2015,18-Oct-15,18-Oct-15,18-Oct-15,1:00,13,MIN,-3.5,KC,26,U,43,2015,Week 6,52480,MIN,-3.5,3.5,CLE,16,10,Y,50805,0,1,62,0,Minnesota,KSTP,KSTP4229513,KSTP,O,18-Oct-15,CST,44.935,-93.06,705,63,33,49,63,29,36,27,31,93,26,58,48,33,41,26,10,156,33,1,10,3011,302,3313,636,648,0,0,30.4,29.96,30.24,1029.6,1014.5,1024,46,CLR,Fair,KSTP,O,CST,44.935,-93.06,705,62,60,30,30,47,160,15,0,201,CLR,10,471,47,518,471,518,672,0,0,0,30.25,1024.3,46,CLR,Fair,18-Oct-15,13
KSTP 18/Sep/2016 20,1648,MIN2016,18-Sep-16,18-Sep-16,18-Sep-16,8:30,20,GB,-2,MIN,31,U,43,2016,Week 2,66813,MIN,2,-2,ATL,17,14,Y,66655,1,0,34,0,Minnesota,KSTP,KSTP4263120,KSTP,O,18-Sep-16,CST,44.935,-93.06,705,82,52,68,82,51,61,52,57,97,44,73,67,53,61,16,8,167,24,24,9.3,4018,469,4487,505,741,0,0,29.91,29.75,29.82,1012.5,1006.9,1009.3,46,CLR,Fair,KSTP,O,CST,44.935,-93.06,705,69,69,60,73,64,150,7,100,201,OVC,10,0,0,0,0,0,0,0,0,0,29.77,1007.9,40,MC,Overcast,18-Sep-16,20
KSTP 19/Nov/2017 13,1649,MIN2017,19-Nov-17,19-Nov-17,19-Nov-17,1:00,13,MIN,-1.5,LAR,31,U,46.5,2017,Week 11,66809,MIN,-1.5,1.5,LAR,24,7,Y,66655,0,1,37,0,Minnesota,KSTP,KSTP4305813,KSTP,O,19-Nov-17,CST,44.935,-93.06,705,40,17,27,40,6,26,9,17,89,47,67,33,15,24,13,6,247,13,21,10,1500,175,1675,434,563,0,0,30.1,29.8,29.98,1020.2,1009.9,1016,46,CLR,Fair,KSTP,O,CST,44.935,-93.06,705,34,27,17,50,28,190,8,70,120,BKN,10,233,31,264,308,339,440,0,0,0,29.98,1015.9,42,MC,Mostly Cloudy,19-Nov-17,13
KSTP 20/Dec/2015 13,1650,MIN2015,20-Dec-15,20-Dec-15,20-Dec-15,1:00,13,MIN,-4,CHI,55,O,44,2015,Week 15,52421,MIN,-4,4,CLE,38,17,Y,50805,0,1,36,0,Minnesota,KSTP,KSTP4235813,KSTP,O,20-Dec-15,CST,44.935,-93.06,705,41,28,34,41,17,32,20,28,88,66,78,37,25,32,15,7,125,15,98,9.6,703,130,831,27,527,0,0,29.99,29.71,29.8,1015.6,1006.1,1009.1,46,CLR,Fair,KSTP,O,CST,44.935,-93.06,705,40,40,32,73,37,210,3,85,127,CLR,10,147,26,173,255,281,365,0,0,0,29.72,1006.6,46,CLR,Fair,20-Dec-15,13
KSTP 20/Nov/2016 13,1651,MIN2016,20-Nov-16,20-Nov-16,20-Nov-16,1:00,13,MIN,-2,ARI,54,O,40,2016,Week 11,66808,MIN,-2,2,BAL,30,24,Y,66655,1,0,72,1,Minnesota,KSTP,KSTP4269413,KSTP,O,20-Nov-16,CST,44.935,-93.06,705,31,23,26,30,15,18,11,15,78,55,63,26,21,23,8,5,90,8,56,10,1048,168,1217,219,562,0,0,30.47,30.33,30.4,1031.8,1027.2,1029.6,46,CLR,Fair,KSTP,O,CST,44.935,-93.06,705,29,24,15,56,25,50,5,67,168,CLR,10,200,30,230,301,331,430,0,0,0,30.41,1029.7,46,CLR,Fair,20-Nov-16,13
KSTP 20/Sep/2015 13,1652,MIN2015,20-Sep-15,20-Sep-15,20-Sep-15,1:00,13,MIN,-2.5,DET,42,U,44,2015,Week 2,52319,MIN,-2.5,2.5,CHI,26,16,Y,50805,0,1,70,0,Minnesota,KSTP,KSTP4226713,KSTP,O,20-Sep-15,CST,44.935,-93.06,705,71,49,59,71,48,56,47,51,92,44,76,59,48,54,20,9,159,25,38,10,4026,462,4488,432,734,0.06,0,30.12,29.97,30.05,1020,1014.9,1017.6,46,CLR,Fair,KSTP,O,CST,44.935,-93.06,705,69,69,50,51,58,170,16,21,301,SCT,10,582,65,647,650,715,928,0,0,0,30.04,1017.3,46,CLR,Fair,20-Sep-15,13
KSTP 22/Nov/2015 16,1653,MIN2015,22-Nov-15,22-Nov-15,22-Nov-15,4:25,16,MIN,PK,GB,43,U,45,2015,Week 11,52529,MIN,PK,PK,WAS,13,30,PK,50805,0,1,32,0,Minnesota,KSTP,KSTP4233016,KSTP,O,22-Nov-15,CST,44.935,-93.06,705,34,18,26,33,9,22,14,18,85,59,74,29,18,23,16,9,167,22,67,10,1494,167,1661,359,557,0,0,30.12,29.85,29.96,1020.1,1011,1014.7,40,MC,Overcast,KSTP,O,CST,44.935,-93.06,705,33,25,20,59,29,170,10,100,80,OVC,10,8,2,10,17,19,24,0,0,0,29.87,1011.6,44,PC,Partly Cloudy,22-Nov-15,16
KSTP 22/Oct/2017 13,1654,MIN2017,22-Oct-17,22-Oct-17,22-Oct-17,1:00,13,MIN,-5,BAL,40,O,38,2017,Week 7,66751,MIN,-5,5,BAL,24,16,Y,66655,0,1,68,0,Minnesota,KSTP,KSTP4303013,KSTP,O,22-Oct-17,CST,44.935,-93.06,705,63,48,53,62,46,44,31,39,83,31,63,50,44,47,14,8,225,14,55,10,2536,283,2820,463,637,0,0,30.01,29.87,29.94,1016.3,1011.2,1013.8,46,CLR,Fair,KSTP,O,CST,44.935,-93.06,705,60,58,39,46,50,220,10,0,201,CLR,10,446,45,491,446,491,638,0,0,0,29.98,1015,46,CLR,Fair,22-Oct-17,13
KSTP 22/Sep/2013 13,1655,MIN2013,22-Sep-13,22-Sep-13,22-Sep-13,1:00,13,MIN,-7,CLE,58,O,40.5,2013,Week 3,63672,MIN,-7,7,ARI,27,31,N,64121,0,31,72,1,Minnesota,KSTP,KSTP4153913,KSTP,O,22-Sep-13,CST,44.935,-93.06,705,72,47,59,71,44,54,43,49,90,53,71,61,45,53,17,11,133,17,0,10,4513,451,4964,729,729,0,0,30.01,29.87,29.94,1016.1,1011.5,1013.8,46,CLR,Fair,KSTP,O,CST,44.935,-93.06,705,68,68,52,57,59,130,15,0,201,CLR,10,637,64,701,637,701,911,0,0,0,29.92,1013.2,46,CLR,Fair,22-Sep-13,13
KSTP 22/Sep/2019 13,1656,MIN2019,22-Sep-19,22-Sep-19,22-Sep-19,1:00,13,MIN,-9,OAK,48,O,43.5,2019,Week 3,66738,MIN,-9,9,OAK,34,14,Y,66860,0,3,46,0,Minnesota,KSTP,KSTP4373013,KSTP,O,22-Sep-19,CST,44.933,-93.05,719,68,56,62,69,56,57,47,54,90,54,75,62,54,58,15,6,296,15,37,10,2842,451,3294,251,729,0,0,29.93,29.82,29.87,1013.2,1009.3,1011,46,CLR,Fair,KSTP,O,CST,44.933,-93.05,719,67,67,54,63,60,290,8,90,110,BKN,10,418,64,482,638,702,911,0,0,0,29.85,1010.3,42,MC,Mostly Cloudy,22-Sep-19,13
KSTP 23/Dec/2019 13,1657,MIN2019,23-Dec-19,23-Dec-19,23-Dec-19,1:00,13,MIN,-3,GB,33,U,47,2019,Week 16,67157,MIN,-3,3,CHI,10,23,Y,66860,0,3,29,0,Minnesota,KSTP,KSTP4382213,KSTP,O,23-Dec-19,CST,44.933,-93.05,719,38,21,31,37,17,27,19,25,100,65,80,33,21,28,9,4,59,9,15,7.4,1306,130,1436,522,526,0,0.6,30.11,29.9,30.03,1020.3,1013.6,1017.6,46,CLR,Fair,KSTP,O,CST,44.933,-93.05,719,37,31,27,65,33,70,9,0,215,CLR,10,257,26,283,257,283,367,0,0,0,30.07,1019,46,CLR,Fair,23-Dec-19,13
KSTP 23/Nov/2014 13,1658,MIN2014,23-Nov-14,23-Nov-14,23-Nov-14,1:00,13,GB,-8,MIN,45,U,49.5,2014,Week 12,52386,MIN,8,-8,CIN,21,24,N,50805,1,0,46,0,Minnesota,KSTP,KSTP4196613,KSTP,O,23-Nov-14,CST,44.935,-93.06,705,47,32,42,47,24,47,30,40,100,82,95,47,33,41,17,8,293,23,98,4.8,839,164,1001,18,555,0.01,0,29.51,29.35,29.43,999.3,993.8,996.5,40,MC,Overcast,KSTP,O,CST,44.935,-93.06,705,46,46,46,100,46,300,3,100,7,OVC,0.5,148,29,176,295,324,421,0,0,0,29.41,996.1,46,CLR,Fair,23-Nov-14,13
KSTP 23/Sep/2018 13,1659,MIN2018,23-Sep-18,23-Sep-18,23-Sep-18,1:00,13,MIN,-17,BUF,33,U,41,2018,Week 3,66800,MIN,-17,17,BUF,6,27,Y,66860,0,2,34,0,Minnesota,KSTP,KSTP4336613,KSTP,O,23-Sep-18,CST,44.933,-93.05,719,74,49,62,77,49,55,47,51,89,48,69,62,48,56,15,8,141,23,3,10,4442,446,4888,720,726,0,0,30.08,29.95,30.02,1018.4,1013.9,1016.3,46,CLR,Fair,KSTP,O,CST,44.933,-93.05,719,72,72,53,52,61,140,13,0,391,CLR,10,631,63,694,631,694,901,0,0,0,30.01,1016,46,CLR,Fair,23-Sep-18,13
KSTP 24/Oct/2019 13,1660,MIN2019,24-Oct-19,24-Oct-19,24-Oct-19,1:00,13,MIN,-7.5,WAS,28,U,43.5,2019,Week 8,66776,MIN,-7.5,7.5,WAS,19,9,Y,66860,0,3,52,0,Minnesota,KSTP,KSTP4376213,KSTP,O,24-Oct-19,CST,44.933,-93.05,719,43,29,37,43,25,30,23,25,82,45,63,37,29,33,15,8,309,22,35,10,2345,271,2615,481,631,0,0,30.37,30.18,30.31,1028.9,1022.3,1027,46,CLR,Fair,KSTP,O,CST,44.933,-93.05,719,42,36,24,49,35,300,10,20,46,SCT,10,392,43,434,435,478,621,0,0,0,30.35,1028.1,44,PC,Partly Cloudy,24-Oct-19,13
KSTP 24/Sep/2017 13,1661,MIN2017,24-Sep-17,24-Sep-17,24-Sep-17,1:00,13,TB,-1,MIN,51,O,41,2017,Week 3,66390,MIN,1,-1,HOU,34,17,Y,66655,0,1,84,0,Minnesota,KSTP,KSTP4300213,KSTP,O,24-Sep-17,CST,44.935,-93.06,705,89,66,76,91,67,68,62,65,93,42,71,73,66,69,18,9,157,28,32,9.9,4159,439,4598,619,723,0.01,0,29.96,29.84,29.91,1013.9,1009.8,1012.3,46,CLR,Fair,KSTP,O,CST,44.935,-93.06,705,88,90,64,45,72,180,14,5,70,FEW,10,609,62,671,625,687,892,0,0,0,29.9,1011.6,46,CLR,Fair,24-Sep-17,13
KSTP 25/Nov/2018 20,1662,MIN2018,25-Nov-18,25-Nov-18,25-Nov-18,8:20,20,MIN,-3.5,GB,41,U,48.5,2018,Week 12,66872,MIN,-3.5,3.5,GB,24,17,Y,66860,0,2,36,0,Minnesota,KSTP,KSTP4342920,KSTP,O,25-Nov-18,CST,44.933,-93.05,719,30,17,24,30,5,19,8,14,69,57,64,27,15,22,18,13,347,26,40,10,1350,159,1509,356,551,0,0,30.13,29.93,30.06,1021.3,1014.2,1018.6,46,CLR,Fair,KSTP,O,CST,44.933,-93.05,719,20,9,10,65,17,350,10,0,59,CLR,10,0,0,0,0,0,0,0,0,0,30.12,1020.8,46,CLR,Fair,25-Nov-18,20
KSTP 27/Dec/2015 20,1663,MIN2015,27-Dec-15,27-Dec-15,27-Dec-15,8:30,20,MIN,-7,NYG,66,O,44.5,2015,Week 16,52455,MIN,-7,7,ARI,49,17,Y,50805,0,1,12,0,Minnesota,KSTP,KSTP4236520,KSTP,O,27-Dec-15,CST,44.935,-93.06,705,30,13,19,30,2,24,5,11,88,54,73,29,11,18,17,9,328,17,53,10,1190,132,1322,403,528,0,0,30.59,30.42,30.54,1035.8,1030.2,1034.1,46,CLR,Fair,KSTP,O,CST,44.935,-93.06,705,15,2,5,64,13,360,12,70,129,CLR,10,0,0,0,0,0,0,0,0,0,30.56,1034.8,46,CLR,Fair,27-Dec-15,20
KSTP 27/Oct/2013 20,1664,MIN2013,27-Oct-13,27-Oct-13,27-Oct-13,8:30,20,GB,-7.5,MIN,75,O,47.5,2013,Week 8,64134,MIN,7.5,-7.5,MIA,31,44,Y,64121,0,31,72,1,Minnesota,KSTP,KSTP4157420,KSTP,O,27-Oct-13,CST,44.935,-93.06,705,57,29,43,57,24,32,25,29,85,39,60,46,28,37,17,8,271,23,0,9.9,2585,258,2843,618,622,0,0,30.19,29.83,29.96,1022.2,1010.2,1014.6,46,CLR,Fair,KSTP,O,CST,44.935,-93.06,705,46,41,32,58,40,360,10,0,201,CLR,10,0,0,0,0,0,0,0,0,0,30.04,1017.4,46,CLR,Fair,27-Oct-13,20
KSTP 27/Sep/2015 13,1665,MIN2015,27-Sep-15,27-Sep-15,27-Sep-15,1:00,13,MIN,-2,LAC,45,U,45.5,2015,Week 3,52400,MIN,-2,2,PIT,31,14,Y,50805,0,1,80,0,Minnesota,KSTP,KSTP4227413,KSTP,O,27-Sep-15,CST,44.935,-93.06,705,81,57,69,81,56,59,55,57,90,42,67,66,56,62,16,11,172,23,13,9.9,4204,422,4626,713,713,0,0,30.02,29.8,29.91,1016.5,1009.2,1012.7,46,CLR,Fair,KSTP,O,CST,44.935,-93.06,705,79,80,58,49,66,180,12,0,201,CLR,10,605,61,666,605,666,865,0,0,0,29.88,1011.9,46,CLR,Fair,27-Sep-15,13
KSTP 28/Dec/2014 13,1666,MIN2014,28-Dec-14,28-Dec-14,28-Dec-14,1:00,13,MIN,-7,CHI,22,U,47.5,2014,Week 17,52364,MIN,-7,7,CAR,13,9,N,50805,1,0,22,0,Minnesota,KSTP,KSTP4200113,KSTP,O,28-Dec-14,CST,44.935,-93.06,705,24,8,15,23,2,15,-1,8,92,61,77,20,8,13,8,3,24,8,56,9.4,693,132,825,111,529,0,0,30.45,30.14,30.25,1031,1020.5,1024.3,46,CLR,Fair,KSTP,O,CST,44.935,-93.06,705,22,15,15,75,20,370,5,100,33,OVC,10,130,26,156,261,287,373,0,0,0,30.22,1023.3,40,MC,Overcast,28-Dec-14,13
KSTP 28/Oct/2018 20,1667,MIN2018,28-Oct-18,28-Oct-18,28-Oct-18,8:20,20,NO,-2.5,MIN,50,U,54.5,2018,Week 8,66801,MIN,2.5,-2.5,NO,20,30,Y,66860,0,2,28,0,Minnesota,KSTP,KSTP4340120,KSTP,O,28-Oct-18,CST,44.933,-93.05,719,55,45,48,54,36,45,34,38,93,49,70,47,40,44,25,17,311,40,78,9.8,2097,254,2349,284,619,0.03,0,30.02,29.61,29.85,1016.9,1002.6,1010.9,40,MC,Overcast,KSTP,O,CST,44.933,-93.05,719,47,40,35,63,42,310,16,100,32,OVC,10,0,0,0,0,0,0,0,0,0,30,1015.9,40,MC,Overcast,28-Oct-18,20
KSTP 28/Sep/2014 16,1668,MIN2014,28-Sep-14,28-Sep-14,28-Sep-14,4:25,16,ATL,-6,MIN,69,O,47.5,2014,Week 4,52173,MIN,6,-6,ATL,41,28,Y,50805,1,0,80,0,Minnesota,KSTP,KSTP4191016,KSTP,O,28-Sep-14,CST,44.935,-93.06,705,82,58,68,81,59,61,54,59,96,39,74,67,58,63,10,4,172,10,7,8.8,3862,413,4275,650,710,0,0,30.14,30,30.08,1020.5,1015.9,1018.4,46,CLR,Fair,KSTP,O,CST,44.935,-93.06,705,80,80,54,41,64,200,5,0,201,CLR,10,223,22,245,223,245,319,0,0,0,30.03,1016.8,46,CLR,Fair,28-Sep-14,16
KSTP 29/Dec/2013 13,1669,MIN2013,29-Dec-13,29-Dec-13,29-Dec-13,1:00,13,DET,-2,MIN,27,U,50,2013,Week 17,64134,MIN,2,-2,NYG,14,13,N,64121,0,31,72,1,Minnesota,KSTP,KSTP4163713,KSTP,O,29-Dec-13,CST,44.935,-93.06,705,21,-11,0,21,-26,13,-19,-10,88,46,62,20,-10,0,24,14,324,31,53,10,1083,132,1214,391,529,0,0,30.37,30.06,30.3,1028.5,1017.9,1026,46,CLR,Fair,KSTP,O,CST,44.935,-93.06,705,-1,-22,-15,51,-2,320,17,20,75,SCT,10,236,26,262,262,288,374,0,0,0,30.35,1027.6,44,PC,Partly Cloudy,29-Dec-13,13
KSTP 30/Dec/2018 16,1670,MIN2018,30-Dec-18,30-Dec-18,30-Dec-18,4:25,16,MIN,-6,CHI,34,U,40,2018,Week 17,66878,MIN,-6,6,CHI,10,24,Y,66860,0,2,32,0,Minnesota,KSTP,KSTP4346416,KSTP,O,30-Dec-18,CST,44.933,-93.05,719,31,15,25,31,1,24,9,18,84,66,74,29,13,22,13,8,157,22,56,9.9,817,134,952,167,530,0,0,29.89,29.73,29.77,1012.2,1007.5,1008.4,40,MC,Overcast,KSTP,O,CST,44.933,-93.05,719,31,21,21,67,28,170,13,70,85,BKN,10,12,2,14,18,20,26,0,0,0,29.76,1008.4,42,MC,Mostly Cloudy,30-Dec-18,16
KSTP 30/Nov/2014 13,1671,MIN2014,30-Nov-14,30-Nov-14,30-Nov-14,1:00,13,MIN,-2.5,CAR,44,O,41.5,2014,Week 13,52016,MIN,-2.5,2.5,ARI,31,13,Y,50805,1,0,15,0,Minnesota,KSTP,KSTP4197313,KSTP,O,30-Nov-14,CST,44.935,-93.06,705,26,6,13,26,-10,16,-4,3,84,51,64,25,4,12,23,16,309,31,38,10,1247,149,1396,227,543,0,0,30.52,29.75,30.17,1034.1,1007.3,1021.6,46,CLR,Fair,KSTP,O,CST,44.935,-93.06,705,16,2,2,54,13,320,14,100,100,OVC,10,138,28,166,276,304,395,0,0,0,30.2,1022.8,40,MC,Overcast,30-Nov-14,13
KSTP 31/Dec/2017 13,1672,MIN2017,31-Dec-17,31-Dec-17,31-Dec-17,1:00,13,MIN,-13,CHI,33,U,38.5,2017,Week 17,66802,MIN,-13,13,CHI,23,10,N,66655,0,1,56,0,Minnesota,KSTP,KSTP4310013,KSTP,O,31-Dec-17,CST,44.935,-93.06,705,-5,-16,-10,-5,-36,-17,-23,-19,71,53,63,-6,-15,-10,15,10,307,15,27,10,1347,135,1482,528,531,0,0,30.79,30.66,30.74,1045.1,1040.4,1043.2,46,CLR,Fair,KSTP,O,CST,44.935,-93.06,705,-9,-25,-20,58,-10,320,8,0,201,CLR,10,265,26,291,265,291,379,0,0,0,30.77,1044,46,CLR,Fair,31-Dec-17,13
KTPF 01/Jan/2017 13,1673,TBB2016,1-Jan-17,1-Jan-17,1-Jan-17,1:00,13,TB,-3.5,CAR,33,U,44.5,2016,Week 17,62037,TB,-3.5,3.5,TB,17,16,N,65618,0,18,71,0,Tampa,KTPF,KTPF4273613,KTPF,O,1-Jan-17,EST,27.916,-82.449,7,84,59,71,87,59,68,55,64,94,52,81,73,57,66,9,3,151,9,34,9.4,2877,342,3220,443,625,0,0,30.2,30.12,30.16,1022.6,1019.9,1021.2,46,CLR,Fair,KTPF,O,EST,27.916,-82.449,7,81,84,68,66,72,190,6,0,201,SCT,10,513,57,570,570,627,814,0,0,0,30.15,1020.9,46,CLR,Fair,1-Jan-17,13
KTPF 01/Oct/2017 16,1674,TBB2017,1-Oct-17,1-Oct-17,1-Oct-17,4:05,16,TB,-2.5,NYG,48,O,45.5,2017,Week 4,63916,TB,-2.5,2.5,NO,25,23,N,65618,0,19,26,0,Tampa,KTPF,KTPF4300916,KTPF,O,1-Oct-17,EST,27.916,-82.449,7,91,72,78,98,72,77,70,74,100,49,90,77,72,75,25,9,93,31,92,9.4,2615,571,3183,71,714,0.17,0,30.02,29.91,29.95,1016.2,1012.8,1014.2,40,MC,Overcast,KTPF,O,EST,27.916,-82.449,7,73,78,73,100,73,80,10,100,120,BKN,10,77,38,115,385,423,550,99,0.09,0,29.93,1013.5,18,RAIN,Light Rain,1-Oct-17,16
KTPF 02/Dec/2018 13,1675,TBB2018,2-Dec-18,2-Dec-18,2-Dec-18,1:00,13,CAR,-3.5,TB,41,U,52,2018,Week 13,52568,TB,3.5,-3.5,CAR,24,17,Y,65618,0,20,67,0,Tampa,KTPF,KTPF4343613,KTPF,O,2-Dec-18,EST,27.917,-82.45,10,82,71,76,89,71,74,69,72,100,74,88,76,70,73,16,9,190,23,69,9,1983,351,2334,130,629,0,0,29.99,29.92,29.95,1015.9,1013.2,1014.3,42,MC,Mostly Cloudy,KTPF,O,EST,27.917,-82.45,10,82,89,73,74,76,210,15,100,120,OVC,10,233,57,290,575,632,821,0,0,0,29.96,1014.2,42,MC,Mostly Cloudy,2-Dec-18,13
KTPF 02/Oct/2016 16,1676,TBB2016,2-Oct-16,2-Oct-16,2-Oct-16,4:05,16,DEN,-3.5,TB,34,U,43,2016,Week 4,60375,TB,3.5,-3.5,CAR,7,27,Y,65618,0,18,89,0,Tampa,KTPF,KTPF4264516,KTPF,O,2-Oct-16,EST,27.916,-82.449,7,91,75,81,105,75,77,72,74,94,56,80,81,73,76,16,5,71,28,60,9.4,4434,565,5000,361,711,1.13,0,30.01,29.91,29.98,1016.5,1012.8,1015.2,54,CLR,Few High Clouds,KTPF,O,EST,27.916,-82.449,7,91,101,73,56,79,290,5,6,201,CLR,10,364,38,402,375,413,536,0,0,0,29.91,1013.1,44,PC,Partly Cloudy,2-Oct-16,16
KTPF 03/Nov/2016 20,1677,TBB2016,3-Nov-16,3-Nov-16,3-Nov-16,8:25,20,ATL,-4.5,TB,71,O,49.5,2016,Week 9,57797,TB,4.5,-4.5,SEA,28,43,Y,65618,0,18,75,0,Tampa,KTPF,KTPF4267720,KTPF,O,3-Nov-16,EST,27.916,-82.449,7,86,70,77,88,70,68,63,66,94,46,73,72,67,70,10,6,51,10,45,10,3436,431,3868,385,661,0,0,30.21,30.09,30.15,1023,1018.9,1021,46,CLR,Fair,KTPF,O,EST,27.916,-82.449,7,77,80,66,69,70,30,3,20,50,OVC,10,0,0,0,0,0,0,0,0,0,30.12,1019.9,44,PC,Partly Cloudy,3-Nov-16,20
KTPF 04/Oct/2015 13,1678,TBB2015,4-Oct-15,4-Oct-15,4-Oct-15,1:00,13,CAR,-3,TB,60,O,40.5,2015,Week 4,57468,TB,3,-3,TEN,23,37,Y,65890,0,17,75,0,Tampa,KTPF,KTPF4228113,KTPF,O,4-Oct-15,EST,27.916,-82.449,7,79,68,72,83,68,72,64,68,94,74,88,73,66,70,10,3,21,17,41,10,3039,560,3598,215,708,0.52,0,29.75,29.67,29.71,1007.1,1005,1006,46,CLR,Fair,KTPF,O,EST,27.916,-82.449,7,73,78,72,94,72,340,3,0,201,BKN,10,408,81,488,815,896,1164,0,0.3,0,29.71,1006,46,CLR,Fair,4-Oct-15,13
KTPF 05/Oct/2017 20,1679,TBB2017,5-Oct-17,5-Oct-17,5-Oct-17,8:25,20,NE,-4,TB,33,U,54.5,2017,Week 5,64476,TB,4,-4,NE,14,19,Y,65618,0,19,52,0,Tampa,KTPF,KTPF4301320,KTPF,O,5-Oct-17,EST,27.916,-82.449,7,81,72,75,85,72,73,66,70,94,74,85,75,68,72,21,14,57,25,84,10,3016,558,3572,43,706,0,0,30.02,29.89,29.94,1016.7,1012.1,1013.9,40,MC,Overcast,KTPF,O,EST,27.916,-82.449,7,75,79,72,89,73,60,10,70,18,OVC,10,0,0,0,0,0,0,0,0,0,29.93,1013.5,42,MC,Mostly Cloudy,5-Oct-17,20
KTPF 06/Dec/2015 13,1680,TBB2015,6-Dec-15,6-Dec-15,6-Dec-15,1:00,13,TB,PK,ATL,42,U,46.5,2015,Week 13,58221,TB,PK,PK,MIN,23,19,PK,65890,0,17,78,0,Tampa,KTPF,KTPF4234413,KTPF,O,6-Dec-15,EST,27.916,-82.449,7,82,68,73,85,67,66,64,65,94,55,76,71,66,68,17,12,46,25,50,10,2702,345,3047,339,626,0,0,30.3,30.16,30.23,1026,1021.3,1023.6,44,PC,Partly Cloudy,KTPF,O,EST,27.916,-82.449,7,82,85,64,55,71,70,15,20,36,SCT,10,511,57,568,568,625,811,0,0,0,30.22,1023.3,46,CLR,Fair,6-Dec-15,13
KTPF 07/Sep/2014 16,1681,TBB2014,7-Sep-14,7-Sep-14,7-Sep-14,4:25,16,TB,-4.5,CAR,34,U,38.5,2014,Week 1,62442,TB,-4.5,4.5,TEN,14,20,Y,65890,0,16,79,0,Tampa,KTPF,KTPF4188916,KTPF,O,7-Sep-14,EST,27.916,-82.449,7,91,74,81,104,74,80,74,76,100,59,87,82,74,77,13,6,174,13,52,10,4738,672,5410,268,751,0,0,30.03,29.94,30,1017.2,1014.2,1016.2,50,PC,High Overcast,KTPF,O,EST,27.916,-82.449,7,91,101,75,59,79,300,8,62,188,OVC,10,348,50,398,505,555,721,0,0,0,29.94,1014.2,50,PC,High Overcast,7-Sep-14,16
KTPF 08/Dec/2013 13,1682,TBB2013,8-Dec-13,8-Dec-13,8-Dec-13,1:00,13,TB,-3,BUF,33,U,43,2013,Week 14,59194,TB,-3,3,LAC,27,6,Y,65890,0,15,83,0,Tampa,KTPF,KTPF4161613,KTPF,O,8-Dec-13,EST,27.916,-82.449,7,82,64,73,85,64,68,63,65,100,54,77,72,64,68,10,4,134,10,22,10,3041,344,3386,500,626,0,0,30.24,30.11,30.18,1024,1019.9,1022,46,CLR,Fair,KTPF,O,EST,27.916,-82.449,7,82,85,66,58,72,140,8,20,46,CLR,10,508,57,566,565,622,808,0,0,0,30.16,1021.6,44,PC,Partly Cloudy,8-Dec-13,13
KTPF 08/Dec/2019 13,1683,TBB2019,8-Dec-19,8-Dec-19,8-Dec-19,1:00,13,IND,-3,TB,73,O,34,2019,Week 14,50232,TB,3,-3,IND,38,35,N,65618,0,21,70,0,Tampa,KTPF,KTPF4380713,KTPF,O,8-Dec-19,EST,27.917,-82.45,10,81,58,70,82,57,64,56,62,100,51,76,69,57,65,13,7,103,16,77,9.8,2196,344,2540,189,626,0,0,30.21,30.1,30.15,1022.8,1019.3,1020.9,42,MC,Mostly Cloudy,KTPF,O,EST,27.917,-82.45,10,79,81,63,58,69,150,7,90,48,SCT,7,311,57,368,565,622,808,0,0,0,30.14,1020.6,42,MC,Mostly Cloudy,8-Dec-19,13
KTPF 08/Nov/2015 16,1684,TBB2015,8-Nov-15,8-Nov-15,8-Nov-15,4:05,16,NYG,-2,TB,50,O,49,2015,Week 9,64351,TB,2,-2,CHI,18,32,Y,65890,0,17,77,0,Tampa,KTPF,KTPF4231616,KTPF,O,8-Nov-15,EST,27.916,-82.449,7,90,73,80,100,73,77,70,74,94,59,83,80,71,76,12,5,142,17,49,10,3575,416,3991,354,655,0.02,0,30.06,29.98,30.02,1017.9,1015.5,1016.5,50,PC,High Overcast,KTPF,O,EST,27.916,-82.449,7,79,85,75,89,76,220,7,93,39,SCT,10,159,23,182,227,250,325,0,0.02,0,29.99,1015.9,50,PC,High Overcast,8-Nov-15,16
KTPF 08/Sep/2019 16,1685,TBB2019,8-Sep-19,8-Sep-19,8-Sep-19,4:25,16,TB,-1,SF,48,U,51,2019,Week 1,55976,TB,-1,1,SF,17,31,Y,65618,0,21,55,0,Tampa,KTPF,KTPF4371616,KTPF,O,8-Sep-19,EST,27.917,-82.45,10,91,76,84,103,76,79,70,74,100,52,73,80,72,77,9,3,204,9,96,10,2781,670,3451,54,750,0,0,30.06,29.96,30.01,1017.9,1014.5,1016.5,40,MC,Overcast,KTPF,O,EST,27.917,-82.45,10,91,101,73,56,79,220,7,100,100,OVC,10,250,50,300,500,550,714,0,0,0,29.99,1015.9,40,MC,Overcast,8-Sep-19,16
KTPF 09/Dec/2018 13,1686,TBB2018,9-Dec-18,9-Dec-18,9-Dec-18,1:00,13,NO,-9.5,TB,42,U,55,2018,Week 14,53495,TB,9.5,-9.5,NO,14,28,Y,65618,0,20,57,0,Tampa,KTPF,KTPF4344313,KTPF,O,9-Dec-18,EST,27.917,-82.45,10,72,64,69,72,64,71,59,66,100,78,92,71,61,68,13,8,212,20,89,8.6,1451,340,1790,0,625,0.72,0,30.05,29.91,29.96,1017.6,1013.2,1014.5,19,RAIN,Moderate Rain,KTPF,O,EST,27.917,-82.45,10,71,71,71,100,71,230,6,100,85,OVC,7,144,56,200,564,620,806,99,0,0,29.93,1013.5,42,MC,Mostly Cloudy,9-Dec-18,13
KTPF 09/Nov/2014 13,1687,TBB2014,9-Nov-14,9-Nov-14,9-Nov-14,1:00,13,ATL,-3,TB,44,U,47,2014,Week 10,57751,TB,3,-3,TB,17,27,Y,65890,0,16,66,0,Tampa,KTPF,KTPF4195213,KTPF,O,9-Nov-14,EST,27.916,-82.449,7,70,59,63,70,58,61,55,58,94,69,85,64,57,60,9,4,16,9,68,9.4,3132,411,3544,201,653,0.15,0,29.96,29.88,29.92,1014.5,1011.5,1013.5,40,MC,Overcast,KTPF,O,EST,27.916,-82.449,7,68,68,59,73,63,40,9,20,120,BKN,10,599,64,663,644,708,920,0,0,0,29.91,1013.2,46,CLR,Fair,9-Nov-14,13
KTPF 10/Dec/2017 13,1688,TBB2017,10-Dec-17,10-Dec-17,10-Dec-17,1:00,13,TB,PK,DET,45,U,48,2017,Week 14,60372,TB,PK,PK,DET,21,24,PK,65618,0,19,75,0,Tampa,KTPF,KTPF4307913,KTPF,O,10-Dec-17,EST,27.916,-82.449,7,57,41,48,57,34,41,27,34,87,33,62,46,37,42,12,6,11,18,0,10,3405,340,3745,625,625,0,0,30.35,30.22,30.3,1027.8,1023.3,1026,46,CLR,Fair,KTPF,O,EST,27.916,-82.449,7,54,51,36,51,45,330,7,0,201,CLR,10,563,56,619,563,619,804,0,0,0,30.3,1026,46,CLR,Fair,10-Dec-17,13
KTPF 10/Nov/2019 13,1689,TBB2019,10-Nov-19,10-Nov-19,10-Nov-19,1:00,13,TB,-4.5,ARI,57,O,39,2019,Week 10,40038,TB,-4.5,4.5,ARI,30,27,N,65618,0,21,33,0,Tampa,KTPF,KTPF4377913,KTPF,O,10-Nov-19,EST,27.917,-82.45,10,81,57,68,82,54,63,55,60,100,45,76,68,56,63,15,10,60,18,75,10,2890,409,3299,273,651,0,0,30.19,30.09,30.13,1022.3,1018.9,1020.4,40,MC,Overcast,KTPF,O,EST,27.917,-82.45,10,79,80,59,51,67,80,7,70,110,BKN,10,483,64,547,640,704,915,0,0,0,30.14,1020.6,42,MC,Mostly Cloudy,10-Nov-19,13
KTPF 11/Dec/2016 16,1690,TBB2016,11-Dec-16,11-Dec-16,11-Dec-16,4:25,16,TB,-2,NO,27,U,52,2016,Week 14,62140,TB,-2,2,IND,16,11,Y,65618,0,18,75,0,Tampa,KTPF,KTPF4271516,KTPF,O,11-Dec-16,EST,27.916,-82.449,7,81,55,69,83,53,70,54,62,94,58,81,72,54,64,14,10,75,18,59,9.9,1842,339,2182,145,624,0.05,0,30.29,30.16,30.21,1025.7,1021.3,1023.1,40,MC,Overcast,KTPF,O,EST,27.916,-82.449,7,79,82,68,70,72,80,9,100,50,BKN,10,95,19,114,190,209,271,0,0,0,30.16,1021.3,40,MC,Overcast,11-Dec-16,16
KTPF 11/Nov/2013 20,1691,TBB2013,11-Nov-13,11-Nov-13,11-Nov-13,8:40,20,MIA,-2.5,TB,41,O,40,2013,Week 10,64448,TB,2.5,-2.5,CLE,22,19,Y,65890,0,15,73,0,Tampa,KTPF,KTPF4158920,KTPF,O,11-Nov-13,EST,27.916,-82.449,7,82,63,71,84,62,64,61,62,94,51,75,70,62,66,12,7,56,16,10,10,3824,405,4229,579,650,0,0,30.18,30.08,30.12,1022,1018.9,1020.3,54,CLR,Few High Clouds,KTPF,O,EST,27.916,-82.449,7,73,77,63,69,67,0,0,10,301,CLR,10,0,0,0,0,0,0,0,0,0,30.1,1019.6,54,CLR,Few High Clouds,11-Nov-13,20
KTPF 11/Nov/2018 13,1692,TBB2018,11-Nov-18,11-Nov-18,11-Nov-18,1:00,13,TB,-3.5,WAS,19,U,51,2018,Week 10,52667,TB,-3.5,3.5,WAS,3,16,Y,65618,0,20,68,0,Tampa,KTPF,KTPF4341513,KTPF,O,11-Nov-18,EST,27.917,-82.45,10,84,64,74,88,64,68,61,65,94,58,76,73,62,68,17,8,55,17,94,10,1983,405,2388,72,650,0,0,30.17,30.07,30.12,1021.6,1018.6,1019.9,40,MC,Overcast,KTPF,O,EST,27.917,-82.45,10,81,84,68,66,72,60,5,100,36,OVC,10,96,64,160,637,701,909,0,0,0,30.11,1019.6,40,MC,Overcast,11-Nov-18,13
KTPF 11/Oct/2015 13,1693,TBB2015,11-Oct-15,11-Oct-15,11-Oct-15,1:00,13,TB,-1,JAX,69,O,41.5,2015,Week 5,58490,TB,-1,1,CAR,38,31,Y,65890,0,17,83,0,Tampa,KTPF,KTPF4228813,KTPF,O,11-Oct-15,EST,27.916,-82.449,7,88,72,79,91,72,75,64,69,100,46,75,77,69,73,10,3,332,16,4,9.9,4780,530,5310,677,696,0,0,29.93,29.86,29.89,1014.2,1011.5,1012.6,46,CLR,Fair,KTPF,O,EST,27.916,-82.449,7,88,90,64,46,72,310,6,0,201,SCT,10,624,78,702,780,858,1115,0,0,0,29.89,1012.5,46,CLR,Fair,11-Oct-15,13
KTPF 12/Nov/2017 13,1694,TBB2017,12-Nov-17,12-Nov-17,12-Nov-17,1:00,13,TB,-1,NYJ,25,U,44.5,2017,Week 10,57911,TB,-1,1,NYG,15,10,Y,65618,0,19,51,0,Tampa,KTPF,KTPF4305113,KTPF,O,12-Nov-17,EST,27.916,-82.449,7,79,70,71,83,70,73,64,69,100,74,94,73,68,70,17,11,62,22,4,9.4,4002,402,4404,635,649,0.01,0,30.19,30.11,30.15,1022.3,1019.9,1021,46,CLR,Fair,KTPF,O,EST,27.916,-82.449,7,73,78,73,100,73,90,12,0,201,CLR,7,632,63,695,632,695,903,0,0,0,30.14,1020.3,46,CLR,Fair,12-Nov-17,13
KTPF 12/Oct/2014 13,1695,TBB2014,12-Oct-14,12-Oct-14,12-Oct-14,1:00,13,BAL,-3.5,TB,65,O,44.5,2014,Week 6,60041,TB,3.5,-3.5,NE,17,48,Y,65890,0,16,87,0,Tampa,KTPF,KTPF4192413,KTPF,O,12-Oct-14,EST,27.916,-82.449,7,90,71,80,98,71,75,68,71,100,49,77,78,71,74,15,8,118,15,1,10,5186,527,5713,682,694,0,0,30.08,29.99,30.04,1018.9,1015.9,1017.4,46,CLR,Fair,KTPF,O,EST,27.916,-82.449,7,90,98,73,57,78,170,9,5,142,FEW,10,757,78,835,776,854,1108,0,0,0,30.04,1017.5,45,CLR,Mostly Clear,12-Oct-14,13
KTPF 13/Dec/2015 13,1696,TBB2015,13-Dec-15,13-Dec-15,13-Dec-15,1:00,13,TB,-6,NO,41,U,51.5,2015,Week 14,62138,TB,-6,6,KC,17,24,Y,65890,0,17,80,0,Tampa,KTPF,KTPF4235113,KTPF,O,13-Dec-15,EST,27.916,-82.449,7,86,68,76,89,68,72,66,69,100,52,81,73,67,71,16,8,83,24,53,9.8,2484,339,2820,254,624,0.01,0,30.14,29.96,30.05,1020.6,1014.5,1017.6,44,PC,Partly Cloudy,KTPF,O,EST,27.916,-82.449,7,86,89,66,52,73,140,16,20,42,SCT,10,504,56,560,560,616,801,0,0,0,30.02,1016.5,44,PC,Partly Cloudy,13-Dec-15,13
KTPF 13/Nov/2016 13,1697,TBB2016,13-Nov-16,13-Nov-16,13-Nov-16,1:00,13,CHI,-2.5,TB,46,O,45,2016,Week 10,62898,TB,2.5,-2.5,JAX,36,10,Y,65618,0,18,77,0,Tampa,KTPF,KTPF4268713,KTPF,O,13-Nov-16,EST,27.916,-82.449,7,82,59,70,85,57,68,52,63,100,45,78,71,57,65,10,5,35,10,45,8.2,3862,394,4256,540,648,0,0,30.14,30.02,30.08,1020.6,1016.9,1018.5,46,CLR,Fair,KTPF,O,EST,27.916,-82.449,7,82,85,64,55,71,200,5,0,201,CLR,10,625,62,687,625,687,893,0,0,0,30.08,1018.9,46,CLR,Fair,13-Nov-16,13
KTPF 13/Oct/2013 13,1698,TBB2013,13-Oct-13,13-Oct-13,13-Oct-13,1:00,13,PHI,-3,TB,51,O,45,2013,Week 6,62505,TB,3,-3,LAC,20,31,Y,65890,0,15,84,0,Tampa,KTPF,KTPF4156013,KTPF,O,13-Oct-13,EST,27.916,-82.449,7,86,66,75,86,66,66,54,60,83,33,61,70,63,66,9,4,50,16,26,10,4529,522,5053,504,693,0,0,30.1,30,30.05,1019.6,1016.2,1017.7,46,CLR,Fair,KTPF,O,EST,27.916,-82.449,7,84,84,55,37,67,40,8,70,60,SCT,10,500,77,578,770,847,1100,0,0,0,30.05,1018.2,42,MC,Mostly Cloudy,13-Oct-13,13
KTPF 13/Oct/2019 13,1699,TBB2019,13-Oct-19,13-Oct-19,13-Oct-19,1:00,13,CAR,-2.5,TB,63,O,50,2019,Week 6,60087,TB,2.5,-2.5,CAR,26,37,Y,65618,0,21,66,0,Tampa,KTPF,KTPF4375113,KTPF,O,13-Oct-19,EST,27.917,-82.45,10,88,71,79,92,71,72,66,69,100,52,73,75,68,72,8,4,120,8,97,10,2127,522,2649,24,693,0,0,30.06,29.99,30.03,1018.2,1015.9,1017,40,MC,Overcast,KTPF,O,EST,27.917,-82.45,10,86,90,68,55,74,210,5,90,120,OVC,10,504,77,581,770,847,1100,0,0,0,30.03,1016.9,42,MC,Mostly Cloudy,13-Oct-19,13
KTPF 13/Sep/2015 16,1700,TBB2015,13-Sep-15,13-Sep-15,13-Sep-15,4:25,16,TB,-3,TEN,56,O,40.5,2015,Week 1,63945,TB,-3,3,CAR,14,42,Y,65890,0,17,81,0,Tampa,KTPF,KTPF4226016,KTPF,O,13-Sep-15,EST,27.916,-82.449,7,88,77,81,96,77,79,70,74,100,59,82,79,72,77,8,5,27,21,61,10,4167,652,4819,242,742,0.89,0,30.04,29.86,29.95,1017.2,1011.1,1014.3,50,PC,High Overcast,KTPF,O,EST,27.916,-82.449,7,88,96,73,62,78,50,6,20,31,SCT,10,428,47,474,475,522,678,0,0,0,29.94,1014.2,44,PC,Partly Cloudy,13-Sep-15,16
KTPF 14/Sep/2014 16,1701,TBB2014,14-Sep-14,14-Sep-14,14-Sep-14,4:05,16,TB,-4.5,LAR,36,U,37.5,2014,Week 2,59923,TB,-4.5,4.5,DET,17,19,N,65890,0,16,78,0,Tampa,KTPF,KTPF4189616,KTPF,O,14-Sep-14,EST,27.916,-82.449,7,92,73,80,105,73,77,73,76,100,58,90,80,73,77,15,7,163,15,8,9.6,6139,646,6784,650,740,0.17,0,30.14,30.05,30.1,1020.9,1017.9,1019.5,46,CLR,Fair,KTPF,O,EST,27.916,-82.449,7,75,81,75,100,75,370,7,100,16,BKN,0.2,236,47,282,471,518,673,0,0,0,30.13,1019.6,14,SHWR,Heavy Thundershower,14-Sep-14,16
KTPF 15/Dec/2013 13,1702,TBB2013,15-Dec-13,15-Dec-13,15-Dec-13,1:00,13,SF,-5,TB,47,O,41,2013,Week 15,64142,TB,5,-5,SF,14,33,Y,65890,0,15,70,0,Tampa,KTPF,KTPF4162313,KTPF,O,15-Dec-13,EST,27.916,-82.449,7,72,57,67,72,59,70,52,61,94,64,82,70,56,64,15,6,290,21,87,9,1682,335,2018,0,623,0.04,0,30.15,29.92,30.02,1021.3,1013.2,1016.8,40,MC,Overcast,KTPF,O,EST,27.916,-82.449,7,70,70,57,64,62,0,0,100,32,OVC,10,280,56,336,560,616,800,0,0,0,30,1016.2,40,MC,Overcast,15-Dec-13,13
KTPF 15/Nov/2015 13,1703,TBB2015,15-Nov-15,15-Nov-15,15-Nov-15,1:00,13,DAL,-1,TB,16,U,43.5,2015,Week 10,64113,TB,1,-1,JAX,10,6,Y,65890,0,17,77,0,Tampa,KTPF,KTPF4232313,KTPF,O,15-Nov-15,EST,27.916,-82.449,7,81,66,73,83,65,64,61,63,88,58,72,70,63,66,17,12,60,43,60,10,2913,393,3306,294,645,0,0,30.27,30.18,30.22,1024.7,1022,1023.2,50,PC,High Overcast,KTPF,O,EST,27.916,-82.449,7,81,83,64,58,70,80,13,20,65,BKN,10,560,62,622,622,684,888,0,0,0,30.22,1023.3,44,PC,Partly Cloudy,15-Nov-15,13
KTPF 15/Sep/2013 16,1704,TBB2013,15-Sep-13,15-Sep-13,15-Sep-13,4:05,16,NO,-3.5,TB,30,U,48.5,2013,Week 2,60870,TB,3.5,-3.5,PIT,14,16,N,65890,0,15,93,0,Tampa,KTPF,KTPF4153216,KTPF,O,15-Sep-13,EST,27.916,-82.449,7,91,72,79,99,72,73,68,71,94,49,78,78,69,74,29,8,92,40,53,9.5,4613,643,5256,307,739,0.1,0,30.09,29.97,30.02,1018.9,1015.2,1016.9,54,CLR,Few High Clouds,KTPF,O,EST,27.916,-82.449,7,73,77,70,89,71,130,29,100,80,BKN,4,233,47,280,466,513,666,0,0,0,30.06,1017.9,18,RAIN,Light Rain,15-Sep-13,16
KTPF 16/Sep/2018 13,1705,TBB2018,16-Sep-18,16-Sep-18,16-Sep-18,1:00,13,PHI,-3,TB,48,O,46.5,2018,Week 2,56552,TB,3,-3,PHI,27,21,Y,65618,0,20,56,0,Tampa,KTPF,KTPF4335913,KTPF,O,16-Sep-18,EST,27.917,-82.45,10,90,80,85,105,80,81,75,78,100,67,82,82,77,80,15,6,223,21,90,10,2693,637,3330,68,737,0,0,29.96,29.83,29.89,1014.2,1010.1,1012.1,40,MC,Overcast,KTPF,O,EST,27.917,-82.45,10,90,105,79,71,82,220,12,70,100,OVC,10,363,90,453,897,987,1282,0,0,0,29.9,1012.2,42,MC,Mostly Cloudy,16-Sep-18,13
KTPF 17/Nov/2013 13,1706,TBB2013,17-Nov-13,17-Nov-13,17-Nov-13,1:00,13,TB,-2,ATL,69,O,43.5,2013,Week 11,55360,TB,-2,2,HOU,41,28,Y,65890,0,15,79,0,Tampa,KTPF,KTPF4159513,KTPF,O,17-Nov-13,EST,27.916,-82.449,7,82,68,74,85,68,70,63,66,88,55,78,73,65,69,12,3,100,12,82,10,2071,387,2459,155,643,0,0,30.1,30.01,30.05,1019.3,1016.5,1017.8,40,MC,Overcast,KTPF,O,EST,27.916,-82.449,7,81,84,68,66,72,0,0,100,75,OVC,10,307,61,368,614,675,878,0,0,0,30.04,1017.6,40,MC,Overcast,17-Nov-13,13
KTPF 17/Nov/2019 13,1707,TBB2019,17-Nov-19,17-Nov-19,17-Nov-19,1:00,13,NO,-4,TB,51,O,58,2019,Week 11,54333,TB,4,-4,NO,17,34,Y,65618,0,21,23,0,Tampa,KTPF,KTPF4378613,KTPF,O,17-Nov-19,EST,27.917,-82.45,10,55,52,53,55,49,54,48,51,100,82,93,54,50,52,8,4,16,8,100,10,1931,387,2319,0,643,0,0,29.99,29.91,29.94,1015.9,1012.5,1013.9,40,MC,Overcast,KTPF,O,EST,27.917,-82.45,10,55,55,50,82,53,0,0,100,13,OVC,10,307,61,368,614,675,878,0,0,0,29.94,1013.8,40,MC,Overcast,17-Nov-19,13
KTPF 17/Sep/2017 13,1708,TBB2017,17-Sep-17,17-Sep-17,17-Sep-17,1:00,13,TB,-7,CHI,36,U,44,2017,Week 2,56640,TB,-7,7,OAK,29,7,Y,65618,0,19,60,0,Tampa,KTPF,KTPF4299513,KTPF,O,17-Sep-17,EST,27.916,-82.449,7,91,79,84,99,79,77,68,74,94,49,75,79,75,77,9,6,19,17,91,9.9,2539,634,3174,39,735,0,0,30.05,29.95,29.99,1017.5,1014.5,1015.9,40,MC,Overcast,KTPF,O,EST,27.916,-82.449,7,90,97,72,55,77,50,8,100,100,OVC,10,227,89,316,892,981,1275,0,0,0,30,1016.2,40,MC,Overcast,17-Sep-17,13
KTPF 18/Dec/2017 20,1709,TBB2017,18-Dec-17,18-Dec-17,18-Dec-17,8:30,20,ATL,-6.5,TB,45,U,48.5,2017,Week 15,62382,TB,6.5,-6.5,GB,21,24,N,65618,0,19,71,0,Tampa,KTPF,KTPF4308720,KTPF,O,18-Dec-17,EST,27.916,-82.449,7,79,60,69,82,60,70,59,65,100,70,88,72,59,67,6,1,227,6,4,8.4,3125,336,3461,562,623,0,0,30.27,30.2,30.23,1025,1022.6,1023.8,46,CLR,Fair,KTPF,O,EST,27.916,-82.449,7,72,72,66,83,68,0,0,0,201,CLR,10,0,0,0,0,0,0,0,0,0,30.25,1024.7,46,CLR,Fair,18-Dec-17,20
KTPF 21/Dec/2014 13,1710,TBB2014,21-Dec-14,21-Dec-14,21-Dec-14,1:00,13,GB,-11.5,TB,23,U,49,2014,Week 16,64247,TB,11.5,-11.5,CHI,3,20,Y,65890,0,16,76,0,Tampa,KTPF,KTPF4199413,KTPF,O,21-Dec-14,EST,27.916,-82.449,7,79,63,70,81,63,68,59,64,94,61,82,69,60,66,9,4,105,9,82,9.6,2470,336,2806,166,622,0.06,0,30.1,29.99,30.05,1018.9,1015.9,1017.9,40,MC,Overcast,KTPF,O,EST,27.916,-82.449,7,79,81,64,61,69,0,0,73,120,SCT,10,520,56,576,559,615,799,0,0,0,30.04,1018.9,50,PC,High Overcast,21-Dec-14,13
KTPF 21/Dec/2019 13,1711,TBB2019,21-Dec-19,21-Dec-19,21-Dec-19,1:00,13,HOU,-2,TB,43,O,51,2019,Week 16,49036,TB,2,-2,HOU,20,23,Y,65618,0,21,49,0,Tampa,KTPF,KTPF4382013,KTPF,O,21-Dec-19,EST,27.917,-82.45,10,73,64,68,77,64,66,59,62,94,69,80,67,61,64,17,11,83,28,83,9.9,1762,336,2098,96,622,0.4,0,30.27,30.15,30.2,1025.1,1020.8,1022.6,19,RAIN,Moderate Rain,KTPF,O,EST,27.917,-82.45,10,73,77,63,69,67,110,16,100,33,OVC,10,280,56,336,559,615,799,0,0,0,30.17,1021.6,40,MC,Overcast,21-Dec-19,13
KTPF 21/Oct/2018 13,1712,TBB2018,21-Oct-18,21-Oct-18,21-Oct-18,1:00,13,TB,-3.5,CLE,49,U,52.5,2018,Week 7,53682,TB,-3.5,3.5,CLE,26,23,N,65618,0,20,71,0,Tampa,KTPF,KTPF4339413,KTPF,O,21-Oct-18,EST,27.917,-82.45,10,82,66,76,86,68,75,55,66,100,51,74,76,63,70,17,8,39,23,94,9.9,1683,487,2170,0,680,0,0,30.11,29.99,30.04,1019.6,1015.5,1017.3,40,MC,Overcast,KTPF,O,EST,27.917,-82.45,10,82,86,68,62,73,50,6,100,110,OVC,10,402,73,475,731,804,1044,0,0,0,30.03,1016.9,40,MC,Overcast,21-Oct-18,13
KTPF 22/Sep/2019 16,1713,TBB2019,22-Sep-19,22-Sep-19,22-Sep-19,4:05,16,TB,-5.5,NYG,63,O,48,2019,Week 3,55070,TB,-5.5,5.5,NYG,31,32,N,65618,0,21,50,0,Tampa,KTPF,KTPF4373016,KTPF,O,22-Sep-19,EST,27.917,-82.45,10,90,72,80,94,72,72,64,68,100,46,70,75,70,72,18,10,75,23,97,10,2553,613,3164,30,727,0,0,30.12,30.02,30.07,1019.9,1016.5,1018.4,40,MC,Overcast,KTPF,O,EST,27.917,-82.45,10,88,91,66,49,73,80,13,100,100,OVC,10,65,43,108,433,476,618,0,0,0,30.02,1016.5,40,MC,Overcast,22-Sep-19,16
KTPF 24/Oct/2013 20,1714,TBB2013,24-Oct-13,24-Oct-13,24-Oct-13,8:25,20,CAR,-7,TB,44,O,39.5,2013,Week 8,59073,TB,7,-7,MIA,13,31,Y,65890,0,15,70,0,Tampa,KTPF,KTPF4157120,KTPF,O,24-Oct-13,EST,27.916,-82.449,7,70,61,65,70,59,54,43,49,77,46,56,59,52,56,14,10,42,32,80,10,2776,474,3250,113,676,0,0,30.19,30.04,30.12,1022.3,1017.6,1020.3,50,PC,High Overcast,KTPF,O,EST,27.916,-82.449,7,64,64,54,68,58,60,8,88,301,CLR,10,0,0,0,0,0,0,0,0,0,30.15,1021.3,50,PC,High Overcast,24-Oct-13,20
KTPF 24/Sep/2018 20,1715,TBB2018,24-Sep-18,24-Sep-18,24-Sep-18,8:15,20,TB,-1,PIT,57,O,55.5,2018,Week 3,62571,TB,-1,1,PIT,27,30,Y,65618,0,20,54,0,Tampa,KTPF,KTPF4336720,KTPF,O,24-Sep-18,EST,27.917,-82.45,10,91,75,81,99,75,79,72,75,100,52,82,79,74,77,14,5,96,25,78,9.9,3650,602,4253,189,724,0.12,0,30.08,29.97,30.02,1018.9,1015.2,1016.9,40,MC,Overcast,KTPF,O,EST,27.917,-82.45,10,79,87,79,100,79,0,0,100,100,OVC,10,0,0,0,0,0,0,0,0,0,30.03,1016.9,40,MC,Overcast,24-Sep-18,20
KTPF 25/Nov/2018 13,1716,TBB2018,25-Nov-18,25-Nov-18,25-Nov-18,1:00,13,TB,-1.5,SF,36,U,54.5,2018,Week 12,50436,TB,-1.5,1.5,SF,27,9,Y,65618,0,20,63,0,Tampa,KTPF,KTPF4342913,KTPF,O,25-Nov-18,EST,27.917,-82.45,10,77,64,70,80,64,70,61,64,100,61,84,70,62,67,5,2,253,5,73,7.8,2169,367,2536,257,635,0,0,30,29.87,29.94,1015.9,1011.5,1014.1,40,MC,Overcast,KTPF,O,EST,27.917,-82.45,10,77,80,64,65,69,250,5,100,100,SCT,10,150,59,209,590,649,843,0,0,0,29.96,1014.5,40,MC,Overcast,25-Nov-18,13
KTPF 25/Sep/2016 16,1717,TBB2016,25-Sep-16,25-Sep-16,25-Sep-16,4:05,16,TB,-3.5,LAR,69,O,40.5,2016,Week 3,55009,TB,-3.5,3.5,NYJ,32,37,Y,65618,0,18,89,0,Tampa,KTPF,KTPF4263816,KTPF,O,25-Sep-16,EST,27.916,-82.449,7,91,77,83,105,77,77,73,75,89,56,77,81,74,77,13,4,148,22,31,10,5396,595,5990,585,722,0.02,0,30.05,29.93,30.01,1017.5,1013.8,1016.1,46,CLR,Fair,KTPF,O,EST,27.916,-82.449,7,91,101,73,56,79,250,6,0,201,CLR,10,412,41,453,412,453,588,0,0,0,29.95,1014.5,46,CLR,Fair,25-Sep-16,16
KTPF 26/Oct/2014 13,1718,TBB2014,26-Oct-14,26-Oct-14,26-Oct-14,1:00,13,TB,-1.5,MIN,32,U,43,2014,Week 8,56577,TB,-1.5,1.5,JAX,13,19,Y,65890,0,16,78,0,Tampa,KTPF,KTPF4193813,KTPF,O,26-Oct-14,EST,27.916,-82.449,7,82,53,67,82,51,68,52,57,99,38,73,69,52,61,9,5,359,9,0,9.9,4653,465,5118,673,673,0,0,30.05,29.97,30,1017.9,1015.2,1016.4,46,CLR,Fair,KTPF,O,EST,27.916,-82.449,7,81,81,56,43,66,250,6,0,152,CLR,10,706,71,777,706,777,1009,0,0,0,30,1016.2,46,CLR,Fair,26-Oct-14,13
KTPF 27/Dec/2015 13,1719,TBB2015,27-Dec-15,27-Dec-15,27-Dec-15,1:00,13,TB,-3,CHI,47,O,44,2015,Week 16,63734,TB,-3,3,NYJ,21,26,Y,65890,0,17,83,0,Tampa,KTPF,KTPF4236513,KTPF,O,27-Dec-15,EST,27.916,-82.449,7,86,72,79,91,72,73,66,70,94,52,77,76,70,73,15,9,116,21,45,10,2720,336,3056,383,623,0,0,30.14,29.99,30.06,1020.6,1015.5,1018,46,CLR,Fair,KTPF,O,EST,27.916,-82.449,7,86,89,66,52,73,130,15,35,137,CLR,10,464,56,520,563,619,805,0,0,0,30.04,1017.2,46,CLR,Fair,27-Dec-15,13
KTPF 27/Nov/2016 16,1720,TBB2016,27-Nov-16,27-Nov-16,27-Nov-16,4:05,16,SEA,-5.5,TB,19,U,46,2016,Week 12,63674,TB,5.5,-5.5,OAK,14,5,Y,65618,0,18,78,0,Tampa,KTPF,KTPF4270116,KTPF,O,27-Nov-16,EST,27.916,-82.449,7,81,59,69,82,57,59,50,56,82,42,65,67,55,61,14,9,54,17,20,10,3150,359,3509,489,633,0,0,30.16,30.04,30.1,1020.9,1017.2,1019.2,46,CLR,Fair,KTPF,O,EST,27.916,-82.449,7,79,80,59,51,67,60,9,60,70,CLR,10,134,19,153,191,210,273,0,0,0,30.04,1017.2,44,PC,Partly Cloudy,27-Nov-16,16
KTPF 28/Dec/2014 13,1721,TBB2014,28-Dec-14,28-Dec-14,28-Dec-14,1:00,13,NO,-6,TB,43,U,46.5,2014,Week 17,59952,TB,6,-6,WAS,20,23,N,65890,0,16,77,0,Tampa,KTPF,KTPF4200113,KTPF,O,28-Dec-14,EST,27.916,-82.449,7,81,66,72,84,66,70,64,68,100,66,86,72,65,69,12,2,224,12,21,7.9,3228,336,3564,546,623,0,0,30.19,30.1,30.14,1022.6,1019.6,1020.9,46,CLR,Fair,KTPF,O,EST,27.916,-82.449,7,79,82,69,72,72,200,8,9,165,CLR,10,539,56,595,564,620,806,0,0,0,30.13,1020.6,54,CLR,Few High Clouds,28-Dec-14,13
KTPF 29/Oct/2017 13,1722,TBB2017,29-Oct-17,29-Oct-17,29-Oct-17,1:00,13,TB,-1,CAR,20,U,46,2017,Week 8,58545,TB,-1,1,LAR,3,17,Y,65618,0,19,78,0,Tampa,KTPF,KTPF4303713,KTPF,O,29-Oct-17,EST,27.916,-82.449,7,68,54,62,68,54,68,45,53,100,52,76,68,50,58,15,7,317,24,37,9,3695,452,4147,410,668,0.03,0,29.97,29.7,29.83,1015.2,1006,1010.5,46,CLR,Fair,KTPF,O,EST,27.916,-82.449,7,64,63,50,60,56,330,13,20,37,CLR,10,623,69,692,692,761,989,0,0,0,29.83,1010.8,44,PC,Partly Cloudy,29-Oct-17,13
KTPF 29/Sep/2013 13,1723,TBB2013,29-Sep-13,29-Sep-13,29-Sep-13,1:00,13,TB,-2.5,ARI,23,U,40.5,2013,Week 4,44956,TB,-2.5,2.5,TB,10,13,Y,65890,0,15,84,0,Tampa,KTPF,KTPF4154613,KTPF,O,29-Sep-13,EST,27.916,-82.449,7,88,70,78,90,70,70,63,66,94,43,70,73,67,70,10,7,50,16,19,10,5564,582,6145,691,715,0,0,30.01,29.91,29.97,1016.5,1013.1,1015,46,CLR,Fair,KTPF,O,EST,27.916,-82.449,7,86,89,66,52,73,30,3,0,201,SCT,10,755,84,839,839,923,1199,0,0,0,29.96,1014.8,46,CLR,Fair,29-Sep-13,13
KTPF 30/Dec/2018 13,1724,TBB2018,30-Dec-18,30-Dec-18,30-Dec-18,1:00,13,ATL,-2.5,TB,66,O,52,2018,Week 17,52884,TB,2.5,-2.5,ATL,32,34,N,65618,0,20,25,0,Tampa,KTPF,KTPF4346413,KTPF,O,30-Dec-18,EST,27.917,-82.45,10,81,67,72,84,67,73,65,68,100,66,89,74,66,70,5,2,188,5,71,7.5,2183,338,2521,206,624,0,0,30.22,30.1,30.15,1023,1019.2,1021,42,MC,Mostly Cloudy,KTPF,O,EST,27.917,-82.45,10,79,83,72,79,74,220,3,72,206,CLR,10,363,57,420,567,624,810,0,0,0,30.14,1020.5,46,CLR,Fair,30-Dec-18,13
KTPF 30/Nov/2014 13,1725,TBB2014,30-Nov-14,30-Nov-14,30-Nov-14,1:00,13,CIN,-6,TB,27,U,43.5,2014,Week 13,56340,TB,6,-6,BUF,13,14,N,65890,0,16,76,0,Tampa,KTPF,KTPF4197313,KTPF,O,30-Nov-14,EST,27.916,-82.449,7,81,57,67,82,56,59,54,57,88,48,71,67,55,61,10,7,71,10,9,10,3201,355,3556,522,631,0,0,30.34,30.25,30.28,1027.7,1024.3,1025.7,46,CLR,Fair,KTPF,O,EST,27.916,-82.449,7,77,79,59,54,66,100,10,20,41,SCT,10,520,58,578,578,636,826,0,0,0,30.28,1025.7,44,PC,Partly Cloudy,30-Nov-14,13
KTPF 30/Oct/2016 13,1726,TBB2016,30-Oct-16,30-Oct-16,30-Oct-16,1:00,13,TB, PK,OAK,54,O,48,2016,Week 8,61068,TB, PK,PK,ATL,24,30,PK,65618,0,18,84,0,Tampa,KTPF,KTPF4267313,KTPF,O,30-Oct-16,EST,27.916,-82.449,7,90,72,79,92,72,70,63,67,88,43,69,74,69,71,13,9,65,21,17,10,4197,443,4640,615,667,0,0,30.12,30.02,30.07,1019.9,1016.5,1018.4,46,CLR,Fair,KTPF,O,EST,27.916,-82.449,7,88,91,66,49,73,80,12,0,201,CLR,10,683,68,751,683,751,976,0,0,0,30.06,1017.9,46,CLR,Fair,30-Oct-16,13
KTPF 31/Dec/2017 16,1727,TBB2017,31-Dec-17,31-Dec-17,31-Dec-17,4:25,16,NO,-6,TB,55,O,49,2017,Week 17,55376,TB,6,-6,ARI,31,24,Y,65618,0,19,47,0,Tampa,KTPF,KTPF4310016,KTPF,O,31-Dec-17,EST,27.916,-82.449,7,68,49,59,68,49,59,47,52,100,53,77,60,48,55,6,1,59,6,16,9.8,3392,340,3732,600,624,0,0,30.23,30.1,30.16,1023.7,1019.3,1021.2,46,CLR,Fair,KTPF,O,EST,27.916,-82.449,7,68,68,52,56,59,0,0,0,201,CLR,10,220,22,242,220,242,314,0,0,0,30.1,1019.3,46,CLR,Fair,31-Dec-17,16