ID,FullDate,Date,Start(ET),Hour,Favorite,Underdog ATS,Underdog,Total,Covered O/U,O/U,Season,Week,Attendance,Home/Neutral,Home Line,Away Line,Visitor/Neutral,Home Pts,Visitor Pts,Home Covered,Capacity,New Stadium Season,Years in Stadium,Temperature.x,Dome,City Played,Weather Station,Key.x,DayAVGTemp,DayHighTemp,DayAVGHumid,DayHighHumid,DayAVGWind,DayHighWind,DayAVGCloud,DayAVGVisibility,DayAVGSunMin,DayPrecipWaterEQ,DayPrecipSnow,DayAVGWeatherLetterCode,DayAVGWeatherType,Elevation,Hour Temperature,Hour Feels Like,Hour Dew Point,Hour Relative Humidity,Hour Wet Bulb Temp,Hour Wind Direction,Hour Wind Speed,Hour Cloud Cover percent,Hour Cloud Ceiling,Cloud Cover Type,Hour Visibility,Hour Solar Irradiance Beam,Hour Solar Irradiance Diffuse,Hour Solar Irradiance Global,Hour Solar Irradiance Possible Beam,Hour Solar Irradiance Possible Global,Hour Solar Irradiance ET,Hour Probability of Precipitation,Hour Water EQ,Hour Snowfall,Hour Pressure Inches,Hour Pressure Millibars,Hour Weather Code Digit Numeric,Hour Weather Code Alpha Numeric,Hour Weather Text
DET2016,1-Jan-17,1-Jan-17,8:25,20,GB,-3.5,DET,55,O,50.5,2016,Week 17,66345,DET,3.5,-3.5,GB,24,31,Y,65000,0,14,58,0,Detroit,CYQG,CYQG4273620,30,43,75,93,8,15,16,14.8,546,0,0,CLR,Fair,623,27,21,23,86,25,80,5,5,250,Hour FEW,15,0,0,0,0,0,0,0,0,0,30.22,1024.6,45,CLR,Mostly Clear
DET2015,3-Dec-15,3-Dec-15,8:25,20,GB,-2.5,DET,50,O,46.5,2015,Week 13,63207,DET,2.5,-2.5,GB,23,27,Y,65000,0,13,72,1,Detroit,CYQG,CYQG4234120,39,47,80,100,12,15,77,10.8,219,0.01,0,MC,Mostly Cloudy,623,41,35,32,70,37,250,10,100,34,OVC,15,0,0,0,0,0,0,0,0,0,30.3,1026.8,40,MC,Overcast
DET2014,5-Oct-14,5-Oct-14,1:00,13,DET,-5,BUF,31,U,43.5,2014,Week 5,62775,DET,-5,5,BUF,14,17,N,65000,0,12,72,1,Detroit,CYQG,CYQG4191713,49,54,66,87,13,21,90,15,47,0.01,0,MC,Mostly Cloudy,623,54,50,32,44,44,230,12,100,280,BKN,15,269,61,330,611,672,874,0,0,0,29.73,1006.9,42,MC,Mostly Cloudy
DET2014,7-Dec-14,7-Dec-14,1:00,13,DET,-10.5,TB,51,O,42,2014,Week 14,61489,DET,-10.5,10.5,TB,34,17,Y,65000,0,12,72,1,Detroit,CYQG,CYQG4198013,29,37,70,86,9,16,59,15,78,0,0,PC,High Overcast,623,34,26,21,60,29,80,9,100,270,OVC,15,225,32,257,322,354,460,0,0,0,30.66,1039,50,PC,High Overcast
DET2017,8-Oct-17,8-Oct-17,1:00,13,DET,-2,CAR,51,O,42,2017,Week 5,64288,DET,-2,2,CAR,24,27,Y,65000,0,15,46,0,Detroit,CYQG,CYQG4301613,65,76,78,88,9,18,69,13.6,281,0.02,0,MC,Mostly Cloudy,623,72,72,59,65,64,190,9,26,270,FEW,15,569,59,628,593,652,847,0,0,0,29.89,1012,45,CLR,Mostly Clear
DET2013,8-Sep-13,8-Sep-13,1:00,13,DET,-4,MIN,58,O,46.5,2013,Week 1,62461,DET,-4,4,MIN,34,24,Y,65000,0,11,72,1,Detroit,CYQG,CYQG4152513,67,73,71,87,11,21,78,12.9,205,0,0,PC,High Clouds,623,71,71,54,56,61,30,15,25,280,SCT,15,705,77,782,771,848,1102,0,0,0,30.1,1019.1,54,CLR,Few High Clouds
DET2014,8-Sep-14,8-Sep-14,7:10,19,DET,-6.5,NYG,49,O,46,2014,Week 1,64401,DET,-6.5,6.5,NYG,35,14,Y,65000,0,12,72,1,Detroit,CYQG,CYQG4189019,64,75,77,94,4,9,18,15,604,0,0,CLR,Mostly Clear,623,64,64,59,83,61,90,6,5,280,FEW,15,0,0,0,0,0,0,0,0,0,30.08,1018.8,45,CLR,Mostly Clear
DET2014,9-Nov-14,9-Nov-14,1:00,13,DET,-3,MIA,36,U,43,2014,Week 10,63179,DET,-3,3,MIA,20,16,Y,65000,0,12,72,1,Detroit,CYQG,CYQG4195213,40,45,72,87,10,17,96,15,37,0,0,MC,Overcast,623,43,36,34,71,39,200,14,100,250,OVC,15,177,41,218,411,452,587,0,0,0,29.85,1011.3,50,PC,High Overcast
DET2016,9-Oct-16,9-Oct-16,1:00,13,PHI,-3.5,DET,47,O,46,2016,Week 5,58047,DET,3.5,-3.5,PHI,24,23,N,65000,0,14,72,1,Detroit,CYQG,CYQG4265213,50,62,68,82,7,12,18,15,432,0,0,CLR,Fair,623,57,56,39,51,49,340,8,70,42,BKN,15,378,58,436,581,639,829,0,0,0,30.35,1028.3,42,MC,Mostly Cloudy
DET2017,10-Sep-17,10-Sep-17,1:00,13,ARI,-2,DET,58,O,48.5,2017,Week 1,60957,DET,2,-2,ARI,35,23,Y,65000,0,15,50,0,Detroit,CYQG,CYQG4298813,56,70,83,100,4,10,21,13.7,466,0,0,CLR,Fair,623,64,64,54,68,58,20,5,70,26,BKN,15,494,76,570,760,836,1086,0,0,0,30.46,1031.9,42,MC,Mostly Cloudy
DET2016,11-Dec-16,11-Dec-16,1:00,13,DET,-7.5,CHI,37,U,42,2016,Week 14,61726,DET,-7.5,7.5,NO,20,17,N,65000,0,14,72,1,Detroit,CYQG,CYQG4271513,28,32,93,100,11,17,100,2.1,0,0.19,3.5,SNOW,Light Snow,623,28,17,27,93,28,170,14,100,7,OVC,1,158,32,190,315,347,451,0,0,0,30.1,1020.5,9,SNOW,Light Snow
DET2015,11-Oct-15,11-Oct-15,4:05,16,ARI,-4.5,DET,59,O,46,2015,Week 5,60816,DET,4.5,-4.5,ARI,17,42,Y,65000,0,13,72,1,Detroit,CYQG,CYQG4228816,61,75,61,94,12,20,11,15,639,0,0,CLR,Fair,623,73,75,45,36,58,220,20,0,243,SKC,15,223,22,245,223,245,319,0,0,0,29.75,1007.2,46,CLR,Fair
DET2017,12-Nov-17,12-Nov-17,1:00,13,DET,-10.5,CLE,62,O,42.5,2017,Week 10,64646,DET,-10.5,10.5,LAC,38,24,Y,65000,0,15,30,0,Detroit,CYQG,CYQG4305113,36,41,79,93,3,8,100,8.1,0,0.08,0,RAIN,Light Rain,623,39,36,30,70,36,200,5,100,75,OVC,8,198,40,238,397,437,567,0,0,0,30.31,1027.2,18,RAIN,Light Rain
DET2014,14-Dec-14,14-Dec-14,4:25,16,DET,-8,MIN,30,U,42,2014,Week 15,62490,DET,-8,8,BUF,16,14,N,65000,0,12,72,1,Detroit,CYQG,CYQG4198716,47,51,86,93,7,13,99,8.3,18,0,0,MC,Overcast,623,50,50,46,85,48,260,3,100,13,OVC,4,27,5,32,54,59,77,0,0,0,30.04,1017.6,35,HAZY,Haze
DET2019,15-Dec-19,15-Dec-19,1:00,13,DET,-2.5,TB,55,O,42,2019,Week 15,56515,DET,-2.5,2.5,LAC,17,38,Y,65000,0,17,71,0,Detroit,CYQG,CYQG4381413,30,34,76,86,12,21,91,8.4,81,0.12,0.3,SNOW,Light Snow,623,30,20,25,80,28,270,13,100,50,BKN,6,156,31,188,313,344,448,99,0.01,0,30.06,1018.9,9,SNOW,Light Snow
DET2019,15-Sep-19,15-Sep-19,1:00,13,LAC,-1,DET,23,U,46.5,2019,Week 2,60158,DET,1,-1,CLE,13,10,Y,65000,0,17,71,0,Detroit,CYQG,CYQG4372313,65,73,89,100,6,13,72,8.9,66,0.16,0,MC,Overcast,623,72,72,64,78,67,210,13,100,80,OVC,9,366,73,440,733,806,1047,0,0,0,30.14,1020.7,40,MC,Overcast
DET2013,16-Dec-13,16-Dec-13,8:40,20,DET,-5,BAL,34,U,49.5,2013,Week 15,64742,DET,-5,5,BAL,16,18,N,65000,0,11,72,1,Detroit,CYQG,CYQG4162420,13,19,86,95,6,12,53,11,361,0.08,0,CLR,Mostly Clear,623,8,8,7,95,8,0,0,70,240,BKN,12,0,0,0,0,0,0,0,0,0,30.1,1020.7,52,PC,High Clouds
DET2017,16-Dec-17,16-Dec-17,4:30,16,DET,-5,CHI,30,U,44,2017,Week 15,65872,DET,-5,5,CHI,20,10,Y,65000,0,15,65,0,Detroit,CYQG,CYQG4308516,28,34,83,93,11,17,92,10,0,0.18,0.8,SNOW,Light Snow,623,28,18,23,80,27,50,12,100,85,OVC,10,28,6,34,55,61,79,0,0,0,30.03,1018,40,MC,Overcast
DET2016,16-Oct-16,16-Oct-16,1:00,13,DET,-3,LAR,59,O,44.5,2016,Week 6,56018,DET,-3,3,LAR,31,28,N,65000,0,14,72,1,Detroit,CYQG,CYQG4265913,65,72,85,94,11,20,99,11.9,1,0,0,MC,Overcast,623,64,64,63,94,63,250,7,100,240,BKN,15,279,54,333,537,591,767,0,0,0,29.96,1014.8,42,MC,Mostly Cloudy
DET2019,17-Nov-19,17-Nov-19,1:00,13,DAL,-2.5,DET,62,O,58,2019,Week 11,61801,DET,2.5,-2.5,HOU,27,35,Y,65000,0,17,39,0,Detroit,CYQG,CYQG4378613,31,37,79,100,3,8,42,8.2,382,0,0,CLR,Fair,623,37,37,23,56,32,130,3,0,273,CLR,9,377,38,415,377,415,539,0,0,0,30.04,1018.2,46,CLR,Fair
DET2015,18-Oct-15,18-Oct-15,1:00,13,DET,-3.5,CHI,71,O,45.5,2015,Week 6,57648,DET,-3.5,3.5,CHI,37,34,N,65000,0,13,72,1,Detroit,CYQG,CYQG4229513,39,51,61,87,7,14,43,15,235,0,0,MC,Mostly Cloudy,623,48,45,25,40,39,350,7,100,280,BKN,15,234,53,287,531,584,759,0,0,0,30.43,1031.1,42,MC,Mostly Cloudy
DET2016,18-Sep-16,18-Sep-16,1:00,13,DET,-6,TEN,31,U,48,2016,Week 2,58466,DET,-6,6,TEN,15,16,N,65000,0,14,72,1,Detroit,CYQG,CYQG4263113,69,82,83,100,5,10,57,11.3,147,0.31,0,PC,High Clouds,623,79,80,59,51,67,210,10,75,280,BKN,15,543,71,614,710,781,1014,0,0,0,29.97,1014.9,52,PC,High Clouds
DET2014,19-Oct-14,19-Oct-14,1:00,13,DET,-1.5,NO,47,O,46.5,2014,Week 7,63271,DET,-1.5,1.5,NO,24,23,N,65000,0,12,72,1,Detroit,CYQG,CYQG4193113,44,52,68,93,7,13,60,15,196,0,0,PC,High Overcast,623,48,43,32,54,41,250,13,75,260,BKN,15,402,53,455,525,578,750,0,0,0,30.14,1021.1,52,PC,High Clouds
DET2016,20-Nov-16,20-Nov-16,1:00,13,DET,-5.5,JAX,45,U,47,2016,Week 11,61486,DET,-5.5,5.5,JAX,26,19,Y,65000,0,14,72,1,Detroit,CYQG,CYQG4269413,32,36,58,65,20,26,78,15,101,0.05,0.5,MC,Mostly Cloudy,623,34,22,18,51,28,310,21,70,44,BKN,15,235,36,271,362,398,517,0,0,0,30.09,1020,42,MC,Mostly Cloudy
DET2013,20-Oct-13,20-Oct-13,1:00,13,DET,-3,CIN,51,O,46.5,2013,Week 7,63207,DET,-3,3,CIN,24,27,N,65000,0,11,72,1,Detroit,CYQG,CYQG4156713,51,59,69,83,10,20,66,14.9,291,0,0,MC,Mostly Cloudy,623,54,52,40,57,47,240,10,100,280,BKN,15,215,52,267,519,571,741,0,0,0,29.9,1012.9,42,MC,Mostly Cloudy
DET2019,20-Oct-19,20-Oct-19,1:00,13,MIN,-1.5,DET,72,O,59,2019,Week 7,60314,DET,1.5,-1.5,OAK,30,42,Y,65000,0,17,31,0,Detroit,CYQG,CYQG4375813,53,68,78,100,2,7,55,7.9,176,0,0,CLR,Fair,623,63,62,46,56,54,320,7,100,75,OVC,9,260,52,312,519,571,742,0,0,0,29.89,1012.4,40,MC,Overcast
DET2014,21-Sep-14,21-Sep-14,1:00,13,DET,-1.5,GB,26,U,52,2014,Week 3,62418,DET,-1.5,1.5,GB,19,7,Y,65000,0,12,72,1,Detroit,CYQG,CYQG4190313,62,70,80,100,16,23,88,12.8,153,0.08,0,MC,Overcast,623,61,58,54,77,57,260,21,100,70,BKN,15,349,70,419,698,768,997,99,0.02,0,29.69,1005.2,18,RAIN,Light Rain
DET2013,22-Dec-13,22-Dec-13,4:05,16,DET,-9,NYG,43,U,47.5,2013,Week 16,63996,DET,-9,9,TEN,20,23,N,65000,0,11,72,1,Detroit,CYQG,CYQG4163016,36,40,94,100,12,28,99,8.9,18,0.28,0,MC,Overcast,623,39,30,35,85,37,260,17,70,21,BKN,15,38,6,44,59,65,84,0,0,0,29.79,1009.4,42,MC,Mostly Cloudy
DET2015,22-Nov-15,22-Nov-15,1:00,13,OAK,-1.5,DET,31,U,50,2015,Week 11,60202,DET,1.5,-1.5,OAK,18,13,Y,65000,0,13,72,1,Detroit,CYQG,CYQG4233013,27,34,80,93,12,18,36,14.2,423,0.01,2.6,CLR,Mostly Clear,623,30,20,18,59,26,280,13,70,35,BKN,15,233,36,269,359,395,512,0,0,0,30.13,1021.1,42,MC,Mostly Cloudy
DET2017,23-Nov-17,23-Nov-17,12:30,12,MIN,-2.5,DET,53,O,46,2017,Week 12,66613,DET,2.5,-2.5,MIN,23,30,Y,65000,0,15,36,0,Detroit,CYQG,CYQG4306212,34,42,70,80,10,15,85,12.6,109,0,0,MC,Overcast,623,34,25,25,70,31,220,13,100,68,OVC,10,183,37,220,366,403,523,0,0,0,30.04,1018.1,40,MC,Overcast
DET2016,23-Oct-16,23-Oct-16,1:00,13,WAS,-1,DET,37,U,50,2016,Week 7,60461,DET,1,-1,WAS,20,17,Y,65000,0,14,72,1,Detroit,CYQG,CYQG4266613,54,66,75,93,9,15,35,14.1,527,0,0,CLR,Fair,623,61,59,45,55,53,220,13,5,36,FEW,15,484,50,534,496,546,708,0,0,0,29.92,1013.3,46,CLR,Fair
DET2013,24-Nov-13,24-Nov-13,1:00,13,DET,-7,TB,45,U,49,2013,Week 12,62098,DET,-7,7,TB,21,24,N,65000,0,11,72,1,Detroit,CYQG,CYQG4160213,20,25,58,71,11,17,32,15,298,0,0,MC,Mostly Cloudy,623,23,13,6,46,19,310,10,70,43,BKN,15,229,35,264,352,387,503,0,0,0,30.53,1035.1,42,MC,Mostly Cloudy
DET2016,24-Nov-16,24-Nov-16,12:30,12,DET,-1.5,MIN,29,U,42,2016,Week 12,63793,DET,-1.5,1.5,CLE,16,13,Y,65000,0,14,72,1,Detroit,CYQG,CYQG4269812,42,47,91,100,10,15,100,7.4,0,0.43,0,MC,Overcast,623,46,40,43,87,45,260,15,100,44,OVC,8,180,36,216,359,395,513,0,0,0,30.07,1018.9,40,MC,Overcast
DET2017,24-Sep-17,24-Sep-17,1:00,13,ATL,-3,DET,56,O,51,2017,Week 3,63240,DET,3,-3,ATL,26,30,Y,65000,0,15,57,0,Detroit,CYQG,CYQG4300213,75,88,72,100,4,8,2,12.2,703,0,0,CLR,Fair,623,88,90,64,46,72,150,8,5,52,FEW,15,663,68,731,680,748,971,0,0,0,30.13,1020,46,CLR,Fair
DET2015,25-Oct-15,25-Oct-15,1:00,13,DET,-1,MIN,47,O,45,2015,Week 7,60231,DET,-1,1,MIN,19,28,Y,65000,0,13,72,1,Detroit,CYQG,CYQG4230213,51,64,64,87,9,15,25,15,568,0,0,CLR,Mostly Clear,623,59,58,39,48,49,310,7,10,280,FEW,15,470,49,519,490,539,700,0,0,0,30.3,1026,45,CLR,Mostly Clear
DET2015,26-Nov-15,26-Nov-15,12:30,12,DET,-3,PHI,59,O,47,2015,Week 12,64445,DET,-3,3,PHI,45,14,Y,65000,0,13,72,1,Detroit,CYQG,CYQG4233412,52,60,68,76,17,24,91,16.4,18,0,0,MC,Mostly Cloudy,623,55,50,43,63,49,210,24,100,260,BKN,15,151,36,187,356,392,508,0,0,0,30.39,1029.4,42,MC,Mostly Cloudy
DET2015,27-Dec-15,27-Dec-15,1:00,13,DET,-9,SF,49,O,42.5,2015,Week 16,61313,DET,-9,9,SF,32,17,Y,65000,0,13,72,1,Detroit,CYQG,CYQG4236513,38,43,87,100,13,20,92,10.5,2,0.71,0,RAIN,Light Rain,623,37,29,34,87,36,360,15,100,19,OVC,15,158,32,190,316,348,452,0,0,0,30.15,1021.6,40,MC,Overcast
DET2014,27-Nov-14,27-Nov-14,12:30,12,DET,-7,CHI,51,O,46,2014,Week 13,64175,DET,-7,7,CHI,34,17,Y,65000,0,12,72,1,Detroit,CYQG,CYQG4197012,30,36,68,80,11,18,76,14.5,87,0.06,0.6,MC,Mostly Cloudy,623,34,26,23,65,30,300,10,70,31,BKN,15,229,35,264,353,388,504,0,0,0,30.14,1021.5,42,MC,Mostly Cloudy
DET2013,27-Oct-13,27-Oct-13,1:00,13,DET,-3,DAL,61,O,52,2013,Week 8,64379,DET,-3,3,DAL,31,30,N,65000,0,11,72,1,Detroit,CYQG,CYQG4157413,43,51,69,88,7,12,51,15,113,0,0,MC,Mostly Cloudy,623,47,43,30,52,40,240,9,75,61,BKN,15,299,48,347,478,526,684,0,0,0,30.04,1017.6,42,MC,Mostly Cloudy
DET2019,27-Oct-19,27-Oct-19,1:00,13,DET,-3,NYG,57,O,32,2019,Week 8,58509,DET,-3,3,BAL,31,26,Y,65000,0,17,77,0,Detroit,CYQG,CYQG4376513,52,59,85,94,16,30,64,8,127,0.11,0,MC,Overcast,623,55,51,48,77,52,280,20,100,20,OVC,9,240,48,288,479,527,684,0,0,0,29.82,1010.1,40,MC,Overcast
DET2015,27-Sep-15,27-Sep-15,8:30,20,DEN,-3,DET,36,U,45,2015,Week 3,62920,DET,3,-3,DEN,12,24,Y,65000,0,13,72,1,Detroit,CYQG,CYQG4227420,66,78,77,94,7,14,45,15,300,0,0,MC,Mostly Cloudy,623,68,68,63,83,65,160,9,5,50,FEW,15,0,0,0,0,0,0,0,0,0,30.11,1019.5,46,CLR,Fair
DET2013,28-Nov-13,28-Nov-13,12:30,12,DET,-6.5,GB,50,O,49,2013,Week 13,64934,DET,-6.5,6.5,GB,40,10,Y,65000,0,11,72,1,Detroit,CYQG,CYQG4160612,24,29,68,87,7,14,75,12.4,0,0.03,0.4,MC,Overcast,623,26,17,21,84,24,180,8,100,90,OVC,10,175,35,210,350,385,500,0,0,0,30.29,1026.8,40,MC,Overcast
DET2019,28-Nov-19,28-Nov-19,1:00,13,CHI,-3.5,DET,44,O,43,2019,Week 13,65412,DET,3.5,-3.5,BAL,20,24,Y,65000,0,17,54,0,Detroit,CYQG,CYQG4379713,36,39,71,80,13,25,100,9,0,0,0,MC,Overcast,623,39,33,28,65,35,340,9,100,37,OVC,9,170,34,204,341,375,487,0,0,0,30.39,1029.8,40,MC,Overcast
DET2017,29-Oct-17,29-Oct-17,8:30,20,PIT,-3,DET,35,U,45,2017,Week 8,64983,DET,3,-3,PIT,15,20,Y,65000,0,15,79,0,Detroit,CYQG,CYQG4303720,42,46,74,87,7,13,91,14.1,27,0,0,MC,Overcast,623,43,38,36,76,40,330,7,100,56,OVC,12,0,0,0,0,0,0,0,0,0,29.73,1007.3,40,MC,Overcast
DET2013,29-Sep-13,29-Sep-13,1:00,13,DET,-3,CHI,72,O,48.5,2013,Week 4,64552,DET,-3,3,IND,40,32,Y,65000,0,11,72,1,Detroit,CYQG,CYQG4154613,63,67,86,97,6,9,87,8.2,20,0.23,0,RAIN,Light Rain,623,63,63,61,92,62,210,8,100,25,OVC,4,324,65,390,649,714,927,99,0.02,0,29.99,1015.6,18,RAIN,Light Rain
DET2019,29-Sep-19,29-Sep-19,1:00,13,KC,-7,DET,64,O,54.5,2019,Week 4,65188,DET,7,-7,DET,30,34,N,65000,0,17,77,0,Detroit,CYQG,CYQG4373713,60,64,90,100,11,16,84,9,0,0.09,0,MC,Overcast,623,64,63,59,83,61,60,13,100,44,OVC,9,97,65,162,649,714,927,99,0.01,0,30.31,1026.4,40,MC,Overcast
DET2017,31-Dec-17,31-Dec-17,1:00,13,DET,-7,GB,46,O,45,2017,Week 17,62501,DET,-7,7,GB,35,11,Y,65000,0,15,60,0,Detroit,CYQG,CYQG4310013,9,18,59,78,7,12,37,13.8,314,0,0,CLR,Mostly Clear,623,14,3,-2,48,11,310,8,10,150,FEW,15,307,32,339,321,353,459,0,0,0,30.43,1032,45,CLR,Mostly Clear
PIT2019,1-Dec-19,1-Dec-19,1:00,13,PIT,-3.5,CLE,33,O,48,2019,Week 13,62157,PIT,-3.5,3.5,MIN,20,13,Y,68400,0,18,30,0,Pittsburgh,KAGC,KAGC4380013,41,47,91,100,10,16,95,7,9,0.43,0,RAIN,Light Rain,1276,46,40,44,93,45,140,13,100,13,OVC,10,179,36,215,358,394,512,0,0,0,29.39,996.2,40,MC,Overcast
PIT2016,1-Jan-17,1-Jan-17,1:00,13,PIT,-3.5,CLE,51,O,41.5,2016,Week 17,55921,PIT,-3.5,3.5,ARI,27,24,N,68400,0,15,65,0,Pittsburgh,KAGC,KAGC4273613,37,44,70,89,6,13,67,9.6,438,0.03,0,CLR,Fair,1253,41,37,26,55,35,260,6,0,201,CLR,10,352,35,387,352,387,502,0,0,0,30.21,1023,46,CLR,Fair
PIT2015,1-Nov-15,1-Nov-15,1:00,13,PIT, PK,CIN,26,U,49.5,2015,Week 8,64750,PIT, PK,PK,ARI,10,16,PK,68400,0,14,63,0,Pittsburgh,KAGC,KAGC4230913,58,65,62,80,12,16,80,9,177,0.02,0,CLR,Fair,1253,64,62,44,48,54,240,16,12,29,FEW,10,461,47,508,473,520,676,0,0,0,29.94,1014,45,CLR,Mostly Clear
PIT2015,1-Oct-15,1-Oct-15,8:25,20,BAL,-3,PIT,43,U,44,2015,Week 4,63929,PIT,3,-3,SF,20,23,N,68400,0,14,54,0,Pittsburgh,KAGC,KAGC4227820,55,63,67,77,8,13,94,10,2,0,0,MC,Overcast,1253,56,53,44,65,50,70,13,38,39,SCT,10,0,0,0,0,0,0,0,0,0,30.16,1021.5,44,PC,Partly Cloudy
PIT2014,2-Nov-14,2-Nov-14,8:30,20,PIT,-2,BAL,66,O,48,2014,Week 9,63971,PIT,-2,2,IND,43,23,Y,65500,0,13,37,0,Pittsburgh,KAGC,KAGC4194520,38,46,50,67,12,17,39,10,477,0,0,CLR,Fair,1253,39,34,21,48,33,300,7,0,201,CLR,10,0,0,0,0,0,0,0,0,0,30.34,1027.4,46,CLR,Fair
PIT2016,2-Oct-16,2-Oct-16,8:30,20,PIT,-3.5,KC,57,O,48.5,2016,Week 4,61278,PIT,-3.5,3.5,SF,43,14,Y,68400,0,15,60,0,Pittsburgh,KAGC,KAGC4264520,61,67,82,93,6,12,90,7.2,6,0.11,0,CLR,Mostly Clear,1253,60,60,57,90,58,0,0,100,37,OVC,5,0,0,0,0,0,0,0,0,0,30.05,1017.6,45,CLR,Mostly Clear
PIT2019,3-Nov-19,3-Nov-19,1:00,13,PIT,-2.5,IND,50,O,53,2019,Week 9,61115,PIT,-2.5,2.5,PIT,26,24,N,68400,0,18,41,0,Pittsburgh,KAGC,KAGC4377213,41,47,57,73,9,14,34,9.9,511,0,0,CLR,Fair,1276,45,39,25,46,37,230,13,20,45,SCT,10,417,46,463,463,509,662,0,0,0,30.18,1023.2,44,PC,Partly Cloudy
PIT2016,4-Dec-16,4-Dec-16,4:25,16,PIT,-6.5,NYG,38,U,49.5,2016,Week 13,65825,PIT,-6.5,6.5,DET,24,14,Y,68400,0,15,40,0,Pittsburgh,KAGC,KAGC4270816,37,40,65,82,5,10,93,9.6,98,0.12,0,CLR,Fair,1253,40,35,25,55,34,110,8,100,120,BKN,10,35,5,40,47,52,67,0,0,0,30.1,1019.2,42,MC,Mostly Cloudy
PIT2015,6-Dec-15,6-Dec-15,8:30,20,PIT,-9.5,IND,55,O,50.5,2015,Week 13,58701,PIT,-9.5,9.5,GB,45,10,Y,68400,0,14,35,0,Pittsburgh,KAGC,KAGC4234420,38,50,77,92,3,7,94,4.8,0,0,0,CLR,Fair,1253,45,42,32,61,40,220,6,100,149,CLR,10,0,0,0,0,0,0,0,0,0,30.33,1027,46,CLR,Fair
PIT2019,6-Oct-19,6-Oct-19,1:00,13,PIT,-3,BAL,49,O,47.5,2019,Week 5,64037,PIT,-3,3,KC,23,26,N,68400,0,18,62,0,Pittsburgh,KAGC,KAGC4374413,63,69,81,100,7,15,82,9,36,0.26,0,MC,Overcast,1276,69,69,61,76,64,200,9,100,90,OVC,10,312,63,376,625,688,894,0,0,0,30.14,1020.8,40,MC,Overcast
PIT2014,7-Sep-14,7-Sep-14,1:00,13,PIT,-6,CLE,57,O,41.5,2014,Week 1,64598,PIT,-6,6,MIA,30,27,N,65500,0,13,72,0,Pittsburgh,KAGC,KAGC4188913,63,73,65,89,5,9,5,10,699,0,0,CLR,Fair,1253,69,69,50,51,58,370,5,70,45,BKN,10,515,79,594,793,872,1133,0,0,0,30.21,1022.9,42,MC,Mostly Cloudy
PIT2013,8-Dec-13,8-Dec-13,1:00,13,PIT,-3,MIA,62,O,40.5,2013,Week 14,52489,PIT,-3,3,CAR,28,34,Y,65500,0,12,26,0,Pittsburgh,KAGC,KAGC4161613,25,31,76,92,7,13,87,7.1,0,0.09,1.1,MC,Overcast,1253,24,18,21,88,23,60,5,100,18,VV,0.5,173,35,208,346,381,494,99,0.01,0.1,30.39,1029.2,10,SNOW,Moderate Snow
PIT2015,8-Nov-15,8-Nov-15,1:00,13,PIT,-6,OAK,73,O,48,2015,Week 9,65520,PIT,-6,6,CIN,38,35,N,68400,0,14,51,0,Pittsburgh,KAGC,KAGC4231613,46,54,46,63,4,7,4,10,610,0,0,CLR,Fair,1253,50,50,24,36,40,0,0,0,201,CLR,10,439,44,483,439,483,626,0,0,0,30.44,1030.9,46,CLR,Fair
PIT2017,8-Oct-17,8-Oct-17,1:00,13,PIT,-7.5,JAX,39,U,41.5,2017,Week 5,66237,PIT,-7.5,7.5,LAC,9,30,Y,68400,0,16,75,0,Pittsburgh,KAGC,KAGC4301613,69,73,80,93,8,15,99,8.6,17,0.54,0,RAIN,Light Rain,1253,72,72,60,66,65,230,9,71,27,OVC,10,398,61,459,613,674,876,0,0,0,29.96,1014.2,45,CLR,Mostly Clear
PIT2013,8-Sep-13,8-Sep-13,1:00,13,PIT,-6,TEN,25,U,42,2013,Week 1,61585,PIT,-6,6,KC,9,16,Y,65500,0,12,74,0,Pittsburgh,KAGC,KAGC4152513,69,79,73,84,5,9,65,9.8,268,0,0,CLR,Fair,1253,74,77,65,74,68,370,5,100,25,OVC,8,394,79,473,788,867,1125,0,0,0,29.99,1015.6,44,PC,Partly Cloudy
PIT2016,9-Oct-16,9-Oct-16,1:00,13,PIT,-9.5,NYJ,44,U,50,2016,Week 5,66385,PIT,-9.5,9.5,OAK,31,13,Y,68400,0,15,57,0,Pittsburgh,KAGC,KAGC4265213,51,59,66,80,8,15,40,10,321,0,0,CLR,Fair,1253,58,55,39,50,49,330,14,75,40,BKN,10,376,60,436,601,661,858,0,0,0,30.26,1024.8,45,CLR,Mostly Clear
PIT2017,10-Dec-17,10-Dec-17,8:30,20,PIT,-6,BAL,77,O,43,2017,Week 14,60069,PIT,-6,6,OAK,39,38,N,68400,0,16,70,0,Pittsburgh,KAGC,KAGC4307920,29,32,64,81,13,17,100,9.2,0,0,0.1,MC,Overcast,1253,30,22,16,56,26,230,9,100,60,OVC,10,0,0,0,0,0,0,0,0,0,29.97,1016.7,40,MC,Overcast
PIT2013,10-Nov-13,10-Nov-13,1:00,13,PIT,-3,BUF,33,U,43,2013,Week 10,60406,PIT,-3,3,BUF,23,10,Y,65500,0,12,46,0,Pittsburgh,KAGC,KAGC4158813,45,54,54,66,14,21,58,10,36,0,0,MC,Overcast,1253,45,38,27,49,38,280,14,100,46,OVC,10,214,43,258,429,472,613,0,0,0,30.13,1020.4,42,MC,Mostly Cloudy
PIT2019,10-Nov-19,10-Nov-19,1:00,13,PIT,PK,LAR,29,O,45,2019,Week 10,63627,PIT,PK,PK,PHI,17,12,PK,68400,0,18,83,0,Pittsburgh,KAGC,KAGC4377913,46,54,53,63,8,16,51,9.5,501,0,0,MC,Overcast,1276,53,49,34,49,44,230,13,5,80,FEW,10,418,43,461,429,472,613,0,0,0,29.98,1016.3,45,CLR,Mostly Clear
PIT2016,13-Nov-16,13-Nov-16,4:25,16,PIT,-3,DAL,65,O,51,2016,Week 10,67737,PIT,-3,3,LAC,30,35,Y,68400,0,15,54,0,Pittsburgh,KAGC,KAGC4268716,41,54,51,79,8,10,38,9.9,600,0,0,CLR,Fair,1253,54,51,21,28,41,230,9,0,201,CLR,10,73,7,80,73,80,104,0,0,0,30.18,1022.1,46,CLR,Fair
PIT2013,15-Dec-13,15-Dec-13,8:30,20,CIN,-2,PIT,50,O,44.5,2013,Week 15,45873,PIT,2,-2,CIN,30,20,Y,65500,0,12,27,0,Pittsburgh,KAGC,KAGC4162320,30,39,78,93,15,26,100,8.3,0,0.02,0,MC,Overcast,1253,27,15,16,63,24,260,15,100,32,OVC,10,0,0,0,0,0,0,0,0,0,29.95,1014.3,42,MC,Mostly Cloudy
PIT2019,15-Dec-19,15-Dec-19,1:00,13,PIT,-7,BUF,27,O,35,2019,Week 15,64694,PIT,-7,7,IND,10,17,N,68400,0,18,56,0,Pittsburgh,KAGC,KAGC4381413,32,38,78,93,9,16,97,6.4,0,0.02,0,MC,Overcast,1276,30,22,23,75,28,280,10,100,33,OVC,5,170,34,204,340,374,486,0,0,0,30.04,1018.9,35,HAZY,Haze
PIT2015,15-Nov-15,15-Nov-15,1:00,13,PIT,-7,CLE,39,U,43,2015,Week 10,64402,PIT,-7,7,CIN,30,9,Y,68400,0,14,60,0,Pittsburgh,KAGC,KAGC4232313,49,62,40,57,10,13,4,10,579,0,0,CLR,Fair,1253,60,58,26,27,45,240,12,5,252,CLR,10,398,41,439,408,449,583,0,0,0,30.33,1027.1,46,CLR,Fair
PIT2019,15-Sep-19,15-Sep-19,1:00,13,PIT,-4,SEA,54,O,47,2019,Week 2,65063,PIT,-4,4,SEA,26,28,N,68400,0,18,50,0,Pittsburgh,KAGC,KAGC4372313,69,82,67,99,4,7,28,10,718,0,0,CLR,Fair,1276,79,80,56,45,65,40,5,0,362,CLR,10,750,75,825,750,825,1072,0,0,0,30.2,1022.5,46,CLR,Fair
PIT2017,16-Nov-17,16-Nov-17,8:25,20,PIT,-7,TEN,57,O,44,2017,Week 11,60703,PIT,-7,7,TEN,40,17,Y,68400,0,16,39,0,Pittsburgh,KAGC,KAGC4305520,41,47,72,86,12,21,94,10,15,0.02,0,MC,Overcast,1253,37,31,30,76,34,280,8,100,26,OVC,10,0,0,0,0,0,0,0,0,0,30.14,1022,40,MC,Overcast
PIT2017,17-Dec-17,17-Dec-17,4:25,16,NE,-2.5,PIT,51,U,53,2017,Week 15,68574,PIT,2.5,-2.5,GB,24,27,Y,68400,0,16,50,0,Pittsburgh,KAGC,KAGC4308616,35,39,72,93,7,10,76,9.3,86,0.09,0,CLR,Fair,1253,39,35,28,65,35,180,6,100,85,OVC,10,25,5,30,50,55,71,99,0.02,0,30.13,1021.6,19,RAIN,Moderate Rain
PIT2013,17-Nov-13,17-Nov-13,1:00,13,DET,-3,PIT,64,O,45.5,2013,Week 11,57905,PIT,3,-3,NE,37,27,Y,65500,0,12,60,0,Pittsburgh,KAGC,KAGC4159513,58,62,81,90,11,18,99,9.1,0,0.67,0,RAIN,Light Rain,1253,60,58,55,84,57,180,10,100,70,OVC,10,200,40,240,401,441,573,0,0.05,0,29.91,1012.8,18,RAIN,Light Rain
PIT2017,17-Sep-17,17-Sep-17,1:00,13,PIT,-8.5,MIN,35,U,43,2017,Week 2,65971,PIT,-8.5,8.5,LAC,26,9,Y,68400,0,16,43,0,Pittsburgh,KAGC,KAGC4299513,71,81,75,94,2,5,38,7,375,0,0,CLR,Fair,1253,78,80,61,56,67,0,0,70,80,BKN,10,480,74,554,739,813,1056,0,0,0,30.13,1020,42,MC,Mostly Cloudy
PIT2015,18-Oct-15,18-Oct-15,1:00,13,ARI,-5.5,PIT,38,U,45,2015,Week 6,63846,PIT,5.5,-5.5,MIN,25,13,Y,68400,0,14,42,0,Pittsburgh,KAGC,KAGC4229513,38,44,61,73,7,12,49,10,301,0,0,CLR,Fair,1253,41,34,29,62,36,290,12,100,26,OVC,10,276,55,331,552,607,789,0,0,0,30.43,1030.4,45,CLR,Mostly Clear
PIT2016,18-Sep-16,18-Sep-16,1:00,13,PIT,-3,CIN,40,U,48,2016,Week 2,65072,PIT,-3,3,NYG,24,16,Y,68400,0,15,71,0,Pittsburgh,KAGC,KAGC4263113,70,74,84,90,6,10,98,6.8,6,0.46,0,MC,Overcast,1253,71,71,66,84,68,190,5,100,42,OVC,4,364,73,437,728,801,1040,0,0.01,0,30.03,1016.6,35,HAZY,Haze
PIT2015,20-Dec-15,20-Dec-15,4:25,16,PIT,-7.5,DEN,61,O,45.5,2015,Week 15,67234,PIT,-7.5,7.5,ARI,34,27,N,68400,0,14,36,0,Pittsburgh,KAGC,KAGC4235816,33,41,48,60,8,10,86,10,130,0,0,CLR,Fair,1253,41,36,16,36,32,160,8,75,189,CLR,10,32,5,38,52,57,74,0,0,0,30.4,1029.5,46,CLR,Fair
PIT2013,20-Oct-13,20-Oct-13,4:25,16,PIT,-2,BAL,35,U,41,2013,Week 7,62295,PIT,-2,2,SEA,19,16,Y,65500,0,12,57,0,Pittsburgh,KAGC,KAGC4156716,47,57,69,93,10,20,5,10,576,0,0,CLR,Fair,1253,56,53,35,46,46,210,14,6,201,SCT,10,156,16,172,161,177,230,0,0,0,30.03,1016.8,46,CLR,Fair
PIT2014,20-Oct-14,20-Oct-14,8:30,20,PIT,-3,HOU,53,O,44.5,2014,Week 7,56375,PIT,-3,3,SEA,30,23,Y,65500,0,13,51,0,Pittsburgh,KAGC,KAGC4193220,49,57,63,80,9,15,84,9.7,123,0.03,0,CLR,Fair,1253,53,51,39,59,46,190,8,100,55,OVC,10,0,0,0,0,0,0,0,0,0,29.91,1012.7,42,MC,Mostly Cloudy
PIT2015,20-Sep-15,20-Sep-15,1:00,13,PIT,-6,SF,61,O,46,2015,Week 2,66472,PIT,-6,6,TB,43,18,Y,68400,0,14,69,0,Pittsburgh,KAGC,KAGC4226713,60,69,64,87,6,9,14,9.6,699,0,0,CLR,Fair,1253,66,66,44,45,54,100,8,0,201,CLR,10,722,72,794,722,794,1031,0,0,0,30.14,1020.6,46,CLR,Fair
PIT2014,21-Dec-14,21-Dec-14,1:00,13,PIT,-2.5,KC,32,U,49.5,2014,Week 16,60865,PIT,-2.5,2.5,NYJ,20,12,Y,65500,0,13,34,0,Pittsburgh,KAGC,KAGC4199413,29,34,64,75,2,7,64,8.4,115,0,0,MC,Overcast,1253,31,31,19,61,27,0,0,100,23,OVC,7,170,34,204,340,374,485,0,0,0,30.32,1026.6,40,MC,Overcast
PIT2017,22-Oct-17,22-Oct-17,4:25,16,PIT,-4,CIN,43,O,40,2017,Week 7,65363,PIT,-4,4,BUF,29,14,Y,68400,0,16,80,0,Pittsburgh,KAGC,KAGC4303016,65,77,59,86,6,10,38,8.9,381,0,0,CLR,Fair,1253,74,76,46,37,59,160,5,100,201,OVC,10,76,15,90,151,166,216,0,0,0,30.19,1022.2,40,MC,Overcast
PIT2013,22-Sep-13,22-Sep-13,8:30,20,CHI,-2.5,PIT,63,O,40.5,2013,Week 3,61575,PIT,2.5,-2.5,SF,23,40,Y,65500,0,12,56,0,Pittsburgh,KAGC,KAGC4153920,55,62,80,100,6,12,90,8.2,34,0,0,MC,Overcast,1253,54,52,46,75,50,350,7,100,44,OVC,10,0,0,0,0,0,0,0,0,0,30.01,1016.4,40,MC,Overcast
PIT2016,23-Oct-16,23-Oct-16,4:25,16,NE,-7.5,PIT,43,U,49.5,2016,Week 7,66009,PIT,7.5,-7.5,ATL,16,27,Y,68400,0,15,63,0,Pittsburgh,KAGC,KAGC4266616,54,64,61,74,12,21,60,10,427,0,0,MC,Overcast,1253,63,61,43,48,53,260,14,20,50,SCT,10,129,14,143,143,157,204,0,0,0,29.96,1014.7,44,PC,Partly Cloudy
PIT2016,25-Dec-16,25-Dec-16,4:30,16,PIT,-5.5,BAL,58,O,46.5,2016,Week 16,66276,PIT,-5.5,5.5,CLE,31,27,N,68400,0,15,39,0,Pittsburgh,KAGC,KAGC4272916,36,41,81,86,5,9,92,8.9,120,0,0,MC,Overcast,1253,38,32,30,73,35,50,8,0,201,CLR,10,57,6,63,57,63,82,0,0,0,30.47,1031.7,46,CLR,Fair
PIT2017,26-Nov-17,26-Nov-17,8:30,20,PIT,-14,GB,59,O,43,2017,Week 12,62147,PIT,-14,14,GB,31,28,N,68400,0,16,88,0,Pittsburgh,KAGC,KAGC4306520,39,45,55,76,9,13,38,10,413,0,0,CLR,Fair,1253,37,30,21,52,31,240,10,0,201,CLR,10,0,0,0,0,0,0,0,0,0,30.08,1020.1,46,CLR,Fair
PIT2014,26-Oct-14,26-Oct-14,4:25,16,IND,-4.5,PIT,85,O,48.5,2014,Week 8,62479,PIT,4.5,-4.5,NE,51,34,Y,65500,0,13,56,0,Pittsburgh,KAGC,KAGC4193816,53,62,36,54,10,16,0,10,641,0,0,CLR,Fair,1253,60,58,23,24,44,290,13,0,201,CLR,10,134,13,147,134,147,191,0,0,0,29.9,1012.6,46,CLR,Fair
PIT2014,28-Dec-14,28-Dec-14,8:30,20,PIT,-3,CIN,44,U,48.5,2014,Week 17,64697,PIT,-3,3,BAL,27,17,Y,65500,0,13,35,0,Pittsburgh,KAGC,KAGC4200120,39,52,79,90,7,15,95,7.2,0,0.37,0,MC,Overcast,1253,36,31,27,70,33,310,6,100,35,OVC,10,0,0,0,0,0,0,0,0,0,30.15,1020.9,40,MC,Overcast
PIT2019,28-Oct-19,28-Oct-19,1:00,13,PIT,-10,MIA,41,U,50,2019,Week 8,59244,PIT,-10,10,BAL,27,14,Y,68400,0,18,87,0,Pittsburgh,KAGC,KAGC4376613,55,69,71,100,5,7,6,8.6,561,0,0,CLR,Fair,1276,63,63,45,52,54,190,7,0,400,CLR,10,495,49,544,495,544,707,0,0,0,30.11,1020.1,46,CLR,Fair
PIT2014,28-Sep-14,28-Sep-14,1:00,13,PIT,-7.5,TB,51,O,45,2014,Week 4,62910,PIT,-7.5,7.5,JAX,24,27,N,65500,0,13,73,0,Pittsburgh,KAGC,KAGC4191013,65,74,63,84,5,8,38,9.5,382,0,0,CLR,Fair,1253,73,76,52,48,61,220,8,82,301,OVC,10,398,67,465,674,741,963,0,0,0,30.14,1020.8,46,CLR,Fair
PIT2013,29-Dec-13,29-Dec-13,1:00,13,PIT,-9,CLE,27,U,44.5,2013,Week 17,56361,PIT,-9,9,CLE,20,7,Y,65500,0,12,41,0,Pittsburgh,KAGC,KAGC4163713,42,45,77,93,8,15,98,6.7,0,0.66,0,RAIN,Light Rain,1253,40,35,38,93,39,350,8,100,2,OVC,1,173,35,208,346,381,495,99,0.06,0,29.68,1005.2,18,RAIN,Light Rain
PIT2014,30-Nov-14,30-Nov-14,1:00,13,PIT,-3.5,NO,67,O,54.5,2014,Week 13,61916,PIT,-3.5,3.5,PHI,32,35,N,65500,0,13,61,0,Pittsburgh,KAGC,KAGC4197313,58,62,58,64,13,18,100,10,0,0,0,MC,Overcast,1253,60,58,45,58,52,210,15,100,32,OVC,10,180,36,216,361,397,516,0,0,0,29.94,1013.9,40,MC,Overcast
PIT2019,30-Sep-19,30-Sep-19,8:15,20,PIT,-3.5,CIN,30,U,45,2019,Week 4,57959,PIT,-3.5,3.5,DAL,27,3,Y,68400,0,18,38,0,Pittsburgh,KAGC,KAGC4373820,71,79,86,100,4,9,55,8.2,251,0.79,0,MC,Mostly Cloudy,1276,73,77,68,84,70,130,3,0,263,CLR,10,0,0,0,0,0,0,0,0,0,30.11,1019.5,46,CLR,Fair
PIT2017,31-Dec-17,31-Dec-17,1:00,13,PIT,-5.5,CLE,52,O,38,2017,Week 17,50704,PIT,-5.5,5.5,CIN,28,24,N,68400,0,16,53,0,Pittsburgh,KAGC,KAGC4310013,7,13,75,83,5,9,60,8.9,132,0,0.1,CLR,Fair,1253,8,8,3,80,7,240,3,100,36,OVC,1.8,175,35,210,350,385,499,0,0,0.1,30.33,1030.5,9,SNOW,Light Snow
ATL2016,1-Jan-17,1-Jan-17,4:25,16,ATL,-7.5,NO,70,O,58.5,2016,Week 17,70835,ATL,-7.5,7.5,PIT,38,32,N,71228,0,24,33,0,Atlanta,KATL,KATL4273616,49,51,99,100,8,12,100,1.4,0,0.84,0,RAIN,Light Rain,1027,50,47,50,100,50,70,8,100,3,OVC,0.1,90,18,108,179,197,256,99,0.06,0,30.1,1019.3,19,RAIN,Moderate Rain
ATL2015,1-Nov-15,1-Nov-15,1:00,13,ATL,-8,TB,43,U,47.5,2015,Week 8,70524,ATL,-8,8,ARI,20,23,N,71228,0,23,72,1,Atlanta,KATL,KATL4230913,62,65,91,93,9,13,100,3.8,0,0.86,0,RAIN,Light Rain,1027,64,64,61,90,62,80,8,100,6,OVC,7,299,60,359,598,658,854,0,0,0,29.99,1015.5,18,RAIN,Light Rain
ATL2017,1-Oct-17,1-Oct-17,1:00,13,ATL,-8.5,BUF,40,U,48.5,2017,Week 4,71273,ATL,-8.5,8.5,BUF,17,23,N,71000,1,0,51,0,Atlanta,KATL,KATL4300913,65,74,48,65,16,24,47,10,384,0,0,CLR,Mostly Clear,1027,71,71,43,36,56,100,14,25,150,SCT,10,706,76,782,765,841,1093,0,0,0,30.21,1022.9,45,CLR,Mostly Clear
ATL2016,2-Oct-16,2-Oct-16,1:00,13,CAR,-3,ATL,81,O,48.5,2016,Week 4,70508,ATL,3,-3,LAC,48,33,Y,71228,0,24,72,1,Atlanta,KATL,KATL4264513,71,81,57,83,3,9,77,10,28,0,0,CLR,Mostly Clear,1027,80,80,53,39,64,270,7,95,55,BKN,10,524,75,599,754,829,1077,0,0,0,30.04,1017.3,45,CLR,Mostly Clear
ATL2017,3-Dec-17,3-Dec-17,1:00,13,ATL,-2,MIN,23,U,48.5,2017,Week 13,71185,ATL,-2,2,PIT,9,14,Y,71000,1,0,55,0,Atlanta,KATL,KATL4307213,58,69,74,100,4,12,60,8.3,187,0,0,PC,High Clouds,1027,66,66,44,45,54,360,5,90,300,BKN,10,353,48,401,483,531,689,0,0,0,30.18,1021.6,52,PC,High Clouds
ATL2015,3-Jan-16,3-Jan-16,1:00,13,ATL,-6,NO,37,U,53.5,2015,Week 17,69699,ATL,-6,6,NE,17,20,N,71228,0,23,25,0,Atlanta,KATL,KATL4237213,42,53,56,70,10,15,68,10,155,0,0,MC,Mostly Cloudy,1027,50,46,27,41,40,320,10,70,200,BKN,10,362,48,410,480,528,686,0,0,0,30.06,1018.1,42,MC,Mostly Cloudy
ATL2016,4-Dec-16,4-Dec-16,1:00,13,ATL,-5,KC,57,O,50,2016,Week 13,69879,ATL,-5,5,CIN,28,29,N,71228,0,24,72,1,Atlanta,KATL,KATL4270813,45,47,95,100,13,16,100,5.5,0,0.8,0,RAIN,Light Rain,1027,45,40,45,100,45,90,10,100,6,OVC,2,240,48,288,479,527,684,99,0.02,0,30.1,1019.3,18,RAIN,Light Rain
ATL2015,4-Oct-15,4-Oct-15,1:00,13,ATL,-4.5,HOU,69,O,47.5,2015,Week 4,69904,ATL,-4.5,4.5,NYG,48,21,Y,71228,0,23,72,1,Atlanta,KATL,KATL4228113,66,70,84,90,12,18,100,8.1,0,0.15,0,RAIN,Light Rain,1027,70,70,60,71,64,50,12,100,21,OVC,10,374,75,449,748,823,1069,0,0,0,29.76,1007.9,42,MC,Mostly Cloudy
ATL2017,7-Dec-17,7-Dec-17,8:25,20,ATL,-2.5,NO,37,U,51.5,2017,Week 14,72866,ATL,-2.5,2.5,NO,20,17,Y,71000,1,0,23,0,Atlanta,KATL,KATL4307620,44,48,61,74,7,14,100,10,0,0,0,MC,Overcast,1027,44,41,35,71,40,230,5,100,150,BKN,10,0,0,0,0,0,0,0,0,0,30.11,1020,50,PC,High Overcast
ATL2013,7-Oct-13,7-Oct-13,8:40,20,ATL,-10,NYJ,58,O,45,2013,Week 5,70246,ATL,-10,10,CHI,28,30,N,71228,0,21,72,1,Atlanta,KATL,KATL4155420,64,74,77,100,10,17,73,8.2,210,0.15,0,CLR,Mostly Clear,1027,62,62,51,67,56,310,8,30,150,SCT,10,0,0,0,0,0,0,0,0,0,29.94,1013.6,45,CLR,Mostly Clear
ATL2014,7-Sep-14,7-Sep-14,1:00,13,NO,-3,ATL,71,O,51.5,2014,Week 1,70706,ATL,3,-3,CIN,37,34,N,71228,0,22,72,1,Atlanta,KATL,KATL4188913,78,90,77,91,3,9,77,9.9,153,0.1,0,CLR,Mostly Clear,1027,89,96,71,55,76,0,0,100,35,BKN,10,441,88,529,882,970,1259,0,0,0,29.96,1014.7,44,PC,Partly Cloudy
ATL2019,8-Dec-19,8-Dec-19,1:00,13,ATL,-4.5,CAR,60,O,41,2019,Week 14,70592,ATL,-4.5,4.5,CAR,40,20,Y,71000,0,2,60,0,Atlanta,KATL,KATL4380713,52,57,58,76,12,15,73,10,342,0,0,MC,Overcast,971,55,52,36,48,46,100,13,25,70,CLR,10,386,47,433,474,521,677,0,0,0,30.28,1025,44,PC,Partly Cloudy
ATL2013,10-Nov-13,10-Nov-13,1:00,13,SEA,-3.5,ATL,43,U,46.5,2013,Week 10,70309,ATL,3.5,-3.5,ATL,10,33,Y,71228,0,21,72,1,Atlanta,KATL,KATL4158813,58,70,52,74,8,14,50,10,337,0,0,CLR,Mostly Clear,1027,67,67,40,37,53,320,10,70,150,BKN,10,420,56,476,556,612,795,0,0,0,30.23,1023.6,42,MC,Mostly Cloudy
ATL2015,11-Oct-15,11-Oct-15,1:00,13,ATL,-7,WAS,44,U,48.5,2015,Week 5,70178,ATL,-7,7,GB,25,19,N,71228,0,23,72,1,Atlanta,KATL,KATL4228813,64,73,76,90,6,14,60,10,276,0,0,CLR,Mostly Clear,1027,70,70,56,61,62,370,3,70,30,BKN,10,461,71,532,710,781,1014,0,0,0,29.98,1015.3,42,MC,Mostly Cloudy
ATL2016,11-Sep-16,11-Sep-16,1:00,13,ATL,-2.5,TB,55,O,47,2016,Week 1,69382,ATL,-2.5,2.5,NE,24,31,Y,71228,0,24,72,1,Atlanta,KATL,KATL4262413,81,91,65,88,6,12,79,10,197,0,0,CLR,Mostly Clear,1027,88,93,69,54,75,370,6,45,45,SCT,10,727,86,813,860,946,1229,0,0,0,30.07,1018.4,45,CLR,Mostly Clear
ATL2017,12-Nov-17,12-Nov-17,4:25,16,ATL,-3.5,DAL,34,U,49,2017,Week 10,73761,ATL,-3.5,3.5,MIA,27,7,Y,71000,1,0,84,0,Atlanta,KATL,KATL4305116,47,49,82,93,8,14,99,9.2,0,0,0,MC,Overcast,1027,48,45,45,89,47,100,6,100,13,OVC,10,92,18,110,184,202,263,0,0,0,30.3,1026.5,40,MC,Overcast
ATL2014,12-Oct-14,12-Oct-14,4:25,16,ATL,-3.5,CHI,40,U,56,2014,Week 6,70712,ATL,-3.5,3.5,NYJ,13,27,Y,71228,0,22,72,1,Atlanta,KATL,KATL4192416,74,85,74,90,7,16,76,9.6,87,0.05,0,PC,Partly Cloudy,1027,85,86,61,45,70,170,13,60,55,SCT,10,228,31,259,312,343,446,0,0,0,29.99,1015.5,44,PC,Partly Cloudy
ATL2014,14-Dec-14,14-Dec-14,1:00,13,PIT,-3,ATL,47,U,55.5,2014,Week 15,71161,ATL,3,-3,LAR,20,27,Y,71228,0,22,72,1,Atlanta,KATL,KATL4198713,43,57,66,85,10,14,1,9.9,597,0,0,CLR,Fair,1027,53,49,31,43,43,320,13,0,201,CLR,10,468,47,515,468,515,669,0,0,0,30.09,1018.9,46,CLR,Fair
ATL2015,14-Sep-15,14-Sep-15,7:10,19,PHI,-3,ATL,50,U,56,2015,Week 1,70516,ATL,3,-3,SEA,26,24,N,71228,0,23,72,1,Atlanta,KATL,KATL4226119,66,77,55,72,6,12,6,10,682,0,0,CLR,Mostly Clear,1027,73,76,50,44,60,130,6,20,250,SCT,10,0,0,0,0,0,0,0,0,0,30.2,1022.8,54,CLR,Few High Clouds
ATL2013,15-Dec-13,15-Dec-13,1:00,13,ATL,-5.5,WAS,53,O,49.5,2013,Week 15,70069,ATL,-5.5,5.5,LAC,27,26,N,71228,0,21,72,1,Atlanta,KATL,KATL4162313,40,54,80,97,14,17,69,10,79,0.01,0,MC,Mostly Cloudy,1027,40,31,32,73,37,300,17,100,20,OVC,10,234,47,281,468,515,668,0,0,0,30.09,1018.8,40,MC,Overcast
ATL2017,15-Oct-17,15-Oct-17,1:00,13,ATL,-13.5,MIA,37,U,46,2017,Week 6,70593,ATL,-13.5,13.5,NE,17,20,N,71000,1,0,77,0,Atlanta,KATL,KATL4302313,73,83,83,97,5,12,78,9.3,167,0.01,0,CLR,Mostly Clear,1027,80,84,69,69,73,220,6,90,26,BKN,10,378,69,447,688,757,982,0,0,0,30.12,1020.1,44,PC,Partly Cloudy
ATL2013,15-Sep-13,15-Sep-13,1:00,13,ATL,-5,LAR,55,O,47,2013,Week 2,70056,ATL,-5,5,NYG,31,24,Y,71228,0,21,72,1,Atlanta,KATL,KATL4153213,73,84,73,87,6,9,56,9.8,129,0,0,CLR,Mostly Clear,1027,81,84,68,65,72,120,6,70,25,BKN,10,550,85,635,846,931,1208,0,0,0,30.12,1020.1,42,MC,Mostly Cloudy
ATL2019,15-Sep-19,15-Sep-19,8:20,20,PHI,-1,ATL,44,U,53,2019,Week 2,72443,ATL,1,-1,PHI,24,20,Y,71000,0,2,42,0,Atlanta,KATL,KATL4372320,81,92,62,79,8,15,62,10,32,0,0,PC,High Clouds,971,84,86,64,51,71,100,7,100,250,BKN,10,0,0,0,0,0,0,0,0,0,30.08,1017.5,42,MC,Mostly Cloudy
ATL2017,17-Sep-17,17-Sep-17,8:30,20,ATL,-3,GB,57,O,55.5,2017,Week 2,70826,ATL,-3,3,BAL,34,23,Y,71000,1,0,73,0,Atlanta,KATL,KATL4299520,78,88,66,90,4,9,19,10,499,0,0,CLR,Fair,1027,81,82,62,53,69,10,6,10,250,FEW,10,0,0,0,0,0,0,0,0,0,30.07,1017.3,45,CLR,Mostly Clear
ATL2016,18-Dec-16,18-Dec-16,4:05,16,ATL,-13.5,SF,54,O,51.5,2016,Week 15,70164,ATL,-13.5,13.5,NYJ,41,13,Y,71228,0,24,72,1,Atlanta,KATL,KATL4272216,54,72,89,97,14,33,100,8.9,0,0.14,0,RAIN,Light Rain,1027,45,38,43,93,44,310,16,100,7,OVC,10,78,16,94,156,172,222,0,0,0,30.22,1023.4,40,MC,Overcast
ATL2014,18-Sep-14,18-Sep-14,8:25,20,ATL,-6.5,TB,70,O,47,2014,Week 3,70318,ATL,-6.5,6.5,CHI,56,14,Y,71228,0,22,72,1,Atlanta,KATL,KATL4190020,74,85,68,93,4,9,75,9.4,187,0,0,CLR,Mostly Clear,1027,77,80,64,64,69,180,8,40,43,SCT,10,0,0,0,0,0,0,0,0,0,29.96,1014.4,44,PC,Partly Cloudy
ATL2013,20-Oct-13,20-Oct-13,1:00,13,ATL,-6.5,TB,54,O,43,2013,Week 7,69522,ATL,-6.5,6.5,BAL,31,23,Y,71228,0,21,72,1,Atlanta,KATL,KATL4156713,57,70,62,93,6,12,9,10,599,0,0,CLR,Mostly Clear,1027,66,66,35,32,51,0,0,5,250,FEW,10,650,66,716,660,726,943,0,0,0,30.03,1017.1,45,CLR,Mostly Clear
ATL2019,20-Oct-19,20-Oct-19,1:00,13,LAR,-2,ATL,47,U,56,2019,Week 7,71856,ATL,2,-2,CLE,10,37,Y,71000,0,2,38,0,Atlanta,KATL,KATL4375813,64,73,81,93,8,14,68,8.1,253,0,0,MC,Overcast,971,69,69,59,70,63,320,12,70,16,SCT,10,429,66,495,660,726,943,0,0,0,29.94,1013.3,42,MC,Mostly Cloudy
ATL2013,21-Nov-13,21-Nov-13,8:25,20,NO,-8,ATL,30,U,53,2013,Week 12,70422,ATL,8,-8,OAK,13,17,N,71228,0,21,72,1,Atlanta,KATL,KATL4159920,52,59,68,86,12,16,96,9.9,54,0,0,MC,Overcast,1027,53,49,47,80,50,80,12,100,13,OVC,10,0,0,0,0,0,0,0,0,0,30.35,1027.7,40,MC,Overcast
ATL2019,22-Dec-19,22-Dec-19,1:00,13,ATL,-5,JAX,36,O,33,2019,Week 16,70873,ATL,-5,5,TEN,24,12,Y,71000,0,2,76,0,Atlanta,KATL,KATL4382113,44,47,79,93,18,25,100,5.4,0,1.65,0,RAIN,Light Rain,971,43,34,39,87,41,70,21,100,7,OVC,5,234,47,280,467,514,667,99,0.1,0,30.18,1022.1,19,RAIN,Moderate Rain
ATL2015,22-Nov-15,22-Nov-15,1:00,13,ATL,-3.5,IND,45,U,47.5,2015,Week 11,70433,ATL,-3.5,3.5,BUF,21,24,N,71228,0,23,72,1,Atlanta,KATL,KATL4233013,43,52,58,80,14,21,22,10,599,0,0,CLR,Fair,1027,49,42,27,43,40,340,21,2,177,CLR,10,506,51,557,511,562,730,0,0,0,30.05,1017.5,46,CLR,Fair
ATL2014,23-Nov-14,23-Nov-14,1:00,13,ATL,-2.5,CLE,50,O,48.5,2014,Week 12,70046,ATL,-2.5,2.5,NE,24,26,N,71228,0,22,72,1,Atlanta,KATL,KATL4196613,54,62,85,97,13,18,100,5.1,0,2.18,0,RAIN,Light Rain,1027,52,47,50,93,51,80,18,100,4,OVC,0.8,254,51,305,508,559,726,99,0.55,0,29.85,1010.8,17,RAIN,Heavy Rain
ATL2016,23-Oct-16,23-Oct-16,4:05,16,ATL,-5,LAC,63,O,53,2016,Week 7,69832,ATL,-5,5,NO,30,33,N,71228,0,24,72,1,Atlanta,KATL,KATL4266616,60,76,44,71,6,9,2,10,656,0,0,CLR,Fair,1027,75,75,31,20,54,310,7,5,250,FEW,10,249,25,274,253,278,361,0,0,0,30.2,1022.8,45,CLR,Mostly Clear
ATL2019,24-Nov-19,24-Nov-19,1:00,13,ATL,-7,TB,57,O,38,2019,Week 12,71463,ATL,-7,7,TB,22,35,Y,71000,0,2,86,0,Atlanta,KATL,KATL4379313,47,54,66,79,12,18,33,10,426,0,0,CLR,Fair,971,52,48,36,55,45,310,13,5,30,FEW,10,492,51,543,505,556,722,0,0,0,29.9,1012.5,45,CLR,Mostly Clear
ATL2017,26-Nov-17,26-Nov-17,1:00,13,ATL,-10,TB,54,O,47,2017,Week 12,71036,ATL,-10,10,TB,34,20,Y,71000,1,0,28,0,Atlanta,KATL,KATL4306513,51,63,51,80,11,16,3,10,575,0,0,CLR,Mostly Clear,1027,61,59,25,25,46,340,15,5,250,FEW,10,492,50,542,499,549,713,0,0,0,30.15,1020.9,45,CLR,Mostly Clear
ATL2015,27-Dec-15,27-Dec-15,1:00,13,CAR,-7,ATL,33,U,46,2015,Week 16,70981,ATL,7,-7,JAX,20,13,N,71228,0,23,72,1,Atlanta,KATL,KATL4236513,69,75,87,96,7,14,96,6.4,0,0.01,0,CLR,Mostly Clear,1027,73,77,66,79,69,190,10,100,14,BKN,10,235,47,282,470,517,672,0,0,0,30.06,1017.8,45,CLR,Mostly Clear
ATL2016,27-Nov-16,27-Nov-16,1:00,13,ATL,-4,ARI,57,O,49,2016,Week 12,69233,ATL,-4,4,ATL,38,19,Y,71228,0,24,72,1,Atlanta,KATL,KATL4270113,49,61,51,76,6,10,66,10,62,0,0,CLR,Mostly Clear,1027,57,56,30,36,45,370,5,100,20,BKN,10,378,49,427,494,543,705,0,0,0,30.23,1023.6,45,CLR,Mostly Clear
ATL2019,27-Oct-19,27-Oct-19,1:00,13,SEA,-1.5,ATL,47,O,44,2019,Week 8,71483,ATL,1.5,-1.5,CAR,20,27,Y,71000,0,2,43,0,Atlanta,KATL,KATL4376513,64,73,75,90,9,13,30,9.9,591,0.03,0,CLR,Fair,971,69,69,53,57,60,290,5,5,38,FEW,10,607,62,669,623,685,891,0,0,0,29.99,1014.8,45,CLR,Mostly Clear
ATL2014,28-Dec-14,28-Dec-14,4:25,16,ATL,-3,CAR,37,U,48,2014,Week 17,71015,ATL,-3,3,CLE,3,34,Y,71228,0,22,72,1,Atlanta,KATL,KATL4200116,58,61,92,93,5,12,100,5.1,0,2.01,0,RAIN,Light Rain,1027,61,61,58,90,59,280,3,100,7,OVC,7,85,17,102,170,187,244,0,0,0,30.04,1017.2,42,MC,Mostly Cloudy
ATL2019,28-Nov-19,28-Nov-19,1:00,13,NO,-2.5,ATL,44,U,57,2019,Week 13,71993,ATL,2.5,-2.5,NO,18,26,Y,71000,0,2,58,0,Atlanta,KATL,KATL4379713,53,63,43,58,13,21,41,10,378,0,0,CLR,Mostly Clear,971,60,58,32,35,47,290,12,5,200,FEW,10,485,49,534,494,543,706,0,0,0,30.25,1024.4,45,CLR,Mostly Clear
ATL2013,29-Dec-13,29-Dec-13,1:00,13,CAR,-6,ATL,41,U,46,2013,Week 17,70427,ATL,6,-6,SF,20,21,N,71228,0,21,72,1,Atlanta,KATL,KATL4163713,45,50,89,97,9,15,99,6.9,0,0.2,0,MC,Overcast,1027,50,46,44,80,47,280,12,100,13,OVC,10,236,47,283,472,519,675,0,0,0,29.97,1014.8,40,MC,Overcast
ATL2015,29-Nov-15,29-Nov-15,1:00,13,ATL,-2,MIN,30,U,45,2015,Week 12,70610,ATL,-2,2,KC,10,20,Y,71228,0,23,72,1,Atlanta,KATL,KATL4233713,65,73,67,84,4,8,98,10,0,0,0,CLR,Mostly Clear,1027,71,71,54,55,61,200,6,100,40,BKN,10,207,49,256,492,541,702,0,0,0,30.13,1020.3,45,CLR,Mostly Clear
ATL2013,29-Sep-13,29-Sep-13,8:30,20,ATL,-3,NE,53,O,49.5,2013,Week 4,70744,ATL,-3,3,DET,23,30,Y,71228,0,21,72,1,Atlanta,KATL,KATL4154620,65,76,66,83,7,14,53,10,254,0,0,CLR,Mostly Clear,1027,66,66,55,68,60,90,6,100,180,BKN,10,0,0,0,0,0,0,0,0,0,30.05,1017.7,42,MC,Mostly Cloudy
ATL2019,29-Sep-19,29-Sep-19,1:00,13,ATL,-3.5,TEN,34,U,46,2019,Week 4,72108,ATL,-3.5,3.5,TEN,10,24,Y,71000,0,2,87,0,Atlanta,KATL,KATL4373713,82,93,65,87,4,8,21,10,491,0,0,CLR,Mostly Clear,971,89,93,67,48,74,130,8,25,250,SCT,10,709,78,787,775,853,1107,0,0,0,30.21,1021.7,54,CLR,Few High Clouds
ATL2014,30-Nov-14,30-Nov-14,4:05,16,ARI,-1.5,ATL,47,O,45,2014,Week 13,69557,ATL,1.5,-1.5,CHI,29,18,Y,71228,0,22,72,1,Atlanta,KATL,KATL4197316,55,69,56,73,4,13,20,10,428,0,0,CLR,Fair,1027,69,69,37,31,53,220,10,5,40,FEW,10,150,15,165,154,169,220,0,0,0,30.25,1024.5,45,CLR,Mostly Clear
ATL2016,30-Oct-16,30-Oct-16,4:25,16,ATL,-3,GB,65,O,51,2016,Week 8,70165,ATL,-3,3,LAC,33,32,N,71228,0,24,72,1,Atlanta,KATL,KATL4267316,72,86,54,84,5,12,8,10,542,0,0,CLR,Mostly Clear,1027,84,84,49,30,64,300,12,45,75,SCT,10,189,22,211,224,246,320,0,0,0,30.06,1017.9,45,CLR,Mostly Clear
ATL2017,31-Dec-17,31-Dec-17,4:25,16,ATL,-5,CAR,32,U,44.5,2017,Week 17,74141,ATL,-5,5,WAS,22,10,Y,71000,1,0,74,0,Atlanta,KATL,KATL4310016,33,36,68,75,11,16,82,9.8,9,0,0,MC,Overcast,1027,36,29,25,64,32,340,10,90,55,BKN,10,97,18,115,177,195,252,0,0,0,30.16,1022,42,MC,Mostly Cloudy
SEA2017,1-Oct-17,1-Oct-17,8:30,20,SEA,-12.5,IND,64,O,41.5,2017,Week 4,68872,SEA,-12.5,12.5,IND,46,18,Y,68740,0,15,59,0,Seattle,KBFI,KBFI4300920,56,62,73,90,4,10,72,10,104,0,0,MC,Mostly Cloudy,20,56,54,46,70,51,360,7,20,70,SCT,10,0,0,0,0,0,0,0,0,0,30.14,1020.6,44,PC,Partly Cloudy
SEA2013,2-Dec-13,2-Dec-13,8:40,20,SEA,-6.5,NO,41,U,48.5,2013,Week 13,68387,SEA,-6.5,6.5,PHI,34,7,Y,68740,0,11,42,0,Seattle,KBFI,KBFI4161020,42,47,69,86,5,9,51,9.8,347,0.07,0,PC,Partly Cloudy,20,37,33,33,86,35,160,5,100,22,BKN,10,0,0,0,0,0,0,0,0,0,30.01,1016.2,44,PC,Partly Cloudy
SEA2019,2-Dec-19,2-Dec-19,1:00,13,SEA,-3,MIN,67,O,44,2019,Week 13,69080,SEA,-3,3,KC,37,30,Y,68740,0,17,68,0,Seattle,KBFI,KBFI4380113,45,52,75,86,1,5,74,9.9,275,0.05,0,MC,Mostly Cloudy,13,50,50,38,63,44,0,0,70,80,BKN,10,146,22,168,225,247,321,0,0,0,30.14,1020.5,42,MC,Mostly Cloudy
SEA2014,2-Nov-14,2-Nov-14,4:25,16,SEA,-13.5,OAK,54,O,44,2014,Week 9,68337,SEA,-13.5,13.5,CHI,30,24,N,68740,0,12,56,0,Seattle,KBFI,KBFI4194516,53,58,81,90,6,8,92,9.3,39,0.12,0,MC,Overcast,20,55,53,50,83,52,140,7,100,16,OVC,4,17,3,20,34,37,49,99,0.03,0,30.08,1018.7,18,RAIN,Light Rain
SEA2017,3-Dec-17,3-Dec-17,8:30,20,PHI,-4,SEA,34,U,46.5,2017,Week 13,69075,SEA,4,-4,WAS,24,10,Y,68740,0,15,69,0,Seattle,KBFI,KBFI4307220,43,46,86,100,2,7,97,9.9,6,0.04,0,MC,Overcast,20,42,39,38,85,40,150,5,100,50,OVC,10,0,0,0,0,0,0,0,0,0,30.36,1027.9,40,MC,Overcast
SEA2013,3-Nov-13,3-Nov-13,4:05,16,SEA,-16,TB,51,O,40.5,2013,Week 9,67873,SEA,-16,16,ARI,27,24,N,68740,0,11,52,0,Seattle,KBFI,KBFI4158116,46,53,72,89,3,7,64,10,73,0.01,0,PC,Partly Cloudy,20,50,47,34,54,43,100,7,90,48,BKN,10,18,3,21,32,35,45,0,0,0,30.06,1017.8,44,PC,Partly Cloudy
SEA2019,3-Nov-19,3-Nov-19,1:00,13,SEA,-7.5,TB,74,O,58,2019,Week 9,68948,SEA,-7.5,7.5,ARI,40,34,N,68740,0,17,34,0,Seattle,KBFI,KBFI4377213,46,56,80,96,2,8,8,9.6,486,0,0,CLR,Few High Clouds,13,55,54,44,67,50,300,5,22,301,SCT,10,295,33,328,332,365,474,0,0,0,30.22,1023.2,54,CLR,Few High Clouds
SEA2019,3-Oct-19,3-Oct-19,1:00,13,LAR,-1,SEA,59,O,52.5,2019,Week 5,68988,SEA,1,-1,LAR,30,29,N,68740,0,17,78,0,Seattle,KBFI,KBFI4374113,56,63,68,83,8,13,91,10,101,0.02,0,MC,Overcast,13,62,62,43,50,52,220,8,100,100,BKN,10,261,52,313,522,574,746,99,0,0,29.96,1014.6,50,PC,High Overcast
SEA2016,4-Dec-16,4-Dec-16,8:30,20,SEA,-8.5,CAR,47,O,44,2016,Week 13,69104,SEA,-8.5,8.5,DET,40,7,Y,68740,0,14,41,0,Seattle,KBFI,KBFI4270820,41,46,87,100,6,13,65,9.1,224,0.17,0,MC,Mostly Cloudy,20,37,32,33,86,35,130,7,55,50,SCT,10,0,0,0,0,0,0,0,0,0,30.12,1019.9,42,MC,Mostly Cloudy
SEA2014,4-Sep-14,4-Sep-14,8:35,20,SEA,-5,GB,52,O,47,2014,Week 1,68424,SEA,-5,5,BUF,36,16,Y,68740,0,12,70,0,Seattle,KBFI,KBFI4188620,65,74,65,90,4,12,5,10,742,0,0,CLR,Fair,20,67,67,52,59,58,0,0,0,201,CLR,10,0,0,0,0,0,0,0,0,0,30.07,1018.4,46,CLR,Fair
SEA2017,5-Nov-17,5-Nov-17,4:05,16,SEA,-8.5,WAS,31,U,44.5,2017,Week 9,68927,SEA,-8.5,8.5,PIT,14,17,N,68740,0,15,72,0,Seattle,KBFI,KBFI4304416,38,41,89,100,6,14,100,7.4,0,0.27,0.4,MC,Overcast,20,40,35,29,65,36,340,7,100,50,OVC,10,14,3,16,27,30,38,0,0,0,29.97,1015,40,MC,Overcast
SEA2015,5-Oct-15,5-Oct-15,8:30,20,SEA,-10,DET,23,U,43,2015,Week 4,69005,SEA,-10,10,ATL,13,10,N,68740,0,13,61,0,Seattle,KBFI,KBFI4228220,62,73,62,77,2,7,26,10,400,0,0,CLR,Fair,20,63,63,49,60,55,0,0,5,301,SCT,10,0,0,0,0,0,0,0,0,0,29.87,1011.5,54,CLR,Few High Clouds
SEA2016,7-Nov-16,7-Nov-16,8:30,20,SEA,-6,BUF,56,O,43.5,2016,Week 9,69084,SEA,-6,6,LAR,31,25,N,68740,0,14,60,0,Seattle,KBFI,KBFI4268120,55,63,86,97,3,9,80,10,34,0.05,0,MC,Overcast,20,55,55,52,90,53,0,0,70,200,BKN,10,0,0,0,0,0,0,0,0,0,30.09,1018.8,42,MC,Mostly Cloudy
SEA2019,8-Sep-19,8-Sep-19,4:05,16,SEA,-9.5,CIN,41,U,44.5,2019,Week 1,68710,SEA,-9.5,9.5,LAR,21,20,N,68740,0,17,64,0,Seattle,KBFI,KBFI4371616,64,74,78,90,7,12,98,8.1,23,0,0,MC,Overcast,13,68,68,55,63,60,230,9,100,100,BKN,10,162,32,194,323,355,461,0,0,0,29.86,1011,42,MC,Mostly Cloudy
SEA2014,9-Nov-14,9-Nov-14,4:25,16,SEA,-9.5,NYG,55,O,45,2014,Week 10,68352,SEA,-9.5,9.5,PIT,38,17,Y,68740,0,12,56,0,Seattle,KBFI,KBFI4195216,52,57,80,86,5,12,87,9.1,12,0.29,0,RAIN,Light Rain,20,54,54,47,77,50,300,3,100,26,OVC,10,9,2,11,18,20,26,99,0.06,0,29.89,1012.2,18,RAIN,Light Rain
SEA2016,11-Sep-16,11-Sep-16,4:05,16,SEA,-10.5,MIA,22,U,44,2016,Week 1,69012,SEA,-10.5,10.5,CLE,12,10,N,68740,0,14,64,0,Seattle,KBFI,KBFI4262416,62,70,61,81,4,10,51,10,337,0,0,MC,Mostly Cloudy,20,69,69,45,42,56,330,7,5,40,FEW,10,292,30,322,299,329,427,0,0,0,30.13,1020.3,44,PC,Partly Cloudy
SEA2014,12-Oct-14,12-Oct-14,4:25,16,SEA,-9.5,DAL,53,O,47,2014,Week 6,68432,SEA,-9.5,9.5,GB,23,30,N,68740,0,12,66,0,Seattle,KBFI,KBFI4192416,61,66,75,87,3,8,95,10,26,0,0,MC,Overcast,20,65,65,50,59,57,0,0,100,80,OVC,10,59,12,71,118,130,169,0,0,0,30.16,1021.5,40,MC,Overcast
SEA2013,13-Oct-13,13-Oct-13,4:05,16,SEA,-12.5,TEN,33,U,42,2013,Week 6,68127,SEA,-12.5,12.5,SEA,20,13,N,68740,0,11,57,0,Seattle,KBFI,KBFI4156016,50,59,79,93,1,6,36,8.4,357,0,0,CLR,Fair,20,58,58,44,60,51,0,0,0,201,CLR,10,113,11,124,113,124,161,0,0,0,30.31,1026.4,46,CLR,Fair
SEA2014,14-Dec-14,14-Dec-14,4:25,16,SEA,-9.5,SF,24,U,38.5,2014,Week 15,68526,SEA,-9.5,9.5,SF,17,7,Y,68740,0,12,49,0,Seattle,KBFI,KBFI4198716,46,58,68,93,3,15,35,7.2,422,0,0,CLR,Fair,20,57,57,23,27,43,0,0,5,200,FEW,10,1,0,1,1,1,1,0,0,0,30.03,1016.8,45,CLR,Mostly Clear
SEA2016,15-Dec-16,15-Dec-16,8:25,20,SEA,-15.5,LAR,27,U,40.5,2016,Week 15,69067,SEA,-15.5,15.5,MIN,24,3,Y,68740,0,14,35,0,Seattle,KBFI,KBFI4271920,36,39,68,73,3,7,92,10,0,0,0,MC,Overcast,20,36,31,26,67,32,360,6,100,75,OVC,10,0,0,0,0,0,0,0,0,0,29.93,1013.3,40,MC,Overcast
SEA2015,15-Nov-15,15-Nov-15,8:30,20,SEA,-3,ARI,71,O,43.5,2015,Week 10,69005,SEA,-3,3,CLE,32,39,Y,68740,0,13,42,0,Seattle,KBFI,KBFI4232320,43,50,77,83,4,12,66,8.8,83,0.75,0,RAIN,Light Rain,20,41,41,36,82,39,120,3,5,24,FEW,10,0,0,0,0,0,0,0,0,0,29.93,1013.4,46,CLR,Fair
SEA2013,15-Sep-13,15-Sep-13,8:30,20,SEA,-3,SF,32,U,44.5,2013,Week 2,68338,SEA,-3,3,NO,29,3,Y,68740,0,11,64,0,Seattle,KBFI,KBFI4153220,63,68,84,90,5,9,98,7.2,22,0.04,0,MC,Overcast,20,64,64,61,90,62,160,6,91,16,OVC,10,0,0,0,0,0,0,0,0,0,29.82,1009.8,42,MC,Mostly Cloudy
SEA2016,16-Oct-16,16-Oct-16,4:25,16,SEA,-7,ATL,50,O,45.5,2016,Week 6,69071,SEA,-7,7,LAR,26,24,N,68740,0,14,54,0,Seattle,KBFI,KBFI4265916,54,60,90,100,6,15,96,9.3,6,0.52,0,RAIN,Light Rain,20,58,58,52,81,55,370,5,100,150,OVC,10,28,9,37,93,102,133,0,0,0,29.35,993.8,40,MC,Overcast
SEA2017,17-Dec-17,17-Dec-17,4:05,16,SEA, PK,LAR,49,O,47.5,2017,Week 15,69077,SEA, PK,PK,CIN,7,42,PK,68740,0,15,79,0,Seattle,KBFI,KBFI4308616,47,52,86,100,12,16,98,9,15,0.01,0,MC,Overcast,20,50,45,44,80,47,180,14,90,55,BKN,10,1,0,1,1,1,1,0,0,0,30.02,1016.5,50,PC,High Overcast
SEA2013,17-Nov-13,17-Nov-13,4:25,16,SEA,-13,MIN,61,O,45.5,2013,Week 11,68235,SEA,-13,13,NO,41,20,Y,68740,0,11,50,0,Seattle,KBFI,KBFI4159516,49,53,77,83,9,14,94,9.5,12,0.02,0,PC,Partly Cloudy,20,52,49,45,77,49,190,10,100,17,OVC,10,4,1,5,8,9,11,0,0,0,29.87,1011.4,44,PC,Partly Cloudy
SEA2017,17-Sep-17,17-Sep-17,4:25,16,SEA,-13.5,SF,21,U,41,2017,Week 2,68729,SEA,-13.5,13.5,PHI,12,9,N,68740,0,15,57,0,Seattle,KBFI,KBFI4299516,58,65,81,100,7,10,86,8.3,66,0.06,0,MC,Overcast,20,57,56,57,100,57,130,7,100,34,OVC,4,133,27,160,266,293,380,99,0,0,29.77,1008.1,18,RAIN,Light Rain
SEA2015,18-Oct-15,18-Oct-15,4:05,16,SEA,-7,CAR,50,O,41,2015,Week 6,69020,SEA,-7,7,NE,23,27,N,68740,0,13,59,0,Seattle,KBFI,KBFI4229516,60,62,85,93,3,8,98,5.2,0,0.16,0,MC,Overcast,20,61,60,56,84,58,150,7,100,15,OVC,2.5,44,9,53,88,97,125,0,0,0,29.99,1015.5,35,HAZY,Haze
SEA2015,20-Dec-15,20-Dec-15,4:05,16,SEA,-14.5,CLE,43,U,45.5,2015,Week 15,69002,SEA,-14.5,14.5,LAC,30,13,Y,68740,0,13,44,0,Seattle,KBFI,KBFI4235816,46,49,59,65,11,18,90,9.8,35,0.19,0,RAIN,Light Rain,20,46,40,33,61,40,190,14,90,35,BKN,10,1,0,1,1,1,2,0,0,0,29.75,1007.5,42,MC,Mostly Cloudy
SEA2016,20-Nov-16,20-Nov-16,4:25,16,SEA,-6.5,PHI,41,U,43,2016,Week 11,69190,SEA,-6.5,6.5,KC,26,15,Y,68740,0,14,51,0,Seattle,KBFI,KBFI4269416,51,55,82,97,7,14,92,9.9,3,0.11,0,MC,Overcast,20,53,50,47,80,50,200,9,95,110,BKN,10,3,0,3,4,4,6,0,0,0,29.73,1006.8,40,MC,Overcast
SEA2017,20-Nov-17,20-Nov-17,8:30,20,ATL,-1,SEA,65,O,46,2017,Week 11,69026,SEA,1,-1,CHI,31,34,Y,68740,0,15,87,0,Seattle,KBFI,KBFI4305920,46,51,91,100,3,13,81,8.2,0,0.49,0,RAIN,Light Rain,20,43,43,38,82,41,0,0,52,301,BKN,10,0,0,0,0,0,0,0,0,0,30.03,1016.8,52,PC,High Clouds
SEA2019,20-Oct-19,20-Oct-19,1:00,13,SEA,-4.5,BAL,46,O,40,2019,Week 7,69012,SEA,-4.5,4.5,GB,16,30,Y,68740,0,17,83,0,Seattle,KBFI,KBFI4375813,50,54,83,93,6,12,92,8,21,0.21,0,RAIN,Moderate Rain,13,50,47,47,89,48,130,8,100,9,OVC,1.5,206,41,247,412,453,588,99,0,0,29.92,1013.3,18,RAIN,Light Rain
SEA2014,21-Sep-14,21-Sep-14,4:25,16,SEA,-4.5,DEN,46,U,48,2014,Week 3,68447,SEA,-4.5,4.5,BAL,26,20,Y,68740,0,12,83,0,Seattle,KBFI,KBFI4190316,69,84,63,84,5,10,10,10,730,0,0,CLR,Fair,20,82,82,55,40,66,200,5,2,201,SCT,10,240,24,264,242,266,346,0,0,0,29.83,1010.3,46,CLR,Fair
SEA2013,22-Dec-13,22-Dec-13,4:05,16,SEA,-9,ARI,27,U,43,2013,Week 16,68266,SEA,-9,9,NO,10,17,N,68740,0,11,50,0,Seattle,KBFI,KBFI4163016,50,52,89,96,7,12,100,3.8,0,0.21,0,RAIN,Light Rain,20,51,49,48,89,49,150,7,100,8,OVC,2.5,1,0,1,2,2,2,99,0.01,0,30.28,1025.5,18,RAIN,Light Rain
SEA2019,22-Dec-19,22-Dec-19,1:00,13,SEA,-12,ARI,40,O,41,2019,Week 16,69022,SEA,-12,12,DET,13,27,Y,68740,0,17,80,0,Seattle,KBFI,KBFI4382113,43,46,85,93,2,5,81,9.6,73,0.28,0,RAIN,Light Rain,13,45,42,39,81,42,350,5,100,95,OVC,10,105,21,126,210,231,300,0,0,0,29.75,1007.1,40,MC,Overcast
SEA2015,22-Nov-15,22-Nov-15,4:25,16,SEA,-14,SF,42,O,40,2015,Week 11,68993,SEA,-14,14,CAR,29,13,Y,68740,0,13,48,0,Seattle,KBFI,KBFI4233016,42,50,69,82,1,6,8,10,458,0,0,CLR,Fair,20,49,47,34,57,42,290,5,20,200,SCT,10,4,0,4,4,4,6,0,0,0,30.03,1016.7,44,PC,Partly Cloudy
SEA2013,22-Sep-13,22-Sep-13,4:25,16,SEA,-19.5,JAX,62,O,39.5,2013,Week 3,68087,SEA,-19.5,19.5,OAK,45,17,Y,68740,0,11,61,0,Seattle,KBFI,KBFI4153916,60,63,76,84,11,17,80,9.5,128,0.39,0,RAIN,Light Rain,20,62,62,53,73,57,180,8,70,65,BKN,10,153,24,177,235,259,336,99,0.01,0,29.62,1003.1,18,RAIN,Light Rain
SEA2019,22-Sep-19,22-Sep-19,4:25,16,SEA,-4.5,NO,60,O,44,2019,Week 3,69005,SEA,-4.5,4.5,PIT,27,33,Y,68740,0,17,42,0,Seattle,KBFI,KBFI4373016,62,65,84,90,7,10,100,9.2,0,0.01,0,RAIN,Light Rain,13,64,64,60,87,62,150,9,100,35,OVC,10,118,24,142,235,259,336,0,0,0,29.85,1010.9,40,MC,Overcast
SEA2014,23-Nov-14,23-Nov-14,4:05,16,SEA,-7.5,ARI,22,U,41.5,2014,Week 12,68327,SEA,-7.5,7.5,CAR,19,3,Y,68740,0,12,57,0,Seattle,KBFI,KBFI4196616,51,57,73,83,8,20,67,9.4,180,0.43,0,PC,Partly Cloudy,20,54,54,43,67,49,160,3,20,30,SCT,10,4,0,4,4,4,6,0,0,0,30.18,1022.1,44,PC,Partly Cloudy
SEA2016,24-Dec-16,24-Dec-16,4:25,16,SEA,-9,ARI,65,O,43.5,2016,Week 16,69050,SEA,-9,9,LAR,31,34,N,68740,0,14,39,0,Seattle,KBFI,KBFI4272816,38,41,94,100,1,8,97,9.6,0,0,0,MC,Overcast,20,38,38,35,89,37,0,0,100,35,OVC,10,1,0,1,2,2,3,0,0,0,29.98,1015,40,MC,Overcast
SEA2016,25-Sep-16,25-Sep-16,4:05,16,SEA,-10.5,SF,55,O,41.5,2016,Week 3,69010,SEA,-10.5,10.5,BUF,37,18,Y,68740,0,14,69,0,Seattle,KBFI,KBFI4263816,66,76,58,77,3,10,58,10,335,0,0,MC,Overcast,20,74,76,48,40,60,310,7,20,200,SCT,10,195,21,216,210,231,300,0,0,0,30.3,1025.9,44,PC,Partly Cloudy
SEA2015,27-Dec-15,27-Dec-15,4:25,16,SEA,-11,LAR,40,U,42,2015,Week 16,69080,SEA,-11,11,MIN,17,23,N,68740,0,13,37,0,Seattle,KBFI,KBFI4236516,39,42,80,96,3,9,98,9.3,0,0.32,0,RAIN,Light Rain,20,39,39,36,89,38,0,0,100,30,OVC,7,2,0,2,3,3,5,99,0.03,0,30.03,1016.7,18,RAIN,Light Rain
SEA2015,27-Sep-15,27-Sep-15,4:25,16,SEA,-16.5,CHI,26,U,43.5,2015,Week 3,69002,SEA,-16.5,16.5,MIA,26,0,Y,68740,0,13,62,0,Seattle,KBFI,KBFI4227416,56,65,65,83,3,10,7,10,655,0,0,CLR,Fair,20,63,62,40,43,51,320,10,0,201,CLR,10,203,20,223,203,223,290,0,0,0,30.11,1019.5,46,CLR,Fair
SEA2014,28-Dec-14,28-Dec-14,4:25,16,SEA,-11.5,LAR,26,U,41.5,2014,Week 17,68453,SEA,-11.5,11.5,LAC,20,6,Y,68740,0,12,43,0,Seattle,KBFI,KBFI4200116,44,47,79,85,4,8,95,9.9,18,0.06,0,MC,Mostly Cloudy,20,44,44,36,73,40,50,3,100,17,OVC,10,2,0,2,4,4,5,0,0,0,30.18,1022.1,18,RAIN,Light Rain
SEA2013,29-Dec-13,29-Dec-13,4:25,16,SEA,-12,LAR,36,U,41,2013,Week 17,68264,SEA,-12,12,IND,27,9,Y,68740,0,11,44,0,Seattle,KBFI,KBFI4163716,41,46,87,96,2,7,96,4.9,0,0,0,FOG,Fog,20,45,45,38,77,42,0,0,100,12,OVC,10,2,0,2,4,4,6,0,0,0,30.36,1028.2,45,CLR,Mostly Clear
SEA2015,29-Nov-15,29-Nov-15,4:25,16,SEA,-3,PIT,69,O,46.5,2015,Week 12,69055,SEA,-3,3,,39,30,Y,68740,0,13,37,0,Seattle,KBFI,KBFI4233716,34,39,86,92,2,7,88,0.9,146,0,0,FOG,Fog,20,36,32,31,82,34,130,5,100,5,OVC,2,1,0,1,2,2,2,0,0,0,30.2,1022.6,40,MC,Overcast
SEA2017,29-Oct-17,29-Oct-17,4:05,16,SEA,-6.5,HOU,79,O,45,2017,Week 8,69025,SEA,-6.5,6.5,KC,41,38,N,68740,0,15,63,0,Seattle,KBFI,KBFI4303716,50,58,92,100,1,5,53,5.5,146,0,0,MC,Overcast,20,56,56,50,81,53,0,0,20,9,SCT,8,42,5,47,47,52,67,0,0,0,30.03,1017,44,PC,Partly Cloudy
SEA2017,31-Dec-17,31-Dec-17,4:25,16,SEA,-8,ARI,50,O,38,2017,Week 17,69078,SEA,-8,8,BAL,24,26,N,68740,0,15,28,0,Seattle,KBFI,KBFI4310016,38,44,86,100,5,8,70,9.2,226,0,0,MC,Overcast,20,42,38,33,71,38,350,7,70,200,BKN,10,4,0,4,5,5,7,0,0,0,30.22,1023.4,42,MC,Mostly Cloudy
DEN2019,1-Dec-19,1-Dec-19,1:00,13,LAC,-1,DEN,43,O,44,2019,Week 13,74638,DEN,1,-1,LAC,23,20,Y,76125,0,18,44,0,Colorado,KBJC,KBJC4380013,26,32,56,74,6,21,12,11.2,490,0,0,PC,Partly Cloudy,5656,30,23,16,55,26,320,7,20,200,SCT,10,324,35,359,348,383,497,0,0,0,30.1,1022.6,44,PC,Partly Cloudy
DEN2016,1-Jan-17,1-Jan-17,4:25,16,DEN,-1,OAK,30,U,40,2016,Week 17,76836,DEN,-1,1,OAK,24,6,Y,76125,0,15,72,0,Colorado,KBJC,KBJC4273616,35,46,51,80,4,10,77,28.3,314,0,0,CLR,Fair,5673,45,41,16,31,35,70,7,100,60,BKN,30,24,4,28,36,40,52,0,0,0,29.55,1001.4,44,PC,Partly Cloudy
DEN2015,1-Nov-15,1-Nov-15,8:30,20,GB,-2.5,DEN,39,U,45.5,2015,Week 8,77075,DEN,2.5,-2.5,GB,29,10,Y,76125,0,14,52,0,Colorado,KBJC,KBJC4230920,60,73,24,38,10,23,52,31.2,229,0,0,PC,Partly Cloudy,5673,61,60,18,19,44,230,8,90,150,BKN,30,0,0,0,0,0,0,0,0,0,29.96,1010.5,44,PC,Partly Cloudy
DEN2017,1-Oct-17,1-Oct-17,4:25,16,DEN,-3.5,OAK,26,U,44,2017,Week 4,76909,DEN,-3.5,3.5,OAK,16,10,Y,76125,0,16,40,0,Colorado,KBJC,KBJC4300916,56,74,56,93,9,17,87,22.3,141,0.4,0,CLR,Mostly Clear,5673,57,54,39,51,48,300,15,100,70,BKN,25,113,21,134,206,227,294,0,0,0,29.77,1003.8,44,PC,Partly Cloudy
DEN2015,3-Jan-17,3-Jan-17,4:25,16,DEN,-10,LAC,47,O,42,2015,Week 17,76844,DEN,-10,10,LAR,27,20,N,76125,0,14,31,0,Colorado,KBJC,KBJC4273816,19,28,82,92,6,15,100,7,0,0.12,0.8,MC,Overcast,5673,28,28,18,66,25,0,0,100,30,BKN,10,28,4,32,39,43,55,0,0,0,30.03,1020.6,45,CLR,Mostly Clear
DEN2019,3-Nov-19,3-Nov-19,1:00,13,DEN,-1,CLE,43,O,41,2019,Week 9,76743,DEN,-1,1,CLE,24,19,Y,76125,0,18,87,0,Colorado,KBJC,KBJC4377213,44,59,44,65,6,14,45,20.6,250,0,0,PC,High Clouds,5656,50,45,28,43,41,30,13,90,250,BKN,10,310,45,355,449,494,642,0,0,0,29.97,1012.8,52,PC,High Clouds
DEN2015,4-Oct-15,4-Oct-15,4:25,16,DEN,-7,MIN,43,U,43.5,2015,Week 4,77029,DEN,-7,7,IND,23,20,N,76125,0,14,60,0,Colorado,KBJC,KBJC4228116,51,66,87,100,5,12,90,5.9,66,0,0,MC,Overcast,5673,55,53,48,77,51,360,8,70,13,OVC,8,123,19,142,189,208,270,0,0,0,30.1,1014,42,MC,Mostly Cloudy
DEN2014,5-Oct-14,5-Oct-14,4:05,16,DEN,-8.5,ARI,61,O,47.5,2014,Week 5,76895,DEN,-8.5,8.5,ARI,41,20,Y,76125,0,13,72,0,Colorado,KBJC,KBJC4191716,63,76,31,47,11,26,10,33.1,613,0,0,CLR,Fair,5673,72,72,32,23,53,60,9,20,70,SCT,60,165,18,183,183,201,261,0,0,0,30.02,1011.2,44,PC,Partly Cloudy
DEN2013,5-Sep-13,5-Sep-13,8:30,20,DEN,-7.5,BAL,76,O,48.5,2013,Week 1,76977,DEN,-7.5,7.5,BAL,49,27,Y,76125,0,12,83,0,Colorado,KBJC,KBJC4152220,78,93,35,68,5,12,66,37.5,107,0,0,MC,Mostly Cloudy,5673,81,81,46,30,61,290,3,90,200,BKN,50,0,0,0,0,0,0,0,0,0,30.23,1015.7,50,PC,High Overcast
DEN2014,7-Dec-14,7-Dec-14,4:05,16,DEN,-9,BUF,41,U,47,2014,Week 14,76913,DEN,-9,9,BUF,24,17,N,76125,0,13,55,0,Colorado,KBJC,KBJC4198016,47,59,39,80,11,28,19,31.7,361,0,0,CLR,Fair,5673,57,56,18,21,42,300,6,5,70,FEW,50,19,2,21,19,21,26,0,0,0,30.25,1022.1,46,CLR,Fair
DEN2014,7-Sep-14,7-Sep-14,8:30,20,DEN,-8.5,IND,55,O,54,2014,Week 1,76939,DEN,-8.5,8.5,IND,31,24,N,76125,0,13,70,0,Colorado,KBJC,KBJC4188920,67,81,50,82,4,9,35,33.1,319,0,0,MC,Mostly Cloudy,5673,70,70,39,33,54,210,7,29,100,SCT,30,0,0,0,0,0,0,0,0,0,30.09,1013.2,52,PC,High Clouds
DEN2013,8-Dec-13,8-Dec-13,4:05,16,DEN,-12.5,TEN,79,O,50,2013,Week 14,76554,DEN,-12.5,12.5,GB,51,28,Y,76125,0,12,19,0,Colorado,KBJC,KBJC4161616,9,19,81,85,4,13,62,7.5,277,0,0,MC,Overcast,5673,18,7,9,68,15,60,8,25,45,SCT,7,17,2,19,19,21,27,0,0,0,29.78,1016.6,35,HAZY,Haze
DEN2016,8-Sep-16,8-Sep-16,8:30,20,CAR,-3,DEN,41,O,40.5,2016,Week 1,76843,DEN,3,-3,CAR,21,20,N,76125,0,15,82,0,Colorado,KBJC,KBJC4262120,72,88,26,51,7,17,1,31.2,758,0,0,CLR,Fair,5673,79,79,25,14,54,280,17,0,409,SKC,30,0,0,0,0,0,0,0,0,0,30.01,1009.3,46,CLR,Fair
DEN2016,9-Oct-16,9-Oct-16,4:05,16,DEN,-4,ATL,39,U,44.5,2016,Week 5,76802,DEN,-4,4,ATL,16,23,Y,76125,0,15,73,0,Colorado,KBJC,KBJC4265216,60,75,31,50,3,14,69,33.3,96,0,0,CLR,Fair,5673,73,73,27,18,52,0,0,100,100,BKN,50,110,16,126,158,174,225,0,0,0,30.13,1014,45,CLR,Mostly Clear
DEN2017,10-Dec-17,10-Dec-17,4:05,16,NYJ,-1,DEN,23,U,40.5,2017,Week 14,75518,DEN,1,-1,NYJ,23,0,Y,76125,0,16,53,0,Colorado,KBJC,KBJC4307916,46,66,15,32,5,18,55,35,551,0,0,MC,Overcast,5673,57,57,-2,9,38,0,0,5,200,FEW,50,19,2,21,19,21,27,0,0,0,30.35,1025.2,45,CLR,Mostly Clear
DEN2017,11-Sep-17,11-Sep-17,10:20,22,DEN,-3,LAC,45,O,42,2017,Week 1,76324,DEN,-3,3,LAC,24,21,N,76125,0,16,42,0,Colorado,KBJC,KBJC4298922,73,91,37,56,5,10,84,16.3,63,0,0,PC,High Overcast,5673,68,68,48,49,57,230,5,100,201,CLR,10,0,0,0,0,0,0,0,0,0,30.27,1017.3,40,MC,Overcast
DEN2013,12-Dec-13,12-Dec-13,8:25,20,DEN,-10,LAC,47,U,57.5,2013,Week 15,76497,DEN,-10,10,LAC,20,27,N,76125,0,12,39,0,Colorado,KBJC,KBJC4162020,34,39,45,68,3,12,8,47.9,519,0,0,CLR,Mostly Clear,5673,36,36,18,48,29,0,0,5,150,FEW,50,0,0,0,0,0,0,0,0,0,30,1018,45,CLR,Mostly Clear
DEN2017,12-Nov-17,12-Nov-17,8:30,20,NE,-7,DEN,57,O,45,2017,Week 10,76820,DEN,7,-7,NE,16,41,Y,76125,0,16,44,0,Colorado,KBJC,KBJC4305120,43,62,53,70,2,8,67,22.3,351,0,0,PC,High Overcast,5673,45,45,27,49,37,0,0,100,220,FEW,30,0,0,0,0,0,0,0,0,0,30.22,1022.4,50,PC,High Overcast
DEN2015,13-Dec-15,13-Dec-15,4:05,16,DEN,-6,OAK,27,U,43,2015,Week 14,76824,DEN,-6,6,OAK,12,15,N,76125,0,14,39,0,Colorado,KBJC,KBJC4235116,31,41,73,100,3,7,50,32.1,178,0,0,CLR,Fair,5673,40,40,21,46,33,280,3,70,200,BKN,70,15,2,17,20,22,28,0,0,0,29.62,1004,42,MC,Mostly Cloudy
DEN2013,13-Oct-13,13-Oct-13,4:05,16,DEN,-27,JAX,54,O,53,2013,Week 6,76862,DEN,-27,27,JAX,35,19,N,76125,0,12,59,0,Colorado,KBJC,KBJC4156016,49,59,68,88,4,10,29,15.1,495,0,0,PC,Partly Cloudy,5673,59,58,39,48,49,330,7,35,120,SCT,15,129,14,143,142,156,203,0,0,0,29.99,1010.9,35,HAZY,Haze
DEN2019,13-Oct-19,13-Oct-19,1:00,13,DEN,-2.5,TEN,16,O,46,2019,Week 6,75815,DEN,-2.5,2.5,TEN,16,0,Y,76125,0,18,65,0,Colorado,KBJC,KBJC4375113,55,72,23,45,3,10,3,22.5,646,0,0,CLR,Fair,5656,70,70,9,9,46,190,8,0,400,SKC,30,567,57,624,567,624,811,0,0,0,29.98,1010.5,46,CLR,Fair
DEN2015,13-Sep-15,13-Sep-15,4:25,16,DEN,-4.5,BAL,32,U,46.5,2015,Week 1,76798,DEN,-4.5,4.5,BAL,19,13,Y,76125,0,14,86,0,Colorado,KBJC,KBJC4226016,74,91,19,39,8,22,30,27.9,467,0,0,PC,Partly Cloudy,5673,84,84,21,10,55,300,12,20,70,BKN,20,279,31,310,310,341,443,0,0,0,29.92,1004.4,44,PC,Partly Cloudy
DEN2014,14-Sep-14,14-Sep-14,4:25,16,DEN,-13,KC,41,U,49,2014,Week 2,76900,DEN,-13,13,KC,24,17,N,76125,0,13,82,0,Colorado,KBJC,KBJC4189616,68,82,37,67,7,16,54,30.5,193,0,0,MC,Mostly Cloudy,5673,82,82,37,20,59,300,16,95,200,BKN,50,201,31,232,305,336,436,0,0,0,30.07,1011.4,50,PC,High Overcast
DEN2015,15-Nov-15,15-Nov-15,4:25,16,DEN,-3.5,KC,42,P,42,2015,Week 10,76973,DEN,-3.5,3.5,KC,13,29,Y,76125,0,14,59,0,Colorado,KBJC,KBJC4232316,49,66,28,49,4,10,13,43.1,473,0,0,CLR,Fair,5673,59,59,12,16,42,80,5,20,120,BKN,70,33,4,37,35,39,50,0,0,0,29.72,1003.4,44,PC,Partly Cloudy
DEN2017,15-Oct-17,15-Oct-17,8:30,20,DEN,-13.5,NYG,33,U,37.5,2017,Week 6,76721,DEN,-13.5,13.5,NYG,10,23,N,76125,0,16,45,0,Colorado,KBJC,KBJC4302320,46,65,42,69,5,14,33,30.2,669,0,0,CLR,Fair,5673,50,47,27,41,40,310,8,0,395,SKC,30,0,0,0,0,0,0,0,0,0,30.42,1028.1,46,CLR,Fair
DEN2019,15-Sep-19,15-Sep-19,4:25,16,CHI,-2.5,DEN,30,U,40.5,2019,Week 2,76885,DEN,2.5,-2.5,CHI,14,16,N,76125,0,18,79,0,Colorado,KBJC,KBJC4372316,73,86,22,37,4,13,51,16.6,308,0,0,PC,High Clouds,5656,86,86,32,14,58,320,13,95,220,BKN,25,210,30,240,299,329,427,0,0,0,30.06,1010.5,50,PC,High Overcast
DEN2013,17-Nov-13,17-Nov-13,8:30,20,DEN,-7.5,KC,44,U,49,2013,Week 11,77076,DEN,-7.5,7.5,KC,27,17,Y,76125,0,12,43,0,Colorado,KBJC,KBJC4159520,44,62,37,81,17,33,23,40.8,550,0.01,0,PC,Partly Cloudy,5673,45,40,19,37,35,250,9,5,60,FEW,30,0,0,0,0,0,0,0,0,0,30.01,1016.3,46,CLR,Fair
DEN2019,17-Oct-19,17-Oct-19,1:00,13,KC,-3,DEN,36,U,53.5,2019,Week 7,76748,DEN,3,-3,KC,6,30,Y,76125,0,18,60,0,Colorado,KBJC,KBJC4375513,62,79,18,30,4,12,44,17.4,176,0,0,PC,High Overcast,5656,73,73,12,9,48,120,3,75,127,BKN,10,340,54,394,544,598,777,0,0,0,29.54,1000.3,42,MC,Mostly Cloudy
DEN2017,17-Sep-17,17-Sep-17,4:25,16,DAL,-2.5,DEN,59,O,44,2017,Week 2,76919,DEN,2.5,-2.5,DAL,42,17,Y,76125,0,16,81,0,Colorado,KBJC,KBJC4299516,59,70,63,93,4,9,74,15.2,267,0,0,PC,Partly Cloudy,5673,68,68,45,43,56,190,8,100,200,BKN,10,109,29,138,288,317,411,0,0,0,30.05,1011.5,42,MC,Mostly Cloudy
DEN2016,18-Dec-16,18-Dec-16,4:25,16,NE,-3,DEN,19,U,44,2016,Week 15,76893,DEN,3,-3,NE,3,16,Y,76125,0,15,27,0,Colorado,KBJC,KBJC4272216,7,12,69,87,5,10,68,30.8,420,0,0,CLR,Fair,5673,11,1,1,63,9,330,7,100,553,SKC,50,11,2,13,22,24,31,0,0,0,30.19,1028.9,46,CLR,Fair
DEN2016,18-Sep-16,18-Sep-16,4:25,16,DEN,-6,IND,54,O,47,2016,Week 2,76379,DEN,-6,6,IND,34,20,Y,76125,0,15,86,0,Colorado,KBJC,KBJC4263116,75,88,17,29,7,22,4,35,701,0,0,CLR,Fair,5673,88,88,32,14,59,130,5,5,90,FEW,50,270,28,298,277,305,396,0,0,0,30.07,1010.8,46,CLR,Fair
DEN2017,19-Nov-17,19-Nov-17,4:25,16,DEN,-2.5,CIN,37,U,38,2017,Week 11,75707,DEN,-2.5,2.5,CIN,17,20,Y,76125,0,16,43,0,Colorado,KBJC,KBJC4305816,44,59,34,69,7,18,95,30.8,12,0,0,PC,High Overcast,5673,55,51,1,11,38,280,17,100,200,BKN,50,20,3,23,30,33,42,0,0,0,30.01,1014.9,50,PC,High Overcast
DEN2014,19-Oct-14,19-Oct-14,8:30,20,DEN,-6.5,SF,59,O,48.5,2014,Week 7,77047,DEN,-6.5,6.5,SF,42,17,Y,76125,0,13,63,0,Colorado,KBJC,KBJC4193120,61,73,36,58,3,8,15,25.4,516,0,0,PC,Partly Cloudy,5673,63,63,32,32,48,0,0,5,200,FEW,30,0,0,0,0,0,0,0,0,0,30.16,1017.5,45,CLR,Mostly Clear
DEN2019,22-Dec-19,22-Dec-19,1:00,13,DEN,-4.5,DET,44,O,59,2019,Week 16,74115,DEN,-4.5,4.5,DET,27,17,Y,76125,0,18,65,0,Colorado,KBJC,KBJC4382113,51,64,18,28,2,7,75,16.2,83,0,0,MC,Mostly Cloudy,5656,64,64,7,10,43,370,5,100,200,BKN,10,216,33,249,333,366,476,0,0,0,30.06,1013.7,42,MC,Mostly Cloudy
DEN2014,23-Nov-14,23-Nov-14,4:25,16,DEN,-6.5,MIA,75,O,47.5,2014,Week 12,76987,DEN,-6.5,6.5,MIA,39,36,N,76125,0,13,36,0,Colorado,KBJC,KBJC4196616,36,45,49,70,8,12,74,22.1,74,0,0,MC,Mostly Cloudy,5673,36,29,19,52,30,20,8,90,50,BKN,20,14,3,17,25,28,36,0,0,0,29.84,1011.5,42,MC,Mostly Cloudy
DEN2014,23-Oct-14,23-Oct-14,8:25,20,DEN,-9,LAC,56,O,51,2014,Week 8,76907,DEN,-9,9,LAC,35,21,Y,76125,0,13,61,0,Colorado,KBJC,KBJC4193520,60,73,41,76,6,22,56,41.7,219,0,0,MC,Mostly Cloudy,5673,61,61,28,29,46,220,3,42,220,SCT,30,0,0,0,0,0,0,0,0,0,30.15,1017.2,52,PC,High Clouds
DEN2013,23-Sep-13,23-Sep-13,8:40,20,DEN,-16.5,OAK,58,O,49.5,2013,Week 3,76978,DEN,-16.5,16.5,OAK,37,21,N,76125,0,12,64,0,Colorado,KBJC,KBJC4154020,58,66,50,94,13,24,57,28.4,311,0.17,0,PC,Partly Cloudy,5673,57,54,27,31,44,280,17,25,120,SCT,10,0,0,0,0,0,0,0,0,0,30.07,1014.3,44,PC,Partly Cloudy
DEN2016,24-Oct-16,24-Oct-16,8:30,20,DEN,-8.5,HOU,36,U,40,2016,Week 7,76865,DEN,-8.5,8.5,HOU,27,9,Y,76125,0,15,66,0,Colorado,KBJC,KBJC4266720,63,79,28,46,4,10,91,26.4,44,0,0,PC,Partly Cloudy,5673,64,64,27,25,47,300,8,100,120,BKN,30,0,0,0,0,0,0,0,0,0,30.15,1015.7,42,MC,Mostly Cloudy
DEN2016,27-Nov-16,27-Nov-16,8:30,20,DEN,-3.5,KC,57,O,40,2016,Week 12,76819,DEN,-3.5,3.5,KC,27,30,N,76125,0,15,44,0,Colorado,KBJC,KBJC4270120,42,50,31,50,17,37,100,29.4,6,0,0,PC,Partly Cloudy,5673,41,32,12,30,31,250,18,100,80,BKN,50,0,0,0,0,0,0,0,0,0,29.39,994.5,44,PC,Partly Cloudy
DEN2013,27-Oct-13,27-Oct-13,4:25,16,DEN,-11,WAS,66,O,59,2013,Week 8,77031,DEN,-11,11,WAS,45,21,Y,76125,0,12,69,0,Colorado,KBJC,KBJC4157416,56,70,30,57,7,22,29,35,478,0,0,CLR,Fair,5673,66,66,14,13,46,310,12,90,120,BKN,60,54,8,62,83,91,119,0,0,0,29.88,1008.1,42,MC,Mostly Cloudy
DEN2014,28-Dec-14,28-Dec-14,4:25,16,DEN,-15.5,OAK,61,O,48.5,2014,Week 17,76929,DEN,-15.5,15.5,OAK,47,14,Y,76125,0,13,33,0,Colorado,KBJC,KBJC4200116,23,37,63,86,8,20,38,26.4,318,0,0,PC,Partly Cloudy,5673,36,25,12,38,28,320,20,95,200,BKN,50,20,3,23,30,33,42,0,0,0,29.84,1014,42,MC,Mostly Cloudy
DEN2015,28-Dec-15,28-Dec-15,8:30,20,DEN,-4,CIN,37,U,39,2015,Week 16,76868,DEN,-4,4,CIN,20,17,N,76125,0,14,16,0,Colorado,KBJC,KBJC4236620,17,29,76,95,3,10,37,20.3,370,0,0,CLR,Mostly Clear,5673,14,6,10,84,13,290,5,5,60,FEW,10,0,0,0,0,0,0,0,0,0,29.75,1015,45,CLR,Mostly Clear
DEN2015,29-Nov-15,29-Nov-15,8:30,20,NE,-2.5,DEN,54,O,43,2015,Week 12,76970,DEN,2.5,-2.5,CIN,30,24,Y,76125,0,14,21,0,Colorado,KBJC,KBJC4233720,23,29,86,100,1,5,99,5.2,18,0.1,0,MC,Overcast,5673,25,25,19,80,23,370,3,100,13,VV,2.5,0,0,0,0,0,0,0,0.02,0,30,1020.3,9,SNOW,Light Snow
DEN2013,29-Sep-13,29-Sep-13,4:25,16,DEN,-10.5,PHI,72,O,58.5,2013,Week 4,77002,DEN,-10.5,10.5,PHI,52,20,Y,76125,0,12,76,0,Colorado,KBJC,KBJC4154616,61,75,30,57,5,16,60,35.2,233,0,0,PC,High Clouds,5673,72,72,18,13,49,230,8,95,220,BKN,50,152,22,174,217,239,310,0,0,0,29.95,1009.8,52,PC,High Clouds
DEN2019,29-Sep-19,29-Sep-19,4:25,16,DEN,-2.5,JAX,50,O,37,2019,Week 4,76219,DEN,-2.5,2.5,JAX,24,26,N,76125,0,18,23,0,Colorado,KBJC,KBJC4373716,69,90,44,100,15,33,19,16.5,638,0,0,CLR,Fair,5656,86,86,21,9,56,190,24,5,80,FEW,30,212,22,234,217,239,310,0,0,0,29.65,997.1,46,CLR,Fair
DEN2016,30-Oct-16,30-Oct-16,4:05,16,DEN,-3.5,LAC,46,O,43.5,2016,Week 8,76756,DEN,-3.5,3.5,LAC,27,19,Y,76125,0,15,75,0,Colorado,KBJC,KBJC4267316,56,80,63,100,3,9,99,14.6,12,0,0,CLR,Mostly Clear,5673,70,70,41,35,55,0,0,90,180,BKN,30,47,7,54,71,78,101,0,0,0,30.09,1013.3,46,CLR,Fair
DEN2017,31-Dec-17,31-Dec-17,4:25,16,DEN,-3,KC,51,O,37.5,2017,Week 17,75928,DEN,-3,3,KC,24,27,N,76125,0,16,62,0,Colorado,KBJC,KBJC4310016,18,28,79,93,4,13,98,10.2,4,0.09,0,MC,Overcast,5673,16,16,10,79,14,0,0,100,10,OVC,7,18,3,20,35,38,49,0,0,0,30.28,1030,40,MC,Overcast
CLE2013,1-Dec-13,1-Dec-13,1:00,13,CLE,-7,JAX,60,O,39.5,2013,Week 13,69654,CLE,-7,7,TB,28,32,N,73200,0,14,44,0,Cleveland,KBKL,KBKL4160913,39,43,66,87,6,14,44,10,174,0,0,PC,Partly Cloudy,584,43,38,30,61,38,220,8,100,40,OVC,10,172,34,206,343,377,490,0,0,0,30.01,1017.6,40,MC,Overcast
CLE2015,1-Nov-15,1-Nov-15,1:00,13,ARI,-7,CLE,54,O,46,2015,Week 8,67431,CLE,7,-7,LAC,20,34,Y,67431,0,16,63,0,Cleveland,KBKL,KBKL4230913,58,65,63,84,15,24,29,9.9,522,0.01,0,CLR,Fair,584,65,63,40,40,52,250,20,20,200,SCT,10,428,46,474,460,506,657,0,0,0,29.87,1011.6,44,PC,Partly Cloudy
CLE2017,1-Oct-17,1-Oct-17,1:00,13,CIN,-3,CLE,38,U,41.5,2017,Week 4,67431,CLE,3,-3,CIN,7,31,Y,67895,0,18,39,0,Cleveland,KBKL,KBKL4300913,56,67,58,77,9,16,2,10,706,0,0,CLR,Fair,584,67,67,42,41,54,360,10,0,201,CLR,10,645,64,709,645,709,921,0,0,0,30.31,1026.3,46,CLR,Fair
CLE2014,2-Nov-14,2-Nov-14,1:00,13,CLE,-7,TB,39,U,44,2014,Week 9,67431,CLE,-7,7,WAS,22,17,N,67431,0,15,42,0,Cleveland,KBKL,KBKL4194513,39,45,64,76,12,23,28,10,242,0,0,MC,Mostly Cloudy,584,43,37,32,66,38,330,11,0,201,CLR,10,455,45,500,455,500,650,0,0,0,30.37,1029.4,46,CLR,Fair
CLE2015,3-Jan-16,3-Jan-16,1:00,13,PIT,-13,CLE,40,U,47,2015,Week 17,66693,CLE,13,-13,PIT,12,28,Y,67431,0,16,39,0,Cleveland,KBKL,KBKL4237213,34,36,65,78,18,24,98,9.8,0,0.02,0.2,MC,Overcast,584,36,25,27,70,33,300,22,100,24,OVC,10,169,34,203,338,372,482,0,0,0,29.95,1014.2,45,CLR,Mostly Clear
CLE2013,3-Nov-13,3-Nov-13,4:25,16,BAL,-1.5,CLE,42,P,42,2013,Week 9,71513,CLE,1.5,-1.5,CIN,24,18,Y,73200,0,14,46,0,Cleveland,KBKL,KBKL4158116,41,46,68,81,11,20,12,10,470,0,0,PC,Partly Cloudy,584,43,35,30,61,38,50,17,5,35,FEW,10,107,11,118,110,121,158,0,0,0,30.37,1029.5,45,CLR,Mostly Clear
CLE2013,3-Oct-13,3-Oct-13,8:25,20,CLE,-3.5,BUF,61,O,40.5,2013,Week 5,71239,CLE,-3.5,3.5,CIN,37,24,Y,73200,0,14,75,0,Cleveland,KBKL,KBKL4155020,71,79,76,87,7,12,62,8.3,193,0,0,HAZY,Haze,584,72,72,64,78,67,180,10,27,80,SCT,6,0,0,0,0,0,0,0,0,0,30.02,1016.3,35,HAZY,Haze
CLE2015,6-Dec-15,6-Dec-15,1:00,13,CIN,-7.5,CLE,40,U,44,2015,Week 13,64775,CLE,7.5,-7.5,HOU,3,37,Y,67431,0,16,46,0,Cleveland,KBKL,KBKL4234413,40,50,71,89,8,15,33,8.3,234,0,0,CLR,Fair,584,48,45,34,58,42,200,6,70,200,BKN,10,252,33,285,334,367,477,0,0,0,30.38,1028.8,42,MC,Mostly Cloudy
CLE2016,6-Nov-16,6-Nov-16,1:00,13,DAL,-7.5,CLE,45,U,49.5,2016,Week 9,67431,CLE,7.5,-7.5,ATL,10,35,Y,67431,0,17,56,0,Cleveland,KBKL,KBKL4268013,53,59,77,86,6,10,0,8.6,610,0,0,CLR,Fair,584,58,58,52,81,55,330,5,0,201,CLR,6,430,43,473,430,473,614,0,0,0,30.38,1028.7,35,HAZY,Haze
CLE2014,7-Dec-14,7-Dec-14,1:00,13,IND,-3,CLE,49,U,50,2014,Week 14,67431,CLE,3,-3,SF,24,25,N,67431,0,15,38,0,Cleveland,KBKL,KBKL4198013,35,38,64,70,12,18,44,10,254,0,0,CLR,Fair,584,38,28,26,62,33,300,18,100,250,OVC,10,232,33,265,332,365,475,0,0,0,30.62,1036.9,50,PC,High Overcast
CLE2019,8-Dec-19,8-Dec-19,1:00,13,CLE,-8,CIN,46,O,59,2019,Week 14,67431,CLE,-8,8,CIN,27,19,N,67895,0,20,62,0,Cleveland,KBKL,KBKL4380713,44,53,56,62,17,23,55,10,367,0,0,CLR,Fair,604,50,43,34,54,43,180,21,47,185,CLR,10,253,33,286,331,364,472,0,0,0,30.04,1017.8,46,CLR,Fair
CLE2017,8-Oct-17,8-Oct-17,1:00,13,NYJ,-1.5,CLE,31,U,41.5,2017,Week 5,62032,CLE,1.5,-1.5,SF,14,17,Y,67895,0,18,49,0,Cleveland,KBKL,KBKL4301613,68,75,71,91,11,26,90,9.1,31,1.46,0,MC,Overcast,584,67,67,56,68,61,310,6,82,29,CLR,10,391,60,451,601,661,859,0,0,0,29.92,1012.8,46,CLR,Fair
CLE2013,8-Sep-13,8-Sep-13,1:00,13,CLE,-2.5,MIA,33,U,41,2013,Week 1,71513,CLE,-2.5,2.5,KC,10,23,Y,73200,0,14,72,0,Cleveland,KBKL,KBKL4152513,70,76,73,90,11,20,62,9.2,278,0,0,PC,Partly Cloudy,584,72,72,61,69,65,300,18,90,16,BKN,10,428,78,506,778,856,1111,0,0,0,30.05,1017.6,44,PC,Partly Cloudy
CLE2019,8-Sep-19,8-Sep-19,1:03,13,CLE,-5.5,TEN,56,O,44.5,2019,Week 1,67431,CLE,-5.5,5.5,TEN,13,43,Y,67895,0,20,45,0,Cleveland,KBKL,KBKL4371613,68,73,64,73,10,14,34,10,447,0,0,CLR,Mostly Clear,604,70,70,55,59,61,30,14,20,25,SCT,10,700,78,778,778,856,1111,0,0,0,30.11,1019.3,44,PC,Partly Cloudy
CLE2016,9-Oct-16,9-Oct-16,1:00,13,NE,-10,CLE,46,U,48,2016,Week 5,67431,CLE,10,-10,OAK,13,33,Y,67431,0,17,57,0,Cleveland,KBKL,KBKL4265213,56,60,59,67,14,17,71,10,239,0,0,MC,Mostly Cloudy,584,57,54,40,53,49,310,12,70,48,BKN,10,383,59,442,589,648,841,0,0,0,30.33,1027.2,42,MC,Mostly Cloudy
CLE2017,10-Dec-17,10-Dec-17,1:00,13,GB,-2.5,CLE,48,O,38.5,2017,Week 14,67431,CLE,2.5,-2.5,SEA,21,27,Y,67895,0,18,88,0,Cleveland,KBKL,KBKL4307913,30,33,66,78,17,24,100,9.8,0,0,0,MC,Overcast,584,29,17,16,58,25,220,17,100,60,OVC,10,164,33,197,328,361,469,0,0,0,29.95,1015,40,MC,Overcast
CLE2019,10-Nov-19,10-Nov-19,1:00,13,CLE,-7,BUF,35,O,59,2019,Week 10,67431,CLE,-7,7,ATL,19,16,N,67895,0,20,46,0,Cleveland,KBKL,KBKL4377913,45,50,60,80,11,15,83,9.9,200,0,0,MC,Overcast,604,49,45,36,61,43,290,10,5,110,FEW,10,408,42,450,415,457,594,0,0,0,29.96,1014.8,45,CLR,Mostly Clear
CLE2017,10-Sep-17,10-Sep-17,1:00,13,PIT,-10,CLE,39,U,47,2017,Week 1,67431,CLE,10,-10,PIT,18,21,N,67895,0,18,40,0,Cleveland,KBKL,KBKL4298813,60,70,64,77,8,20,0,10,762,0,0,CLR,Fair,584,69,69,45,42,56,370,3,0,201,CLR,10,767,77,844,767,844,1096,0,0,0,30.43,1030.5,46,CLR,Fair
CLE2016,11-Dec-16,11-Dec-16,1:00,13,CIN,-5,CLE,33,U,41.5,2016,Week 14,60028,CLE,5,-5,DET,10,23,Y,67431,0,17,28,0,Cleveland,KBKL,KBKL4271513,29,35,80,89,14,25,100,4.6,0,0.28,2.3,SNOW,Light Snow,584,28,16,23,81,26,150,17,100,27,OVC,1.8,163,33,196,326,359,466,0,0,0,30.19,1022.3,9,SNOW,Light Snow
CLE2014,12-Oct-14,12-Oct-14,1:00,13,CLE,-2,PIT,41,U,46.5,2014,Week 6,67431,CLE,-2,2,NYG,31,10,Y,67431,0,15,64,0,Cleveland,KBKL,KBKL4192413,55,66,60,82,9,16,30,10,549,0,0,CLR,Fair,584,62,62,37,40,50,120,6,0,201,CLR,10,576,58,634,576,634,823,0,0,0,30.13,1020.2,46,CLR,Fair
CLE2015,13-Dec-15,13-Dec-15,1:00,13,CLE,-2.5,SF,34,U,43,2015,Week 14,63916,CLE,-2.5,2.5,HOU,24,10,Y,67431,0,16,62,0,Cleveland,KBKL,KBKL4235113,64,66,74,81,11,15,70,10,239,0,0,CLR,Fair,584,65,65,56,73,60,180,10,60,163,CLR,10,228,33,260,325,358,465,0,0,0,30,1015.9,46,CLR,Fair
CLE2013,13-Oct-13,13-Oct-13,1:00,13,DET,-2,CLE,48,O,43.5,2013,Week 6,71513,CLE,2,-2,TB,17,31,Y,73200,0,14,67,0,Cleveland,KBKL,KBKL4156013,63,68,85,100,7,12,57,9.8,170,0,0,MC,Overcast,584,64,64,61,88,62,350,9,100,16,OVC,10,285,57,342,570,627,814,0,0,0,30.27,1025.3,40,MC,Overcast
CLE2019,13-Oct-19,13-Oct-19,1:00,13,CLE,-1,SEA,60,O,47.5,2019,Week 6,67431,CLE,-1,1,SEA,28,32,Y,67895,0,20,69,0,Cleveland,KBKL,KBKL4375113,57,69,37,61,15,22,2,10,660,0,0,CLR,Fair,604,65,63,26,23,48,200,21,8,400,CLR,10,547,57,604,570,627,814,0,0,0,29.88,1011.7,46,CLR,Fair
CLE2014,14-Dec-14,14-Dec-14,1:00,13,CLE,-2,CIN,30,U,43.5,2014,Week 15,67431,CLE,-2,2,GB,0,30,Y,67431,0,15,45,0,Cleveland,KBKL,KBKL4198713,43,48,90,97,9,15,100,5.5,0,0,0,MC,Overcast,584,45,42,42,90,44,230,5,100,16,OVC,8,162,32,194,325,357,464,0,0,0,30.05,1017.7,40,MC,Overcast
CLE2019,14-Nov-19,14-Nov-19,1:00,13,CLE,-2.5,PIT,28,U,50.5,2019,Week 11,67431,CLE,-2.5,2.5,MIA,21,7,Y,67895,0,20,40,0,Cleveland,KBKL,KBKL4378313,34,38,62,81,12,14,96,9.4,45,0.01,0.3,MC,Overcast,604,37,29,23,57,32,230,12,100,100,OVC,10,199,40,239,398,438,569,0,0,0,30.2,1023.2,40,MC,Overcast
CLE2014,14-Sep-14,14-Sep-14,1:00,13,NO,-6,CLE,50,O,49.5,2014,Week 2,67407,CLE,6,-6,MIN,26,24,N,67431,0,15,62,0,Cleveland,KBKL,KBKL4189613,56,64,68,86,5,8,45,10,280,0,0,CLR,Fair,584,61,61,45,56,53,320,6,70,55,BKN,10,485,75,560,746,821,1065,0,0,0,30.28,1025.5,42,MC,Mostly Cloudy
CLE2013,15-Dec-13,15-Dec-13,1:00,13,CHI,-1,CLE,69,O,44,2013,Week 15,71513,CLE,1,-1,CHI,31,38,Y,73200,0,14,25,0,Cleveland,KBKL,KBKL4162313,24,31,79,89,14,22,60,7.1,33,0.01,0.1,SNOW,Light Snow,584,28,19,23,80,27,240,10,100,15,OVC,8,162,32,194,324,356,463,0,0,0,29.82,1011.6,9,SNOW,Light Snow
CLE2014,16-Nov-14,16-Nov-14,1:00,13,CLE,-4,HOU,30,U,42,2014,Week 11,67431,CLE,-4,4,MIN,7,23,Y,67431,0,15,34,0,Cleveland,KBKL,KBKL4195913,33,35,66,92,7,13,99,8.3,21,0.07,0.7,MC,Overcast,584,34,25,21,59,29,220,13,100,50,OVC,10,195,39,234,390,429,558,0,0,0,30.13,1020.2,40,MC,Overcast
CLE2017,17-Dec-17,17-Dec-17,1:00,13,BAL,-7,CLE,37,U,42.5,2017,Week 15,56434,CLE,7,-7,CLE,10,27,Y,67895,0,18,75,0,Cleveland,KBKL,KBKL4308613,34,39,81,89,4,15,89,7.2,72,0,0,CLR,Fair,584,36,36,28,73,33,130,3,100,113,CLR,8,162,32,194,323,355,462,0,0,0,30.12,1020.7,46,CLR,Fair
CLE2015,18-Oct-15,18-Oct-15,1:00,13,DEN,-3.5,CLE,49,O,42,2015,Week 6,67431,CLE,3.5,-3.5,BAL,23,26,N,67431,0,16,46,0,Cleveland,KBKL,KBKL4229513,45,49,50,65,15,23,63,10,119,0,0,CLR,Mostly Clear,584,47,42,26,44,38,340,12,70,50,BKN,10,351,54,405,540,594,771,0,0,0,30.43,1030.6,42,MC,Mostly Cloudy
CLE2016,18-Sep-16,18-Sep-16,1:00,13,BAL,-4.5,CLE,45,O,42,2016,Week 2,67431,CLE,4.5,-4.5,HOU,20,25,Y,67431,0,17,75,0,Cleveland,KBKL,KBKL4263113,73,77,81,87,7,10,60,9.9,199,0,0,MC,Overcast,584,74,78,68,82,70,320,8,100,90,BKN,10,376,72,448,717,789,1025,0,0,0,29.99,1015,40,MC,Overcast
CLE2017,19-Nov-17,19-Nov-17,1:00,13,JAX,-7,CLE,26,U,37,2017,Week 11,57003,CLE,7,-7,GB,7,19,Y,67895,0,18,46,0,Cleveland,KBKL,KBKL4305813,39,42,69,86,27,33,100,9.8,0,0.14,0.6,MC,Overcast,584,40,29,28,63,35,280,25,100,60,OVC,10,190,38,228,379,417,541,0,0,0,29.81,1009.8,40,MC,Overcast
CLE2016,20-Nov-16,20-Nov-16,1:00,13,PIT,-8.5,CLE,33,U,45.5,2016,Week 11,67431,CLE,8.5,-8.5,DEN,9,24,Y,67431,0,17,35,0,Cleveland,KBKL,KBKL4269413,36,39,63,70,28,38,100,9.2,0,0.03,0.3,SNOW,Light Snow,584,37,25,27,67,33,300,25,100,29,OVC,9,186,37,223,372,409,531,0,0,0,30.06,1017.9,9,SNOW,Light Snow
CLE2015,20-Sep-15,20-Sep-15,1:00,13,TEN,-1,CLE,42,O,41,2015,Week 2,67431,CLE,1,-1,TB,28,14,Y,67431,0,16,66,0,Cleveland,KBKL,KBKL4226713,64,69,60,68,11,16,32,10,361,0,0,CLR,Fair,584,68,68,50,53,58,100,12,90,35,BKN,10,491,71,562,711,782,1016,0,0,0,30.17,1021.7,44,PC,Partly Cloudy
CLE2014,21-Sep-14,21-Sep-14,1:00,13,BAL,-1.5,CLE,44,O,43,2014,Week 3,67407,CLE,1.5,-1.5,MIA,21,23,Y,67431,0,15,69,0,Cleveland,KBKL,KBKL4190313,66,73,74,84,21,31,78,10,269,0.16,0,MC,Overcast,584,70,70,57,64,62,280,21,20,30,SCT,10,634,71,706,705,776,1008,0,0,0,29.67,1004.4,44,PC,Partly Cloudy
CLE2019,22-Dec-19,22-Dec-19,1:00,13,CLE,-3,BAL,46,O,33,2019,Week 16,67431,CLE,-3,3,BAL,15,31,Y,67895,0,20,38,0,Cleveland,KBKL,KBKL4382113,44,54,51,65,9,15,2,10,535,0,0,CLR,Fair,604,52,49,27,38,41,220,9,1,396,CLR,10,321,32,353,323,355,462,0,0,0,30.27,1025.2,46,CLR,Fair
CLE2017,22-Oct-17,22-Oct-17,1:00,13,TEN,-6,CLE,21,U,42.5,2017,Week 7,59061,CLE,6,-6,TEN,9,12,N,67895,0,18,79,0,Cleveland,KBKL,KBKL4303013,67,79,54,77,11,16,50,10,298,0,0,CLR,Fair,584,77,77,47,35,60,190,16,100,201,OVC,10,258,52,310,516,568,737,0,0,0,30.16,1021.2,40,MC,Overcast
CLE2019,22-Sep-19,22-Sep-19,8:20,20,LAR,-4.5,CLE,33,U,48,2019,Week 3,67431,CLE,4.5,-4.5,LAR,13,20,Y,67895,0,20,71,0,Cleveland,KBKL,KBKL4373020,82,90,50,76,13,20,39,10,539,0,0,CLR,Fair,604,83,83,54,37,65,190,13,72,309,CLR,10,0,0,0,0,0,0,0,0,0,29.92,1012.6,46,CLR,Fair
CLE2016,24-Dec-16,24-Dec-16,1:00,13,LAC,-4.5,CLE,37,U,45.5,2016,Week 16,57272,CLE,4.5,-4.5,DAL,20,17,N,67431,0,17,37,0,Cleveland,KBKL,KBKL4272813,39,45,84,97,11,20,100,8.6,0,0.06,0,MC,Overcast,584,37,30,35,93,36,260,10,100,17,OVC,7,162,33,196,325,358,465,0,0,0,30.21,1023.1,40,MC,Overcast
CLE2013,24-Nov-13,24-Nov-13,1:00,13,CLE,-2.5,PIT,38,U,40,2013,Week 12,71513,CLE,-2.5,2.5,NYJ,11,27,Y,73200,0,14,33,0,Cleveland,KBKL,KBKL4160213,23,25,56,68,18,28,49,9.8,240,0,0,SNOW,Moderate Snow,584,23,8,10,58,20,290,22,17,201,SCT,10,331,36,367,362,398,517,0,0,0,30.51,1035.4,10,SNOW,Moderate Snow
CLE2019,24-Nov-19,24-Nov-19,1:00,13,CLE,-8,MIA,65,O,47,2019,Week 12,67431,CLE,-8,8,CAR,41,24,Y,67895,0,20,59,0,Cleveland,KBKL,KBKL4379313,40,45,73,79,15,24,66,9.4,240,0,0,MC,Overcast,604,42,35,31,65,38,240,15,20,20,SCT,10,326,36,362,362,398,517,0,0,0,29.64,1004.1,44,PC,Partly Cloudy
CLE2014,26-Oct-14,26-Oct-14,4:25,16,CLE,-6.5,OAK,36,U,44.5,2014,Week 8,67431,CLE,-6.5,6.5,PIT,23,13,Y,67431,0,15,54,0,Cleveland,KBKL,KBKL4193816,53,57,55,62,14,23,0,10,637,0,0,CLR,Fair,584,56,52,37,49,47,280,15,0,201,CLR,10,142,14,156,142,156,203,0,0,0,29.92,1013.3,46,CLR,Fair
CLE2016,27-Nov-16,27-Nov-16,1:00,13,NYG,-6.5,CLE,40,U,46.5,2016,Week 12,60034,CLE,6.5,-6.5,TB,13,27,Y,67431,0,17,46,0,Cleveland,KBKL,KBKL4270113,43,49,64,73,11,16,60,10,455,0,0,CLR,Fair,584,49,44,33,55,42,220,13,20,45,SCT,10,316,35,351,351,386,501,0,0,0,30.15,1020.9,44,PC,Partly Cloudy
CLE2015,27-Sep-15,27-Sep-15,1:00,13,CLE,-3.5,OAK,47,O,44,2015,Week 3,67431,CLE,-3.5,3.5,CLE,20,27,Y,67431,0,16,75,0,Cleveland,KBKL,KBKL4227413,70,79,59,66,13,18,78,10,191,0,0,MC,Overcast,584,76,78,56,50,64,160,13,25,50,SCT,10,585,67,652,669,736,956,0,0,0,30.19,1022.2,45,CLR,Mostly Clear
CLE2013,29-Sep-13,29-Sep-13,1:00,13,CIN,-3.5,CLE,23,U,42.5,2013,Week 4,71481,CLE,3.5,-3.5,IND,17,6,Y,73200,0,14,73,0,Cleveland,KBKL,KBKL4154613,65,73,74,94,8,13,62,10,166,0.02,0,MC,Overcast,584,72,72,57,61,63,170,6,100,40,OVC,10,328,66,394,657,723,938,0,0,0,30.01,1016.9,45,CLR,Mostly Clear
CLE2015,30-Nov-15,30-Nov-15,8:30,20,CLE,-6,BAL,60,O,41,2015,Week 12,64380,CLE,-6,6,LAR,27,33,N,67431,0,16,42,0,Cleveland,KBKL,KBKL4233820,40,48,66,79,7,14,54,10,412,0,0,CLR,Fair,584,44,40,31,60,39,50,8,100,22,OVC,10,0,0,0,0,0,0,0,0,0,30.14,1020.7,40,MC,Overcast
CLE2016,30-Oct-16,30-Oct-16,1:00,13,NYJ,-2.5,CLE,59,O,45.5,2016,Week 8,67431,CLE,2.5,-2.5,ARI,28,31,Y,67431,0,17,54,0,Cleveland,KBKL,KBKL4267313,55,63,83,93,12,21,100,8.8,0,0.15,0,MC,Overcast,584,54,52,50,87,52,340,8,100,13,OVC,5,232,47,280,465,512,665,99,0.01,0,30.04,1017.4,18,RAIN,Light Rain
TEN2016,1-Jan-17,1-Jan-17,1:00,13,TEN,-3,HOU,41,P,41,2016,Week 17,65205,TEN,-3,3,PHI,24,17,Y,69143,0,17,48,0,Nashville,KBNA,KBNA4273613,51,55,94,100,5,10,100,2.3,0,0,0,MC,Overcast,600,53,51,51,93,52,100,6,100,5,OVC,1.8,198,40,238,397,437,568,0,0,0,29.98,1015.3,21,RAIN,Light Drizzle
TEN2017,3-Dec-17,3-Dec-17,1:00,13,TEN,-7,HOU,37,U,42,2017,Week 13,62758,TEN,-7,7,LAR,24,13,Y,69143,0,18,36,0,Nashville,KBNA,KBNA4307213,50,66,67,89,2,8,38,9.9,208,0,0,PC,High Clouds,600,64,64,38,38,51,90,7,70,250,BKN,10,309,39,348,391,430,559,0,0,0,30.19,1022.4,52,PC,High Clouds
TEN2017,5-Nov-17,5-Nov-17,1:00,13,TEN,-3,BAL,43,O,41,2017,Week 9,67322,TEN,-3,3,BAL,23,20,N,69143,0,18,85,0,Nashville,KBNA,KBNA4304413,74,82,70,87,13,22,88,10,82,0,0,MC,Overcast,600,79,81,62,56,68,210,13,100,250,BKN,10,284,48,332,481,529,687,0,0,0,29.95,1013.5,52,PC,High Clouds
TEN2014,5-Oct-14,5-Oct-14,1:00,13,CLE,-1,TEN,57,O,44,2014,Week 5,69143,TEN,1,-1,TB,28,29,N,69143,0,15,71,0,Nashville,KBNA,KBNA4191713,58,74,56,89,9,20,22,10,425,0,0,PC,Partly Cloudy,600,71,71,41,34,55,190,15,75,110,BKN,10,480,65,545,651,716,930,0,0,0,29.85,1011,45,CLR,Mostly Clear
TEN2015,6-Dec-15,6-Dec-15,1:00,13,TEN,-3,JAX,81,O,43.5,2015,Week 13,57355,TEN,-3,3,BAL,42,39,N,69143,0,16,56,0,Nashville,KBNA,KBNA4234413,46,62,67,85,3,13,59,9.9,147,0,0,PC,Partly Cloudy,600,59,59,37,44,49,0,0,100,40,OVC,10,194,39,232,387,426,553,0,0,0,30.38,1028.8,40,MC,Overcast
TEN2013,6-Oct-13,6-Oct-13,1:00,13,KC,-2.5,TEN,43,O,38,2013,Week 5,69143,TEN,2.5,-2.5,TB,17,26,Y,69143,0,14,74,0,Nashville,KBNA,KBNA4155313,65,75,86,93,7,14,82,8.9,0,0.92,0,RAIN,Light Rain,600,63,63,61,93,62,290,7,100,6,OVC,9,322,64,386,644,708,920,0,0,0,29.84,1010.5,18,RAIN,Light Rain
TEN2019,6-Oct-19,6-Oct-19,1:00,13,TEN,-5,BUF,21,O,52,2019,Week 5,66910,TEN,-5,5,LAC,7,14,Y,69143,0,20,81,0,Nashville,KBNA,KBNA4374413,74,82,75,91,9,15,87,8.5,0,0.95,0,MC,Overcast,689,81,83,65,58,71,190,6,100,36,OVC,10,322,64,386,644,708,921,0,0,0,30.1,1018.7,40,MC,Overcast
TEN2014,7-Dec-14,7-Dec-14,1:00,13,NYG,-3,TEN,43,U,46.5,2014,Week 14,69143,TEN,3,-3,WAS,7,36,Y,69143,0,15,47,0,Nashville,KBNA,KBNA4198013,43,50,70,80,8,15,89,10,87,0,0,MC,Overcast,600,47,45,33,59,41,100,5,75,25,BKN,10,295,39,334,386,425,552,0,0,0,30.4,1029.4,45,CLR,Mostly Clear
TEN2013,10-Nov-13,10-Nov-13,1:00,13,TEN,-11.5,JAX,56,O,42,2013,Week 10,69143,TEN,-11.5,11.5,TEN,27,29,N,69143,0,14,65,0,Nashville,KBNA,KBNA4158813,51,67,53,89,5,10,0,10,623,0,0,CLR,Fair,600,65,65,32,29,49,330,6,0,201,CLR,10,459,46,505,459,505,656,0,0,0,30.3,1026.1,46,CLR,Fair
TEN2019,10-Nov-19,10-Nov-19,1:00,13,KC,-3.5,TEN,67,O,47,2019,Week 10,68864,TEN,3.5,-3.5,KC,35,32,N,69143,0,20,33,0,Nashville,KBNA,KBNA4377913,53,69,47,65,8,16,16,10,612,0,0,CLR,Fair,689,66,66,35,32,51,210,12,0,200,CLR,10,459,46,505,459,505,656,0,0,0,30.09,1018.6,46,CLR,Fair
TEN2017,10-Sep-17,10-Sep-17,1:00,13,TEN,-2.5,OAK,42,U,50.5,2017,Week 1,69089,TEN,-2.5,2.5,OAK,16,26,Y,69143,0,18,61,0,Nashville,KBNA,KBNA4298813,67,80,64,90,7,12,16,10,671,0,0,CLR,Fair,600,79,79,54,42,64,100,10,20,50,SCT,10,712,79,791,791,870,1130,0,0,0,30.23,1023.3,44,PC,Partly Cloudy
TEN2016,11-Dec-16,11-Dec-16,1:00,13,TEN,-2,DEN,23,U,44,2016,Week 14,68780,TEN,-2,2,WAS,13,10,Y,69143,0,17,48,0,Nashville,KBNA,KBNA4271513,46,57,47,72,15,30,95,9.8,30,0.12,0,MC,Mostly Cloudy,600,57,52,19,23,42,180,24,100,50,BKN,10,248,38,286,382,420,545,0,0,0,30.1,1019.2,42,MC,Mostly Cloudy
TEN2015,11-Oct-15,11-Oct-15,1:00,13,BUF,-1,TEN,27,U,43,2015,Week 5,65670,TEN,1,-1,IND,13,14,N,69143,0,16,72,0,Nashville,KBNA,KBNA4228813,58,73,70,93,3,8,23,8.9,375,0,0,CLR,Fair,600,70,70,47,44,57,0,0,70,250,BKN,10,486,62,548,615,677,879,0,0,0,29.97,1014.9,52,PC,High Clouds
TEN2016,11-Sep-16,11-Sep-16,1:00,13,MIN,-2.5,TEN,41,O,40,2016,Week 1,63816,TEN,2.5,-2.5,ARI,16,25,Y,69143,0,17,77,0,Nashville,KBNA,KBNA4262413,72,83,63,90,6,12,45,10,413,0,0,CLR,Mostly Clear,600,81,81,55,41,65,60,7,25,50,SCT,10,715,78,793,781,859,1116,0,0,0,30.15,1021,45,CLR,Mostly Clear
TEN2017,12-Nov-17,12-Nov-17,1:00,13,TEN,-4.5,CIN,44,O,40.5,2017,Week 10,67432,TEN,-4.5,4.5,DEN,24,20,N,69143,0,18,38,0,Nashville,KBNA,KBNA4305113,53,57,78,83,7,14,98,9.7,0,0,0,MC,Overcast,600,55,54,48,77,51,190,6,100,40,OVC,10,226,45,270,451,496,645,0,0,0,30.28,1025.4,40,MC,Overcast
TEN2014,12-Oct-14,12-Oct-14,1:00,13,TEN,-4,JAX,30,U,42.5,2014,Week 6,69143,TEN,-4,4,SEA,16,14,N,69143,0,15,74,0,Nashville,KBNA,KBNA4192413,66,77,89,97,6,14,99,8.2,1,0.02,0,MC,Overcast,600,73,77,66,79,69,190,8,100,9,BKN,10,186,61,247,609,670,870,0,0,0,29.98,1014.8,45,CLR,Mostly Clear
TEN2016,13-Nov-16,13-Nov-16,1:00,13,GB,-3,TEN,72,O,49,2016,Week 10,69116,TEN,3,-3,SF,47,25,Y,69143,0,17,55,0,Nashville,KBNA,KBNA4268713,48,65,59,82,1,6,0,7.9,618,0,0,CLR,Fair,600,64,64,33,32,49,310,3,0,206,CLR,10,443,44,487,443,487,633,0,0,0,30.21,1023.1,46,CLR,Fair
TEN2014,14-Dec-14,14-Dec-14,4:05,16,NYJ,-3,TEN,27,U,41.5,2014,Week 15,69143,TEN,3,-3,JAX,11,16,Y,69143,0,15,49,0,Nashville,KBNA,KBNA4198716,45,52,78,97,1,5,73,8.2,10,0,0,MC,Overcast,600,51,51,41,69,46,0,0,100,20,BKN,10,10,2,12,19,21,27,0,0,0,30.14,1020.8,42,MC,Mostly Cloudy
TEN2013,14-Nov-13,14-Nov-13,8:25,20,IND,-3,TEN,57,O,42.5,2013,Week 11,69143,TEN,3,-3,TB,27,30,N,69143,0,14,44,0,Nashville,KBNA,KBNA4159220,40,59,49,81,5,10,20,10,535,0,0,CLR,Fair,600,41,36,20,43,33,170,7,0,201,CLR,10,0,0,0,0,0,0,0,0,0,30.26,1024.8,46,CLR,Fair
TEN2014,14-Sep-14,14-Sep-14,1:00,13,TEN,-3.5,DAL,36,U,49.5,2014,Week 2,69143,TEN,-3.5,3.5,DEN,10,26,Y,69143,0,15,77,0,Nashville,KBNA,KBNA4189613,66,80,68,87,3,8,34,10,316,0,0,CLR,Mostly Clear,600,77,78,57,50,65,300,7,75,150,BKN,10,595,77,672,770,847,1100,0,0,0,30.19,1022.4,45,CLR,Mostly Clear
TEN2013,15-Dec-13,15-Dec-13,4:25,16,ARI,-3,TEN,71,O,43,2013,Week 15,69143,TEN,3,-3,CAR,34,37,N,69143,0,14,37,0,Nashville,KBNA,KBNA4162316,33,36,77,86,8,14,86,9.9,0,0,0,MC,Overcast,600,34,29,25,70,31,250,5,100,21,OVC,10,10,2,12,20,22,29,0,0,0,30.22,1023.5,40,MC,Overcast
TEN2019,15-Dec-19,15-Dec-19,1:00,13,TEN,-1,HOU,45,O,36,2019,Week 15,65265,TEN,-1,1,NYJ,21,24,Y,69143,0,20,59,0,Nashville,KBNA,KBNA4381413,48,61,70,76,7,21,91,9.1,63,0,0,MC,Overcast,689,48,46,37,66,43,40,6,20,19,OVC,10,210,38,248,382,420,545,0,0,0,30.06,1018.1,44,PC,Partly Cloudy
TEN2015,15-Nov-15,15-Nov-15,1:00,13,CAR,-3.5,TEN,37,U,43,2015,Week 10,63591,TEN,3.5,-3.5,JAX,10,27,Y,69143,0,16,60,0,Nashville,KBNA,KBNA4232313,48,64,55,89,2,7,80,9.9,59,0,0,PC,Partly Cloudy,600,60,60,26,27,45,90,6,90,180,BKN,10,317,44,361,440,484,629,0,0,0,30.36,1028.2,44,PC,Partly Cloudy
TEN2019,15-Sep-19,15-Sep-19,1:00,13,TEN,-3,IND,36,U,43.5,2019,Week 2,62849,TEN,-3,3,IND,17,19,N,69143,0,20,86,0,Nashville,KBNA,KBNA4372313,81,97,58,87,2,8,13,10,647,0,0,CLR,Mostly Clear,689,95,98,64,36,74,310,5,25,70,SCT,10,669,76,745,765,841,1093,0,0,0,30.12,1019.3,44,PC,Partly Cloudy
TEN2016,16-Oct-16,16-Oct-16,1:00,13,TEN,-7.5,CLE,54,O,45,2016,Week 6,60897,TEN,-7.5,7.5,ARI,28,26,N,69143,0,17,79,0,Nashville,KBNA,KBNA4265913,72,84,66,84,9,14,31,10,322,0,0,PC,Partly Cloudy,600,82,83,60,47,68,200,14,100,43,BKN,10,290,58,348,581,639,830,0,0,0,30.06,1017.9,42,MC,Mostly Cloudy
TEN2017,16-Oct-17,16-Oct-17,8:30,20,TEN,-7,IND,58,O,46.5,2017,Week 6,63888,TEN,-7,7,IND,36,22,Y,69143,0,18,55,0,Nashville,KBNA,KBNA4302420,56,67,61,80,10,16,34,10,443,0,0,CLR,Fair,600,54,52,42,64,48,200,7,0,201,CLR,10,0,0,0,0,0,0,0,0,0,30.3,1026,46,CLR,Fair
TEN2014,17-Nov-14,17-Nov-14,8:30,20,PIT,-7,TEN,51,O,46,2014,Week 11,69143,TEN,7,-7,ATL,24,27,N,69143,0,15,25,0,Nashville,KBNA,KBNA4196020,31,40,76,97,9,16,90,8.8,18,0.38,0.2,MC,Overcast,600,25,25,14,63,22,0,0,5,45,FEW,10,0,0,0,0,0,0,0,0,0,30.23,1023.6,45,CLR,Mostly Clear
TEN2015,18-Oct-15,18-Oct-15,1:00,13,TEN,-2.5,MIA,48,O,43.5,2015,Week 6,62342,TEN,-2.5,2.5,LAR,10,38,Y,69143,0,16,60,0,Nashville,KBNA,KBNA4229513,50,63,45,70,6,13,0,10,669,0,0,CLR,Fair,600,61,59,23,23,45,200,13,0,201,CLR,10,575,58,633,575,633,821,0,0,0,30.47,1031.8,46,CLR,Fair
TEN2013,20-Oct-13,20-Oct-13,4:05,16,SF,-3.5,TEN,48,O,41,2013,Week 7,69143,TEN,3.5,-3.5,LAC,17,31,Y,69143,0,14,68,0,Nashville,KBNA,KBNA4156716,49,64,69,97,3,7,1,9,650,0,0,CLR,Fair,600,62,62,33,34,49,90,5,0,207,CLR,10,98,10,108,98,108,140,0,0,0,30.04,1017.3,46,CLR,Fair
TEN2019,20-Oct-19,20-Oct-19,1:00,13,TEN,PK,LAC,43,O,41,2019,Week 7,62431,TEN,PK,PK,LAR,23,20,PK,69143,0,20,74,0,Nashville,KBNA,KBNA4375813,66,78,70,90,2,7,46,8.4,406,0,0,CLR,Fair,689,74,76,52,46,61,370,3,35,25,CLR,10,465,56,521,564,620,806,0,0,0,29.9,1012.1,46,CLR,Fair
TEN2019,22-Dec-19,22-Dec-19,1:00,13,NO,-3,TEN,66,O,44,2019,Week 16,66756,TEN,3,-3,NO,28,38,Y,69143,0,20,26,0,Nashville,KBNA,KBNA4382113,47,51,68,76,3,9,84,10,159,0.09,0,RAIN,Light Rain,689,50,50,39,67,45,60,2,100,90,OVC,10,192,38,230,384,422,548,99,0.01,0,30.25,1024.2,18,RAIN,Light Rain
TEN2013,22-Sep-13,22-Sep-13,1:00,13,TEN,-3,LAC,37,U,43,2013,Week 3,69143,TEN,-3,3,CLE,20,17,N,69143,0,14,76,0,Nashville,KBNA,KBNA4153913,64,77,64,89,6,13,1,10,719,0,0,CLR,Fair,600,76,77,49,39,61,300,8,0,201,CLR,10,726,73,799,726,799,1038,0,0,0,29.92,1013.1,46,CLR,Fair
TEN2016,23-Oct-16,23-Oct-16,1:00,13,TEN,-4,IND,60,O,48.5,2016,Week 7,65470,TEN,-4,4,WAS,26,34,Y,69143,0,17,71,0,Nashville,KBNA,KBNA4266613,60,77,54,82,5,10,5,10,629,0,0,CLR,Fair,600,75,76,42,31,57,230,6,0,201,CLR,10,542,54,596,542,596,774,0,0,0,30.17,1021.7,46,CLR,Fair
TEN2017,24-Dec-17,24-Dec-17,1:00,13,LAR,-6,TEN,50,O,46,2017,Week 16,60097,TEN,6,-6,ATL,23,27,N,69143,0,18,47,0,Nashville,KBNA,KBNA4309313,39,43,80,89,9,22,100,8.4,0,0.01,0,MC,Overcast,600,42,36,37,82,40,230,10,100,11,OVC,7,192,38,230,385,423,550,0,0,0,30.04,1017.4,40,MC,Overcast
TEN2019,24-Nov-19,24-Nov-19,1:00,13,TEN,-3,JAX,62,O,48,2019,Week 12,60926,TEN,-3,3,JAX,42,20,Y,69143,0,20,49,0,Nashville,KBNA,KBNA4379313,44,55,66,85,6,9,29,10,514,0,0,CLR,Mostly Clear,689,53,51,32,45,44,0,6,0,199,CLR,10,411,41,452,411,452,587,0,0,0,29.9,1012.4,47,CLR,Clear
TEN2017,24-Sep-17,24-Sep-17,4:05,16,TEN,-2,SEA,60,O,41.5,2017,Week 3,69127,TEN,-2,2,SF,33,27,Y,69143,0,18,83,0,Nashville,KBNA,KBNA4300216,78,91,70,96,3,8,40,9,335,0,0,CLR,Few High Clouds,600,86,88,63,46,71,150,6,100,250,BKN,10,94,22,116,223,245,319,0,0,0,30,1015.3,42,MC,Mostly Cloudy
TEN2015,25-Oct-15,25-Oct-15,1:00,13,ATL,-6,TEN,17,U,45.5,2015,Week 7,63329,TEN,6,-6,PHI,7,10,N,69143,0,16,61,0,Nashville,KBNA,KBNA4230213,60,69,83,90,9,13,100,9.8,0,0.08,0,MC,Mostly Cloudy,600,62,61,53,73,57,300,12,100,17,OVC,10,268,54,322,536,590,766,0,0,0,30.17,1021.8,42,MC,Mostly Cloudy
TEN2016,25-Sep-16,25-Sep-16,1:00,13,OAK,-1.5,TEN,27,U,47,2016,Week 3,62370,TEN,1.5,-1.5,MIN,10,17,Y,69143,0,17,89,0,Nashville,KBNA,KBNA4263813,79,94,65,93,2,10,4,8.7,674,0,0,CLR,Fair,600,92,93,61,36,72,370,3,5,60,FEW,10,685,70,755,703,773,1005,0,0,0,30.05,1016.7,46,CLR,Fair
TEN2014,26-Oct-14,26-Oct-14,1:00,13,HOU,-3.5,TEN,46,O,43,2014,Week 8,69143,TEN,3.5,-3.5,CAR,16,30,Y,69143,0,15,79,0,Nashville,KBNA,KBNA4193813,65,82,81,100,3,7,10,6.9,634,0,0,CLR,Fair,600,79,80,60,52,67,100,6,0,201,CLR,10,531,53,584,531,584,759,0,0,0,29.98,1015.1,46,CLR,Fair
TEN2015,27-Dec-15,27-Dec-15,1:00,13,HOU,-3.5,TEN,40,O,39,2015,Week 16,62153,TEN,3.5,-3.5,LAR,6,34,Y,69143,0,16,72,0,Nashville,KBNA,KBNA4236513,69,76,75,87,13,23,96,10,18,0,0,MC,Mostly Cloudy,600,75,78,61,62,66,200,13,100,34,OVC,10,136,39,175,389,428,555,0,0,0,29.93,1013.6,42,MC,Mostly Cloudy
TEN2016,27-Oct-16,27-Oct-16,8:25,20,TEN,-3,JAX,58,O,43.5,2016,Week 8,61619,TEN,-3,3,BUF,36,22,Y,69143,0,17,66,0,Nashville,KBNA,KBNA4267020,68,81,60,84,7,13,61,10,168,0,0,MC,Mostly Cloudy,600,64,63,57,78,60,360,13,0,201,CLR,10,0,0,0,0,0,0,0,0,0,30.24,1024.1,46,CLR,Fair
TEN2019,27-Oct-19,27-Oct-19,1:00,13,TEN,-5.5,TB,50,O,39,2019,Week 8,62073,TEN,-5.5,5.5,JAX,27,23,N,69143,0,20,80,0,Nashville,KBNA,KBNA4376513,57,63,81,90,3,7,67,8.6,80,0.02,0,MC,Overcast,689,61,61,51,70,56,0,0,100,20,OVC,10,262,53,316,525,578,750,0,0,0,30.05,1017.2,40,MC,Overcast
TEN2015,27-Sep-15,27-Sep-15,1:00,13,IND,-3.5,TEN,68,O,46.5,2015,Week 3,65920,TEN,3.5,-3.5,ATL,33,35,N,69143,0,16,77,0,Nashville,KBNA,KBNA4227413,73,81,77,93,4,9,96,10,0,0,0,MC,Mostly Cloudy,600,79,81,62,56,68,180,9,100,30,BKN,10,394,70,464,697,767,996,0,0,0,30.05,1017.7,45,CLR,Mostly Clear
TEN2014,28-Dec-14,28-Dec-14,1:00,13,IND,-7.5,TEN,37,U,46.5,2014,Week 17,69143,TEN,7.5,-7.5,IND,10,27,Y,69143,0,15,41,0,Nashville,KBNA,KBNA4200113,42,50,94,100,6,12,100,5.9,0,0.28,0,RAIN,Light Rain,600,41,37,39,93,40,340,6,100,7,OVC,8,195,39,234,390,429,557,0,0,0,30.13,1020.2,40,MC,Overcast
TEN2013,29-Dec-13,29-Dec-13,1:00,13,TEN,-7,HOU,26,U,44.5,2013,Week 17,69143,TEN,-7,7,JAX,16,10,N,69143,0,14,53,0,Nashville,KBNA,KBNA4163713,44,55,78,97,5,15,81,8.2,276,0.36,0,RAIN,Light Rain,600,53,53,38,57,46,370,3,5,27,FEW,10,381,39,420,391,430,559,0,0,0,29.94,1014.4,46,CLR,Fair
TEN2015,29-Nov-15,29-Nov-15,1:00,13,OAK,-1,TEN,45,P,45,2015,Week 12,58075,TEN,1,-1,LAR,21,24,Y,69143,0,16,57,0,Nashville,KBNA,KBNA4233713,57,62,91,93,5,10,100,5,0,1.84,0,RAIN,Light Rain,600,60,60,57,90,58,60,3,100,3,OVC,10,200,40,240,400,440,571,99,0.04,0,30.04,1017.2,19,RAIN,Moderate Rain
TEN2013,29-Sep-13,29-Sep-13,4:05,16,TEN,-3.5,NYJ,51,O,40.5,2013,Week 4,69143,TEN,-3.5,3.5,TEN,38,13,Y,69143,0,14,74,0,Nashville,KBNA,KBNA4154616,65,75,76,93,5,15,80,9.8,17,0.02,0,CLR,Mostly Clear,600,70,70,58,66,63,180,7,100,60,OVC,10,98,20,118,195,215,279,0,0,0,30.02,1016.5,45,CLR,Mostly Clear
TEN2017,31-Dec-17,31-Dec-17,4:25,16,TEN,-2.5,JAX,25,U,40.5,2017,Week 17,65501,TEN,-2.5,2.5,JAX,15,10,Y,69143,0,18,41,0,Nashville,KBNA,KBNA4310016,18,26,53,65,12,18,49,10,294,0,0,CLR,Mostly Clear,600,22,10,0,38,17,330,12,25,230,SCT,10,32,4,36,35,39,51,0,0,0,30.43,1031.1,54,CLR,Few High Clouds
NEP2017,1-Oct-17,1-Oct-17,1:00,13,NE,-9.5,CAR,63,O,48,2017,Week 4,65878,NE,-9.5,9.5,CAR,30,33,N,65878,0,15,42,0,Boston,KBOS,KBOS4300913,57,66,61,86,8,12,1,10,695,0,0,CLR,Fair,20,61,60,43,52,52,140,7,0,201,CLR,10,585,58,643,585,643,835,0,0,0,30.29,1025.7,46,CLR,Fair
NEP2014,2-Nov-14,2-Nov-14,4:25,16,DEN,-3,NE,64,O,53,2014,Week 9,68756,NE,3,-3,IND,43,21,Y,68756,0,12,41,0,Boston,KBOS,KBOS4194516,39,42,69,92,21,24,82,8.1,10,0.31,0,RAIN,Light Rain,20,41,32,24,51,35,310,21,100,49,OVC,10,10,2,12,19,21,27,0,0,0,29.65,1004.2,40,MC,Overcast
NEP2016,2-Oct-16,2-Oct-16,1:00,13,NE,-3.5,BUF,16,U,41,2016,Week 4,66829,NE,-3.5,3.5,MIN,0,16,Y,65878,0,14,56,0,Boston,KBOS,KBOS4264513,55,57,95,100,8,15,100,7.4,0,0.03,0,MC,Overcast,20,57,56,54,90,55,300,6,100,10,OVC,10,286,57,343,572,629,817,0,0,0,30.09,1019.1,40,MC,Overcast
NEP2013,3-Nov-13,3-Nov-13,4:25,16,NE,-6,PIT,86,O,42.5,2013,Week 9,68756,NE,-6,6,DET,55,31,Y,68756,0,11,44,0,Boston,KBOS,KBOS4158116,43,53,63,85,11,15,63,9.1,122,0.03,0,CLR,Mostly Clear,20,45,41,26,48,37,350,8,25,39,SCT,10,15,2,17,17,19,25,0,0,0,30.19,1022.3,45,CLR,Mostly Clear
NEP2016,4-Dec-16,4-Dec-16,1:00,13,NE,-13.5,LAR,36,U,45,2016,Week 13,66829,NE,-13.5,13.5,PHI,26,10,Y,65878,0,14,37,0,Boston,KBOS,KBOS4270813,36,42,53,64,10,16,17,10,450,0,0,CLR,Mostly Clear,20,40,34,20,45,33,310,10,0,201,CLR,10,282,28,310,282,310,402,0,0,0,30.15,1021.1,46,CLR,Fair
NEP2014,5-Oct-14,5-Oct-14,8:30,20,CIN,-2.5,NE,60,O,46.5,2014,Week 5,68756,NE,2.5,-2.5,ATL,43,17,Y,68756,0,12,35,0,Boston,KBOS,KBOS4191720,54,61,63,93,12,17,18,10,583,0,0,CLR,Mostly Clear,20,53,51,37,55,46,230,8,5,200,FEW,10,0,0,0,0,0,0,0,0,0,29.9,1012.5,45,CLR,Mostly Clear
NEP2015,6-Dec-15,6-Dec-15,4:25,16,NE,-9.5,PHI,63,O,49,2015,Week 13,66829,NE,-9.5,9.5,LAR,28,35,N,65878,0,13,44,0,Boston,KBOS,KBOS4234416,45,59,65,86,8,13,23,9.6,498,0,0,CLR,Fair,20,56,54,28,34,44,230,9,25,220,SCT,10,0,0,0,0,0,0,0,0,0,30.29,1025.7,45,CLR,Mostly Clear
NEP2017,7-Sep-17,7-Sep-17,8:30,20,NE,-9,KC,69,O,42,2017,Week 1,65878,NE,-9,9,KC,27,42,Y,65878,0,15,71,0,Boston,KBOS,KBOS4298520,66,76,74,97,11,16,84,9.3,93,0.66,0,MC,Mostly Cloudy,20,64,63,53,68,58,300,13,95,110,BKN,10,0,0,0,0,0,0,0,0,0,29.91,1012.9,42,MC,Mostly Cloudy
NEP2013,8-Dec-13,8-Dec-13,1:00,13,NE,-10,CLE,53,O,47.5,2013,Week 14,68756,NE,-10,10,NYG,27,26,N,68756,0,11,31,0,Boston,KBOS,KBOS4161613,30,32,49,54,7,13,74,10,38,0,0,CLR,Mostly Clear,20,31,23,11,43,25,320,9,100,120,OVC,10,181,28,209,278,306,397,0,0,0,30.55,1034.4,45,CLR,Mostly Clear
NEP2019,8-Dec-19,8-Dec-19,1:00,13,NE,-3,KC,39,O,40,2019,Week 14,65878,NE,-3,3,KC,16,23,Y,65878,0,17,31,0,Boston,KBOS,KBOS4380713,32,41,55,70,10,15,47,10,353,0,0,CLR,Fair,20,36,28,10,34,28,200,12,75,250,FEW,10,213,28,241,279,307,398,0,0,0,30.46,1031.5,52,PC,High Clouds
NEP2015,8-Nov-15,8-Nov-15,1:00,13,NE,-13.5,WAS,37,U,51.5,2015,Week 9,66829,NE,-13.5,13.5,NO,27,10,Y,65878,0,13,54,0,Boston,KBOS,KBOS4231613,50,56,47,63,12,16,2,10,575,0,0,CLR,Fair,20,55,51,26,33,43,270,14,5,60,FEW,10,355,36,391,364,400,520,0,0,0,30.26,1024.8,45,CLR,Mostly Clear
NEP2019,8-Sep-19,8-Sep-19,8:20,20,NE,-5.5,PIT,36,U,49,2019,Week 1,65878,NE,-5.5,5.5,PIT,33,3,Y,65878,0,17,34,0,Boston,KBOS,KBOS4371620,69,78,53,70,10,14,58,10,276,0,0,CLR,Mostly Clear,20,70,70,50,49,59,360,13,100,250,OVC,10,0,0,0,0,0,0,0,0,0,30.12,1019.7,50,PC,High Overcast
NEP2019,10-Oct-19,10-Oct-19,1:00,13,NE,-11,NYG,49,P,49,2019,Week 6,65878,NE,-11,11,NYG,35,14,Y,65878,0,17,58,0,Boston,KBOS,KBOS4374813,56,59,65,77,21,25,94,10,0,0.02,0,RAIN,Light Rain,20,56,51,43,62,49,20,24,100,110,OVC,10,277,53,330,527,580,753,0,0,0,30.25,1024.2,40,MC,Overcast
NEP2015,10-Sep-15,10-Sep-15,8:30,20,NE,-7,PIT,49,U,51,2015,Week 1,66829,NE,-7,7,LAC,28,21,N,65878,0,13,64,0,Boston,KBOS,KBOS4225720,70,77,83,93,11,18,81,9.4,33,0.17,0,CLR,Mostly Clear,20,65,64,61,87,63,300,13,100,13,OVC,10,0,0,0,0,0,0,99,0.01,0,29.84,1010.6,18,RAIN,Light Rain
NEP2016,12-Dec-16,12-Dec-16,8:30,20,NE,-6,BAL,53,O,45.5,2016,Week 14,66829,NE,-6,6,HOU,30,23,Y,65878,0,14,33,0,Boston,KBOS,KBOS4271620,38,44,91,100,11,17,67,7.9,44,0.42,0.7,CLR,Mostly Clear,20,37,28,35,93,36,220,14,20,60,SCT,10,0,0,0,0,0,0,0,0,0,29.8,1010.5,46,CLR,Fair
NEP2013,12-Sep-13,12-Sep-13,8:25,20,NE,-11,NYJ,23,U,43,2013,Week 2,68756,NE,-11,11,GB,13,10,N,68756,0,11,72,0,Boston,KBOS,KBOS4152920,76,88,78,93,11,20,74,8.6,185,0.57,0,CLR,Mostly Clear,20,74,78,68,82,70,200,13,100,16,OVC,10,0,0,0,0,0,0,0,0,0,29.7,1005.9,45,CLR,Mostly Clear
NEP2016,13-Nov-16,13-Nov-16,8:30,20,NE,-7.5,SEA,55,O,49.5,2016,Week 10,66829,NE,-7.5,7.5,CIN,24,31,N,65878,0,14,45,0,Boston,KBOS,KBOS4268720,51,60,42,53,10,14,41,10,391,0,0,CLR,Fair,20,53,51,30,41,43,230,8,0,201,CLR,10,0,0,0,0,0,0,0,0,0,29.96,1014.5,46,CLR,Fair
NEP2013,13-Oct-13,13-Oct-13,4:25,16,NE,-2,NO,57,O,51,2013,Week 6,68756,NE,-2,2,MIN,30,27,Y,68756,0,11,59,0,Boston,KBOS,KBOS4156016,54,61,71,86,8,15,26,10,419,0,0,CLR,Mostly Clear,20,57,54,44,62,51,100,12,20,32,SCT,10,75,8,83,83,91,119,0,0,0,30.4,1029.6,44,PC,Partly Cloudy
NEP2014,14-Dec-14,14-Dec-14,1:00,13,NE,-9,MIA,54,O,48,2014,Week 15,68756,NE,-9,9,TB,41,13,Y,68756,0,12,43,0,Boston,KBOS,KBOS4198713,37,45,67,79,10,13,42,10,283,0,0,CLR,Fair,20,43,38,29,58,37,290,9,25,35,SCT,10,240,27,267,274,301,392,0,0,0,29.8,1009.1,45,CLR,Mostly Clear
NEP2014,16-Oct-14,16-Oct-14,8:25,20,NE,-9.5,NYJ,52,O,44.5,2014,Week 7,68756,NE,-9.5,9.5,MIN,27,25,N,68756,0,12,63,0,Boston,KBOS,KBOS4192820,65,70,95,100,10,16,99,8.4,3,0.63,0,RAIN,Light Rain,20,63,61,62,97,62,190,14,100,7,OVC,8,0,0,0,0,0,0,99,0.06,0,29.73,1006.9,17,RAIN,Heavy Rain
NEP2016,16-Oct-16,16-Oct-16,1:00,13,NE,-7.5,CIN,52,O,48.5,2016,Week 6,66829,NE,-7.5,7.5,IND,35,17,Y,65878,0,14,66,0,Boston,KBOS,KBOS4265913,60,71,74,97,13,21,69,10,139,0,0,CLR,Mostly Clear,20,69,69,51,53,59,230,16,95,70,BKN,10,336,48,384,484,532,692,0,0,0,30.02,1016.7,45,CLR,Mostly Clear
NEP2016,18-Sep-16,18-Sep-16,1:00,13,NE,-5.5,MIA,55,O,42,2016,Week 2,66829,NE,-5.5,5.5,MIN,31,24,Y,65878,0,14,78,0,Boston,KBOS,KBOS4263113,75,82,79,93,13,23,99,10,5,0,0,MC,Overcast,20,80,83,68,67,72,220,14,100,130,OVC,10,132,66,198,660,726,943,0,0,0,30,1015.9,40,MC,Overcast
NEP2015,20-Dec-15,20-Dec-15,1:00,13,NE,-14.5,TEN,49,O,48,2015,Week 15,66829,NE,-14.5,14.5,OAK,33,16,Y,65878,0,13,39,0,Boston,KBOS,KBOS4235813,36,41,49,64,10,17,28,10,355,0,0,CLR,Mostly Clear,20,40,35,17,40,32,290,8,5,50,FEW,10,267,27,294,274,301,392,0,0,0,30.4,1029.4,45,CLR,Mostly Clear
NEP2019,21-Dec-19,21-Dec-19,1:00,13,NE,-13,BUF,41,O,41,2019,Week 16,65878,NE,-13,13,BUF,24,17,N,65878,0,17,72,0,Boston,KBOS,KBOS4382013,29,35,61,75,5,10,31,10,467,0,0,CLR,Mostly Clear,20,34,34,19,56,29,0,0,70,13,FEW,10,83,27,110,275,302,393,0,0,0,30.56,1034.8,42,MC,Mostly Cloudy
NEP2014,21-Sep-14,21-Sep-14,1:00,13,NE,-14,OAK,25,U,47,2014,Week 3,68756,NE,-14,14,NE,16,9,N,68756,0,12,78,0,Boston,KBOS,KBOS4190313,70,82,82,93,7,16,88,9.8,2,0.01,0,MC,Mostly Cloudy,20,79,82,67,67,71,160,13,100,35,OVC,10,343,65,408,647,712,925,0,0,0,29.76,1007.9,44,PC,Partly Cloudy
NEP2017,22-Oct-17,22-Oct-17,8:30,20,NE,-3,ATL,30,U,57,2017,Week 7,65878,NE,-3,3,NYG,23,7,Y,65878,0,15,32,0,Boston,KBOS,KBOS4303020,59,66,77,97,5,12,68,9.7,418,0,0,CLR,Few High Clouds,20,56,55,54,93,55,60,5,100,5,OVC,10,0,0,0,0,0,0,0,0,0,30.42,1029.9,40,MC,Overcast
NEP2013,22-Sep-13,22-Sep-13,1:00,13,NE,-7,TB,26,U,44.5,2013,Week 3,68756,NE,-7,7,TEN,23,3,Y,68756,0,11,72,0,Boston,KBOS,KBOS4153913,66,73,68,90,13,17,57,9.8,294,0.37,0,CLR,Mostly Clear,20,71,71,52,51,60,280,16,5,40,FEW,10,625,64,689,641,705,916,0,0,0,29.66,1004.3,45,CLR,Mostly Clear
NEP2016,22-Sep-16,22-Sep-16,8:25,20,NE,-1,HOU,27,U,38.5,2016,Week 3,66829,NE,-1,1,SF,27,0,Y,65878,0,14,68,0,Boston,KBOS,KBOS4263520,70,79,62,78,7,13,8,10,681,0,0,CLR,Mostly Clear,20,72,72,58,61,64,200,12,25,250,SCT,10,0,0,0,0,0,0,0,0,0,30.09,1018.8,54,CLR,Few High Clouds
NEP2019,22-Sep-19,22-Sep-19,1:00,13,NE,-21,NYJ,44,O,43,2019,Week 3,65878,NE,-21,21,NYJ,30,14,N,65878,0,17,44,0,Boston,KBOS,KBOS4373013,75,89,56,78,11,16,40,10,442,0,0,PC,High Clouds,20,88,88,55,33,68,220,14,5,250,FEW,10,631,64,695,641,705,916,0,0,0,30.05,1017.5,45,CLR,Mostly Clear
NEP2014,23-Nov-14,23-Nov-14,1:00,13,NE,-7,DET,43,U,47.5,2014,Week 12,68756,NE,-7,7,PIT,34,9,Y,68756,0,12,61,0,Boston,KBOS,KBOS4196613,49,59,53,76,10,16,63,10,235,0,0,PC,Partly Cloudy,20,58,55,38,48,48,270,12,70,75,BKN,10,200,31,231,308,339,440,0,0,0,30.1,1019.4,42,MC,Mostly Cloudy
NEP2015,23-Nov-15,23-Nov-15,8:30,20,NE,-7,BUF,33,U,47.5,2015,Week 11,66829,NE,-7,7,LAC,20,13,N,65878,0,13,28,0,Boston,KBOS,KBOS4233120,37,42,50,86,13,17,31,10,532,0.04,0,CLR,Mostly Clear,20,33,24,7,33,26,290,13,5,218,CLR,10,0,0,0,0,0,0,0,0,0,30.09,1018.8,46,CLR,Fair
NEP2016,24-Dec-16,24-Dec-16,1:00,13,NE,-17,NYJ,44,U,45,2016,Week 16,66829,NE,-17,17,NYJ,41,3,Y,65878,0,14,40,0,Boston,KBOS,KBOS4272813,41,45,78,96,12,16,66,8.8,71,0.38,0,RAIN,Light Rain,20,42,35,41,96,42,240,14,100,28,OVC,3,138,28,166,277,305,396,99,0.14,0,30.01,1016.2,18,RAIN,Light Rain
NEP2017,24-Dec-17,24-Dec-17,1:00,13,NE,-11,BUF,53,O,47.5,2017,Week 16,65878,NE,-11,11,BUF,37,16,Y,65878,0,15,82,0,Boston,KBOS,KBOS4309313,35,39,75,89,11,23,84,10,11,0,0,MC,Overcast,20,34,26,24,67,30,360,10,100,220,OVC,10,119,28,147,277,305,395,0,0,0,30.21,1023,50,PC,High Overcast
NEP2013,24-Nov-13,24-Nov-13,8:30,20,DEN,-1,NE,65,O,54,2013,Week 12,68756,NE,1,-1,DAL,34,31,Y,68756,0,11,23,0,Boston,KBOS,KBOS4160220,25,31,36,55,22,29,8,10,522,0,0,CLR,Mostly Clear,20,24,9,-4,29,18,300,23,0,201,SCT,10,0,0,0,0,0,0,0,0,0,30.08,1018.7,46,CLR,Fair
NEP2019,24-Nov-19,24-Nov-19,1:00,13,NE,-6,DAL,22,O,40,2019,Week 12,65878,NE,-6,6,MIA,13,9,N,65878,0,17,68,0,Boston,KBOS,KBOS4379313,43,48,78,87,16,31,100,6.5,0,1.51,0,RAIN,Light Rain,20,48,39,43,83,46,20,31,100,16,OVC,2.5,152,30,182,305,335,436,99,0.21,0,29.18,988.1,19,RAIN,Moderate Rain
NEP2017,24-Sep-17,24-Sep-17,1:00,13,NE,-13.5,HOU,69,O,44.5,2017,Week 3,65878,NE,-13.5,13.5,HOU,36,33,N,65878,0,15,80,0,Boston,KBOS,KBOS4300213,70,79,80,100,3,8,1,10,716,0,0,CLR,Fair,20,79,81,64,60,69,120,7,0,201,CLR,10,629,63,692,629,692,898,0,0,0,30.03,1017,46,CLR,Fair
NEP2015,25-Oct-15,25-Oct-15,1:00,13,NE,-7,NYJ,53,O,47.5,2015,Week 7,66829,NE,-7,7,GB,30,23,N,65878,0,13,58,0,Boston,KBOS,KBOS4230213,55,63,76,90,12,16,78,9.9,6,0.03,0,PC,Partly Cloudy,20,60,58,54,80,57,230,15,100,18,OVC,10,218,44,262,436,480,623,0,0,0,29.98,1015.1,42,MC,Mostly Cloudy
NEP2017,26-Nov-17,26-Nov-17,1:00,13,NE,-16.5,MIA,52,O,49,2017,Week 12,65878,NE,-16.5,16.5,ATL,35,17,Y,65878,0,15,64,0,Boston,KBOS,KBOS4306513,45,51,50,61,15,28,65,9.9,468,0,0,MC,Overcast,20,47,40,25,42,38,280,20,20,50,SCT,10,270,30,300,300,330,429,0,0,0,29.77,1008,44,PC,Partly Cloudy
NEP2014,26-Oct-14,26-Oct-14,1:00,13,NE,-6,CHI,74,O,52,2014,Week 8,68756,NE,-6,6,NO,51,23,Y,68756,0,12,57,0,Boston,KBOS,KBOS4193813,54,59,60,68,13,18,58,10,155,0,0,CLR,Mostly Clear,20,56,52,38,51,47,300,17,90,43,BKN,10,237,43,280,431,474,616,0,0,0,29.47,998,44,PC,Partly Cloudy
NEP2013,27-Oct-13,27-Oct-13,1:00,13,NE,-6.5,MIA,44,U,46,2013,Week 8,68756,NE,-6.5,6.5,NO,27,17,Y,68756,0,11,53,0,Boston,KBOS,KBOS4157413,50,57,52,83,12,17,48,10,349,0.03,0,RAIN,Light Rain,20,55,51,31,40,44,300,16,70,49,BKN,10,276,42,318,425,467,607,0,0,0,29.86,1011.3,42,MC,Mostly Cloudy
NEP2019,27-Oct-19,27-Oct-19,1:00,13,NE,-8.5,CLE,40,O,39,2019,Week 8,65878,NE,-8.5,8.5,BUF,27,13,Y,65878,0,17,72,0,Boston,KBOS,KBOS4376513,53,56,77,90,16,30,100,6.6,0,1.43,0,RAIN,Moderate Rain,20,51,44,44,77,48,100,23,100,42,OVC,4,212,42,254,425,467,607,99,0.13,0,30.04,1016.9,19,RAIN,Moderate Rain
NEP2015,27-Sep-15,27-Sep-15,1:00,13,NE,-14,JAX,68,O,49,2015,Week 3,66829,NE,-14,14,NYG,51,17,Y,65878,0,13,70,0,Boston,KBOS,KBOS4227413,58,64,74,90,7,14,15,10,595,0,0,CLR,Mostly Clear,20,63,62,51,65,56,80,9,5,250,FEW,10,601,61,662,610,671,871,0,0,0,30.43,1030.4,45,CLR,Mostly Clear
NEP2014,28-Dec-14,28-Dec-14,1:00,13,NE,-4.5,BUF,26,U,43.5,2014,Week 17,68756,NE,-4.5,4.5,LAR,9,17,Y,68756,0,12,49,0,Boston,KBOS,KBOS4200113,46,52,66,80,14,20,97,10,0,0.01,0,CLR,Mostly Clear,20,50,46,42,74,46,250,12,100,30,OVC,10,78,28,106,282,310,402,0,0,0,29.76,1007.9,45,CLR,Mostly Clear
NEP2013,29-Dec-13,29-Dec-13,4:25,16,NE,-7.5,BUF,54,O,46.5,2013,Week 17,68756,NE,-7.5,7.5,ATL,34,20,Y,68756,0,11,41,0,Boston,KBOS,KBOS4163716,39,44,77,97,8,17,96,6.8,0,1.32,0,MC,Overcast,20,39,34,37,93,38,100,7,100,48,OVC,2,1,0,1,2,2,3,99,0.09,0,29.76,1007.7,19,RAIN,Moderate Rain
NEP2015,29-Oct-15,29-Oct-15,8:25,20,NE,-8,MIA,43,U,51.5,2015,Week 8,66829,NE,-8,8,PIT,36,7,Y,65878,0,13,53,0,Boston,KBOS,KBOS4230620,67,75,66,97,17,24,67,8.8,163,0.73,0,CLR,Mostly Clear,20,62,59,31,31,48,260,22,75,130,BKN,10,0,0,0,0,0,0,0,0,0,29.55,1000.8,45,CLR,Mostly Clear
NEP2017,29-Oct-17,29-Oct-17,1:00,13,NE,-7,LAC,34,U,49,2017,Week 8,65878,NE,-7,7,DEN,21,13,Y,65878,0,15,86,0,Boston,KBOS,KBOS4303713,59,61,94,100,17,39,100,8.5,0,1,0,MC,Overcast,20,59,56,57,93,58,100,18,100,100,OVC,10,207,41,248,414,455,592,0,0,0,29.81,1009.3,18,RAIN,Light Rain
NEP2017,31-Dec-17,31-Dec-17,1:00,13,NE,-16,NYJ,32,U,43,2017,Week 17,65878,NE,-16,16,NYJ,26,6,Y,65878,0,15,43,0,Boston,KBOS,KBOS4310013,10,13,59,84,15,21,25,10,262,0,0,CLR,Fair,20,12,-6,-6,44,9,280,20,100,250,BKN,10,202,29,231,286,315,409,0,0,0,30.09,1018.8,52,PC,High Clouds
BUF2013,1-Dec-13,1-Dec-13,4:05,16,BUF,-4.5,ATL,65,O,48,2013,Week 13,38969,BUF,-4.5,4.5,DET,31,34,N,73079,0,40,72,1,Buffalo,KBUF,KBUF4160916,36,40,71,79,7,12,100,10,6,0,0,MC,Mostly Cloudy,728,38,33,29,70,34,180,6,100,35,OVC,10,12,2,14,24,26,34,0,0,0,29.99,1015.7,40,MC,Overcast
BUF2017,3-Dec-17,3-Dec-17,1:00,13,NE,-8,BUF,26,U,49,2017,Week 13,68499,BUF,8,-8,PHI,3,23,Y,71608,0,44,35,0,Buffalo,KBUF,KBUF4307213,39,47,82,93,6,14,34,8.1,383,0,0,CLR,Mostly Clear,728,45,39,39,80,42,230,12,70,16,BKN,6,199,31,230,306,337,437,0,0,0,30.15,1021.6,35,HAZY,Haze
BUF2015,3-Jan-16,3-Jan-16,1:00,13,NYJ,-3,BUF,39,U,41,2015,Week 17,68670,BUF,3,-3,BUF,22,17,Y,71870,0,42,51,0,Buffalo,KBUF,KBUF4237213,31,37,69,78,16,22,98,8.9,5,0,0,SNOW,Light Snow,728,34,24,26,73,31,260,16,100,23,OVC,10,154,31,184,307,338,438,0,0,0,29.8,1009.2,42,MC,Mostly Cloudy
BUF2013,3-Nov-13,3-Nov-13,1:00,13,KC,-5,BUF,36,U,41,2013,Week 9,68159,BUF,5,-5,JAX,13,23,Y,73079,0,40,38,0,Buffalo,KBUF,KBUF4158113,34,39,66,82,6,8,41,10,426,0,0,CLR,Mostly Clear,728,38,32,21,51,32,100,8,20,38,SCT,10,374,42,416,415,457,593,0,0,0,30.37,1028.6,44,PC,Partly Cloudy
BUF2019,3-Nov-19,3-Nov-19,1:00,13,BUF,-3.5,WAS,33,O,46,2019,Week 9,67685,BUF,-3.5,3.5,WAS,24,9,Y,71608,0,46,54,0,Buffalo,KBUF,KBUF4377213,36,41,73,100,12,22,81,10,89,0,0,MC,Mostly Cloudy,692,40,31,26,58,35,290,17,100,190,BKN,10,168,42,210,416,458,594,0,0,0,30.1,1020,42,MC,Mostly Cloudy
BUF2015,4-Oct-15,4-Oct-15,1:00,13,BUF,-6,NYG,34,U,46.5,2015,Week 4,70677,BUF,-6,6,CAR,10,24,Y,71870,0,42,60,0,Buffalo,KBUF,KBUF4228113,54,65,76,90,8,12,72,10,33,0,0,CLR,Mostly Clear,728,62,61,49,62,55,60,9,100,47,BKN,10,241,59,300,594,653,848,0,0,0,30.26,1024.8,42,MC,Mostly Cloudy
BUF2015,6-Dec-15,6-Dec-15,1:00,13,BUF,-3,HOU,51,O,42,2015,Week 13,68544,BUF,-3,3,LAR,30,21,Y,71870,0,42,49,0,Buffalo,KBUF,KBUF4234413,37,45,80,92,6,10,48,9.1,21,0,0,CLR,Mostly Clear,728,45,40,36,71,41,230,9,100,150,OVC,10,190,30,220,301,331,430,0,0,0,30.4,1029.3,44,PC,Partly Cloudy
BUF2019,8-Dec-19,8-Dec-19,1:00,13,BAL,-1,BUF,41,O,57,2019,Week 14,69134,BUF,1,-1,BAL,17,24,Y,71608,0,46,26,0,Buffalo,KBUF,KBUF4380713,37,46,63,80,14,22,52,10,234,0,0,CLR,Fair,692,41,33,23,49,34,200,17,100,270,CLR,10,180,30,210,298,328,426,0,0,0,30.05,1018.9,46,CLR,Fair
BUF2015,8-Nov-15,8-Nov-15,1:00,13,BUF,-4,MIA,50,O,44,2015,Week 9,70214,BUF,-4,4,OAK,33,17,Y,71870,0,42,47,0,Buffalo,KBUF,KBUF4231613,42,50,70,79,8,16,11,10,461,0,0,CLR,Mostly Clear,728,49,45,33,55,42,230,9,20,33,SCT,10,352,39,391,391,430,558,0,0,0,30.41,1029.7,44,PC,Partly Cloudy
BUF2013,8-Sep-13,8-Sep-13,1:00,13,NE,-10,BUF,44,U,51,2013,Week 1,69519,BUF,10,-10,ATL,21,23,N,73079,0,40,65,0,Buffalo,KBUF,KBUF4152513,62,68,69,97,8,15,64,9.1,377,0,0,CLR,Mostly Clear,728,65,65,47,52,55,100,7,90,40,BKN,10,518,75,593,751,826,1073,0,0,0,30.07,1018.4,44,PC,Partly Cloudy
BUF2014,9-Nov-14,9-Nov-14,1:00,13,BUF,-1.5,KC,30,U,42,2014,Week 10,68119,BUF,-1.5,1.5,MIN,13,17,Y,71857,0,41,41,0,Buffalo,KBUF,KBUF4195213,41,49,70,86,9,16,98,10,3,0.01,0,CLR,Mostly Clear,728,42,35,32,68,38,230,12,100,28,OVC,10,193,39,232,386,425,551,0,0,0,29.9,1012.6,42,MC,Mostly Cloudy
BUF2017,10-Dec-17,10-Dec-17,1:00,13,BUF,-3,IND,20,U,36.5,2017,Week 14,60222,BUF,-3,3,JAX,13,7,Y,71608,0,44,45,0,Buffalo,KBUF,KBUF4307913,28,29,78,92,12,20,100,6.4,0,0.05,2.1,SNOW,Light Snow,728,29,18,21,72,26,260,15,100,32,OVC,5,148,30,178,295,325,422,0,0,0,29.82,1010.7,9,SNOW,Light Snow
BUF2017,10-Sep-17,10-Sep-17,1:00,13,BUF,-7.5,NYJ,33,U,42,2017,Week 1,68751,BUF,-7.5,7.5,NYJ,21,12,Y,71608,0,44,44,0,Buffalo,KBUF,KBUF4298813,56,67,71,93,4,9,15,10,561,0,0,CLR,Fair,728,65,65,45,49,54,370,3,40,250,SCT,10,622,74,696,740,814,1057,0,0,0,30.48,1032.2,44,PC,Partly Cloudy
BUF2016,11-Dec-16,11-Dec-16,1:00,13,PIT,-2,BUF,47,O,45.5,2016,Week 14,69657,BUF,2,-2,TB,20,27,Y,71608,0,43,24,0,Buffalo,KBUF,KBUF4271513,26,29,80,89,9,17,99,3.8,0,0.27,3.9,SNOW,Light Snow,728,26,16,21,81,24,170,10,100,16,VV,1.8,146,29,176,293,322,419,0,0,0,30.29,1025.8,9,SNOW,Light Snow
BUF2017,12-Nov-17,12-Nov-17,1:00,13,NO,-2,BUF,57,O,48,2017,Week 10,67501,BUF,2,-2,NO,10,47,Y,71608,0,44,42,0,Buffalo,KBUF,KBUF4305113,35,42,58,86,5,7,100,10,0,0.02,0,MC,Overcast,728,39,39,22,50,33,370,3,100,80,OVC,10,186,37,224,373,410,532,0,0,0,30.34,1028.4,40,MC,Overcast
BUF2014,12-Oct-14,12-Oct-14,1:00,13,BUF, PK,NE,59,O,44.5,2014,Week 6,70185,BUF, PK,PK,TEN,22,37,PK,71857,0,41,59,0,Buffalo,KBUF,KBUF4192413,48,61,65,89,5,10,12,10,563,0,0,CLR,Mostly Clear,728,58,58,34,41,47,120,5,5,250,FEW,10,535,54,589,543,597,775,0,0,0,30.22,1023.3,45,CLR,Mostly Clear
BUF2013,13-Oct-13,13-Oct-13,1:00,13,CIN,-6,BUF,51,O,41.5,2013,Week 6,67739,BUF,6,-6,CLE,24,27,N,73079,0,40,68,0,Buffalo,KBUF,KBUF4156013,63,68,71,96,7,13,94,8.4,0,0.32,0,RAIN,Light Rain,728,68,68,58,70,62,210,9,100,30,OVC,10,268,54,322,537,591,767,0,0,0,30.24,1024,44,PC,Partly Cloudy
BUF2015,13-Sep-15,13-Sep-15,1:00,13,IND,-1,BUF,41,U,44.5,2015,Week 1,70319,BUF,1,-1,NO,27,14,Y,71870,0,42,53,0,Buffalo,KBUF,KBUF4226013,54,56,88,93,11,16,100,7.6,0,0.41,0,RAIN,Light Rain,728,55,51,50,83,52,260,16,100,14,OVC,8,362,72,434,723,795,1032,99,0.02,0,29.83,1010,18,RAIN,Light Rain
BUF2014,14-Dec-14,14-Dec-14,1:00,13,GB,-3.5,BUF,34,U,50,2014,Week 15,70214,BUF,3.5,-3.5,LAC,21,13,Y,71857,0,41,34,0,Buffalo,KBUF,KBUF4198713,37,38,92,93,8,12,100,5.5,0,0,0,RAIN,Light Drizzle,728,38,31,35,89,37,260,10,100,9,OVC,5,146,29,176,293,322,418,0,0,0,30,1015.9,42,MC,Mostly Cloudy
BUF2014,14-Sep-14,14-Sep-14,1:00,13,BUF,-1,MIA,39,U,43,2014,Week 2,69954,BUF,-1,1,MIN,29,10,Y,71857,0,41,61,0,Buffalo,KBUF,KBUF4189613,53,62,68,90,4,12,55,10,202,0,0,CLR,Mostly Clear,728,58,58,39,50,49,0,0,100,40,BKN,10,244,72,316,717,789,1024,0,0,0,30.3,1026.2,44,PC,Partly Cloudy
BUF2013,15-Sep-13,15-Sep-13,1:00,13,CAR,-3.5,BUF,47,O,43.5,2013,Week 2,67819,BUF,3.5,-3.5,SEA,24,23,N,73079,0,40,66,0,Buffalo,KBUF,KBUF4153213,57,67,68,89,8,14,82,9.9,3,0.13,0,CLR,Mostly Clear,728,65,65,49,56,56,220,10,100,39,OVC,10,444,71,515,711,782,1016,0,0,0,30.1,1019.3,45,CLR,Mostly Clear
BUF2016,15-Sep-16,15-Sep-16,8:25,20,BUF, PK,NYJ,68,O,40.5,2016,Week 2,70256,BUF, PK,PK,LAR,31,37,PK,71608,0,43,54,0,Buffalo,KBUF,KBUF4262820,60,70,71,89,6,13,10,10,630,0,0,CLR,Mostly Clear,728,59,57,52,78,55,50,9,10,260,FEW,10,0,0,0,0,0,0,0,0,0,30.25,1024.5,45,CLR,Mostly Clear
BUF2016,16-Oct-16,16-Oct-16,1:00,13,BUF,-7.5,SF,61,O,44,2016,Week 6,70003,BUF,-7.5,7.5,DEN,45,16,Y,71608,0,43,72,0,Buffalo,KBUF,KBUF4265913,67,74,72,93,14,24,99,9.8,0,0.01,0,CLR,Mostly Clear,728,72,72,58,61,64,230,24,100,30,BKN,10,87,51,138,512,563,732,0,0,0,29.94,1013.9,45,CLR,Mostly Clear
BUF2017,17-Dec-17,17-Dec-17,1:00,13,BUF,-3.5,MIA,40,P,40,2017,Week 15,62202,BUF,-3.5,3.5,MIA,24,16,Y,71608,0,44,81,0,Buffalo,KBUF,KBUF4308613,22,25,75,81,7,10,100,10,0,0,0,MC,Overcast,728,23,14,14,68,20,50,8,100,200,BKN,10,89,29,118,291,320,416,0,0,0,30.21,1024.3,42,MC,Mostly Cloudy
BUF2013,17-Nov-13,17-Nov-13,1:00,13,NYJ,-2,BUF,51,O,39,2013,Week 11,68036,BUF,2,-2,LAR,37,14,Y,73079,0,40,62,0,Buffalo,KBUF,KBUF4159513,59,64,74,89,17,25,98,9.6,12,0.42,0,MC,Mostly Cloudy,728,61,58,53,75,57,190,22,100,23,BKN,10,90,35,125,352,387,503,0,0,0,29.77,1008,40,MC,Overcast
BUF2016,18-Dec-16,18-Dec-16,1:00,13,BUF,-10.5,CLE,46,O,44,2016,Week 15,66529,BUF,-10.5,10.5,PHI,33,13,Y,71608,0,43,25,0,Buffalo,KBUF,KBUF4272213,26,33,75,96,11,23,95,7.4,0,0.19,0,SNOW,Light Snow,728,26,13,15,63,23,290,17,100,30,BKN,10,13,29,42,291,320,415,0,0,0,30.15,1021.2,44,PC,Partly Cloudy
BUF2015,18-Oct-15,18-Oct-15,1:00,13,CIN,-3,BUF,55,O,42,2015,Week 6,69593,BUF,3,-3,DEN,21,34,Y,71870,0,42,37,0,Buffalo,KBUF,KBUF4229513,38,45,65,78,6,17,85,10,3,0.01,0,CLR,Mostly Clear,728,43,38,28,56,37,330,9,100,26,BKN,10,147,51,198,506,557,723,99,0.01,0,30.35,1027.8,18,RAIN,Light Rain
BUF2014,19-Oct-14,19-Oct-14,1:00,13,BUF,-6.5,MIN,33,U,43,2014,Week 7,68477,BUF,-6.5,6.5,DET,17,16,N,71857,0,41,45,0,Buffalo,KBUF,KBUF4193113,42,47,64,79,10,17,91,10,83,0,0,MC,Mostly Cloudy,728,45,39,29,54,38,250,12,100,39,BKN,10,145,50,195,500,550,714,0,0,0,30.11,1019.5,42,MC,Mostly Cloudy
BUF2019,20-Oct-19,20-Oct-19,1:00,13,BUF,-4.5,MIA,52,O,31,2019,Week 7,68340,BUF,-4.5,4.5,MIA,31,21,Y,71608,0,46,38,0,Buffalo,KBUF,KBUF4375813,52,66,70,86,5,8,56,10,223,0,0,PC,High Clouds,692,64,64,43,46,53,260,7,50,220,SCT,10,409,49,458,494,543,706,0,0,0,29.9,1012.6,44,PC,Partly Cloudy
BUF2015,20-Sep-15,20-Sep-15,1:00,13,BUF,-1,NE,72,O,44.5,2015,Week 2,70858,BUF,-1,1,WAS,32,40,Y,71870,0,42,62,0,Buffalo,KBUF,KBUF4226713,58,67,67,87,5,9,68,10,159,0,0,CLR,Mostly Clear,728,65,65,44,47,54,100,9,75,30,BKN,10,522,68,590,682,750,974,0,0,0,30.19,1022.2,45,CLR,Mostly Clear
BUF2014,21-Sep-14,21-Sep-14,1:00,13,BUF,-2.5,LAC,32,U,45.5,2014,Week 3,68611,BUF,-2.5,2.5,GB,10,22,Y,71857,0,41,72,0,Buffalo,KBUF,KBUF4190313,67,74,72,87,17,26,79,9.6,282,0.11,0,CLR,Mostly Clear,728,72,72,62,71,66,230,25,45,20,SCT,10,543,68,611,675,743,965,0,0,0,29.58,1001.7,45,CLR,Mostly Clear
BUF2013,22-Dec-13,22-Dec-13,1:00,13,BUF,-1,MIA,19,U,42,2013,Week 16,54305,BUF,-1,1,SF,19,0,Y,73079,0,40,41,0,Buffalo,KBUF,KBUF4163013,36,42,92,97,15,24,100,7.2,0,1.38,0,SNOW,Freezing Rain,728,34,29,33,97,34,90,5,100,5,OVC,1.2,146,29,175,292,321,417,99,0.04,0,29.67,1004.6,19,RAIN,Moderate Rain
BUF2017,22-Oct-17,22-Oct-17,1:00,13,BUF,-3,TB,57,O,46,2017,Week 7,68561,BUF,-3,3,TB,30,27,N,71608,0,44,86,0,Buffalo,KBUF,KBUF4303013,65,79,56,75,7,10,79,10,24,0,0,PC,High Clouds,728,76,77,47,36,60,220,7,100,270,BKN,10,303,48,351,481,529,688,0,0,0,30.22,1023.3,52,PC,High Clouds
BUF2019,22-Sep-19,22-Sep-19,1:00,13,BUF,-6,CIN,38,U,43.5,2019,Week 3,69448,BUF,-6,6,CIN,21,17,N,71608,0,46,86,0,Buffalo,KBUF,KBUF4373013,75,85,66,87,11,23,58,10,216,0,0,MC,Mostly Cloudy,692,83,85,63,51,70,240,17,30,250,SCT,10,600,67,667,669,736,956,0,0,0,30,1015.6,54,CLR,Few High Clouds
BUF2016,24-Dec-16,24-Dec-16,1:00,13,BUF,-4.5,MIA,65,O,44,2016,Week 16,64690,BUF,-4.5,4.5,PIT,31,34,N,71608,0,43,35,0,Buffalo,KBUF,KBUF4272813,37,41,78,93,11,17,100,9.2,0,0.2,0,RAIN,Light Rain,728,38,30,32,79,36,270,12,100,15,BKN,10,147,29,176,294,323,419,0,0,0,30.11,1019.8,42,MC,Mostly Cloudy
BUF2014,24-Nov-14,24-Nov-14,7:00,19,BUF,-2.5,NYJ,41,U,42.5,2014,Week 12,56044,BUF,-2.5,2.5,BAL,38,3,Y,71857,0,41,72,1,Buffalo,KBUF,KBUF4196719,53,65,71,83,23,32,83,10,87,0.13,0,CLR,Mostly Clear,728,46,38,38,73,42,240,22,30,11,SCT,10,0,0,0,0,0,0,0,0,0,29.53,1000.1,45,CLR,Mostly Clear
BUF2019,24-Nov-19,24-Nov-19,1:00,13,BUF,-3,DEN,23,O,51,2019,Week 12,67338,BUF,-3,3,JAX,20,3,Y,71608,0,46,42,0,Buffalo,KBUF,KBUF4379313,40,45,75,92,13,23,84,9.6,141,0,0,MC,Overcast,692,40,30,31,70,36,260,23,90,200,BKN,9,215,33,248,328,361,469,0,0,0,29.53,1000.6,42,MC,Mostly Cloudy
BUF2017,24-Sep-17,24-Sep-17,1:00,13,DEN,-3.5,BUF,42,O,39.5,2017,Week 3,68865,BUF,3.5,-3.5,CIN,26,16,Y,71608,0,44,76,0,Buffalo,KBUF,KBUF4300213,76,90,69,90,4,7,1,9.9,708,0,0,CLR,Fair,728,87,90,66,50,73,250,5,5,45,FEW,10,641,66,707,657,723,938,0,0,0,30.14,1020.2,46,CLR,Fair
BUF2016,25-Sep-16,25-Sep-16,1:00,13,ARI,-5,BUF,51,O,48,2016,Week 3,68647,BUF,5,-5,BUF,33,18,Y,71608,0,43,62,0,Buffalo,KBUF,KBUF4263813,55,67,64,83,5,9,34,10,329,0,0,CLR,Fair,728,64,64,40,41,52,360,5,65,250,SCT,10,506,64,570,645,709,921,0,0,0,30.21,1023.3,44,PC,Partly Cloudy
BUF2015,27-Dec-15,27-Dec-15,1:00,13,BUF,-6.5,DAL,22,U,42.5,2015,Week 16,70172,BUF,-6.5,6.5,PIT,16,6,Y,71870,0,42,37,0,Buffalo,KBUF,KBUF4236513,39,48,90,97,9,16,96,6.5,0,0.73,0,RAIN,Light Rain,728,37,30,35,93,36,320,10,100,6,OVC,10,148,30,178,296,326,423,99,0.01,0,29.98,1015.4,18,RAIN,Light Rain
BUF2016,27-Nov-16,27-Nov-16,1:00,13,BUF,-8.5,JAX,49,O,44,2016,Week 12,67849,BUF,-8.5,8.5,TEN,28,21,N,71608,0,43,38,0,Buffalo,KBUF,KBUF4270113,39,46,74,86,7,14,78,10,168,0,0,CLR,Mostly Clear,728,43,37,32,65,38,290,12,100,26,BKN,10,158,32,190,317,349,453,0,0,0,30.14,1020.6,45,CLR,Mostly Clear
BUF2019,27-Oct-19,27-Oct-19,1:00,13,PHI,-3,BUF,44,O,47,2019,Week 8,69435,BUF,3,-3,CAR,13,31,Y,71608,0,46,67,0,Buffalo,KBUF,KBUF4376513,54,61,88,100,19,30,96,7.8,36,0.86,0,RAIN,Light Rain,692,52,45,50,93,51,240,26,100,27,OVC,2.5,226,45,272,453,498,647,0,0,0,29.69,1005.6,18,RAIN,Light Rain
BUF2017,29-Oct-17,29-Oct-17,1:00,13,BUF,-2,OAK,48,O,47.5,2017,Week 8,69599,BUF,-2,2,DAL,34,14,Y,71608,0,44,29,0,Buffalo,KBUF,KBUF4303713,43,44,90,97,6,14,100,9.2,0,0.31,0,RAIN,Light Rain,728,43,39,41,93,42,20,7,100,50,OVC,7,220,44,264,441,485,631,99,0.03,0,29.71,1006.5,18,RAIN,Light Rain
BUF2013,29-Sep-13,29-Sep-13,1:00,13,BAL,-3.5,BUF,43,U,45,2013,Week 4,68296,BUF,3.5,-3.5,LAC,23,20,N,73079,0,40,74,0,Buffalo,KBUF,KBUF4154613,64,75,66,83,6,12,60,10,231,0,0,CLR,Mostly Clear,728,74,77,53,48,62,190,8,75,200,BKN,10,484,63,547,626,689,894,0,0,0,30.03,1016.9,45,CLR,Mostly Clear
BUF2019,29-Sep-19,29-Sep-19,1:00,13,NE,-7,BUF,26,U,41.5,2019,Week 4,70317,BUF,7,-7,NE,10,16,N,71608,0,46,82,0,Buffalo,KBUF,KBUF4373713,56,62,77,96,11,15,94,10,15,0,0,MC,Mostly Cloudy,692,62,60,48,60,54,60,13,100,250,BKN,10,424,63,487,626,689,894,0,0,0,30.36,1028.2,52,PC,High Clouds
BUF2014,30-Nov-14,30-Nov-14,1:00,13,BUF,-3,CLE,36,U,42,2014,Week 13,68576,BUF,-3,3,OAK,26,10,Y,71857,0,41,57,0,Buffalo,KBUF,KBUF4197313,54,60,68,90,18,22,99,9.8,8,0.08,0,MC,Mostly Cloudy,728,56,53,46,70,51,210,14,100,27,OVC,10,156,31,188,313,344,447,0,0,0,29.78,1008.4,40,MC,Overcast
BUF2016,30-Oct-16,30-Oct-16,1:00,13,NE,-6.5,BUF,66,O,48.5,2016,Week 8,70442,BUF,6.5,-6.5,BUF,25,41,Y,71608,0,43,50,0,Buffalo,KBUF,KBUF4267313,48,55,82,90,8,14,96,9.9,0,0.04,0,MC,Mostly Cloudy,728,46,42,43,89,45,350,9,100,8,OVC,9,216,43,258,431,474,615,99,0.03,0,29.99,1015.7,18,RAIN,Light Rain
CAR2013,1-Dec-13,1-Dec-13,1:00,13,CAR,-7,TB,33,U,41,2013,Week 13,72795,CAR,-7,7,OAK,27,6,Y,73778,0,17,57,0,Charlotte,KCLT,KCLT4160913,41,57,71,93,2,9,50,10,384,0,0,CLR,Mostly Clear,748,54,54,31,42,44,0,0,25,60,SCT,10,407,45,452,450,495,643,0,0,0,30.17,1021.7,45,CLR,Mostly Clear
CAR2019,1-Dec-19,1-Dec-19,1:00,13,CAR,-5,WAS,50,O,50,2019,Week 13,71504,CAR,-5,5,DEN,21,29,Y,75523,0,23,35,0,Charlotte,KCLT,KCLT4380013,57,68,68,93,10,23,58,7.2,214,0.6,0,CLR,Mostly Clear,722,65,64,57,76,60,220,15,100,250,BKN,10,153,45,198,450,495,642,0,0,0,29.53,999.4,42,MC,Mostly Cloudy
CAR2015,2-Nov-15,2-Nov-15,8:30,20,CAR,-5.5,IND,55,O,45.5,2015,Week 8,74136,CAR,-5.5,5.5,ATL,29,26,N,75419,0,19,62,0,Charlotte,KCLT,KCLT4231020,63,65,92,96,7,13,100,4.1,0,3.08,0,RAIN,Light Rain,748,65,65,62,90,63,90,7,100,6,OVC,5,0,0,0,0,0,0,99,0.03,0,30.02,1016.6,18,RAIN,Light Rain
CAR2015,3-Jan-16,3-Jan-16,4:25,16,CAR,-10,TB,48,O,45,2015,Week 17,74169,CAR,-10,10,DEN,38,10,Y,75419,0,19,63,0,Charlotte,KCLT,KCLT4237216,41,53,62,92,3,7,49,10,160,0,0,PC,High Clouds,748,52,51,22,31,40,220,5,70,230,BKN,10,103,13,116,131,144,188,0,0,0,29.93,1013.5,52,PC,High Clouds
CAR2013,3-Nov-13,3-Nov-13,1:00,13,CAR,-8.5,ATL,44,U,47,2013,Week 9,73720,CAR,-8.5,8.5,NE,34,10,Y,73778,0,17,62,0,Charlotte,KCLT,KCLT4158113,52,62,57,89,8,14,1,10,621,0,0,CLR,Fair,748,61,60,34,36,48,350,9,5,55,FEW,10,538,55,593,552,607,788,0,0,0,30.22,1023.3,45,CLR,Mostly Clear
CAR2019,3-Nov-19,3-Nov-19,1:00,13,CAR,-3,TEN,50,O,41,2019,Week 9,72540,CAR,-3,3,TEN,30,20,Y,75523,0,23,70,0,Charlotte,KCLT,KCLT4377213,48,61,53,89,5,13,2,10,632,0,0,CLR,Fair,722,59,58,30,33,46,370,7,0,400,CLR,10,552,55,607,552,607,788,0,0,0,30.26,1024.5,46,CLR,Fair
CAR2017,5-Nov-17,5-Nov-17,1:00,13,ATL,-3,CAR,37,U,42,2017,Week 9,74244,CAR,3,-3,DET,20,17,N,75523,0,21,84,0,Charlotte,KCLT,KCLT4304413,60,66,93,100,5,8,100,6.7,0,0,0,MC,Overcast,748,63,63,58,84,60,370,3,100,12,OVC,9,271,54,325,542,596,774,0,0,0,30.17,1021.2,40,MC,Overcast
CAR2014,5-Oct-14,5-Oct-14,1:00,13,CAR,-1.5,CHI,55,O,47,2014,Week 5,73659,CAR,-1.5,1.5,GB,31,24,Y,74455,0,18,63,0,Charlotte,KCLT,KCLT4191713,52,65,59,89,4,10,15,10,673,0,0,CLR,Mostly Clear,748,62,61,31,31,48,230,10,0,201,CLR,10,710,71,781,710,781,1014,0,0,0,29.99,1015.7,46,CLR,Fair
CAR2019,6-Oct-19,6-Oct-19,1:00,13,CAR,-3.5,JAX,61,O,44,2019,Week 5,72762,CAR,-3.5,3.5,NYJ,34,27,Y,75523,0,23,23,0,Charlotte,KCLT,KCLT4374413,69,81,67,78,7,10,98,9.9,21,0.03,0,MC,Mostly Cloudy,722,75,78,59,58,65,110,3,100,250,BKN,10,292,70,362,704,774,1006,0,0,0,30.27,1024.4,42,MC,Mostly Cloudy
CAR2015,8-Nov-15,8-Nov-15,1:00,13,GB,-2.5,CAR,66,O,46,2015,Week 9,74461,CAR,2.5,-2.5,NYJ,37,29,Y,75419,0,19,53,0,Charlotte,KCLT,KCLT4231613,53,58,51,80,10,14,100,10,3,0.05,0,MC,Overcast,748,55,53,34,45,46,60,9,95,50,BKN,10,277,53,330,528,581,754,0,0,0,30.36,1028.2,45,CLR,Mostly Clear
CAR2013,8-Sep-13,8-Sep-13,1:00,13,SEA,-3,CAR,19,U,44.5,2013,Week 1,73294,CAR,3,-3,NYG,7,12,Y,73778,0,17,87,0,Charlotte,KCLT,KCLT4152513,76,89,72,100,2,9,34,9.6,335,0,0,CLR,Mostly Clear,748,86,88,63,46,71,350,5,100,50,BKN,10,324,85,409,852,937,1217,0,0,0,29.96,1014.5,45,CLR,Mostly Clear
CAR2019,8-Sep-19,8-Sep-19,1:03,13,LAR,-1.5,CAR,57,O,49.5,2019,Week 1,72005,CAR,1.5,-1.5,CHI,27,30,Y,75523,0,23,38,0,Charlotte,KCLT,KCLT4371613,81,93,53,66,6,10,7,9.9,690,0,0,CLR,Fair,722,89,92,65,45,73,350,5,5,50,FEW,10,831,85,916,852,937,1217,0,0,0,30.03,1015.9,45,CLR,Mostly Clear
CAR2017,10-Dec-17,10-Dec-17,1:00,13,MIN,-2.5,CAR,55,O,40.5,2017,Week 14,73728,CAR,2.5,-2.5,MIN,31,24,Y,75523,0,21,88,0,Charlotte,KCLT,KCLT4307913,36,47,62,79,5,8,1,10,583,0,0,CLR,Fair,748,42,42,23,47,35,0,0,0,201,CLR,10,436,44,480,436,480,623,0,0,0,30.18,1022.4,46,CLR,Fair
CAR2016,10-Oct-16,10-Oct-16,8:30,20,CAR,-6,TB,31,U,47,2016,Week 5,73425,CAR,-6,6,GB,14,17,N,75419,0,20,57,0,Charlotte,KCLT,KCLT4265320,60,73,54,83,7,12,4,10,662,0,0,CLR,Mostly Clear,748,62,62,42,48,52,370,5,5,250,FEW,10,0,0,0,0,0,0,0,0,0,30.32,1026.9,45,CLR,Mostly Clear
CAR2016,11-Dec-16,11-Dec-16,1:00,13,CAR,-1,LAC,44,U,48.5,2016,Week 14,73856,CAR,-1,1,CIN,28,16,Y,75419,0,20,42,0,Charlotte,KCLT,KCLT4271513,35,43,60,82,3,9,76,10,89,0,0,MC,Overcast,748,42,42,13,30,32,0,0,100,35,OVC,10,217,43,260,434,477,620,0,0,0,30.42,1030.3,40,MC,Overcast
CAR2017,12-Oct-17,12-Oct-17,8:25,20,CAR,-3,PHI,51,O,43.5,2017,Week 6,74373,CAR,-3,3,MIN,23,28,Y,75523,0,21,44,0,Charlotte,KCLT,KCLT4302020,77,87,84,100,7,15,81,8.3,75,0,0,MC,Overcast,748,75,79,69,82,71,50,13,100,17,OVC,10,0,0,0,0,0,0,0,0,0,30.11,1019.7,40,MC,Overcast
CAR2019,12-Sep-19,12-Sep-19,8:20,20,CAR,-6.5,TB,34,U,48,2019,Week 2,71101,CAR,-6.5,6.5,MIA,14,20,N,75523,0,23,33,0,Charlotte,KCLT,KCLT4372020,84,98,60,91,4,10,34,8.6,566,0,0,CLR,Fair,722,86,89,66,51,73,100,10,100,250,BKN,10,0,0,0,0,0,0,0,0,0,30.11,1018.7,42,MC,Mostly Cloudy
CAR2015,13-Dec-15,13-Dec-15,1:00,13,CAR,-8.5,ATL,38,U,45.5,2015,Week 14,74420,CAR,-8.5,8.5,HOU,38,0,Y,75419,0,19,70,0,Charlotte,KCLT,KCLT4235113,60,71,79,97,4,13,82,6.9,103,0,0,CLR,Mostly Clear,748,69,69,53,57,60,200,10,90,27,BKN,10,299,43,342,434,477,620,0,0,0,30.16,1021.4,44,PC,Partly Cloudy
CAR2016,13-Nov-16,13-Nov-16,1:00,13,CAR,-3,KC,37,U,44,2016,Week 10,74181,CAR,-3,3,DAL,17,20,N,75419,0,20,48,0,Charlotte,KCLT,KCLT4268713,42,52,76,92,4,8,86,9.9,0,0.05,0,CLR,Mostly Clear,748,47,47,38,71,43,0,0,100,55,BKN,10,314,50,364,503,553,718,0,0,0,30.28,1025.3,45,CLR,Mostly Clear
CAR2017,13-Nov-17,13-Nov-17,8:30,20,CAR,-8,MIA,66,O,38.5,2017,Week 10,72790,CAR,-8,8,SF,45,21,Y,75523,0,21,87,0,Charlotte,KCLT,KCLT4305220,49,63,84,100,6,14,52,6.3,300,0.04,0,CLR,Fair,748,50,45,39,66,45,10,14,5,60,FEW,10,0,0,0,0,0,0,0,0,0,30.31,1026.5,46,CLR,Fair
CAR2014,14-Dec-14,14-Dec-14,1:00,13,CAR,-3.5,TB,36,U,41.5,2014,Week 15,72842,CAR,-3.5,3.5,NYJ,19,17,N,74455,0,18,58,0,Charlotte,KCLT,KCLT4198713,46,63,40,69,3,8,0,10,588,0,0,CLR,Fair,748,58,58,22,25,43,0,0,0,201,CLR,10,433,43,476,433,476,619,0,0,0,30.03,1017,46,CLR,Fair
CAR2014,14-Sep-14,14-Sep-14,1:00,13,CAR,-1.5,DET,31,U,43.5,2014,Week 2,73586,CAR,-1.5,1.5,CIN,24,7,Y,74455,0,18,68,0,Charlotte,KCLT,KCLT4189613,66,69,74,86,6,10,100,10,0,0,0,MC,Overcast,748,69,69,55,61,61,70,7,100,24,OVC,10,412,82,494,823,905,1175,0,0,0,30.24,1024.2,40,MC,Overcast
CAR2013,15-Dec-13,15-Dec-13,4:05,16,CAR,-10,NYJ,50,O,40.5,2013,Week 15,73251,CAR,-10,10,BUF,30,20,N,73778,0,17,54,0,Charlotte,KCLT,KCLT4162316,43,55,76,100,6,12,46,6.5,372,0.01,0,CLR,Mostly Clear,748,52,49,28,40,42,300,9,25,35,SCT,10,93,10,103,102,112,146,0,0,0,29.95,1014.3,45,CLR,Mostly Clear
CAR2019,15-Dec-19,15-Dec-19,1:00,13,CAR,-1.5,SEA,54,O,48,2019,Week 15,72544,CAR,-1.5,1.5,SEA,24,30,Y,75523,0,23,66,0,Charlotte,KCLT,KCLT4381413,47,61,67,87,5,10,3,10,549,0,0,CLR,Fair,722,57,56,36,45,47,240,6,0,400,CLR,10,432,43,475,432,475,617,0,0,0,30.1,1019.1,46,CLR,Fair
CAR2014,16-Nov-14,16-Nov-14,1:00,13,ATL,-2.5,CAR,36,U,47,2014,Week 11,73314,CAR,2.5,-2.5,CHI,17,19,N,74455,0,18,52,0,Charlotte,KCLT,KCLT4195913,45,53,45,66,3,9,93,10,96,0,0,MC,Overcast,748,52,52,19,27,39,0,0,100,28,BKN,10,168,49,217,495,544,707,0,0,0,30.22,1023.2,44,PC,Partly Cloudy
CAR2017,17-Dec-17,17-Dec-17,1:00,13,CAR,-3,GB,55,O,47,2017,Week 15,74447,CAR,-3,3,GB,31,24,Y,75523,0,21,75,0,Charlotte,KCLT,KCLT4308613,43,56,62,85,5,9,79,10,22,0,0,MC,Overcast,748,50,48,31,48,42,240,6,100,95,OVC,10,216,43,259,432,475,617,0,0,0,30.22,1023.7,40,MC,Overcast
CAR2016,17-Nov-16,17-Nov-16,8:25,20,CAR,-3.5,NO,43,U,53.5,2016,Week 11,73288,CAR,-3.5,3.5,BAL,23,20,N,75419,0,20,57,0,Charlotte,KCLT,KCLT4269120,56,72,60,100,3,6,1,9.7,603,0,0,CLR,Fair,748,59,59,41,51,50,180,3,0,201,CLR,10,0,0,0,0,0,0,0,0,0,30.14,1020.7,46,CLR,Fair
CAR2019,17-Nov-19,17-Nov-19,1:00,13,CAR,-2,ATL,32,O,44,2019,Week 11,73106,CAR,-2,2,ATL,3,29,Y,75523,0,23,69,0,Charlotte,KCLT,KCLT4378613,48,59,58,77,11,15,56,10,438,0,0,MC,Mostly Cloudy,722,56,54,36,47,47,30,8,10,65,FEW,10,466,49,515,491,540,701,0,0,0,30.02,1016.4,45,CLR,Mostly Clear
CAR2017,17-Sep-17,17-Sep-17,1:00,13,CAR,-6.5,BUF,12,U,43.5,2017,Week 2,74122,CAR,-6.5,6.5,ARI,9,3,N,75523,0,21,53,0,Charlotte,KCLT,KCLT4299513,75,87,75,97,5,9,24,9.9,551,0,0,PC,Partly Cloudy,748,85,87,63,48,71,10,6,40,100,SCT,10,646,81,727,808,889,1154,0,0,0,30.11,1018.8,44,PC,Partly Cloudy
CAR2013,18-Nov-13,18-Nov-13,8:40,20,CAR,-3,NE,44,U,46.5,2013,Week 11,74225,CAR,-3,3,ATL,24,20,Y,73778,0,17,59,0,Charlotte,KCLT,KCLT4159620,66,78,61,97,9,23,32,9.7,534,0.03,0,CLR,Mostly Clear,748,58,56,31,36,46,330,9,0,201,CLR,10,0,0,0,0,0,0,0,0,0,29.93,1013.7,46,CLR,Fair
CAR2016,18-Sep-16,18-Sep-16,1:00,13,CAR,-12.5,SF,73,O,44.5,2016,Week 2,74143,CAR,-12.5,12.5,BAL,46,27,Y,75419,0,20,85,0,Charlotte,KCLT,KCLT4263113,78,89,67,91,4,8,81,10,39,0,0,MC,Mostly Cloudy,748,87,90,66,50,73,130,5,90,250,BKN,10,551,80,631,798,878,1140,0,0,0,30.03,1016.1,52,PC,High Clouds
CAR2013,20-Oct-13,20-Oct-13,1:00,13,CAR,-7,LAR,45,O,42.5,2013,Week 7,72686,CAR,-7,7,BUF,30,15,Y,73778,0,17,68,0,Charlotte,KCLT,KCLT4156713,55,68,67,100,4,16,6,9.6,610,0,0,CLR,Mostly Clear,748,62,62,37,40,50,100,5,25,55,SCT,10,572,63,635,625,688,893,0,0,0,30.06,1018,45,CLR,Mostly Clear
CAR2015,20-Sep-15,20-Sep-15,1:00,13,CAR,-3,HOU,41,P,41,2015,Week 2,73254,CAR,-3,3,BAL,24,17,Y,75419,0,19,88,0,Charlotte,KCLT,KCLT4226713,76,91,62,90,4,14,62,10,267,0,0,CLR,Mostly Clear,748,86,86,59,40,69,350,3,90,55,BKN,10,547,79,626,793,872,1132,0,0,0,29.93,1013.6,44,PC,Partly Cloudy
CAR2014,21-Dec-14,21-Dec-14,1:00,13,CAR,-6,CLE,30,U,40,2014,Week 16,73810,CAR,-6,6,BUF,17,13,N,74455,0,18,50,0,Charlotte,KCLT,KCLT4199413,46,51,66,73,4,9,100,10,0,0,0,MC,Overcast,748,48,48,34,58,42,40,3,100,22,OVC,10,216,43,259,432,475,618,0,0,0,30.23,1023.8,45,CLR,Mostly Clear
CAR2014,21-Sep-14,21-Sep-14,8:30,20,CAR,-3,PIT,56,O,42.5,2014,Week 3,73945,CAR,-3,3,LAC,19,37,Y,74455,0,18,74,0,Charlotte,KCLT,KCLT4190320,73,85,70,93,5,9,30,9.6,621,0,0,CLR,Mostly Clear,748,76,79,64,67,68,210,6,100,120,BKN,10,0,0,0,0,0,0,0,0,0,29.85,1010.9,42,MC,Mostly Cloudy
CAR2013,22-Dec-13,22-Dec-13,1:00,13,CAR,-3,NO,30,U,44.5,2013,Week 16,73825,CAR,-3,3,GB,17,13,Y,73778,0,17,72,0,Charlotte,KCLT,KCLT4163013,67,71,93,100,13,17,100,7.6,0,1.44,0,MC,Mostly Cloudy,748,70,70,66,87,67,190,17,100,15,OVC,10,216,43,259,432,475,618,0,0,0,30.02,1016.6,42,MC,Mostly Cloudy
CAR2015,22-Nov-15,22-Nov-15,1:00,13,CAR,-7,WAS,60,O,44.5,2015,Week 11,74418,CAR,-7,7,CHI,44,16,Y,75419,0,19,52,0,Charlotte,KCLT,KCLT4233013,47,56,61,86,7,15,53,10,216,0,0,CLR,Mostly Clear,748,53,49,32,45,44,100,13,70,43,BKN,10,308,47,355,474,521,678,0,0,0,29.97,1014.8,42,MC,Mostly Cloudy
CAR2013,22-Sep-13,22-Sep-13,1:00,13,NYG,-2.5,CAR,38,U,47.5,2013,Week 3,73748,CAR,2.5,-2.5,GB,38,0,Y,73778,0,17,77,0,Charlotte,KCLT,KCLT4153913,69,80,68,97,8,14,33,10,646,0,0,CLR,Mostly Clear,748,77,78,52,42,62,360,7,25,55,SCT,10,716,78,794,782,860,1117,0,0,0,29.82,1009.9,45,CLR,Mostly Clear
CAR2016,24-Dec-16,24-Dec-16,1:00,13,ATL,-3,CAR,49,P,49,2016,Week 16,73549,CAR,3,-3,MIA,16,33,Y,75419,0,20,52,0,Charlotte,KCLT,KCLT4272813,53,64,60,86,4,10,88,10,0,0,0,MC,Mostly Cloudy,748,58,57,43,58,50,220,6,100,70,BKN,10,165,43,208,434,477,620,0,0,0,30.26,1024.8,45,CLR,Mostly Clear
CAR2017,24-Dec-17,24-Dec-17,1:00,13,CAR,-10,TB,41,U,47,2017,Week 16,71463,CAR,-10,10,TB,22,19,N,75523,0,21,87,0,Charlotte,KCLT,KCLT4309313,51,60,75,94,8,14,71,10,12,0,0,MC,Mostly Cloudy,748,55,55,43,64,49,370,3,100,250,BKN,10,191,43,234,434,477,619,0,0,0,30,1015.6,42,MC,Mostly Cloudy
CAR2017,24-Sep-17,24-Sep-17,1:00,13,CAR,-5,NO,47,O,46.5,2017,Week 3,73775,CAR,-5,5,NO,13,34,Y,75523,0,21,40,0,Charlotte,KCLT,KCLT4300213,74,86,73,93,7,13,70,10,103,0,0,PC,High Clouds,748,85,88,66,53,72,30,13,90,250,BKN,10,532,77,609,771,848,1102,0,0,0,30.08,1017.5,52,PC,High Clouds
CAR2015,25-Oct-15,25-Oct-15,8:30,20,CAR,-2.5,PHI,43,U,46,2015,Week 7,74194,CAR,-2.5,2.5,HOU,27,16,Y,75419,0,19,64,0,Charlotte,KCLT,KCLT4230220,67,75,76,90,3,14,99,9.7,0,0,0,MC,Mostly Cloudy,748,68,68,60,76,63,210,3,100,150,OVC,10,0,0,0,0,0,0,0,0,0,30.16,1021.3,42,MC,Mostly Cloudy
CAR2016,25-Sep-16,25-Sep-16,1:00,13,CAR,-6.5,MIN,32,U,42.5,2016,Week 3,73813,CAR,-6.5,6.5,CLE,10,22,Y,75419,0,20,84,0,Charlotte,KCLT,KCLT4263813,78,90,68,90,5,10,35,10,586,0,0,PC,Partly Cloudy,748,85,88,66,53,72,0,0,20,36,SCT,10,684,76,760,760,836,1086,0,0,0,30.11,1018.8,44,PC,Partly Cloudy
CAR2014,26-Oct-14,26-Oct-14,1:00,13,SEA,-6,CAR,22,U,45,2014,Week 8,74042,CAR,6,-6,SF,9,13,N,74455,0,18,81,0,Charlotte,KCLT,KCLT4193813,65,83,52,83,6,14,0,10,655,0,0,CLR,Fair,748,81,81,43,26,60,280,13,0,201,CLR,10,592,59,651,592,651,846,0,0,0,29.91,1012.7,46,CLR,Fair
CAR2015,27-Sep-15,27-Sep-15,1:00,13,CAR,-9.5,NO,49,O,43,2015,Week 3,73402,CAR,-9.5,9.5,NO,27,22,N,75419,0,19,67,0,Charlotte,KCLT,KCLT4227413,66,71,91,96,9,10,100,3.3,0,0.15,0,RAIN,Light Drizzle,748,68,68,64,87,65,200,10,100,7,OVC,2,378,75,452,755,830,1078,0,0,0,30.14,1020.7,18,RAIN,Light Rain
CAR2014,30-Oct-14,30-Oct-14,8:25,20,NO,-3,CAR,38,U,49,2014,Week 9,73663,CAR,3,-3,WAS,10,28,Y,74455,0,18,53,0,Charlotte,KCLT,KCLT4194220,56,68,50,77,5,12,9,10,637,0,0,CLR,Fair,748,52,52,34,50,44,200,3,0,201,CLR,10,0,0,0,0,0,0,0,0,0,29.97,1015,46,CLR,Fair
CAR2016,30-Oct-16,30-Oct-16,1:00,13,CAR,-2.5,ARI,50,O,45.5,2016,Week 8,74088,CAR,-2.5,2.5,TB,30,20,Y,75419,0,20,80,0,Charlotte,KCLT,KCLT4267313,68,83,65,93,3,8,15,10,469,0,0,CLR,Mostly Clear,748,82,82,52,35,64,190,8,25,50,SCT,10,519,57,576,567,624,809,0,0,0,30.06,1018,45,CLR,Mostly Clear
LAR2015,1-Nov-15,1-Nov-15,1:00,13,LAR,-8,SF,33,U,41,2015,Week 8,51207,LAR,-8,8,NO,27,6,Y,67277,0,20,72,1,St. Louis,KCPS,KCPS4230913,56,72,73,97,3,9,20,7.9,570,0,0,CLR,Fair,413,68,68,48,49,57,0,0,0,201,CLR,10,482,48,530,482,530,688,0,0,0,29.98,1015.3,46,CLR,Fair
LAR2013,3-Nov-13,3-Nov-13,1:00,13,TEN,-3,LAR,49,O,41,2013,Week 9,54617,LAR,3,-3,NE,21,28,Y,67277,0,18,72,1,St. Louis,KCPS,KCPS4158113,44,58,70,100,5,12,18,7.8,619,0,0,CLR,Fair,413,56,53,31,39,45,160,12,0,201,CLR,10,471,47,518,471,518,674,0,0,0,30.23,1023.8,46,CLR,Fair
LAR2015,6-Dec-15,6-Dec-15,1:00,13,ARI,-3.5,LAR,30,U,43,2015,Week 13,51115,LAR,3.5,-3.5,DAL,3,27,Y,67277,0,20,72,1,St. Louis,KCPS,KCPS4234413,42,52,75,92,3,6,86,9.1,131,0,0,MC,Overcast,413,51,49,35,54,44,230,5,100,75,OVC,10,181,36,217,362,398,518,0,0,0,30.28,1025.4,40,MC,Overcast
LAR2013,6-Oct-13,6-Oct-13,1:00,13,LAR,-11,JAX,54,O,41,2013,Week 5,54266,LAR,-11,11,NYJ,34,20,Y,67277,0,18,72,1,St. Louis,KCPS,KCPS4155313,53,59,68,86,8,14,45,10,413,0,0,CLR,Fair,413,58,56,39,50,49,240,9,5,49,FEW,10,615,63,678,631,694,901,0,0,0,29.85,1010.7,45,CLR,Mostly Clear
LAR2014,7-Sep-14,7-Sep-14,1:00,13,LAR,-3,MIN,40,U,43.5,2014,Week 1,55919,LAR,-3,3,ATL,6,34,Y,67277,0,19,72,1,St. Louis,KCPS,KCPS4188913,66,79,73,100,3,8,0,9.4,764,0,0,CLR,Fair,413,77,78,55,47,64,130,5,0,201,CLR,10,796,80,876,796,876,1137,0,0,0,30.16,1021.4,46,CLR,Fair
LAR2013,8-Sep-13,8-Sep-13,4:25,16,LAR,-4,ARI,51,O,42.5,2013,Week 1,55279,LAR,-4,4,BAL,27,24,N,67277,0,18,72,1,St. Louis,KCPS,KCPS4152516,76,83,81,94,4,10,63,8.1,211,0.36,0,CLR,Fair,413,83,89,72,70,75,130,8,70,85,BKN,10,226,35,261,348,383,497,0,0,0,29.91,1012.8,42,MC,Mostly Cloudy
LAR2014,11-Dec-14,11-Dec-14,8:25,20,LAR,-6,ARI,18,U,40.5,2014,Week 15,55880,LAR,-6,6,HOU,6,12,N,67277,0,19,72,1,St. Louis,KCPS,KCPS4198420,33,39,76,89,2,7,62,9.1,238,0,0,MC,Overcast,413,30,30,26,85,29,0,0,0,201,CLR,7,0,0,0,0,0,0,0,0,0,30.32,1026.9,46,CLR,Fair
LAR2015,13-Dec-15,13-Dec-15,1:00,13,DET,-3,LAR,35,U,41.5,2015,Week 14,51202,LAR,3,-3,SF,21,14,Y,67277,0,20,72,1,St. Louis,KCPS,KCPS4235113,64,67,82,87,14,21,91,9.6,15,0.61,0,RAIN,Light Rain,413,65,63,59,81,62,160,21,100,19,OVC,10,178,36,214,356,392,509,0,0,0,29.65,1003.9,44,PC,Partly Cloudy
LAR2014,13-Oct-14,13-Oct-14,8:30,20,SF,-3.5,LAR,48,O,44.5,2014,Week 6,56851,LAR,3.5,-3.5,CIN,17,31,Y,67277,0,19,72,1,St. Louis,KCPS,KCPS4192520,65,70,92,100,10,16,90,7.2,8,0.92,0,RAIN,Light Rain,413,64,63,60,87,62,170,12,35,19,FEW,10,0,0,0,0,0,0,0,0,0,29.5,999,45,CLR,Mostly Clear
LAR2015,13-Sep-15,13-Sep-15,1:00,13,SEA,-3.5,LAR,65,O,41,2015,Week 1,51792,LAR,3.5,-3.5,MIN,34,31,N,67277,0,20,72,1,St. Louis,KCPS,KCPS4226013,61,75,62,93,3,8,0,9.8,750,0,0,CLR,Fair,413,71,71,42,35,56,0,0,0,201,CLR,10,765,76,841,765,841,1093,0,0,0,30.09,1018.8,46,CLR,Fair
LAR2013,15-Dec-13,15-Dec-13,4:25,16,NO,-7,LAR,43,U,48,2013,Week 15,58442,LAR,7,-7,NO,27,16,Y,67277,0,18,72,1,St. Louis,KCPS,KCPS4162316,28,33,82,89,7,15,64,9.6,366,0,0,MC,Overcast,413,33,28,26,75,31,150,5,13,201,SCT,10,26,3,29,28,31,40,0,0,0,30.1,1019.3,46,CLR,Fair
LAR2015,15-Nov-15,15-Nov-15,1:00,13,LAR,-7,CHI,50,O,42.5,2015,Week 10,58653,LAR,-7,7,JAX,13,37,Y,67277,0,20,72,1,St. Louis,KCPS,KCPS4232313,55,67,45,79,6,12,45,10,343,0,0,CLR,Fair,413,65,65,29,26,49,190,8,75,201,OVC,10,261,42,303,418,460,598,0,0,0,30.27,1025.1,46,CLR,Fair
LAR2014,16-Nov-14,16-Nov-14,1:00,13,DEN,-9,LAR,29,U,50,2014,Week 11,59401,LAR,9,-9,NYJ,22,7,Y,67277,0,19,72,1,St. Louis,KCPS,KCPS4195913,31,36,89,96,4,15,96,5.4,0,0.19,2.5,MC,Overcast,413,32,26,31,96,32,310,7,100,24,VV,0.2,207,41,248,414,455,592,99,0.06,0.6,30.1,1019.7,10,SNOW,Moderate Snow
LAR2015,17-Dec-15,17-Dec-15,8:25,20,LAR,-1,TB,54,O,41,2015,Week 15,51295,LAR,-1,1,NYJ,31,23,Y,67277,0,20,72,1,St. Louis,KCPS,KCPS4235520,35,37,62,67,11,16,75,10,0,0,0,MC,Overcast,413,35,28,24,64,31,300,10,100,28,OVC,10,0,0,0,0,0,0,0,0,0,30.09,1019,40,MC,Overcast
LAR2014,19-Oct-14,19-Oct-14,1:00,13,SEA,-6.5,LAR,54,O,43.5,2014,Week 7,57855,LAR,6.5,-6.5,NE,28,26,N,67277,0,19,72,1,St. Louis,KCPS,KCPS4193113,52,64,76,100,4,8,26,8.2,513,0,0,CLR,Fair,413,61,61,45,56,53,370,6,38,301,BKN,10,448,55,503,553,608,789,0,0,0,30.16,1021.3,46,CLR,Fair
LAR2014,21-Dec-14,21-Dec-14,4:05,16,LAR,-6.5,NYG,64,O,43.5,2014,Week 16,55851,LAR,-6.5,6.5,LAR,27,37,Y,67277,0,19,72,1,St. Louis,KCPS,KCPS4199416,41,44,73,83,10,16,100,10,0,0,0,MC,Overcast,413,43,38,32,65,38,140,9,100,32,OVC,10,16,3,19,32,35,46,0,0,0,30.05,1017.6,45,CLR,Mostly Clear
LAR2014,21-Sep-14,21-Sep-14,1:00,13,DAL,-2,LAR,65,O,45,2014,Week 3,58739,LAR,2,-2,WAS,31,34,Y,67277,0,19,72,1,St. Louis,KCPS,KCPS4190313,71,80,57,91,12,20,10,9.9,703,0,0,CLR,Fair,413,79,79,47,32,61,320,20,0,201,CLR,10,720,72,792,720,792,1028,0,0,0,30.01,1016.2,46,CLR,Fair
LAR2013,22-Dec-13,22-Dec-13,1:00,13,LAR,-3.5,TB,36,U,43,2013,Week 16,54423,LAR,-3.5,3.5,BUF,23,13,Y,67277,0,18,72,1,St. Louis,KCPS,KCPS4163013,33,36,89,100,10,16,100,9.4,0,0.04,0,MC,Overcast,413,34,26,29,82,32,290,10,100,19,OVC,10,178,36,214,356,392,509,0,0,0,29.99,1015.5,40,MC,Overcast
LAR2013,24-Nov-13,24-Nov-13,1:00,13,LAR,-2,CHI,63,O,46,2013,Week 12,66024,LAR,-2,2,MIA,42,21,Y,67277,0,18,72,1,St. Louis,KCPS,KCPS4160213,23,30,56,77,5,8,26,10,527,0,0,CLR,Fair,413,28,22,1,31,21,50,5,2,301,SCT,10,385,39,424,389,428,555,0,0,0,30.67,1038.6,46,CLR,Fair
LAR2015,25-Oct-15,25-Oct-15,1:00,13,LAR,-6,CLE,30,U,44,2015,Week 7,51523,LAR,-6,6,IND,24,6,Y,67277,0,20,72,1,St. Louis,KCPS,KCPS4230213,53,64,66,90,5,12,60,10,258,0,0,CLR,Fair,413,61,59,40,46,51,200,12,65,301,OVC,10,350,52,402,518,570,740,0,0,0,30.3,1026.2,46,CLR,Fair
LAR2013,26-Sep-13,26-Sep-13,8:25,20,SF,-3.5,LAR,46,O,43,2013,Week 4,56640,LAR,3.5,-3.5,HOU,11,35,Y,67277,0,18,72,1,St. Louis,KCPS,KCPS4154320,70,85,71,100,4,9,1,8.2,706,0,0,CLR,Fair,413,69,69,57,66,62,120,3,0,201,CLR,10,0,0,0,0,0,0,0,0,0,29.98,1015.4,46,CLR,Fair
LAR2015,27-Sep-15,27-Sep-15,1:00,13,LAR,-1,PIT,18,U,48.5,2015,Week 3,52433,LAR,-1,1,BAL,6,12,Y,67277,0,20,72,1,St. Louis,KCPS,KCPS4227413,71,78,79,90,4,8,88,9.8,0,0,0,MC,Overcast,413,75,78,64,69,68,120,6,100,20,OVC,10,342,68,410,685,753,978,0,0,0,30.02,1016.7,40,MC,Overcast
LAR2013,28-Oct-13,28-Oct-13,8:40,20,SEA,-14,LAR,23,U,43.5,2013,Week 8,55966,LAR,14,-14,TEN,9,14,N,67277,0,18,72,1,St. Louis,KCPS,KCPS4157520,48,68,71,96,1,9,18,9.9,584,0,0,CLR,Fair,413,47,47,41,80,44,0,0,22,301,SCT,10,0,0,0,0,0,0,0,0,0,30.22,1023.4,46,CLR,Fair
LAR2014,30-Nov-14,30-Nov-14,1:00,13,LAR,-6,OAK,52,O,43,2014,Week 13,55650,LAR,-6,6,MIN,52,0,Y,67277,0,19,72,1,St. Louis,KCPS,KCPS4197313,52,71,76,90,12,21,53,9.4,259,0,0,CLR,Fair,413,71,71,53,53,61,250,10,100,55,OVC,10,187,37,224,374,411,534,0,0,0,29.84,1010.4,40,MC,Overcast
LAR2016,1-Jan-17,1-Jan-17,4:25,16,ARI,-7,LAR,50,O,39,2016,Week 17,76005,LAR,7,-7,MIA,6,44,Y,93607,1,0,88,0,Los Angeles,KCQT,KCQT4273616,52,62,73,89,1,6,26,9.8,484,0,0,CLR,Fair,184,59,59,44,58,51,0,0,20,37,SCT,10,59,7,66,66,73,94,0,0,0,29.93,1013.5,44,PC,Partly Cloudy
LAC2017,1-Oct-17,1-Oct-17,4:05,16,LAC,-2,PHI,50,O,48,2017,Week 4,25374,LAC,-2,2,PHI,24,26,N,30000,1,0,65,0,Los Angeles,KCQT,KCQT4300916,70,78,67,79,2,5,49,10,473,0,0,CLR,Fair,184,74,77,60,62,65,370,5,0,201,CLR,10,218,22,240,218,240,311,0,0,0,29.74,1006.8,46,CLR,Fair
LAC2017,3-Dec-17,3-Dec-17,4:05,16,LAC,-13.5,CLE,29,U,44.5,2017,Week 13,25320,LAC,-13.5,13.5,ATL,19,10,N,30000,1,0,87,0,Los Angeles,KCQT,KCQT4307216,59,69,79,97,1,6,10,7.2,575,0,0,CLR,Fair,184,65,65,50,59,57,370,5,11,301,SCT,10,40,4,44,42,46,59,0,0,0,29.93,1013.6,54,CLR,Few High Clouds
LAC2019,3-Nov-19,3-Nov-19,1:00,13,LAC,-3.5,GB,37,O,49,2019,Week 9,25435,LAC,-3.5,3.5,LAC,26,11,Y,30000,0,2,61,0,Los Angeles,KCQT,KCQT4377213,65,81,42,80,1,7,0,9.6,636,0,0,CLR,Fair,184,80,80,36,20,57,250,3,0,201,CLR,10,533,53,586,533,586,761,0,0,0,29.92,1012.9,46,CLR,Fair
LAR2016,6-Nov-16,6-Nov-16,4:05,16,CAR,-3,LAR,23,U,44.5,2016,Week 9,86109,LAR,3,-3,CLE,10,13,N,93607,1,0,72,0,Los Angeles,KCQT,KCQT4268016,63,76,84,100,1,6,19,6.7,396,0,0,CLR,Fair,184,69,69,59,70,63,0,0,10,301,SCT,10,67,7,74,71,78,101,0,0,0,30.02,1016.6,54,CLR,Few High Clouds
LAC2019,6-Oct-19,6-Oct-19,1:00,13,LAC,-7.5,DEN,33,O,33,2019,Week 5,25357,LAC,-7.5,7.5,DEN,13,20,N,30000,0,2,53,0,Los Angeles,KCQT,KCQT4374413,72,89,55,79,1,6,0,10,698,0,0,CLR,Fair,184,86,86,56,36,67,250,3,0,201,CLR,10,683,68,751,683,751,976,0,0,0,29.96,1014.2,46,CLR,Fair
LAR2019,8-Dec-19,8-Dec-19,1:00,13,LAR,-7.5,SEA,40,U,52.5,2019,Week 14,71501,LAR,-7.5,7.5,TB,28,12,Y,77500,0,3,46,0,Los Angeles,KCQT,KCQT4380713,62,66,80,87,1,8,78,8.4,113,0.2,0,RAIN,Light Rain,184,64,64,58,81,60,250,5,100,25,OVC,5,214,43,257,428,471,612,99,0.02,0,29.99,1015.5,18,RAIN,Light Rain
LAR2017,8-Oct-17,8-Oct-17,4:05,16,LAR,-2,SEA,26,U,47,2017,Week 5,60745,LAR,-2,2,PHI,10,16,Y,93607,0,1,55,0,Los Angeles,KCQT,KCQT4301616,71,82,68,93,3,7,32,8.9,603,0,0,CLR,Fair,184,75,78,61,62,66,270,7,0,201,CLR,10,181,18,199,181,199,259,0,0,0,29.71,1005.8,46,CLR,Fair
LAC2019,8-Sep-19,8-Sep-19,4:05,16,LAC,-6,IND,54,O,44.5,2019,Week 1,25363,LAC,-6,6,IND,30,24,N,30000,0,2,66,0,Los Angeles,KCQT,KCQT4371616,73,81,61,76,1,7,0,10,756,0,0,CLR,Fair,184,78,79,53,42,63,250,5,0,201,CLR,10,341,34,375,341,375,487,0,0,0,29.83,1009.9,46,CLR,Fair
LAR2016,9-Oct-16,9-Oct-16,4:25,16,BUF,-2.5,LAR,49,O,41.5,2016,Week 5,83679,LAR,2.5,-2.5,CIN,19,30,Y,93607,1,0,87,0,Los Angeles,KCQT,KCQT4265216,73,91,46,81,2,7,8,10,634,0,0,CLR,Fair,184,80,80,44,28,60,270,5,22,176,CLR,10,154,17,171,173,190,248,0,0,0,29.9,1012.4,46,CLR,Fair
LAR2017,10-Dec-17,10-Dec-17,4:25,16,PHI,-1.5,LAR,78,O,47.5,2017,Week 14,67752,LAR,1.5,-1.5,NO,35,43,Y,93607,0,1,40,0,Los Angeles,KCQT,KCQT4307916,65,82,24,38,0,3,39,9.8,290,0,0,PC,High Overcast,184,78,78,20,11,52,0,0,80,301,OVC,10,25,4,29,41,45,58,0,0,0,30.07,1018,50,PC,High Overcast
LAC2017,10-Dec-17,10-Dec-17,4:05,16,LAC,-6,WAS,43,U,46.5,2017,Week 14,25393,LAC,-6,6,PHI,30,13,Y,30000,1,0,81,0,Los Angeles,KCQT,KCQT4307916,65,82,24,38,0,3,39,9.8,290,0,0,PC,High Overcast,184,78,78,20,11,52,0,0,80,301,OVC,10,25,4,29,41,45,58,0,0,0,30.07,1018,50,PC,High Overcast
LAR2017,10-Sep-17,10-Sep-17,4:05,16,LAR,-3.5,IND,55,O,41.5,2017,Week 1,60128,LAR,-3.5,3.5,DET,46,9,Y,93607,0,1,59,0,Los Angeles,KCQT,KCQT4298816,76,91,65,84,1,6,26,9.7,651,0,0,CLR,Fair,184,80,81,61,52,68,260,6,43,301,BKN,10,258,33,291,329,362,471,0,0,0,29.83,1009.7,52,PC,High Clouds
LAR2016,11-Dec-16,11-Dec-16,4:25,16,ATL,-5,LAR,56,O,44,2016,Week 14,79088,LAR,5,-5,KC,14,42,Y,93607,1,0,64,0,Los Angeles,KCQT,KCQT4271516,61,65,87,93,1,3,96,7.2,45,0,0,MC,Overcast,184,65,65,57,76,60,0,0,100,27,SCT,10,21,4,25,42,46,60,0,0,0,30.05,1017.3,40,MC,Overcast
LAR2017,12-Nov-17,12-Nov-17,4:05,16,LAR,-13,HOU,40,U,45.5,2017,Week 10,60032,LAR,-13,13,NYG,33,7,Y,93607,0,1,59,0,Los Angeles,KCQT,KCQT4305116,62,69,78,93,1,5,52,7.8,137,0,0,HAZY,Haze,184,66,66,57,73,61,0,0,87,301,OVC,7,34,6,40,61,67,86,0,0,0,30.03,1016.6,50,PC,High Overcast
LAC2019,13-Oct-19,13-Oct-19,1:00,13,LAC,-4.5,PIT,41,U,53,2019,Week 6,25425,LAC,-4.5,4.5,LAC,17,24,Y,30000,0,2,30,0,Los Angeles,KCQT,KCQT4375113,67,78,64,81,1,7,3,9.7,684,0,0,CLR,Fair,184,76,78,56,50,64,370,3,0,201,CLR,10,643,64,707,643,707,919,0,0,0,29.83,1009.8,46,CLR,Fair
LAR2019,13-Oct-19,13-Oct-19,1:00,13,LAR,-8.5,SF,27,O,35,2019,Week 6,75695,LAR,-8.5,8.5,GB,7,20,Y,77500,0,3,56,0,Los Angeles,KCQT,KCQT4375113,67,78,64,81,1,7,3,9.7,684,0,0,CLR,Fair,184,76,78,56,50,64,370,3,0,201,CLR,10,643,64,707,643,707,919,0,0,0,29.83,1009.8,46,CLR,Fair
LAC2019,15-Dec-19,15-Dec-19,1:00,13,LAC,-3.5,MIN,49,O,47,2019,Week 15,25446,LAC,-3.5,3.5,MIN,10,39,Y,30000,0,2,42,0,Los Angeles,KCQT,KCQT4381413,58,64,39,78,4,10,6,10,534,0,0,CLR,Fair,184,63,63,32,31,49,370,7,0,354,CLR,10,425,42,467,425,467,607,0,0,0,30.02,1016.4,46,CLR,Fair
LAR2019,15-Sep-19,15-Sep-19,4:25,16,LAR,-1.5,NO,36,U,52.5,2019,Week 2,71460,LAR,-1.5,1.5,IND,27,9,Y,77500,0,3,52,0,Los Angeles,KCQT,KCQT4372316,74,87,74,93,2,6,35,7.1,392,0,0,CLR,Few High Clouds,184,79,81,64,60,69,250,5,20,301,SCT,10,274,30,304,304,334,434,0,0,0,29.83,1010,54,CLR,Few High Clouds
LAR2019,17-Nov-19,17-Nov-19,1:00,13,LAR,-5.5,CHI,24,U,51,2019,Week 11,70758,LAR,-5.5,5.5,IND,17,7,Y,77500,0,3,83,0,Los Angeles,KCQT,KCQT4378613,73,92,38,78,1,5,0,9.9,615,0,0,CLR,Fair,184,90,90,34,14,60,0,0,0,201,CLR,10,475,48,523,475,523,679,0,0,0,29.91,1012.5,46,CLR,Fair
LAR2017,17-Sep-17,17-Sep-17,4:25,16,LAR,-3,WAS,47,O,46.5,2017,Week 2,56612,LAR,-3,3,WAS,20,27,Y,93607,0,1,81,0,Los Angeles,KCQT,KCQT4299516,70,76,71,81,1,5,51,10,235,0,0,MC,Overcast,184,74,77,61,64,66,0,0,1,301,SCT,10,291,29,320,292,321,417,0,0,0,29.9,1012.3,54,CLR,Few High Clouds
LAC2017,17-Sep-17,17-Sep-17,4:05,16,LAC,-3.5,MIA,36,U,46,2017,Week 2,25381,LAC,-3.5,3.5,MIA,17,19,N,30000,1,0,56,0,Los Angeles,KCQT,KCQT4299516,70,76,71,81,1,5,51,10,235,0,0,MC,Overcast,184,74,77,61,64,66,0,0,1,301,SCT,10,291,29,320,292,321,417,0,0,0,29.9,1012.3,54,CLR,Few High Clouds
LAC2019,18-Nov-19,18-Nov-19,1:00,13,KC,-2.5,LAC (Mexico),41,U,56,2019,Week 11,76252,LAC,2.5,-2.5,KC,17,24,Y,30000,0,2,77,0,Los Angeles,KCQT,KCQT4378713,76,92,23,55,2,6,11,10,581,0,0,CLR,Fair,184,91,91,24,9,58,0,0,0,201,CLR,10,472,47,519,472,519,675,0,0,0,29.8,1008.8,46,CLR,Fair
LAR2016,18-Sep-16,18-Sep-16,4:05,16,SEA,-5.5,LAR,12,U,38,2016,Week 2,91046,LAR,5.5,-5.5,SEA,9,3,Y,93607,1,0,85,0,Los Angeles,KCQT,KCQT4263116,71,90,76,97,1,6,0,7.3,736,0,0,CLR,Fair,184,78,80,63,60,69,370,3,0,201,CLR,9,284,28,312,284,312,405,0,0,0,29.86,1010.8,46,CLR,Fair
LAC2017,19-Nov-17,19-Nov-17,4:05,16,LAC,-7,BUF,78,O,41.5,2017,Week 11,25015,LAC,-7,7,BUF,54,24,Y,30000,1,0,89,0,Los Angeles,KCQT,KCQT4305816,64,77,36,78,2,5,6,10,554,0,0,CLR,Fair,184,71,71,35,27,53,270,5,4,301,SCT,10,49,5,54,50,55,72,0,0,0,29.95,1014.1,54,CLR,Few High Clouds
LAR2016,20-Nov-16,20-Nov-16,4:05,16,MIA,-1,LAR,24,U,38.5,2016,Week 11,68756,LAR,1,-1,NO,10,14,Y,93607,1,0,63,0,Los Angeles,KCQT,KCQT4269416,58,65,86,100,1,6,79,7.6,100,0.55,0,RAIN,Light Rain,184,58,58,56,93,57,0,0,100,44,OVC,4,24,5,29,48,53,68,99,0.01,0,29.93,1013.6,18,RAIN,Light Rain
LAC2019,22-Dec-19,22-Dec-19,1:00,13,LAC,-9,OAK,41,O,59,2019,Week 16,25380,LAC,-9,9,ARI,17,24,N,30000,0,2,31,0,Los Angeles,KCQT,KCQT4382113,61,69,45,81,5,12,72,8.8,338,0.8,0,CLR,Fair,184,69,69,44,41,56,0,5,5,120,FEW,10,420,43,463,427,470,609,0,0,0,29.91,1012.7,45,CLR,Mostly Clear
LAC2017,22-Oct-17,22-Oct-17,4:25,16,DEN,-1,LAC,21,U,41,2017,Week 7,25388,LAC,1,-1,DEN,21,0,Y,30000,1,0,23,0,Los Angeles,KCQT,KCQT4303016,76,93,32,63,1,5,0,10,664,0,0,CLR,Fair,184,87,87,32,14,59,270,5,2,301,SCT,10,120,12,132,121,133,173,0,0,0,30.04,1016.9,54,CLR,Few High Clouds
LAC2019,22-Sep-19,22-Sep-19,4:25,16,LAC,-3,HOU,47,U,49,2019,Week 3,25349,LAC,-3,3,HOU,20,27,Y,30000,0,2,23,0,Los Angeles,KCQT,KCQT4373016,77,94,56,76,1,3,17,10,511,0,0,CLR,Fair,184,88,89,61,40,71,370,3,1,201,SCT,10,265,27,292,266,293,380,0,0,0,29.83,1009.8,44,PC,Partly Cloudy
LAR2016,24-Dec-16,24-Dec-16,4:25,16,LAR,-6,SF,43,O,39.5,2016,Week 16,70803,LAR,-6,6,MIN,21,22,N,93607,1,0,55,0,Los Angeles,KCQT,KCQT4272816,53,61,57,96,3,7,40,10,338,0.14,0,MC,Mostly Cloudy,184,57,57,29,34,45,320,3,70,75,BKN,10,34,5,39,52,57,75,0,0,0,29.76,1007.7,42,MC,Mostly Cloudy
LAC2017,24-Sep-17,24-Sep-17,4:25,16,KC,-3,LAC,34,U,48,2017,Week 3,25386,LAC,3,-3,KC,10,24,Y,30000,1,0,42,0,Los Angeles,KCQT,KCQT4300216,72,86,46,78,1,7,1,10,723,0,0,CLR,Fair,184,78,78,42,28,59,370,7,0,201,CLR,10,254,25,279,254,279,363,0,0,0,29.82,1009.5,46,CLR,Fair
LAR2019,25-Nov-19,25-Nov-19,1:00,13,LAR,-7.5,BAL,51,O,48,2019,Week 12,72409,LAR,-7.5,7.5,IND,6,45,Y,77500,0,3,46,0,Los Angeles,KCQT,KCQT4379413,61,71,59,78,2,7,11,9.9,557,0,0,CLR,Fair,184,68,68,52,57,59,0,0,70,33,BKN,10,294,45,339,452,497,646,0,0,0,29.81,1009.3,42,MC,Mostly Cloudy
LAR2017,26-Nov-17,26-Nov-17,4:25,16,LAR,-2.5,NO,46,U,54,2017,Week 12,62006,LAR,-2.5,2.5,IND,26,20,Y,93607,0,1,87,0,Los Angeles,KCQT,KCQT4306516,62,71,83,93,1,7,59,4.3,399,0,0,MC,Overcast,184,63,63,56,78,59,370,5,14,301,OVC,5,29,4,33,45,49,64,0,0,0,30,1015.6,35,HAZY,Haze
LAR2019,27-Oct-19,27-Oct-19,1:00,13,LAR,-13,CIN,34,O,31,2019,Week 8,83720,LAR,-13,13,CIN,24,10,Y,77500,0,3,83,0,Los Angeles,KCQT,KCQT4376513,68,74,66,81,2,8,42,10,194,0,0,CLR,Fair,184,73,76,55,53,62,0,0,70,31,BKN,10,369,57,426,568,625,811,0,0,0,29.77,1007.9,42,MC,Mostly Cloudy
LAR2019,29-Sep-19,29-Sep-19,4:05,16,LAR,-9.5,TB,95,O,48.5,2019,Week 4,68117,LAR,-9.5,9.5,TB,40,55,Y,77500,0,3,43,0,Los Angeles,KCQT,KCQT4373716,67,76,57,75,1,7,9,10,706,0,0,CLR,Fair,184,71,71,50,47,59,250,7,0,201,CLR,10,228,23,251,228,251,326,0,0,0,29.82,1009.7,46,CLR,Fair
LAR2017,31-Dec-17,31-Dec-17,4:25,16,SF,-6.5,LAR,47,O,44,2017,Week 17,66125,LAR,6.5,-6.5,HOU,13,34,Y,93607,0,1,82,0,Los Angeles,KCQT,KCQT4310016,56,69,84,100,0,5,40,2.4,435,0,0,FOG,Fog,184,63,63,52,68,57,270,5,5,301,SCT,5,62,6,68,64,70,91,0,0,0,30.05,1017.6,35,HAZY,Haze
LAC2017,31-Dec-17,31-Dec-17,4:25,16,LAC,-7,OAK,40,U,43,2017,Week 17,25430,LAC,-7,7,SF,30,10,Y,30000,1,0,60,0,Los Angeles,KCQT,KCQT4310016,56,69,84,100,0,5,40,2.4,435,0,0,FOG,Fog,184,63,63,52,68,57,270,5,5,301,SCT,5,62,6,68,64,70,91,0,0,0,30.05,1017.6,35,HAZY,Haze
DAL2015,1-Nov-15,1-Nov-15,4:25,16,SEA,-5,DAL,25,U,41.5,2015,Week 8,91486,DAL,5,-5,BUF,12,13,N,105000,0,6,63,1,Dallas,KDAL,KDAL4230916,60,63,86,96,5,10,87,9.2,0,0.07,0,CLR,Mostly Clear,486,62,62,59,90,60,320,7,100,8,BKN,10,0,20,20,197,217,282,99,0.01,0,29.92,1013.1,18,RAIN,Light Rain
DAL2017,1-Oct-17,1-Oct-17,1:00,13,DAL,-5.5,LAR,65,O,50.5,2017,Week 4,91869,DAL,-5.5,5.5,LAR,30,35,N,105000,0,8,78,0,Dallas,KDAL,KDAL4300913,77,89,45,61,8,13,33,10,571,0,0,CLR,Fair,486,85,85,50,30,64,150,7,5,150,FEW,10,754,77,831,767,844,1096,0,0,0,29.93,1013.7,45,CLR,Mostly Clear
DAL2014,2-Nov-14,2-Nov-14,1:00,13,DAL,-1.5,ARI,45,P,45,2014,Week 9,85688,DAL,-1.5,1.5,DAL,17,28,Y,105000,0,5,64,1,Dallas,KDAL,KDAL4194513,56,68,53,63,16,20,75,10,24,0,0,CLR,Mostly Clear,486,64,63,41,43,52,160,12,100,170,OVC,10,388,60,448,597,657,853,0,0,0,30.24,1024,40,MC,Overcast
DAL2015,3-Jan-16,3-Jan-16,1:00,13,DAL,-3,WAS,57,O,41,2015,Week 17,90127,DAL,-3,3,KC,23,34,Y,105000,0,6,78,0,Dallas,KDAL,KDAL4237213,45,59,57,85,5,15,7,10,567,0,0,CLR,Fair,486,55,54,31,40,44,300,6,5,300,FEW,10,482,49,531,489,538,699,0,0,0,30.24,1024.1,45,CLR,Mostly Clear
DAL2013,3-Nov-13,3-Nov-13,1:00,13,DAL,-9,MIN,50,U,51.5,2013,Week 9,85360,DAL,-9,9,DET,27,23,N,105000,0,4,72,1,Dallas,KDAL,KDAL4158113,58,68,50,69,11,21,49,10,332,0,0,CLR,Mostly Clear,486,66,66,37,34,52,180,10,75,180,BKN,10,457,59,516,592,651,846,0,0,0,30.1,1019.4,45,CLR,Mostly Clear
DAL2017,5-Nov-17,5-Nov-17,4:25,16,DAL,-2.5,KC,45,U,53,2017,Week 9,93273,DAL,-2.5,2.5,KC,28,17,Y,105000,0,8,27,0,Dallas,KDAL,KDAL4304416,80,92,67,82,11,15,46,10,395,0,0,MC,Overcast,486,90,94,66,45,74,200,13,10,250,FEW,10,175,18,193,182,200,260,0,0,0,29.8,1008.4,45,CLR,Mostly Clear
DAL2014,5-Oct-14,5-Oct-14,1:00,13,DAL,-5.5,HOU,37,U,48,2014,Week 5,91159,DAL,-5.5,5.5,MIA,20,17,N,105000,0,5,72,1,Dallas,KDAL,KDAL4191713,73,85,54,73,12,16,6,10,627,0,0,CLR,Mostly Clear,486,81,82,60,49,68,220,12,5,40,FEW,10,727,75,802,746,821,1065,0,0,0,29.85,1010.9,45,CLR,Mostly Clear
DAL2013,6-Oct-13,6-Oct-13,4:25,16,DEN,-8,DAL,99,O,57,2013,Week 5,92758,DAL,8,-8,MIN,48,51,N,105000,0,4,72,1,Dallas,KDAL,KDAL4155316,63,77,51,86,7,15,1,10,689,0,0,CLR,Fair,486,76,76,28,17,53,320,12,0,201,CLR,10,315,32,347,315,347,450,0,0,0,30.02,1016.6,46,CLR,Fair
DAL2019,6-Oct-19,6-Oct-19,1:00,13,DAL,-4,GB,58,O,51,2019,Week 5,93024,DAL,-4,4,GB,24,34,Y,105000,0,10,73,0,Dallas,KDAL,KDAL4374413,83,97,54,76,10,20,51,10,329,0,0,PC,Partly Cloudy,518,95,96,61,32,72,170,10,30,120,SCT,10,651,74,725,740,814,1057,0,0,0,29.94,1013,44,PC,Partly Cloudy
DAL2014,7-Sep-14,7-Sep-14,4:25,16,SF,-3.5,DAL,45,U,50,2014,Week 1,91174,DAL,3.5,-3.5,CIN,17,28,Y,105000,0,5,72,1,Dallas,KDAL,KDAL4188916,78,89,71,87,6,10,77,10,34,0,0,CLR,Mostly Clear,486,84,88,69,61,74,70,7,100,39,OVC,10,236,47,284,473,520,676,0,0,0,29.97,1014.9,45,CLR,Mostly Clear
DAL2015,8-Nov-15,8-Nov-15,8:30,20,PHI,-3,DAL,60,O,44,2015,Week 9,91827,DAL,3,-3,NE,27,33,Y,105000,0,6,53,1,Dallas,KDAL,KDAL4231620,56,67,55,80,5,13,15,10,614,0,0,CLR,Mostly Clear,486,55,54,42,62,49,370,5,20,120,SCT,10,0,0,0,0,0,0,0,0,0,30.17,1021.6,44,PC,Partly Cloudy
DAL2017,8-Oct-17,8-Oct-17,4:25,16,DAL,-2.5,GB,66,O,52.5,2017,Week 5,93329,DAL,-2.5,2.5,GB,31,35,Y,105000,0,8,55,0,Dallas,KDAL,KDAL4301616,76,91,46,84,5,12,1,10,689,0,0,CLR,Fair,486,90,90,41,18,63,230,9,0,201,CLR,10,305,30,335,305,335,435,0,0,0,29.6,1002.5,46,CLR,Fair
DAL2013,8-Sep-13,8-Sep-13,8:30,20,DAL,-3.5,NYG,67,O,50,2013,Week 1,85348,DAL,-3.5,3.5,NO,36,31,Y,105000,0,4,72,1,Dallas,KDAL,KDAL4152520,88,98,48,71,7,13,5,10,699,0,0,CLR,Fair,486,92,93,60,34,71,130,7,20,85,SCT,10,0,0,0,0,0,0,0,0,0,29.88,1011.7,44,PC,Partly Cloudy
DAL2019,8-Sep-19,8-Sep-19,4:25,16,DAL,-7,NYG,52,O,44.5,2019,Week 1,90353,DAL,-7,7,NYG,35,17,Y,105000,0,10,54,0,Dallas,KDAL,KDAL4371616,90,101,41,62,9,17,5,10,688,0,0,CLR,Mostly Clear,518,100,101,58,25,72,150,16,10,300,FEW,10,449,47,496,468,515,668,0,0,0,29.89,1011.2,45,CLR,Mostly Clear
DAL2016,9-Oct-16,9-Oct-16,4:25,16,CIN,-2.5,DAL,42,U,45.5,2016,Week 5,91653,DAL,2.5,-2.5,BUF,28,14,Y,105000,0,7,72,1,Dallas,KDAL,KDAL4265216,66,77,53,80,4,12,57,10,194,0,0,CLR,Mostly Clear,486,75,75,41,30,57,300,7,100,220,OVC,10,207,30,237,296,326,423,0,0,0,30.21,1023.1,52,PC,High Clouds
DAL2019,10-Nov-19,10-Nov-19,1:00,13,DAL,-3,MIN,52,O,44,2019,Week 10,91188,DAL,-3,3,MIN,24,28,Y,105000,0,10,24,0,Dallas,KDAL,KDAL4377913,63,74,61,86,10,16,74,10,141,0,0,PC,High Clouds,518,74,76,51,45,61,160,13,75,300,BKN,10,429,56,485,561,617,802,0,0,0,30,1015.3,52,PC,High Clouds
DAL2017,10-Sep-17,10-Sep-17,8:30,20,DAL,-6,NYG,22,U,46.5,2017,Week 1,93183,DAL,-6,6,NYG,19,3,Y,105000,0,8,38,0,Dallas,KDAL,KDAL4298820,75,86,53,78,7,13,2,10,726,0,0,CLR,Fair,486,77,78,53,44,63,70,5,0,201,CLR,10,0,0,0,0,0,0,0,0,0,30.12,1019.5,46,CLR,Fair
DAL2015,11-Oct-15,11-Oct-15,4:25,16,NE,-8.5,DAL,36,U,50.5,2015,Week 5,93054,DAL,8.5,-8.5,PHI,6,30,Y,105000,0,6,72,1,Dallas,KDAL,KDAL4228816,81,94,43,59,12,16,1,10,677,0,0,CLR,Fair,486,94,94,57,29,70,210,13,5,75,FEW,10,281,29,310,288,317,412,0,0,0,29.74,1007.1,45,CLR,Mostly Clear
DAL2016,11-Sep-16,11-Sep-16,4:25,16,NYG,-1,DAL,39,U,47.5,2016,Week 1,92867,DAL,1,-1,ARI,19,20,N,105000,0,7,72,1,Dallas,KDAL,KDAL4262416,77,90,52,68,5,9,2,10,720,0,0,CLR,Fair,486,89,89,56,33,68,0,0,5,50,FEW,10,437,45,482,448,493,640,0,0,0,30.03,1016.9,45,CLR,Mostly Clear
DAL2013,13-Oct-13,13-Oct-13,8:30,20,DAL,-5.5,WAS,47,U,53,2013,Week 6,90239,DAL,-5.5,5.5,BUF,31,16,Y,105000,0,4,72,1,Dallas,KDAL,KDAL4156020,73,78,80,87,7,13,98,8.4,0,0,0,CLR,Mostly Clear,486,74,77,66,76,69,110,7,100,21,OVC,7,0,0,0,0,0,0,0,0,0,30.15,1020.9,45,CLR,Mostly Clear
DAL2015,13-Sep-15,13-Sep-15,8:30,20,DAL,-7,NYG,53,O,52.5,2015,Week 1,93579,DAL,-7,7,NO,27,26,N,105000,0,6,72,1,Dallas,KDAL,KDAL4226020,79,92,37,55,11,18,14,10,638,0,0,CLR,Mostly Clear,486,83,83,50,32,64,140,18,5,250,FEW,10,0,0,0,0,0,0,0,0,0,29.92,1013.6,45,CLR,Mostly Clear
DAL2013,15-Dec-13,15-Dec-13,4:25,16,DAL,-5.5,GB,73,O,50,2013,Week 15,91054,DAL,-5.5,5.5,WAS,36,37,N,105000,0,4,72,1,Dallas,KDAL,KDAL4162316,44,62,58,82,2,7,1,8.4,584,0,0,CLR,Fair,486,61,61,26,26,46,280,3,5,250,FEW,10,134,14,148,136,150,194,0,0,0,30.24,1024.1,45,CLR,Mostly Clear
DAL2019,15-Dec-19,15-Dec-19,1:00,13,DAL,PK,LAR,65,O,55,2019,Week 15,90436,DAL,PK,PK,LAR,44,21,PK,105000,0,10,28,0,Dallas,KDAL,KDAL4381413,58,76,70,100,9,13,60,8.4,313,0,0,CLR,Fair,518,72,72,50,47,59,230,10,75,300,CLR,10,368,48,416,475,523,679,0,0,0,29.73,1006.7,46,CLR,Fair
DAL2016,18-Dec-16,18-Dec-16,8:30,20,DAL,-7,TB,46,U,46.5,2016,Week 15,93101,DAL,-7,7,TB,26,20,N,105000,0,7,26,1,Dallas,KDAL,KDAL4272220,24,30,52,65,15,24,94,10,66,0,0,CLR,Mostly Clear,486,26,16,7,44,21,100,10,70,250,BKN,10,0,0,0,0,0,0,0,0,0,30.64,1037.6,52,PC,High Clouds
DAL2015,19-Dec-15,19-Dec-15,8:25,20,NYJ,-3.5,DAL,35,U,41,2015,Week 15,90345,DAL,3.5,-3.5,BAL,16,19,N,105000,0,6,50,1,Dallas,KDAL,KDAL4235720,51,63,57,79,12,18,47,10,461,0,0,CLR,Mostly Clear,486,53,50,38,57,46,150,10,75,250,BKN,10,0,0,0,0,0,0,0,0,0,30.33,1027,45,CLR,Mostly Clear
DAL2017,19-Nov-17,19-Nov-17,8:30,20,PHI,-6.5,DAL,46,U,48.5,2017,Week 11,93247,DAL,6.5,-6.5,PHI,9,37,Y,105000,0,8,46,0,Dallas,KDAL,KDAL4305820,52,63,51,76,4,9,29,10,335,0,0,CLR,Fair,486,51,51,34,52,44,0,0,0,201,CLR,10,0,0,0,0,0,0,0,0,0,30.24,1023.7,46,CLR,Fair
DAL2014,19-Oct-14,19-Oct-14,4:25,16,DAL,-5.5,NYG,52,O,47,2014,Week 7,91028,DAL,-5.5,5.5,DAL,31,21,Y,105000,0,5,72,1,Dallas,KDAL,KDAL4193116,67,77,62,75,7,13,25,10,349,0,0,CLR,Mostly Clear,486,76,78,56,50,64,170,8,5,180,FEW,10,246,25,271,250,275,357,0,0,0,30.04,1017.2,45,CLR,Mostly Clear
DAL2016,20-Nov-16,20-Nov-16,1:00,13,DAL,-7,BAL,44,U,44.5,2016,Week 11,93056,DAL,-7,7,DEN,27,17,Y,105000,0,7,53,1,Dallas,KDAL,KDAL4269413,51,65,45,73,8,16,30,10,595,0,0,CLR,Fair,486,61,60,25,25,46,180,8,5,300,FEW,10,512,52,564,520,572,742,0,0,0,30.3,1026.1,45,CLR,Mostly Clear
DAL2019,20-Oct-19,20-Oct-19,1:00,13,DAL,-3,PHI,47,O,46,2019,Week 7,91213,DAL,-3,3,PHI,37,10,Y,105000,0,10,24,0,Dallas,KDAL,KDAL4375813,73,88,68,87,9,23,31,10,578,0.07,0,CLR,Fair,518,84,84,59,43,68,190,8,5,40,FEW,10,647,66,713,664,730,948,0,0,0,29.71,1005.5,46,CLR,Fair
DAL2014,21-Dec-14,21-Dec-14,4:25,16,DAL,-3.5,IND,49,U,53.5,2014,Week 16,91899,DAL,-3.5,3.5,ARI,42,7,Y,105000,0,5,51,1,Dallas,KDAL,KDAL4199416,50,53,82,89,13,16,100,8.1,0,0,0,CLR,Mostly Clear,486,52,48,44,75,48,160,12,100,18,OVC,10,70,14,84,141,155,201,0,0,0,29.86,1011.2,42,MC,Mostly Cloudy
DAL2013,22-Sep-13,22-Sep-13,1:00,13,DAL,-3,LAR,38,U,47.5,2013,Week 3,80848,DAL,-3,3,CLE,31,7,Y,105000,0,4,72,1,Dallas,KDAL,KDAL4153913,73,84,48,75,5,10,0,10,726,0,0,CLR,Fair,486,82,82,49,32,63,0,0,0,201,CLR,10,814,81,895,814,895,1163,0,0,0,29.88,1011.7,46,CLR,Fair
DAL2019,22-Sep-19,22-Sep-19,1:00,13,DAL,-22.5,MIA,37,U,46.5,2019,Week 3,90127,DAL,-22.5,22.5,MIA,31,6,Y,105000,0,10,54,0,Dallas,KDAL,KDAL4373013,85,95,58,82,11,17,62,10,75,0,0,PC,High Clouds,518,91,95,67,45,75,160,7,100,250,BKN,10,277,81,358,814,895,1163,0,0,0,29.97,1014.1,42,MC,Mostly Cloudy
DAL2017,23-Nov-17,23-Nov-17,4:30,16,LAC,-1.5,DAL,34,U,46.5,2017,Week 12,93012,DAL,1.5,-1.5,LAC,6,28,Y,105000,0,8,43,0,Dallas,KDAL,KDAL4306216,52,68,49,82,4,8,9,10,586,0,0,CLR,Mostly Clear,486,68,68,28,22,50,150,7,5,250,FEW,10,139,14,153,141,155,201,0,0,0,30.06,1017.5,45,CLR,Mostly Clear
DAL2017,24-Dec-17,24-Dec-17,4:25,16,DAL,-4.5,SEA,33,U,47.5,2017,Week 16,92150,DAL,-4.5,4.5,MIA,12,21,Y,105000,0,8,25,0,Dallas,KDAL,KDAL4309316,41,46,69,83,11,23,74,9.9,72,0,0,PC,High Clouds,486,45,38,28,52,38,360,14,100,300,BKN,10,112,15,127,146,161,209,0,0,0,30.4,1029.3,52,PC,High Clouds
DAL2016,24-Nov-16,24-Nov-16,4:30,16,DAL,-6,WAS,57,O,53.5,2016,Week 12,93099,DAL,-6,6,SEA,31,26,N,105000,0,7,69,1,Dallas,KDAL,KDAL4269816,58,72,69,90,7,13,39,9.8,360,0,0,CLR,Mostly Clear,486,71,71,45,39,57,170,10,70,250,BKN,10,109,14,123,138,152,197,0,0,0,30.12,1020,52,PC,High Clouds
DAL2016,25-Sep-16,25-Sep-16,8:30,20,DAL,-6.5,CHI,48,O,45,2016,Week 3,90554,DAL,-6.5,6.5,NYJ,31,17,Y,105000,0,7,72,1,Dallas,KDAL,KDAL4263820,77,80,83,89,7,14,100,9.9,0,0.04,0,MC,Overcast,486,77,81,72,85,74,0,0,100,250,OVC,10,0,0,0,0,0,0,0,0,0,30.06,1017.4,50,PC,High Overcast
DAL2016,26-Dec-16,26-Dec-16,8:30,20,DAL,-6.5,DET,63,O,46,2016,Week 16,92885,DAL,-6.5,6.5,JAX,42,21,Y,105000,0,7,65,1,Dallas,KDAL,KDAL4273020,69,73,50,90,8,16,96,9.6,1,0,0,MC,Mostly Cloudy,486,65,65,37,36,51,60,3,90,55,BKN,10,0,0,0,0,0,0,0,0,0,30.18,1022,44,PC,Partly Cloudy
DAL2015,26-Nov-15,26-Nov-15,4:30,16,CAR,-1,DAL,47,O,44.5,2015,Week 12,90909,DAL,1,-1,NYG,14,33,Y,105000,0,6,68,1,Dallas,KDAL,KDAL4233416,69,72,86,93,14,18,100,7.1,0,2.12,0,RAIN,Light Rain,486,69,69,66,90,67,140,15,100,15,OVC,6,27,14,41,137,151,196,99,0.04,0,30.04,1017.4,18,RAIN,Light Rain
DAL2014,27-Nov-14,27-Nov-14,4:30,16,DAL,-3.5,PHI,43,U,57,2014,Week 13,91379,DAL,-3.5,3.5,HOU,10,33,Y,105000,0,5,57,1,Dallas,KDAL,KDAL4197016,48,59,44,67,4,10,3,10,580,0,0,CLR,Mostly Clear,486,58,58,21,24,43,0,0,5,250,FEW,10,135,14,149,137,151,195,0,0,0,30.42,1030.1,45,CLR,Mostly Clear
DAL2014,27-Oct-14,27-Oct-14,8:30,20,DAL,-9.5,WAS,37,U,49,2014,Week 8,87055,DAL,-9.5,9.5,NO,17,20,N,105000,0,5,72,1,Dallas,KDAL,KDAL4193920,76,85,57,79,15,25,47,10,356,0,0,CLR,Mostly Clear,486,78,80,59,52,66,160,17,100,180,OVC,10,0,0,0,0,0,0,0,0,0,29.81,1009.4,44,PC,Partly Cloudy
DAL2015,27-Sep-15,27-Sep-15,1:00,13,DAL, PK,ATL,67,O,43.5,2015,Week 3,90345,DAL, PK,PK,DAL,28,39,PK,105000,0,6,72,1,Dallas,KDAL,KDAL4227413,79,90,47,66,7,13,49,10,352,0,0,CLR,Mostly Clear,486,88,88,54,31,67,370,5,75,75,BKN,10,603,79,682,788,867,1126,0,0,0,29.91,1012.8,45,CLR,Mostly Clear
DAL2013,28-Nov-13,28-Nov-13,4:30,16,DAL,-9,OAK,55,O,49.5,2013,Week 13,87572,DAL,-9,9,NE,31,24,N,105000,0,4,72,1,Dallas,KDAL,KDAL4160616,41,54,50,65,5,8,58,10,140,0,0,PC,High Clouds,486,53,51,23,31,41,160,8,25,210,SCT,10,126,14,140,136,150,195,0,0,0,30.37,1028.3,45,CLR,Mostly Clear
DAL2019,28-Nov-19,28-Nov-19,1:00,13,DAL,-7.5,BUF,41,U,44,2019,Week 13,90445,DAL,-7.5,7.5,SF,15,26,Y,105000,0,10,44,0,Dallas,KDAL,KDAL4379713,47,51,77,90,7,13,100,8.3,0,0.47,0,RAIN,Moderate Rain,518,47,44,42,83,45,100,7,100,25,OVC,10,250,50,300,500,550,714,0,0,0,30.21,1023,40,MC,Overcast
DAL2014,28-Sep-14,28-Sep-14,8:30,20,NO,-3,DAL,55,O,54,2014,Week 4,91176,DAL,3,-3,NO,38,17,Y,105000,0,5,72,1,Dallas,KDAL,KDAL4191020,78,90,58,84,6,8,32,10,418,0,0,CLR,Mostly Clear,486,81,82,59,47,67,80,7,70,100,BKN,10,0,0,0,0,0,0,0,0,0,29.98,1015.2,42,MC,Mostly Cloudy
DAL2013,29-Dec-13,29-Dec-13,8:30,20,PHI,-7,DAL,46,U,54.5,2013,Week 17,91166,DAL,7,-7,DEN,22,24,N,105000,0,4,72,1,Dallas,KDAL,KDAL4163720,41,51,68,79,10,18,75,9.8,8,0,0,MC,Overcast,486,34,24,24,67,30,350,16,100,19,OVC,10,0,0,0,0,0,0,0,0,0,30.26,1024.6,42,MC,Mostly Cloudy
DAL2017,30-Nov-17,30-Nov-17,8:25,20,WAS,-1.5,DAL,52,O,47,2017,Week 13,91712,DAL,1.5,-1.5,SEA,38,14,Y,105000,0,8,73,0,Dallas,KDAL,KDAL4306920,59,76,57,80,4,12,11,9.9,520,0,0,CLR,Mostly Clear,486,57,57,45,64,51,50,3,5,250,FEW,10,0,0,0,0,0,0,0,0,0,30.21,1022.9,45,CLR,Mostly Clear
DAL2016,30-Oct-16,30-Oct-16,8:30,20,DAL,-5,PHI,52,O,44,2016,Week 8,93103,DAL,-5,5,BUF,29,23,Y,105000,0,7,72,1,Dallas,KDAL,KDAL4267320,76,88,59,84,7,13,35,10,367,0,0,CLR,Mostly Clear,486,80,81,60,51,67,160,13,100,60,BKN,10,0,0,0,0,0,0,0,0,0,30.07,1018.4,45,CLR,Mostly Clear
WAS2013,1-Dec-13,1-Dec-13,8:30,20,WAS,-1,NYG,41,U,45,2013,Week 13,75220,WAS,-1,1,MIN,17,24,Y,79000,0,16,43,0,Washington,KDCA,KDCA4160920,40,48,65,82,3,8,57,9.6,259,0,0,CLR,Mostly Clear,16,44,44,31,60,39,0,0,100,65,OVC,10,0,0,0,0,0,0,0,0,0,30.08,1018.5,40,MC,Overcast
WAS2016,1-Jan-17,1-Jan-17,4:25,16,WAS,-9,NYG,29,U,47,2016,Week 17,79471,WAS,-9,9,TB,10,19,N,82000,0,19,56,0,Washington,KDCA,KDCA4273616,46,56,52,76,4,13,78,10,118,0,0,CLR,Mostly Clear,16,53,53,34,49,44,50,3,70,250,BKN,10,47,6,53,59,65,84,0,0,0,30.27,1024.9,52,PC,High Clouds
WAS2016,2-Oct-16,2-Oct-16,1:00,13,WAS,-7.5,CLE,51,O,48,2016,Week 4,76249,WAS,-7.5,7.5,IND,31,20,Y,82000,0,19,70,0,Washington,KDCA,KDCA4264513,69,76,88,100,4,7,94,8.9,36,0.02,0,MC,Mostly Cloudy,16,73,77,64,74,67,370,3,100,30,BKN,10,190,65,255,654,719,934,0,0,0,30.04,1017.4,42,MC,Mostly Cloudy
WAS2013,3-Nov-13,3-Nov-13,1:00,13,WAS,-1.5,LAC,54,O,49.5,2013,Week 9,80115,WAS,-1.5,1.5,OAK,30,24,Y,79000,0,16,57,0,Washington,KDCA,KDCA4158113,52,59,47,68,11,20,22,10,420,0,0,CLR,Fair,16,58,55,30,35,46,360,14,5,35,FEW,10,464,48,512,476,524,680,0,0,0,30.21,1022.9,45,CLR,Mostly Clear
WAS2015,4-Oct-15,4-Oct-15,1:00,13,PHI,-3,WAS,43,U,45.5,2015,Week 4,74767,WAS,3,-3,CLE,23,20,N,82000,0,18,59,0,Washington,KDCA,KDCA4228113,57,59,84,96,15,23,100,9.8,0,0,0,MC,Overcast,16,59,55,53,81,56,300,21,100,20,OVC,10,324,65,388,647,712,925,0,0,0,30.19,1022.2,40,MC,Overcast
WAS2014,6-Oct-14,6-Oct-14,8:30,20,SEA,-7,WAS,44,U,46,2014,Week 5,79522,WAS,7,-7,PIT,17,27,Y,79000,0,17,63,0,Washington,KDCA,KDCA4191820,64,77,52,74,12,20,34,10,597,0,0,CLR,Mostly Clear,16,69,69,48,47,58,170,14,100,180,BKN,10,0,0,0,0,0,0,0,0,0,29.97,1014.9,42,MC,Mostly Cloudy
WAS2019,6-Oct-19,6-Oct-19,1:00,13,NE,-6.5,WAS,40,O,37,2019,Week 5,76483,WAS,6.5,-6.5,NE,7,33,Y,82000,0,22,37,0,Washington,KDCA,KDCA4374413,69,73,73,79,9,14,100,10,0,0,0,MC,Overcast,59,72,72,60,66,65,200,13,100,38,OVC,10,318,64,382,635,699,908,0,0,0,30.26,1024.7,40,MC,Overcast
WAS2014,7-Dec-14,7-Dec-14,1:00,13,LAR,-3,WAS,24,U,44.5,2014,Week 14,71120,WAS,3,-3,JAX,0,24,Y,79000,0,17,46,0,Washington,KDCA,KDCA4198013,43,50,49,74,16,25,32,10,528,0,0,CLR,Mostly Clear,16,48,41,22,36,38,300,18,5,100,FEW,10,355,36,391,364,400,520,0,0,0,30.47,1032,45,CLR,Mostly Clear
WAS2015,7-Dec-15,7-Dec-15,8:30,20,WAS,-2,DAL,35,U,43.5,2015,Week 13,80444,WAS,-2,2,CHI,16,19,Y,82000,0,18,44,0,Washington,KDCA,KDCA4234520,48,60,63,93,5,9,56,9.6,404,0,0,CLR,Mostly Clear,16,50,47,32,50,42,350,7,100,70,OVC,10,0,0,0,0,0,0,0,0,0,30.13,1020.4,40,MC,Overcast
WAS2013,8-Dec-13,8-Dec-13,1:00,13,KC,-3.5,WAS,55,O,44,2013,Week 14,56247,WAS,3.5,-3.5,SF,10,45,Y,79000,0,16,30,0,Washington,KDCA,KDCA4161613,31,34,74,89,9,14,97,6.1,6,0.82,0.6,SNOW,Light Snow,16,30,24,25,82,28,70,6,100,14,BKN,0.8,182,36,218,363,399,518,99,0.05,0.1,30.52,1033.6,9,SNOW,Light Snow
WAS2013,9-Sep-13,9-Sep-13,7:10,19,WAS,-4,PHI,60,O,52.5,2013,Week 1,82743,WAS,-4,4,PHI,27,33,Y,79000,0,16,80,0,Washington,KDCA,KDCA4152619,73,81,57,79,7,12,94,10,3,0,0,MC,Mostly Cloudy,16,77,80,65,66,69,180,9,100,31,OVC,10,0,0,0,0,0,0,0,0,0,30.14,1020.5,42,MC,Mostly Cloudy
WAS2017,10-Sep-17,10-Sep-17,1:00,13,PHI,-1,WAS,47,U,49.5,2017,Week 1,78685,WAS,1,-1,PHI,17,30,Y,82000,0,20,81,0,Washington,KDCA,KDCA4298813,64,74,65,84,8,12,36,10,447,0,0,CLR,Fair,16,72,72,53,52,61,20,9,70,50,BKN,10,511,79,590,786,865,1122,0,0,0,30.38,1028.7,42,MC,Mostly Cloudy
WAS2017,12-Nov-17,12-Nov-17,1:00,13,MIN,-1,WAS,68,O,42.5,2017,Week 10,74476,WAS,1,-1,MIN,30,38,Y,82000,0,20,69,0,Washington,KDCA,KDCA4305113,41,47,62,76,3,8,99,10,12,0.02,0,PC,High Overcast,16,44,44,25,47,37,120,3,100,250,BKN,10,312,43,355,434,477,621,0,0,0,30.43,1030.2,52,PC,High Clouds
WAS2016,12-Sep-16,12-Sep-16,7:10,19,PIT,-2.5,WAS,54,O,49,2016,Week 1,79124,WAS,2.5,-2.5,TB,16,38,Y,82000,0,19,76,0,Washington,KDCA,KDCA4262519,75,86,53,73,8,10,22,10,585,0,0,CLR,Mostly Clear,16,77,78,57,50,65,120,8,10,70,FEW,10,0,0,0,0,0,0,0,0,0,30.17,1021.7,45,CLR,Mostly Clear
WAS2016,13-Nov-16,13-Nov-16,1:00,13,WAS,-2.5,MIN,46,O,41.5,2016,Week 10,78216,WAS,-2.5,2.5,SF,26,20,Y,82000,0,19,55,0,Washington,KDCA,KDCA4268713,47,64,57,76,6,9,1,10,597,0,0,CLR,Fair,16,59,58,30,33,46,160,6,0,201,CLR,10,426,43,469,426,469,609,0,0,0,30.22,1023.2,46,CLR,Fair
WAS2015,13-Sep-15,13-Sep-15,1:00,13,MIA,-4,WAS,27,U,45.5,2015,Week 1,76512,WAS,4,-4,HOU,10,17,Y,82000,0,18,71,0,Washington,KDCA,KDCA4226013,67,74,54,68,11,18,61,10,237,0,0,CLR,Mostly Clear,16,74,76,50,43,60,330,18,100,50,BKN,10,312,77,389,770,847,1100,0,0,0,29.84,1010.6,42,MC,Mostly Cloudy
WAS2014,14-Sep-14,14-Sep-14,1:00,13,WAS,-5,JAX,51,O,43,2014,Week 2,80037,WAS,-5,5,CIN,41,10,Y,79000,0,17,67,0,Washington,KDCA,KDCA4189613,65,74,56,75,6,12,44,10,220,0,0,CLR,Mostly Clear,16,71,71,45,39,57,50,6,90,45,BKN,10,527,76,603,764,840,1092,0,0,0,30.27,1025.2,44,PC,Partly Cloudy
WAS2019,15-Dec-19,15-Dec-19,1:00,13,PHI,-3.5,WAS,64,O,36,2019,Week 15,63246,WAS,3.5,-3.5,PHI,27,37,Y,82000,0,22,67,0,Washington,KDCA,KDCA4381413,46,57,57,76,9,16,39,10,434,0,0,CLR,Fair,59,55,52,30,38,44,250,15,70,65,SCT,10,232,36,268,357,393,511,0,0,0,29.95,1014.3,42,MC,Mostly Cloudy
WAS2015,15-Nov-15,15-Nov-15,1:00,13,NO,-1,WAS,61,O,52,2015,Week 10,75086,WAS,1,-1,NE,47,14,Y,82000,0,18,62,0,Washington,KDCA,KDCA4232313,50,64,53,76,8,14,25,10,413,0,0,CLR,Mostly Clear,16,59,57,36,42,48,170,12,25,100,SCT,10,386,42,428,422,464,603,0,0,0,30.34,1027.5,45,CLR,Mostly Clear
WAS2017,15-Oct-17,15-Oct-17,1:00,13,WAS,-11,SF,50,O,46.5,2017,Week 6,75568,WAS,-11,11,DET,26,24,N,82000,0,20,64,0,Washington,KDCA,KDCA4302313,70,79,87,100,10,14,67,9.1,221,0,0,MC,Overcast,16,74,77,66,76,69,200,14,100,22,BKN,10,290,58,348,581,639,830,0,0,0,29.97,1014.9,40,MC,Overcast
WAS2019,15-Sep-19,15-Sep-19,1:00,13,DAL,-6,WAS,52,O,46.5,2019,Week 2,75128,WAS,6,-6,DAL,21,31,Y,82000,0,22,86,0,Washington,KDCA,KDCA4372313,80,90,58,85,6,10,48,10,443,0,0,CLR,Mostly Clear,59,88,88,56,34,68,370,3,10,250,FEW,10,729,76,805,759,835,1084,0,0,0,30.14,1020.6,45,CLR,Mostly Clear
WAS2014,16-Nov-14,16-Nov-14,1:00,13,WAS,-7,TB,34,U,46,2014,Week 11,77442,WAS,-7,7,KC,7,27,Y,79000,0,17,46,0,Washington,KDCA,KDCA4195913,44,48,50,63,7,13,96,10,54,0.01,0,MC,Overcast,16,47,43,22,37,37,220,9,100,75,OVC,10,209,42,251,418,460,598,0,0,0,30.24,1024.2,40,MC,Overcast
WAS2016,16-Oct-16,16-Oct-16,1:00,13,PHI,-3,WAS,47,O,45,2016,Week 6,78934,WAS,3,-3,CLE,27,20,Y,82000,0,19,69,0,Washington,KDCA,KDCA4265913,63,73,85,100,7,14,21,10,530,0,0,CLR,Mostly Clear,16,71,71,59,66,64,170,10,5,80,FEW,10,555,57,612,569,626,813,0,0,0,30.14,1020.8,45,CLR,Mostly Clear
WAS2017,17-Dec-17,17-Dec-17,1:00,13,WAS,-4.5,ARI,35,U,40,2017,Week 15,71026,WAS,-4.5,4.5,ARI,20,15,Y,82000,0,20,56,0,Washington,KDCA,KDCA4308613,41,50,67,85,3,8,79,10,12,0.05,0,MC,Overcast,16,49,46,31,50,41,190,7,100,250,OVC,10,162,36,198,357,393,510,0,0,0,30.23,1023.7,50,PC,High Overcast
WAS2019,17-Nov-19,17-Nov-19,1:00,13,WAS,-2.5,NYJ,51,O,49,2019,Week 11,56426,WAS,-2.5,2.5,NYJ,17,34,Y,82000,0,22,43,0,Washington,KDCA,KDCA4378613,41,46,56,76,13,18,100,10,0,0,0,MC,Overcast,59,45,39,31,58,39,20,13,100,27,OVC,10,208,41,248,415,456,593,0,0,0,30.17,1021.7,40,MC,Overcast
WAS2016,18-Sep-16,18-Sep-16,1:00,13,WAS,-3,DAL,50,O,47,2016,Week 2,80612,WAS,-3,3,NYG,23,27,Y,82000,0,19,84,0,Washington,KDCA,KDCA4263113,79,89,78,97,9,15,85,10,93,0,0,PC,High Clouds,16,88,93,69,54,75,180,15,95,250,BKN,10,512,74,586,737,811,1053,0,0,0,30.03,1016.9,52,PC,High Clouds
WAS2016,19-Dec-16,19-Dec-16,8:30,20,WAS,-7,CAR,41,U,50.5,2016,Week 15,76689,WAS,-7,7,GB,15,26,Y,82000,0,19,30,0,Washington,KDCA,KDCA4272320,34,39,53,59,10,16,82,10,203,0,0,CLR,Mostly Clear,16,32,25,18,56,27,80,8,70,230,BKN,10,0,0,0,0,0,0,0,0,0,30.68,1039.1,52,PC,High Clouds
WAS2014,19-Oct-14,19-Oct-14,1:00,13,WAS,-6,TEN,36,U,46.5,2014,Week 7,75227,WAS,-6,6,CIN,19,17,N,79000,0,17,57,0,Washington,KDCA,KDCA4193113,56,62,44,57,12,20,62,10,417,0,0,CLR,Mostly Clear,16,60,58,30,32,47,330,13,25,45,SCT,10,510,56,566,557,613,796,0,0,0,30.06,1017.8,45,CLR,Mostly Clear
WAS2014,20-Dec-14,20-Dec-14,4:30,16,PHI,-7,WAS,51,P,51,2014,Week 16,78897,WAS,7,-7,IND,27,24,N,79000,0,17,35,0,Washington,KDCA,KDCA4199316,36,39,54,64,5,8,68,10,44,0,0,MC,Mostly Cloudy,16,39,39,20,46,32,370,3,100,110,OVC,10,16,4,20,42,46,60,0,0,0,30.27,1025.2,44,PC,Partly Cloudy
WAS2015,20-Dec-15,20-Dec-15,1:00,13,BUF,-2,WAS,60,O,46,2015,Week 15,80124,WAS,2,-2,GB,35,25,Y,82000,0,18,45,0,Washington,KDCA,KDCA4235813,39,46,48,73,6,9,35,10,398,0,0,CLR,Fair,16,44,41,18,35,35,140,5,20,250,SCT,10,336,36,372,357,393,510,0,0,0,30.55,1034.7,54,CLR,Few High Clouds
WAS2016,20-Nov-16,20-Nov-16,8:30,20,WAS,-3,GB,66,O,48.5,2016,Week 11,77137,WAS,-3,3,ARI,42,24,Y,82000,0,19,38,0,Washington,KDCA,KDCA4269420,41,47,44,57,20,30,51,10,146,0,0,PC,Partly Cloudy,16,39,30,18,43,32,300,18,5,70,FEW,10,0,0,0,0,0,0,0,0,0,29.92,1013.1,45,CLR,Mostly Clear
WAS2013,20-Oct-13,20-Oct-13,1:00,13,CHI,-1,WAS,86,O,48.5,2013,Week 7,83147,WAS,1,-1,BUF,45,41,Y,79000,0,16,62,0,Washington,KDCA,KDCA4156713,56,66,47,69,9,18,3,10,623,0,0,CLR,Fair,16,64,64,35,34,50,320,8,0,201,CLR,10,552,55,607,552,607,788,0,0,0,30.06,1017.8,46,CLR,Fair
WAS2019,20-Oct-19,20-Oct-19,1:00,13,WAS,-1,SF,9,O,48,2019,Week 7,61459,WAS,-1,1,NE,0,9,Y,82000,0,22,43,0,Washington,KDCA,KDCA4375813,57,58,90,97,11,18,100,6.8,0,1.6,0,RAIN,Moderate Rain,59,57,53,55,93,56,30,17,100,55,OVC,6,276,55,331,552,607,788,99,0.17,0,29.86,1011.1,18,RAIN,Light Rain
WAS2015,20-Sep-15,20-Sep-15,1:00,13,LAR,-3,WAS,34,U,41,2015,Week 2,72460,WAS,3,-3,TEN,24,10,Y,82000,0,18,75,0,Washington,KDCA,KDCA4226713,73,82,58,87,11,15,76,10,242,0,0,MC,Mostly Cloudy,16,77,78,57,50,65,200,9,90,44,BKN,10,479,73,552,731,804,1044,0,0,0,30.02,1016.6,44,PC,Partly Cloudy
WAS2013,22-Dec-13,22-Dec-13,1:00,13,DAL,-3,WAS,47,U,52,2013,Week 16,80411,WAS,3,-3,DEN,23,24,N,79000,0,16,65,0,Washington,KDCA,KDCA4163013,64,72,80,93,14,21,95,9.6,75,0.24,0,MC,Mostly Cloudy,16,61,60,58,90,59,190,8,100,65,BKN,10,179,36,215,358,394,512,0,0,0,29.96,1014.6,42,MC,Mostly Cloudy
WAS2019,22-Dec-19,22-Dec-19,1:00,13,WAS,-3,NYG,76,O,51,2019,Week 16,66083,WAS,-3,3,DAL,35,41,Y,82000,0,22,60,0,Washington,KDCA,KDCA4382113,36,47,76,93,4,10,43,7.9,267,0,0,CLR,Fair,59,45,40,30,57,39,170,8,70,250,CLR,10,283,36,319,358,394,512,0,0,0,30.37,1028.4,46,CLR,Fair
WAS2013,22-Sep-13,22-Sep-13,1:00,13,DET,-1,WAS,47,U,49,2013,Week 3,80111,WAS,1,-1,WAS,20,27,Y,79000,0,16,72,0,Washington,KDCA,KDCA4153913,67,76,62,90,10,16,45,10,335,0,0,CLR,Mostly Clear,16,75,77,51,43,61,320,13,100,55,BKN,10,360,72,432,719,791,1027,0,0,0,29.84,1010.4,42,MC,Mostly Cloudy
WAS2017,23-Nov-17,23-Nov-17,8:30,20,WAS,-7,NYG,30,U,44,2017,Week 12,73210,WAS,-7,7,NYG,20,10,Y,82000,0,20,40,0,Washington,KDCA,KDCA4306220,38,47,56,69,5,10,17,10,482,0,0,CLR,Mostly Clear,16,39,39,27,62,34,190,3,0,201,CLR,10,0,0,0,0,0,0,0,0,0,30.07,1018.1,46,CLR,Fair
WAS2019,23-Sep-19,23-Sep-19,8:15,20,CHI,-5,WAS,46,O,41,2019,Week 3,67327,WAS,5,-5,CHI,15,31,Y,82000,0,22,79,0,Washington,KDCA,KDCA4373120,82,94,58,81,11,16,69,10,121,0,0,PC,High Clouds,59,83,85,63,51,70,340,16,100,100,OVC,10,0,0,0,0,0,0,0,0,0,29.83,1009.9,40,MC,Overcast
WAS2017,24-Dec-17,24-Dec-17,1:00,13,WAS,-3,DEN,38,U,39,2017,Week 16,72889,WAS,-3,3,DEN,27,11,Y,82000,0,20,63,0,Washington,KDCA,KDCA4309313,42,46,72,83,8,17,94,10,19,0,0,MC,Overcast,16,44,39,33,65,39,50,10,100,65,OVC,10,180,36,216,360,396,514,0,0,0,30.13,1020.4,40,MC,Overcast
WAS2019,24-Nov-19,24-Nov-19,1:00,13,WAS,-2,DET,35,O,32,2019,Week 12,57754,WAS,-2,2,KC,19,16,Y,82000,0,22,37,0,Washington,KDCA,KDCA4379313,46,54,67,96,10,24,58,9.6,230,0.28,0,CLR,Mostly Clear,59,52,47,27,38,42,300,18,70,90,BKN,10,255,39,294,392,431,560,0,0,0,29.58,1001.6,42,MC,Mostly Cloudy
WAS2017,24-Sep-17,24-Sep-17,8:30,20,OAK,-3.5,WAS,37,U,53.5,2017,Week 3,77123,WAS,3.5,-3.5,OAK,27,10,Y,82000,0,20,87,0,Washington,KDCA,KDCA4300220,79,92,64,84,5,10,37,10,492,0,0,CLR,Few High Clouds,16,80,84,70,71,73,0,0,5,250,FEW,10,0,0,0,0,0,0,0,0,0,30.05,1017.6,45,CLR,Mostly Clear
WAS2013,25-Nov-13,25-Nov-13,8:40,20,SF,-5.5,WAS,33,U,45.5,2013,Week 12,79773,WAS,5.5,-5.5,CHI,6,27,Y,79000,0,16,35,0,Washington,KDCA,KDCA4160320,32,38,38,46,9,14,65,10,87,0,0,CLR,Mostly Clear,16,35,27,10,35,27,200,12,90,170,BKN,10,0,0,0,0,0,0,0,0,0,30.41,1029.8,44,PC,Partly Cloudy
WAS2015,25-Oct-15,25-Oct-15,1:00,13,WAS,-3,TB,61,O,41.5,2015,Week 7,72912,WAS,-3,3,CIN,31,30,N,82000,0,18,70,0,Washington,KDCA,KDCA4230213,60,71,71,93,10,17,88,10,80,0.03,0,RAIN,Light Rain,16,68,68,56,66,61,320,8,100,45,BKN,10,217,52,269,523,575,747,0,0,0,30.11,1019.6,45,CLR,Mostly Clear
WAS2014,25-Sep-14,25-Sep-14,8:25,20,WAS,-3,NYG,59,O,44.5,2014,Week 4,80573,WAS,-3,3,TEN,14,45,Y,79000,0,17,63,0,Washington,KDCA,KDCA4190720,66,69,80,90,13,18,100,7.8,0,0.64,0,RAIN,Light Rain,16,67,67,59,76,62,300,9,100,18,OVC,10,0,0,0,0,0,0,0,0,0,30.24,1024.1,40,MC,Overcast
WAS2014,28-Dec-14,28-Dec-14,1:00,13,DAL,-6,WAS,61,O,47.5,2014,Week 17,80897,WAS,6,-6,PHI,17,44,Y,79000,0,17,57,0,Washington,KDCA,KDCA4200113,53,58,65,77,5,9,100,9.9,0,0.08,0,RAIN,Light Rain,16,57,56,40,53,49,170,6,100,60,OVC,10,228,36,264,364,400,519,0,0,0,29.95,1014.3,45,CLR,Mostly Clear
WAS2015,29-Nov-15,29-Nov-15,1:00,13,NYG,-1.5,WAS,34,U,48,2015,Week 12,77367,WAS,1.5,-1.5,OAK,20,14,Y,82000,0,18,46,0,Washington,KDCA,KDCA4233713,49,59,88,93,9,15,100,8.1,0,0.17,0,RAIN,Light Rain,16,48,44,45,89,47,300,8,100,9,OVC,10,190,38,228,379,417,541,0,0,0,30.23,1023.6,40,MC,Overcast
WAS2017,29-Oct-17,29-Oct-17,4:25,16,DAL,-3,WAS,52,O,46.5,2017,Week 8,78428,WAS,3,-3,SEA,19,33,Y,82000,0,20,77,0,Washington,KDCA,KDCA4303716,60,68,91,93,13,33,100,8.9,0,0.97,0,RAIN,Light Rain,16,60,58,58,93,59,360,13,100,19,OVC,10,52,10,62,104,114,149,99,0.05,0,29.33,993,18,RAIN,Light Rain
BAL2019,1-Dec-19,1-Dec-19,1:00,13,BAL,-4,SF,37,O,32,2019,Week 13,71029,BAL,-4,4,OAK,20,17,N,71008,0,21,26,0,Baltimore,KDMH,KDMH4380013,41,45,81,93,7,13,98,6.1,2,0.63,0,RAIN,Moderate Rain,16,41,36,39,93,40,83,8,100,6,OVC,7,182,37,220,365,402,522,99,0.04,0,29.63,1003.2,18,RAIN,Light Rain
BAL2015,1-Nov-15,1-Nov-15,1:00,13,BAL,-4.5,LAC,55,O,50.5,2015,Week 8,70829,BAL,-4.5,4.5,CLE,29,26,N,71008,0,17,65,0,Baltimore,KDMH,KDMH4230913,60,67,76,93,5,10,80,9.3,157,0,0,PC,High Overcast,20,64,64,54,70,58,210,9,44,301,BKN,10,372,48,420,477,525,682,0,0,0,29.93,1013.6,52,PC,High Clouds
BAL2017,1-Oct-17,1-Oct-17,1:00,13,PIT,-3.5,BAL,35,U,42,2017,Week 4,71126,BAL,3.5,-3.5,CAR,9,26,Y,71008,0,19,43,0,Baltimore,KDMH,KDMH4300913,61,70,56,69,4,8,2,9.8,708,0,0,CLR,Fair,20,68,68,46,45,56,90,5,0,201,CLR,10,658,66,724,658,724,940,0,0,0,30.36,1028.2,46,CLR,Fair
BAL2016,2-Oct-16,2-Oct-16,1:00,13,BAL,-3.5,OAK,55,O,45,2016,Week 4,71152,BAL,-3.5,3.5,WAS,27,28,N,71008,0,18,67,0,Baltimore,KDMH,KDMH4264513,67,72,84,93,2,6,40,6.1,400,0,0,CLR,Few High Clouds,20,69,69,62,78,65,130,6,100,301,OVC,10,323,65,388,646,711,923,0,0,0,30.06,1017.9,50,PC,High Overcast
BAL2017,3-Dec-17,3-Dec-17,1:00,13,BAL,-2.5,DET,64,O,43,2017,Week 13,70500,BAL,-2.5,2.5,MIN,44,20,Y,71008,0,19,87,0,Baltimore,KDMH,KDMH4307213,48,57,69,90,1,6,24,5.9,561,0.12,0,CLR,Fair,20,55,54,40,57,48,130,6,0,201,CLR,5,361,36,397,361,397,516,0,0,0,30.18,1021.9,46,CLR,Fair
BAL2019,3-Nov-19,3-Nov-19,1:00,13,NE,-2.5,BAL,57,O,46,2019,Week 9,71157,BAL,2.5,-2.5,NE,37,20,Y,71008,0,21,50,0,Baltimore,KDMH,KDMH4377213,48,54,49,65,6,15,15,10.1,528,0,0,CLR,Clear,16,53,49,27,37,42,280,15,23,400,SCT,10,413,47,460,467,514,667,0,0,0,30.2,1022.4,44,PC,Partly Cloudy
BAL2016,4-Dec-16,4-Dec-16,1:00,13,BAL,-3.5,MIA,44,O,41.5,2016,Week 13,70916,BAL,-3.5,3.5,DET,38,6,Y,71008,0,18,45,0,Baltimore,KDMH,KDMH4270813,44,48,54,68,6,13,90,9.8,32,0.04,0,MC,Overcast,20,47,44,28,48,39,340,6,100,301,OVC,10,178,36,214,357,393,510,0,0,0,30.24,1024.1,50,PC,High Overcast
BAL2016,6-Nov-16,6-Nov-16,1:00,13,PIT,-3,BAL,35,U,46,2016,Week 9,71286,BAL,3,-3,SEA,21,14,Y,71008,0,18,63,0,Baltimore,KDMH,KDMH4268013,58,66,39,59,10,21,15,10,465,0,0,CLR,Fair,20,65,63,28,25,48,270,21,100,201,OVC,10,224,45,268,447,492,639,0,0,0,30.27,1024.9,40,MC,Overcast
BAL2014,7-Sep-14,7-Sep-14,1:00,13,BAL,-1,CIN,39,U,43.5,2014,Week 1,70925,BAL,-1,1,DET,16,23,Y,71008,0,16,78,0,Baltimore,KDMH,KDMH4188913,74,80,54,79,5,8,26,10,686,0,0,CLR,Few High Clouds,20,77,78,52,42,62,330,6,4,301,SCT,10,778,79,857,794,873,1135,0,0,0,30.12,1019.9,54,CLR,Few High Clouds
BAL2013,8-Dec-13,8-Dec-13,1:00,13,BAL,-6,MIN,55,O,41.5,2013,Week 14,70921,BAL,-6,6,DEN,29,26,N,71008,0,15,33,0,Baltimore,KDMH,KDMH4161613,32,35,70,89,1,6,60,5.6,185,0.61,3.9,SNOW,Light Snow,20,29,29,25,85,28,0,0,78,301,OVC,2,216,35,251,354,389,505,99,0.07,0.6,30.58,1035.5,9,SNOW,Light Snow
BAL2014,9-Nov-14,9-Nov-14,1:00,13,BAL,-10.5,TEN,28,U,44,2014,Week 10,70914,BAL,-10.5,10.5,CLE,21,7,Y,71008,0,16,57,0,Baltimore,KDMH,KDMH4195213,50,58,53,68,1,7,24,10,482,0,0,CLR,Fair,20,57,57,31,37,45,0,0,28,234,BKN,10,377,44,421,438,482,626,0,0,0,29.96,1014.7,52,PC,High Clouds
BAL2016,9-Oct-16,9-Oct-16,1:00,13,BAL,-4,WAS,26,U,44.5,2016,Week 5,71318,BAL,-4,4,SF,10,16,Y,71008,0,18,61,0,Baltimore,KDMH,KDMH4265213,61,67,54,84,13,25,43,9.8,448,0,0,CLR,Fair,20,64,62,42,45,53,320,17,0,201,CLR,10,604,60,664,604,664,862,0,0,0,30.02,1016.5,46,CLR,Fair
BAL2013,10-Nov-13,10-Nov-13,1:00,13,BAL,-1,CIN,37,U,44,2013,Week 10,70992,BAL,-1,1,HOU,20,17,Y,71008,0,15,62,0,Baltimore,KDMH,KDMH4158813,53,65,39,54,11,26,3,10,599,0,0,CLR,Fair,20,64,62,27,25,47,280,23,0,201,CLR,10,434,43,477,434,477,621,0,0,0,29.95,1014.3,46,CLR,Fair
BAL2016,10-Nov-16,10-Nov-16,8:25,20,BAL,-7.5,CLE,35,U,44,2016,Week 10,70921,BAL,-7.5,7.5,NE,28,7,Y,71008,0,18,52,0,Baltimore,KDMH,KDMH4268420,52,60,49,61,6,14,0,10,611,0,0,CLR,Fair,20,54,54,34,47,45,0,0,0,201,CLR,10,0,0,0,0,0,0,0,0,0,29.91,1012.9,46,CLR,Fair
BAL2015,11-Oct-15,11-Oct-15,1:00,13,BAL,-6.5,CLE,63,O,43,2015,Week 5,71046,BAL,-6.5,6.5,SF,30,33,N,71008,0,17,68,0,Baltimore,KDMH,KDMH4228813,60,71,63,80,2,8,0,10,680,0,0,CLR,Fair,20,67,67,44,44,55,120,8,0,201,CLR,10,597,60,657,597,657,853,0,0,0,29.95,1014.3,46,CLR,Fair
BAL2014,11-Sep-14,11-Sep-14,8:25,20,BAL,-2.5,PIT,32,U,44.5,2014,Week 2,71181,BAL,-2.5,2.5,CLE,26,6,Y,71008,0,16,80,0,Baltimore,KDMH,KDMH4189320,79,90,67,87,7,12,22,10,600,0,0,PC,Partly Cloudy,20,82,85,68,63,73,0,0,0,201,CLR,10,0,0,0,0,0,0,0,0,0,29.92,1013.2,46,CLR,Fair
BAL2016,11-Sep-16,11-Sep-16,1:00,13,BAL,-3,BUF,20,U,44.5,2016,Week 1,71104,BAL,-3,3,SF,13,7,Y,71008,0,18,82,0,Baltimore,KDMH,KDMH4262413,80,84,51,74,7,12,44,10,338,0,0,CLR,Few High Clouds,20,82,82,53,37,65,340,6,100,301,OVC,10,384,77,461,768,845,1098,0,0,0,30.06,1017.7,50,PC,High Overcast
BAL2019,12-Dec-19,12-Dec-19,1:00,13,BAL,-5.5,NYJ,63,O,44,2019,Week 15,69134,BAL,-5.5,5.5,NYJ,42,21,Y,71008,0,21,89,0,Baltimore,KDMH,KDMH4381113,34,39,49,70,3,7,22,10.1,548,0,0,CLR,Clear,16,36,32,15,42,29,51,5,2,396,SKC,10,346,35,382,350,385,500,0,0,0,30.73,1040.7,47,CLR,Clear
BAL2015,13-Dec-15,13-Dec-15,1:00,13,SEA,-10.5,BAL,41,U,42,2015,Week 14,71179,BAL,10.5,-10.5,WAS,6,35,Y,71008,0,17,66,0,Baltimore,KDMH,KDMH4235113,59,68,82,90,1,5,60,7.3,164,0,0,MC,Mostly Cloudy,20,66,66,55,68,60,120,3,70,149,BKN,10,227,35,262,350,385,499,0,0,0,30.13,1020.4,42,MC,Mostly Cloudy
BAL2013,13-Oct-13,13-Oct-13,1:00,13,GB,-2,BAL,36,U,49,2013,Week 6,71319,BAL,2,-2,ATL,17,19,N,71008,0,15,68,0,Baltimore,KDMH,KDMH4156013,64,69,71,84,5,13,1,9.7,675,0.03,0,CLR,Fair,20,66,66,55,68,60,40,3,0,201,CLR,10,585,59,644,585,644,836,0,0,0,30.31,1026.4,46,CLR,Fair
BAL2019,13-Oct-19,13-Oct-19,1:00,13,BAL,-7,CIN,40,O,45,2019,Week 6,70051,BAL,-7,7,CIN,23,17,N,71008,0,21,60,0,Baltimore,KDMH,KDMH4375113,60,65,56,81,2,7,82,10.1,64,0,0,MC,Overcast,16,63,63,44,50,53,47,0,99,71,OVC,10,295,59,354,585,644,836,0,0,0,30.08,1018.4,40,MC,Overcast
BAL2014,14-Dec-14,14-Dec-14,1:00,13,BAL,-14,JAX,32,U,44.5,2014,Week 15,70801,BAL,-14,14,NYJ,20,12,N,71008,0,16,49,0,Baltimore,KDMH,KDMH4198713,44,52,66,76,0,3,38,9.1,136,0,0,CLR,Fair,20,49,49,36,61,43,0,0,96,157,OVC,10,181,35,216,349,384,499,0,0,0,29.94,1014,40,MC,Overcast
BAL2015,15-Nov-15,15-Nov-15,1:00,13,BAL,-5,JAX,42,U,47,2015,Week 10,70837,BAL,-5,5,PHI,20,22,N,71008,0,17,63,0,Baltimore,KDMH,KDMH4232313,52,65,46,70,4,10,3,10,581,0,0,CLR,Fair,20,63,62,28,27,47,220,10,1,236,SCT,10,411,41,452,413,454,591,0,0,0,30.31,1026.4,54,CLR,Few High Clouds
BAL2017,15-Oct-17,15-Oct-17,1:00,13,BAL,-5.5,CHI,51,O,39,2017,Week 6,70616,BAL,-5.5,5.5,WAS,24,27,N,71008,0,19,84,0,Baltimore,KDMH,KDMH4302313,70,77,84,97,7,12,10,7.4,670,0,0,CLR,Fair,20,72,72,65,79,67,180,8,0,201,CLR,10,573,57,630,573,630,819,0,0,0,29.97,1014.7,46,CLR,Fair
BAL2013,15-Sep-13,15-Sep-13,1:00,13,BAL,-6.5,CLE,20,U,43.5,2013,Week 2,71098,BAL,-6.5,6.5,MIA,14,6,Y,71008,0,15,78,0,Baltimore,KDMH,KDMH4153213,69,78,56,75,4,10,21,10,640,0,0,PC,High Clouds,20,76,77,50,40,61,130,10,14,301,SCT,10,698,75,773,751,826,1074,0,0,0,30.18,1022,54,CLR,Few High Clouds
BAL2019,15-Sep-19,15-Sep-19,1:00,13,BAL,-13,ARI,40,U,46,2019,Week 2,70126,BAL,-13,13,ARI,23,17,N,71008,0,21,35,0,Baltimore,KDMH,KDMH4372313,78,86,57,84,2,8,37,10.1,591,0,0,PC,Partly Cloudy,16,85,85,53,34,66,305,0,10,339,SCT,10,713,75,788,751,826,1074,0,0,0,30.14,1020.4,44,PC,Partly Cloudy
BAL2019,17-Nov-19,17-Nov-19,1:00,13,BAL,-2.5,HOU,48,O,38,2019,Week 11,70731,BAL,-2.5,2.5,HOU,41,7,Y,71008,0,21,66,0,Baltimore,KDMH,KDMH4378613,40,46,53,73,6,12,95,10,10,0,0,MC,Overcast,16,44,39,30,58,38,60,9,100,25,OVC,10,203,41,244,406,447,580,0,0,0,30.18,1021.8,40,MC,Overcast
BAL2017,17-Sep-17,17-Sep-17,1:00,13,BAL,-7.5,CLE,34,U,39.5,2017,Week 2,70605,BAL,-7.5,7.5,NYJ,24,10,Y,71008,0,19,44,0,Baltimore,KDMH,KDMH4299513,77,83,77,91,3,9,0,8.8,737,0,0,CLR,Fair,20,82,86,69,65,73,90,8,0,201,CLR,10,741,74,815,741,815,1058,0,0,0,30.11,1019.6,46,CLR,Fair
BAL2016,18-Dec-16,18-Dec-16,1:00,13,BAL,-5,PHI,53,O,40.5,2016,Week 15,71223,BAL,-5,5,LAC,27,26,N,71008,0,18,58,0,Baltimore,KDMH,KDMH4272213,48,63,71,89,10,17,83,8.1,82,0.06,0,PC,High Overcast,20,62,62,57,84,59,0,0,43,301,SCT,10,273,35,308,348,383,497,0,0,0,29.9,1012.5,54,CLR,Few High Clouds
BAL2014,19-Oct-14,19-Oct-14,1:00,13,BAL,-7,ATL,36,U,50,2014,Week 7,71184,BAL,-7,7,IND,29,7,Y,71008,0,16,57,0,Baltimore,KDMH,KDMH4193113,53,58,47,64,10,22,17,10,650,0,0,CLR,Fair,20,55,51,27,34,43,300,17,0,201,CLR,10,549,55,604,549,604,784,0,0,0,30.05,1017.5,46,CLR,Fair
BAL2015,20-Dec-15,20-Dec-15,1:00,13,KC,-6.5,BAL,48,O,41,2015,Week 15,70791,BAL,6.5,-6.5,LAR,14,34,Y,71008,0,17,43,0,Baltimore,KDMH,KDMH4235813,38,47,48,62,3,8,4,10,519,0,0,CLR,Clear,20,44,41,15,31,34,200,5,20,214,SCT,10,313,35,348,348,383,497,0,0,0,30.58,1035.4,44,PC,Partly Cloudy
BAL2013,22-Dec-13,22-Dec-13,4:25,16,NE,-1,BAL,48,O,45.5,2013,Week 16,71433,BAL,1,-1,DAL,7,41,Y,71008,0,15,65,0,Baltimore,KDMH,KDMH4163016,64,72,84,93,9,16,85,7.8,86,0.11,0,PC,High Overcast,20,64,63,59,84,61,190,14,94,121,OVC,7,20,4,24,37,41,54,0,0,0,29.93,1013.4,50,PC,High Overcast
BAL2015,22-Nov-15,22-Nov-15,1:00,13,BAL,-3,LAR,29,U,41.5,2015,Week 11,71105,BAL,-3,3,DEN,16,13,N,71008,0,17,47,0,Baltimore,KDMH,KDMH4233013,46,51,52,86,13,21,60,10,127,0,0,MC,Mostly Cloudy,20,47,41,24,41,38,310,13,70,172,BKN,10,253,39,292,389,428,555,0,0,0,29.99,1015.4,42,MC,Mostly Cloudy
BAL2013,22-Sep-13,22-Sep-13,1:00,13,BAL,-1,HOU,39,U,44.5,2013,Week 3,71168,BAL,-1,1,HOU,30,9,Y,71008,0,15,73,0,Baltimore,KDMH,KDMH4153913,67,74,60,87,6,10,4,10,702,0,0,CLR,Fair,20,72,72,49,44,59,310,8,8,201,SCT,10,684,71,755,712,783,1017,0,0,0,29.83,1010.1,44,PC,Partly Cloudy
BAL2017,23-Dec-17,23-Dec-17,4:30,16,BAL,-13.5,IND,39,U,41,2017,Week 16,70590,BAL,-13.5,13.5,BUF,23,16,N,71008,0,19,38,0,Baltimore,KDMH,KDMH4309216,53,65,83,93,7,18,78,7.1,38,0.51,0,RAIN,Moderate Rain,20,64,64,57,78,60,180,8,83,94,BKN,10,23,4,27,39,43,56,99,0.01,0,29.67,1004.6,18,RAIN,Light Rain
BAL2013,24-Nov-13,24-Nov-13,1:00,13,BAL,-4,NYJ,22,U,38.5,2013,Week 12,71148,BAL,-4,4,CIN,19,3,Y,71008,0,15,34,0,Baltimore,KDMH,KDMH4160213,31,35,34,42,18,29,1,8.4,582,0,0,CLR,Fair,20,33,20,6,32,25,300,26,0,201,CLR,10,383,38,421,383,421,547,0,0,0,30.35,1027.7,46,CLR,Fair
BAL2017,26-Oct-17,26-Oct-17,8:25,20,BAL,-3,MIA,40,O,38,2017,Week 8,70408,BAL,-3,3,HOU,40,0,Y,71008,0,19,86,0,Baltimore,KDMH,KDMH4303420,54,60,52,64,10,18,46,9.9,324,0,0,CLR,Fair,20,54,54,35,49,45,0,0,0,201,CLR,10,0,0,0,0,0,0,0,0,0,29.96,1014.5,46,CLR,Fair
BAL2015,27-Dec-15,27-Dec-15,1:00,13,PIT,-11.5,BAL,37,U,47.5,2015,Week 16,71261,BAL,11.5,-11.5,NYJ,20,17,N,71008,0,17,63,0,Baltimore,KDMH,KDMH4236513,59,70,86,96,6,13,86,6.5,104,0,0,MC,Overcast,20,62,61,58,86,60,210,12,100,123,OVC,10,177,35,212,354,389,505,0,0,0,29.91,1012.9,40,MC,Overcast
BAL2016,27-Nov-16,27-Nov-16,1:00,13,BAL,-3.5,CIN,33,U,42,2016,Week 12,70903,BAL,-3.5,3.5,CIN,19,14,Y,71008,0,18,49,0,Baltimore,KDMH,KDMH4270113,45,52,49,60,7,18,24,10,581,0,0,CLR,Fair,20,50,45,25,38,40,290,13,0,201,CLR,10,372,37,409,372,409,532,0,0,0,30.18,1022,46,CLR,Fair
BAL2017,27-Nov-17,27-Nov-17,8:30,20,BAL,-8,HOU,39,U,39.5,2017,Week 12,70357,BAL,-8,8,TB,23,16,N,71008,0,19,64,0,Baltimore,KDMH,KDMH4306620,51,59,44,59,5,12,15,9.9,575,0,0,CLR,Fair,20,53,53,34,49,44,0,0,0,201,CLR,10,0,0,0,0,0,0,0,0,0,30.22,1023.4,46,CLR,Fair
BAL2015,27-Sep-15,27-Sep-15,1:00,13,BAL,-1.5,CIN,52,O,45.5,2015,Week 3,70970,BAL,-1.5,1.5,MIA,24,28,Y,71008,0,17,73,0,Baltimore,KDMH,KDMH4227413,67,73,70,81,5,13,40,10,439,0,0,MC,Mostly Cloudy,20,72,72,58,61,64,20,7,0,201,CLR,10,682,68,750,682,750,974,0,0,0,30.34,1027.5,46,CLR,Fair
BAL2014,28-Dec-14,28-Dec-14,1:00,13,BAL,-14,CLE,30,U,40,2014,Week 17,71070,BAL,-14,14,SEA,20,10,N,71008,0,16,56,0,Baltimore,KDMH,KDMH4200113,50,59,71,83,1,6,78,9.3,92,0.06,0,PC,High Overcast,20,58,58,41,54,50,0,3,81,301,OVC,10,211,36,247,355,391,507,0,0,0,29.94,1013.8,50,PC,High Overcast
BAL2013,28-Nov-13,28-Nov-13,8:30,20,BAL,-3,PIT,42,O,40.5,2013,Week 13,71005,BAL,-3,3,MIA,22,20,N,71008,0,15,37,0,Baltimore,KDMH,KDMH4160620,36,41,40,48,10,22,10,9.2,579,0,0,CLR,Fair,20,37,37,14,39,29,0,0,7,201,SCT,10,0,0,0,0,0,0,0,0,0,30.45,1031.2,44,PC,Partly Cloudy
BAL2014,28-Sep-14,28-Sep-14,1:00,13,BAL,-3,CAR,48,O,42,2014,Week 4,71218,BAL,-3,3,OAK,38,10,Y,71008,0,16,79,0,Baltimore,KDMH,KDMH4191013,71,81,63,78,2,7,36,9.4,529,0,0,PC,High Clouds,20,80,81,57,45,66,130,7,50,301,BKN,10,507,68,575,676,744,966,0,0,0,30.12,1019.9,52,PC,High Clouds
BAL2019,29-Sep-19,29-Sep-19,1:00,13,BAL,-7,CLE,65,O,47.5,2019,Week 4,70686,BAL,-7,7,NYJ,25,40,Y,71008,0,21,39,0,Baltimore,KDMH,KDMH4373713,78,87,68,88,3,7,47,8.5,432,0,0,PC,Partly Cloudy,16,84,86,65,53,71,47,3,66,309,SCT,10,449,67,516,670,737,957,0,0,0,30.21,1023,44,PC,Partly Cloudy
BAL2014,30-Nov-14,30-Nov-14,1:00,13,BAL,-6.5,LAC,67,O,46,2014,Week 13,71060,BAL,-6.5,6.5,TEN,33,34,N,71008,0,16,58,0,Baltimore,KDMH,KDMH4197313,49,60,58,69,4,8,10,10,517,0,0,CLR,Fair,20,55,54,35,47,46,130,5,13,201,SCT,10,344,37,381,368,405,525,0,0,0,30.09,1019.1,44,PC,Partly Cloudy
BAL2017,31-Dec-17,31-Dec-17,4:25,16,BAL,-8,CIN,58,O,39.5,2017,Week 17,70507,BAL,-8,8,HOU,27,31,N,71008,0,19,53,0,Baltimore,KDMH,KDMH4310016,20,23,42,47,11,21,37,9.9,147,0,0,CLR,Fair,20,20,9,1,43,16,310,10,43,88,BKN,10,39,5,44,50,55,71,0,0,0,30.36,1027.9,52,PC,High Clouds
NYJ2013,1-Dec-13,1-Dec-13,1:00,13,NYJ, PK,MIA,26,U,40,2013,Week 13,76957,NYJ, PK,PK,MIA,3,23,PK,82550,0,3,49,0,New York,KFRG,KFRG4160913,44,52,74,89,3,7,85,10,180,0,0,MC,Overcast,82,50,50,38,63,44,350,3,70,120,BKN,10,247,33,280,327,360,467,0,0,0,30.11,1019.5,42,MC,Mostly Cloudy
NYJ2014,1-Dec-14,1-Dec-14,8:30,20,MIA,-7,NYJ,29,U,41.5,2014,Week 13,78160,NYJ,7,-7,KC,13,16,N,82550,0,4,43,0,New York,KFRG,KFRG4197420,52,64,71,86,9,17,83,10,113,0.08,0,MC,Overcast,82,45,38,39,80,42,100,16,100,70,OVC,10,0,0,0,0,0,0,99,0.03,0,30.32,1026.9,18,RAIN,Light Rain
NYG2019,1-Dec-19,1-Dec-19,1:00,13,GB,-3.5,NYG,44,O,31,2019,Week 13,75950,NYG,3.5,-3.5,PIT,13,31,Y,82550,0,9,52,0,New York,KFRG,KFRG4380013,34,42,70,93,11,21,63,7.5,110,0.39,0.8,R/S,Rain and Snow,69,34,26,27,76,31,50,10,100,50,OVC,9,164,33,196,327,360,467,0,0,0.1,29.84,1010.6,18,RAIN,Light Rain
NYJ2016,1-Jan-17,1-Jan-17,1:00,13,BUF,-4,NYJ,40,U,43,2016,Week 17,78160,NYJ,4,-4,JAX,30,10,Y,82550,0,6,45,0,New York,KFRG,KFRG4273613,42,49,49,67,8,15,23,10,559,0,0,CLR,Fair,82,47,43,22,37,37,310,9,0,201,CLR,10,326,33,359,326,359,465,0,0,0,30.17,1021.7,46,CLR,Fair
NYJ2017,1-Oct-17,1-Oct-17,1:00,13,JAX,-4,NYJ,43,O,38.5,2017,Week 4,77562,NYJ,4,-4,JAX,23,20,N,82550,0,7,81,0,New York,KFRG,KFRG4300913,58,67,66,86,5,10,6,10,697,0,0,CLR,Fair,82,65,65,42,44,53,290,8,0,201,CLR,10,622,62,684,622,684,889,0,0,0,30.34,1027.3,46,CLR,Fair
NYJ2017,2-Nov-17,2-Nov-17,8:25,20,BUF,-3,NYJ,55,O,42.5,2017,Week 9,77562,NYJ,3,-3,DAL,34,21,Y,82550,0,7,87,0,New York,KFRG,KFRG4304120,64,72,87,97,8,15,54,8.9,330,0,0,CLR,Fair,82,62,62,61,96,61,170,8,0,201,CLR,10,0,0,0,0,0,0,0,0,0,30.2,1022.7,46,CLR,Fair
NYJ2016,2-Oct-16,2-Oct-16,1:00,13,SEA,-1,NYJ,44,O,40,2016,Week 4,78160,NYJ,1,-1,DEN,17,27,Y,82550,0,6,61,0,New York,KFRG,KFRG4264513,61,63,90,97,4,7,99,9.4,0,0,0,MC,Overcast,82,63,63,58,84,60,360,3,100,11,OVC,10,304,61,366,609,670,870,0,0,0,30.07,1018.1,40,MC,Overcast
NYJ2017,3-Dec-17,3-Dec-17,1:00,13,KC,-4,NYJ,69,O,44,2017,Week 13,77562,NYJ,4,-4,CHI,38,31,Y,82550,0,7,28,0,New York,KFRG,KFRG4307213,42,49,77,89,4,7,88,9.9,22,0,0,MC,Overcast,82,49,46,38,66,44,120,7,100,65,OVC,10,162,32,194,323,355,462,0,0,0,30.18,1022.1,40,MC,Overcast
NYG2015,3-Jan-16,3-Jan-16,1:00,13,NYG,-3.5,PHI,65,O,51,2015,Week 17,78023,NYG,-3.5,3.5,WAS,30,35,Y,82550,0,5,67,0,New York,KFRG,KFRG4237213,40,48,54,70,9,20,39,10,495,0,0,CLR,Fair,82,47,41,22,37,37,270,14,10,169,CLR,10,313,33,346,329,362,470,0,0,0,29.78,1008.5,46,CLR,Fair
NYJ2013,3-Nov-13,3-Nov-13,1:00,13,NO,-6,NYJ,46,P,46,2013,Week 9,76957,NYJ,6,-6,IND,26,20,N,82550,0,3,53,0,New York,KFRG,KFRG4158113,45,53,60,80,11,16,32,10,243,0,0,CLR,Fair,82,50,45,29,44,41,340,14,70,70,BKN,10,278,43,321,428,471,611,0,0,0,30.12,1020,42,MC,Mostly Cloudy
NYG2014,3-Nov-14,3-Nov-14,8:30,20,IND,-3,NYG,64,O,51.5,2014,Week 9,77975,NYG,3,-3,CHI,24,40,Y,82550,0,4,53,0,New York,KFRG,KFRG4194620,50,60,43,62,11,18,20,10,620,0,0,CLR,Fair,82,53,51,28,38,42,240,8,70,100,BKN,10,0,0,0,0,0,0,0,0,0,30.14,1020.5,42,MC,Mostly Cloudy
NYG2019,4-Nov-19,4-Nov-19,1:00,13,DAL,-2,NYG,55,O,45,2019,Week 9,76107,NYG,2,-2,DAL,18,37,Y,82550,0,9,57,0,New York,KFRG,KFRG4377313,48,55,59,85,7,16,3,10,618,0,0,CLR,Fair,69,54,50,33,45,45,200,12,0,400,CLR,10,423,42,465,423,465,604,0,0,0,30.35,1027.7,46,CLR,Fair
NYJ2016,5-Dec-16,5-Dec-16,8:30,20,NYJ,-1,IND,51,O,48.5,2016,Week 13,78160,NYJ,-1,1,SF,10,41,Y,82550,0,6,43,0,New York,KFRG,KFRG4270920,43,51,70,97,8,15,54,8.9,302,0.14,0,CLR,Fair,82,44,41,28,53,38,330,5,100,201,OVC,10,0,0,0,0,0,0,0,0,0,30.05,1017.6,40,MC,Overcast
NYG2017,5-Nov-17,5-Nov-17,1:00,13,LAR,-6,NYG,68,O,42.5,2017,Week 9,76877,NYG,6,-6,TEN,17,51,Y,82550,0,7,76,0,New York,KFRG,KFRG4304413,57,62,91,100,7,12,100,6.9,0,0.02,0,MC,Overcast,82,59,57,57,94,58,110,9,100,7,OVC,1.8,209,42,251,418,460,597,0,0,0,30.19,1022.2,40,MC,Overcast
NYG2014,5-Oct-14,5-Oct-14,1:00,13,NYG,-4,ATL,50,U,51,2014,Week 5,80307,NYG,-4,4,PHI,30,20,Y,82550,0,4,61,0,New York,KFRG,KFRG4191713,53,61,51,71,8,12,3,10,693,0,0,CLR,Fair,82,58,55,33,39,47,250,12,0,201,CLR,10,596,60,656,596,656,852,0,0,0,29.84,1010.5,46,CLR,Fair
NYG2015,6-Dec-15,6-Dec-15,1:00,13,NYJ,-2.5,NYG,43,U,46,2015,Week 13,80898,NYG,2.5,-2.5,TB,20,23,Y,82550,0,5,52,0,New York,KFRG,KFRG4234413,43,54,74,88,4,10,6,9.8,534,0,0,CLR,Fair,82,53,50,37,55,46,220,9,5,168,CLR,10,311,32,343,319,351,456,0,0,0,30.42,1030,46,CLR,Fair
NYG2016,6-Nov-16,6-Nov-16,1:00,13,NYG,-3,PHI,51,O,43,2016,Week 9,80309,NYG,-3,3,NYJ,28,23,Y,82550,0,6,57,0,New York,KFRG,KFRG4268013,52,58,54,75,13,23,12,10,535,0,0,CLR,Fair,82,56,51,32,40,45,10,20,70,55,BKN,10,266,41,307,409,450,584,0,0,0,30.19,1022.5,42,MC,Mostly Cloudy
NYG2013,6-Oct-13,6-Oct-13,1:00,13,PHI,-1,NYG,57,O,54,2013,Week 5,80738,NYG,1,-1,CHI,21,36,Y,82550,0,3,69,0,New York,KFRG,KFRG4155313,64,67,99,100,8,10,100,2.2,0,0,0,MC,Overcast,82,64,64,64,100,64,110,9,100,4,OVC,1,295,59,354,590,649,843,0,0,0,30.09,1019.1,40,MC,Overcast
NYG2019,6-Oct-19,6-Oct-19,1:00,13,MIN,-3,NYG,38,O,45,2019,Week 5,75041,NYG,3,-3,MIN,10,28,Y,82550,0,9,53,0,New York,KFRG,KFRG4374413,65,69,74,81,12,17,98,10,0,0,0,MC,Overcast,69,69,69,60,73,64,190,16,100,55,OVC,10,295,59,354,590,649,843,0,0,0,30.3,1025.9,40,MC,Overcast
NYJ2014,7-Sep-14,7-Sep-14,1:00,13,NYJ,-6.5,OAK,33,U,41.5,2014,Week 1,78160,NYJ,-6.5,6.5,CLE,19,14,N,82550,0,4,80,0,New York,KFRG,KFRG4188913,71,80,65,84,7,16,29,10,671,0,0,CLR,Fair,82,76,78,57,52,65,360,8,20,45,SCT,10,686,76,762,762,838,1089,0,0,0,30.1,1018.4,44,PC,Partly Cloudy
NYJ2013,8-Dec-13,8-Dec-13,1:00,13,NYJ,-3,OAK,64,O,39,2013,Week 14,76957,NYJ,-3,3,NYJ,37,27,Y,82550,0,3,34,0,New York,KFRG,KFRG4161613,30,32,67,92,5,12,69,8.6,58,0,0,CLR,Fair,82,32,26,17,54,27,60,6,100,70,OVC,10,158,32,190,316,348,451,0,0,0,30.54,1034.1,40,MC,Overcast
NYJ2019,8-Dec-19,8-Dec-19,1:00,13,MIA,-3,NYJ,43,O,37,2019,Week 14,78523,NYJ,3,-3,MIA,22,21,N,82550,0,9,71,0,New York,KFRG,KFRG4380713,33,46,69,87,5,13,20,10,524,0,0,CLR,Fair,69,37,29,21,52,32,180,13,0,301,CLR,10,317,32,349,317,349,452,0,0,0,30.48,1032.3,46,CLR,Fair
NYJ2015,8-Nov-15,8-Nov-15,1:00,13,NYJ,-8,JAX,51,O,42.5,2015,Week 9,78160,NYJ,-8,8,MIN,28,23,N,82550,0,5,57,0,New York,KFRG,KFRG4231613,50,58,51,71,6,13,5,10,608,0,0,CLR,Fair,82,57,55,32,39,46,300,10,0,201,CLR,10,404,40,444,404,444,577,0,0,0,30.35,1027.9,46,CLR,Fair
NYG2017,8-Oct-17,8-Oct-17,1:00,13,NYG,-3,LAC,49,O,45.5,2017,Week 5,77373,NYG,-3,3,NE,22,27,Y,82550,0,7,56,0,New York,KFRG,KFRG4301613,72,74,92,97,13,20,98,8.1,6,0.23,0,MC,Overcast,82,74,78,72,94,73,210,13,100,6,OVC,3,288,58,346,577,635,825,0,0,0,29.94,1013.7,40,MC,Overcast
NYJ2013,8-Sep-13,8-Sep-13,1:00,13,TB,-4,NYJ,35,U,39.5,2013,Week 1,76957,NYJ,4,-4,CAR,18,17,N,82550,0,3,82,0,New York,KFRG,KFRG4152513,71,83,57,84,10,18,34,10,475,0,0,CLR,Fair,82,81,82,60,49,68,320,10,75,42,BKN,10,473,76,549,757,833,1082,0,0,0,29.82,1009.7,45,CLR,Mostly Clear
NYJ2019,8-Sep-19,8-Sep-19,1:03,13,NYJ,-2.5,BUF,33,U,41,2019,Week 1,78523,NYJ,-2.5,2.5,BUF,16,17,N,82550,0,9,51,0,New York,KFRG,KFRG4371613,68,77,67,83,5,12,36,10,543,0,0,CLR,Fair,69,74,77,53,48,62,370,5,0,247,CLR,10,757,76,833,757,833,1082,0,0,0,30.04,1017.2,46,CLR,Fair
NYJ2014,9-Nov-14,9-Nov-14,1:00,13,PIT,-4.5,NYJ,33,U,47,2014,Week 10,78160,NYJ,4.5,-4.5,NYG,20,13,Y,82550,0,4,57,0,New York,KFRG,KFRG4195213,50,58,60,77,5,14,51,10,268,0,0,CLR,Fair,82,56,54,34,44,46,290,7,50,168,CLR,10,299,40,339,399,439,571,0,0,0,29.91,1013,46,CLR,Fair
NYG2017,10-Dec-17,10-Dec-17,1:00,13,DAL,-4,NYG,40,U,42.5,2017,Week 14,78125,NYG,4,-4,JAX,10,30,Y,82550,0,7,41,0,New York,KFRG,KFRG4307913,34,38,70,93,9,14,53,7.9,516,0,0,MC,Overcast,82,37,28,25,62,33,270,14,0,201,CLR,10,314,31,345,314,345,449,0,0,0,29.9,1012.6,46,CLR,Fair
NYG2013,10-Nov-13,10-Nov-13,1:00,13,NYG,-7,OAK,44,O,41.5,2013,Week 10,80366,NYG,-7,7,SEA,24,20,N,82550,0,3,53,0,New York,KFRG,KFRG4158813,50,61,53,71,12,24,56,10,388,0,0,MC,Overcast,82,60,56,31,33,47,260,23,13,90,FEW,10,385,39,424,395,434,564,0,0,0,29.81,1009.4,45,CLR,Mostly Clear
NYJ2019,10-Nov-19,10-Nov-19,1:00,13,NYJ,-3.5,NYG,61,O,45,2019,Week 10,78523,NYJ,-3.5,3.5,NYG,34,27,Y,82550,0,9,39,0,New York,KFRG,KFRG4377913,43,51,59,73,5,16,55,10,57,0,0,CLR,Fair,69,49,45,33,55,42,230,10,100,80,OVC,10,198,39,236,395,434,564,0,0,0,30.03,1016.9,40,MC,Overcast
NYG2016,11-Dec-16,11-Dec-16,8:30,20,DAL,-3.5,NYG,17,U,47,2016,Week 14,80874,NYG,3.5,-3.5,WAS,10,7,N,82550,0,6,30,0,New York,KFRG,KFRG4271520,31,35,68,92,4,9,73,7.7,210,0.01,0.1,MC,Overcast,82,31,31,28,89,30,60,3,100,65,OVC,2.5,0,0,0,0,0,0,0,0,0.1,30.38,1028.8,9,SNOW,Light Snow
NYG2015,11-Oct-15,11-Oct-15,8:30,20,NYG,-7.5,SF,57,O,44,2015,Week 5,78515,NYG,-7.5,7.5,PHI,30,27,N,82550,0,5,57,0,New York,KFRG,KFRG4228820,57,67,70,87,6,14,1,10,666,0,0,CLR,Fair,82,60,59,52,75,56,220,7,0,201,CLR,10,0,0,0,0,0,0,0,0,0,29.88,1011.6,46,CLR,Fair
NYJ2016,11-Sep-16,11-Sep-16,1:00,13,CIN,-1,NYJ,45,O,42,2016,Week 1,78160,NYJ,1,-1,MIA,22,23,N,82550,0,6,80,0,New York,KFRG,KFRG4262413,77,84,59,91,11,17,60,10,309,0,0,MC,Overcast,82,81,81,55,41,65,340,15,100,201,OVC,10,368,74,442,735,809,1050,0,0,0,29.99,1015.6,40,MC,Overcast
NYJ2015,12-Nov-15,12-Nov-15,8:25,20,NYJ,-2.5,BUF,39,U,42,2015,Week 10,78160,NYJ,-2.5,2.5,JAX,17,22,Y,82550,0,5,56,0,New York,KFRG,KFRG4232020,56,61,86,94,8,17,89,9.2,0,0.04,0,MC,Overcast,82,59,56,56,90,57,220,13,20,10,FEW,10,0,0,0,0,0,0,0,0,0,29.55,1000.7,44,PC,Partly Cloudy
NYJ2014,12-Oct-14,12-Oct-14,1:00,13,DEN,-10,NYJ,48,O,47.5,2014,Week 6,78160,NYJ,10,-10,NE,17,31,Y,82550,0,4,64,0,New York,KFRG,KFRG4192413,54,63,66,90,6,10,1,10,675,0,0,CLR,Fair,82,62,62,39,43,51,200,8,0,201,CLR,10,552,55,607,552,607,789,0,0,0,30.26,1024.8,46,CLR,Fair
NYJ2015,13-Dec-15,13-Dec-15,1:00,13,NYJ,-8,TEN,38,U,43,2015,Week 14,78160,NYJ,-8,8,CIN,30,8,Y,82550,0,5,65,0,New York,KFRG,KFRG4235113,56,69,78,93,5,13,67,8.3,215,0,0,CLR,Fair,82,68,68,53,59,60,110,6,40,165,CLR,10,250,31,281,313,344,447,0,0,0,30.14,1020.4,46,CLR,Fair
NYJ2016,13-Nov-16,13-Nov-16,1:00,13,LAR,-1,NYJ,15,U,38.5,2016,Week 10,78160,NYJ,1,-1,HOU,6,9,Y,82550,0,6,55,0,New York,KFRG,KFRG4268713,48,59,46,68,8,12,15,10,491,0,0,CLR,Fair,82,57,55,25,29,44,250,10,0,201,CLR,10,378,38,416,378,416,540,0,0,0,30.07,1018.1,46,CLR,Fair
NYJ2013,13-Oct-13,13-Oct-13,1:00,13,PIT,-1.5,NYJ,25,U,41,2013,Week 6,76957,NYJ,1.5,-1.5,LAR,6,19,Y,82550,0,3,65,0,New York,KFRG,KFRG4156013,58,65,72,83,9,14,32,10,404,0,0,MC,Mostly Cloudy,82,63,62,49,60,55,70,10,70,32,BKN,10,356,55,411,547,602,781,0,0,0,30.36,1028.2,42,MC,Mostly Cloudy
NYJ2019,13-Oct-19,13-Oct-19,1:00,13,DAL,-2,NYJ,46,O,54,2019,Week 6,78523,NYJ,2,-2,DAL,24,22,N,82550,0,9,37,0,New York,KFRG,KFRG4375113,59,66,69,90,5,14,32,10,585,0.03,0,CLR,Fair,69,62,62,42,48,52,370,3,0,242,CLR,10,547,55,602,547,602,781,0,0,0,30.08,1018.6,46,CLR,Fair
NYJ2015,13-Sep-15,13-Sep-15,1:00,13,NYJ,-3.5,CLE,41,O,38.5,2015,Week 1,78160,NYJ,-3.5,3.5,TEN,31,10,Y,82550,0,5,76,0,New York,KFRG,KFRG4226013,70,79,74,90,8,15,54,9.9,389,0.06,0,MC,Overcast,82,78,79,58,50,66,210,10,18,301,SCT,10,663,73,736,729,802,1042,0,0,0,29.72,1006.2,54,CLR,Few High Clouds
NYG2014,14-Dec-14,14-Dec-14,1:00,13,NYG,-7,WAS,37,U,46.5,2014,Week 15,77628,NYG,-7,7,TEN,24,13,Y,82550,0,4,43,0,New York,KFRG,KFRG4198713,38,44,71,82,6,14,38,10,121,0,0,CLR,Fair,82,42,36,30,62,37,340,10,100,26,OVC,10,156,31,187,312,343,445,0,0,0,29.87,1011.4,40,MC,Overcast
NYG2016,14-Nov-16,14-Nov-16,8:30,20,NYG, PK,CIN,41,U,49.5,2016,Week 10,76218,NYG, PK,PK,NYJ,21,20,PK,82550,0,6,54,0,New York,KFRG,KFRG4268820,50,61,52,77,5,14,39,10,466,0,0,CLR,Fair,82,54,52,44,69,49,190,7,100,301,OVC,10,0,0,0,0,0,0,0,0,0,30.04,1017.2,50,PC,High Overcast
NYG2014,14-Sep-14,14-Sep-14,1:00,13,NYG,-2,ARI,39,U,41.5,2014,Week 2,78344,NYG,-2,2,OAK,14,25,Y,82550,0,4,71,0,New York,KFRG,KFRG4189613,61,70,64,87,7,14,25,10,621,0,0,CLR,Fair,82,68,68,44,42,55,100,9,0,201,CLR,10,724,72,796,724,796,1034,0,0,0,30.22,1023.2,46,CLR,Fair
NYG2013,15-Dec-13,15-Dec-13,1:00,13,SEA,-9,NYG,23,U,43,2013,Week 15,79691,NYG,9,-9,GB,0,23,Y,82550,0,3,40,0,New York,KFRG,KFRG4162313,36,45,80,100,11,24,84,8.4,110,0.94,0,MC,Overcast,82,37,28,29,73,34,290,14,70,21,BKN,10,202,31,233,311,342,445,0,0,0,29.58,1001.8,42,MC,Mostly Cloudy
NYG2019,15-Dec-19,15-Dec-19,1:00,13,NYG,-3,MIA,56,O,39,2019,Week 15,72894,NYG,-3,3,MIA,36,20,Y,82550,0,9,80,0,New York,KFRG,KFRG4381413,44,50,52,71,15,22,49,10,282,0,0,MC,Overcast,69,48,41,27,43,39,290,22,70,60,SCT,10,202,31,233,311,342,445,0,0,0,29.78,1008.6,42,MC,Mostly Cloudy
NYG2015,15-Nov-15,15-Nov-15,4:25,16,NE,-7,NYG,53,O,52.5,2015,Week 10,81061,NYG,7,-7,NYG,26,27,N,82550,0,5,54,0,New York,KFRG,KFRG4232316,48,58,53,73,9,15,0,10,591,0,0,CLR,Fair,82,58,55,31,36,46,270,15,0,192,CLR,10,19,2,21,19,21,28,0,0,0,30.17,1021.5,46,CLR,Fair
NYJ2017,15-Oct-17,15-Oct-17,1:00,13,NE,-9.5,NYJ,41,U,48.5,2017,Week 6,77562,NYJ,9.5,-9.5,DEN,17,24,N,82550,0,7,36,0,New York,KFRG,KFRG4302313,68,71,92,100,10,15,97,6.8,18,0,0,MC,Overcast,82,70,70,66,87,67,210,10,100,21,OVC,10,267,53,320,534,587,763,0,0,0,29.95,1014.1,40,MC,Overcast
NYG2013,15-Sep-13,15-Sep-13,4:25,16,DEN,-3.5,NYG,64,O,54,2013,Week 2,81285,NYG,3.5,-3.5,DEN,23,41,Y,82550,0,3,70,0,New York,KFRG,KFRG4153216,61,73,64,90,5,12,21,10,619,0,0,CLR,Fair,82,71,71,44,38,57,240,9,24,301,SCT,10,241,27,268,274,301,391,0,0,0,30.11,1019.5,46,CLR,Fair
NYG2019,15-Sep-19,15-Sep-19,1:00,13,BUF,-1.5,NYG,42,U,44.5,2019,Week 2,74569,NYG,1.5,-1.5,BUF,14,28,Y,82550,0,9,79,0,New York,KFRG,KFRG4372313,73,79,77,93,4,10,46,10,397,0,0,CLR,Fair,69,78,81,65,64,70,180,10,75,41,BKN,10,449,72,521,718,790,1026,0,0,0,30.11,1019.5,42,MC,Mostly Cloudy
NYG2014,16-Nov-14,16-Nov-14,1:00,13,SF,-4,NYG,26,U,45,2014,Week 11,80352,NYG,4,-4,ARI,10,16,Y,82550,0,4,43,0,New York,KFRG,KFRG4195913,39,45,60,75,4,12,82,10,17,0,0,MC,Overcast,82,44,38,23,43,36,250,12,100,90,OVC,10,185,37,222,370,407,529,0,0,0,30.28,1025.4,40,MC,Overcast
NYG2016,16-Oct-16,16-Oct-16,1:00,13,NYG,-3.5,BAL,50,O,42.5,2016,Week 6,78487,NYG,-3.5,3.5,ARI,27,23,Y,82550,0,6,66,0,New York,KFRG,KFRG4265913,59,68,80,93,8,15,30,10,508,0,0,CLR,Fair,82,66,66,53,63,59,200,12,70,110,BKN,10,395,52,447,523,575,747,0,0,0,30.12,1019.9,42,MC,Mostly Cloudy
NYJ2019,16-Sep-19,16-Sep-19,8:15,20,CLE,-6.5,NYJ,26,U,45,2019,Week 2,78523,NYJ,6.5,-6.5,CLE,3,23,Y,82550,0,9,89,0,New York,KFRG,KFRG4372420,70,77,75,87,4,8,58,10,126,0,0,CLR,Fair,69,68,68,62,81,64,100,3,0,97,CLR,10,0,0,0,0,0,0,0,0,0,30.04,1017.2,46,CLR,Fair
NYJ2016,17-Dec-16,17-Dec-16,8:25,20,MIA,-2.5,NYJ,47,O,41.5,2016,Week 15,78160,NYJ,2.5,-2.5,TEN,13,34,Y,82550,0,6,34,0,New York,KFRG,KFRG4272120,33,40,84,100,5,8,100,6.5,0,0.61,3.1,MC,Overcast,82,38,32,35,89,37,210,8,100,90,OVC,10,0,0,0,0,0,0,0,0,0,29.94,1013.7,40,MC,Overcast
NYG2017,17-Dec-17,17-Dec-17,1:00,13,PHI,-7.5,NYG,63,O,41,2017,Week 15,76896,NYG,7.5,-7.5,PHI,29,34,N,82550,0,7,71,0,New York,KFRG,KFRG4308613,32,35,68,73,2,5,87,10,86,0,0,MC,Overcast,82,33,33,22,64,29,110,3,100,45,OVC,10,156,31,186,311,342,445,0,0,0,30.26,1024.6,40,MC,Overcast
NYG2013,17-Nov-13,17-Nov-13,4:25,16,NYG,-3.5,GB,40,U,41.5,2013,Week 11,79114,NYG,-3.5,3.5,OAK,27,13,Y,82550,0,3,61,0,New York,KFRG,KFRG4159516,54,61,96,100,7,10,98,5.1,0,0,0,MC,Overcast,82,59,58,58,96,58,140,7,100,2,OVC,1,8,2,10,17,19,24,0,0,0,30.06,1017.8,40,MC,Overcast
NYG2016,18-Dec-16,18-Dec-16,1:00,13,NYG,-4,DET,23,U,41,2016,Week 15,79434,NYG,-4,4,CAR,17,6,Y,82550,0,6,48,0,New York,KFRG,KFRG4272213,47,61,79,100,14,23,100,6.7,0,0.04,0,MC,Overcast,82,59,57,55,87,57,260,12,100,60,OVC,10,156,31,186,311,342,444,0,0,0,29.84,1010.5,40,MC,Overcast
NYJ2015,18-Oct-15,18-Oct-15,1:00,13,NYJ,-7.5,WAS,54,O,40,2015,Week 6,78160,NYJ,-7.5,7.5,SF,34,20,Y,82550,0,5,48,0,New York,KFRG,KFRG4229513,42,49,49,73,7,13,20,10,401,0,0,PC,Partly Cloudy,82,49,45,23,36,39,340,9,95,90,BKN,10,271,52,323,516,568,738,0,0,0,30.24,1024.2,42,MC,Mostly Cloudy
NYG2016,18-Sep-16,18-Sep-16,1:00,13,NYG,-4,NO,29,U,54.5,2016,Week 2,77727,NYG,-4,4,ATL,16,13,N,82550,0,6,79,0,New York,KFRG,KFRG4263113,75,81,86,94,9,16,65,10,124,0,0,PC,High Overcast,82,79,83,71,77,74,190,10,100,14,BKN,10,678,70,748,695,765,993,0,0,0,30.06,1017.9,50,PC,High Overcast
NYG2017,18-Sep-17,18-Sep-17,8:30,20,NYG,-3,DET,34,U,42.5,2017,Week 2,77004,NYG,-3,3,NYJ,10,24,Y,82550,0,7,60,0,New York,KFRG,KFRG4299620,70,73,89,97,8,13,97,9.4,48,0,0,MC,Overcast,82,70,70,67,90,68,50,8,100,26,OVC,10,0,0,0,0,0,0,0,0,0,30.1,1019.1,40,MC,Overcast
NYG2017,19-Nov-17,19-Nov-17,1:00,13,KC,-10,NYG,21,U,45,2017,Week 11,76363,NYG,10,-10,MIA,12,9,N,82550,0,7,73,0,New York,KFRG,KFRG4305813,51,59,65,96,17,26,77,9.3,248,0.26,0,MC,Overcast,82,49,42,30,48,41,310,23,20,45,SCT,10,324,36,360,360,396,514,0,0,0,29.48,998.2,44,PC,Partly Cloudy
NYG2015,20-Dec-15,20-Dec-15,1:00,13,CAR,-5,NYG,73,O,46.5,2015,Week 15,79436,NYG,5,-5,IND,35,38,N,82550,0,5,41,0,New York,KFRG,KFRG4235813,38,43,47,62,8,14,49,10,401,0,0,CLR,Fair,82,42,35,19,40,34,290,12,45,171,CLR,10,242,31,273,312,343,445,0,0,0,30.48,1032.2,46,CLR,Fair
NYG2016,20-Nov-16,20-Nov-16,1:00,13,NYG,-7,CHI,38,U,41.5,2016,Week 11,78898,NYG,-7,7,CLE,22,16,N,82550,0,6,40,0,New York,KFRG,KFRG4269413,39,47,66,93,19,26,100,9.6,0,0.31,0,MC,Overcast,82,42,34,28,58,36,270,16,100,47,OVC,10,176,35,212,353,388,505,0,0,0,29.51,999.2,40,MC,Overcast
NYJ2013,20-Oct-13,20-Oct-13,1:00,13,NE,-3.5,NYJ,57,O,43,2013,Week 7,76957,NYJ,3.5,-3.5,BUF,30,27,N,82550,0,3,65,0,New York,KFRG,KFRG4156713,55,63,56,90,7,14,1,10,654,0,0,CLR,Fair,82,60,58,33,36,48,290,14,0,201,CLR,10,504,50,554,504,554,720,0,0,0,29.93,1013.6,46,CLR,Fair
NYG2019,20-Oct-19,20-Oct-19,1:00,13,NYG,-4.5,ARI,48,O,40,2019,Week 7,73577,NYG,-4.5,4.5,CLE,21,27,Y,82550,0,9,89,0,New York,KFRG,KFRG4375813,52,62,83,94,6,13,54,8.8,286,0.66,0,CLR,Fair,69,60,59,51,72,55,130,7,100,100,OVC,10,252,50,302,504,554,720,0,0,0,30.04,1017.3,40,MC,Overcast
NYG2015,20-Sep-15,20-Sep-15,1:00,13,NYG,-2,ATL,44,U,50,2015,Week 2,77678,NYG,-2,2,GB,20,24,Y,82550,0,5,77,0,New York,KFRG,KFRG4226713,71,78,60,90,12,17,34,10,484,0,0,CLR,Fair,82,76,77,50,40,61,10,17,0,201,CLR,10,689,69,758,689,758,984,0,0,0,29.99,1015.5,46,CLR,Fair
NYJ2014,21-Dec-14,21-Dec-14,1:00,13,NE,-9.5,NYJ,33,U,47,2014,Week 16,78160,NYJ,9.5,-9.5,DAL,16,17,N,82550,0,4,35,0,New York,KFRG,KFRG4199413,35,37,77,89,6,9,100,9.8,0,0,0,MC,Overcast,82,36,29,29,76,33,340,9,100,13,OVC,10,156,31,187,312,343,446,0,0,0,30.27,1025.1,42,MC,Mostly Cloudy
NYG2013,21-Oct-13,21-Oct-13,8:40,20,NYG,-4,MIN,30,U,48,2013,Week 7,79314,NYG,-4,4,CHI,23,7,Y,82550,0,3,57,0,New York,KFRG,KFRG4156820,55,66,57,79,7,15,6,10,652,0,0,CLR,Fair,82,58,55,46,65,52,200,14,0,201,CLR,10,0,0,0,0,0,0,0,0,0,30.05,1017.7,46,CLR,Fair
NYJ2019,21-Oct-19,21-Oct-19,1:00,13,NE,-4.5,NYJ,33,U,47.5,2019,Week 7,78523,NYJ,4.5,-4.5,NE,0,33,Y,82550,0,9,68,0,New York,KFRG,KFRG4375913,57,66,70,90,9,15,38,10,466,0,0,CLR,Fair,69,65,64,44,47,54,40,12,0,318,CLR,10,499,50,549,499,549,712,0,0,0,30.05,1017.7,46,CLR,Fair
NYG2014,21-Sep-14,21-Sep-14,1:00,13,NYG,-1,HOU,47,O,41.5,2014,Week 3,77462,NYG,-1,1,KC,30,17,Y,82550,0,4,76,0,New York,KFRG,KFRG4190313,72,77,87,97,6,12,76,9.2,171,1.06,0,CLR,Fair,82,76,79,69,79,71,0,0,87,14,SCT,10,615,68,683,683,751,976,0,0,0,29.74,1007.2,44,PC,Partly Cloudy
NYJ2013,22-Dec-13,22-Dec-13,1:00,13,NYJ,-2,CLE,37,U,41.5,2013,Week 16,76957,NYJ,-2,2,TEN,24,13,Y,82550,0,3,70,0,New York,KFRG,KFRG4163013,55,60,92,100,14,24,90,8.4,50,0,0,MC,Overcast,82,57,55,53,87,55,210,8,100,80,OVC,10,156,31,188,313,344,447,0,0,0,29.92,1013.3,40,MC,Overcast
NYJ2019,22-Dec-19,22-Dec-19,1:00,13,PIT,-1.5,NYJ,26,O,52,2019,Week 16,78523,NYJ,1.5,-1.5,SEA,16,10,Y,82550,0,9,33,0,New York,KFRG,KFRG4382113,36,47,66,86,5,12,5,9.9,549,0,0.1,CLR,Fair,69,46,42,27,46,38,240,10,0,392,CLR,10,313,31,344,313,344,447,0,0,0,30.28,1025.1,46,CLR,Fair
NYG2017,22-Oct-17,22-Oct-17,4:05,16,SEA,-4,NYG,31,U,39,2017,Week 7,78527,NYG,4,-4,NYJ,7,24,Y,82550,0,7,89,0,New York,KFRG,KFRG4303016,60,72,75,97,3,9,14,9.8,540,0,0,CLR,Fair,82,67,67,48,51,57,200,8,25,301,SCT,10,69,8,77,79,87,114,0,0,0,30.38,1028.7,54,CLR,Few High Clouds
NYJ2013,22-Sep-13,22-Sep-13,4:25,16,NYJ,-2.5,BUF,47,O,41,2013,Week 3,76957,NYJ,-2.5,2.5,TB,27,20,Y,82550,0,3,67,0,New York,KFRG,KFRG4153916,64,71,67,97,9,15,39,9.4,598,0.39,0,CLR,Fair,82,67,67,44,44,55,340,13,70,50,BKN,10,151,23,174,233,256,332,0,0,0,29.76,1007.9,42,MC,Mostly Cloudy
NYJ2014,22-Sep-14,22-Sep-14,8:35,20,NYJ,-1.5,CHI,46,O,45,2014,Week 3,78160,NYJ,-1.5,1.5,OAK,19,27,Y,82550,0,4,56,0,New York,KFRG,KFRG4190420,65,73,59,90,10,16,11,10,652,0,0,CLR,Fair,82,59,57,40,49,50,310,10,20,301,SCT,10,0,0,0,0,0,0,0,0,0,30.09,1018.9,46,CLR,Fair
NYG2014,23-Nov-14,23-Nov-14,8:30,20,DAL,-4.5,NYG,59,O,49,2014,Week 12,80520,NYG,4.5,-4.5,PHI,28,31,N,82550,0,4,48,0,New York,KFRG,KFRG4196620,48,55,52,90,7,13,66,9.8,300,0,0,CLR,Fair,82,50,48,45,83,47,200,6,52,301,BKN,10,0,0,0,0,0,0,0,0,0,30.13,1020.2,46,CLR,Fair
NYJ2016,23-Oct-16,23-Oct-16,1:00,13,NYJ,-2,BAL,40,U,40.5,2016,Week 7,78160,NYJ,-2,2,LAR,24,16,Y,82550,0,6,58,0,New York,KFRG,KFRG4266613,53,62,49,67,14,24,10,10,632,0,0,CLR,Fair,82,60,57,36,41,49,300,17,5,60,FEW,10,469,48,517,481,529,687,0,0,0,29.8,1009.1,46,CLR,Fair
NYJ2017,24-Dec-17,24-Dec-17,1:00,13,LAC,-7,NYJ,21,U,42.5,2017,Week 16,77562,NYJ,7,-7,DET,7,14,N,82550,0,7,80,0,New York,KFRG,KFRG4309313,38,43,70,93,10,20,93,9.4,29,0,0,CLR,Fair,82,40,33,25,55,34,30,12,100,173,CLR,10,157,31,188,314,345,449,0,0,0,30.17,1021.7,46,CLR,Fair
NYG2013,24-Nov-13,24-Nov-13,4:25,16,NYG,-2.5,DAL,45,P,45,2013,Week 12,80499,NYG,-2.5,2.5,ATL,21,24,Y,82550,0,3,26,0,New York,KFRG,KFRG4160216,26,30,35,45,18,29,11,10,473,0,0,CLR,Fair,82,29,16,-3,25,21,320,20,5,75,FEW,10,11,1,12,11,12,15,0,0,0,30.22,1023.4,45,CLR,Mostly Clear
NYJ2019,24-Nov-19,24-Nov-19,1:00,13,NYJ,-3,OAK,37,O,47,2019,Week 12,78523,NYJ,-3,3,NYG,34,3,Y,82550,0,9,61,0,New York,KFRG,KFRG4379313,44,51,84,93,12,17,78,7.9,0,0.55,0,RAIN,Light Rain,69,42,34,39,89,41,320,16,100,12,OVC,2.5,172,34,206,344,378,491,0,0,0,29.19,988.6,18,RAIN,Light Rain
NYG2015,24-Sep-15,24-Sep-15,8:25,20,NYG,-3,WAS,53,O,45,2015,Week 3,76081,NYG,-3,3,CIN,32,21,Y,82550,0,5,66,0,New York,KFRG,KFRG4227120,68,80,66,84,7,14,3,10,702,0,0,CLR,Fair,82,68,68,58,70,62,80,5,1,301,SCT,10,0,0,0,0,0,0,0,0,0,30.32,1026.6,54,CLR,Few High Clouds
NYJ2017,24-Sep-17,24-Sep-17,1:00,13,MIA,-5.5,NYJ,26,U,43,2017,Week 3,77562,NYJ,5.5,-5.5,MIA,20,6,Y,82550,0,7,51,0,New York,KFRG,KFRG4300213,74,88,70,93,4,10,0,10,723,0,0,CLR,Fair,82,87,90,65,48,72,30,5,0,201,CLR,10,665,66,731,665,731,950,0,0,0,30.05,1017.5,46,CLR,Fair
NYG2015,25-Oct-15,25-Oct-15,4:25,16,NYG,-3,DAL,47,O,44.5,2015,Week 7,80319,NYG,-3,3,TEN,27,20,Y,82550,0,5,59,0,New York,KFRG,KFRG4230216,59,66,68,87,11,15,60,9.1,170,0.02,0,MC,Overcast,82,66,66,51,59,58,330,9,36,301,BKN,10,57,7,64,69,76,99,0,0,0,30.05,1017.6,52,PC,High Clouds
NYG2016,25-Sep-16,25-Sep-16,1:00,13,NYG,-3.5,WAS,56,O,47,2016,Week 3,78368,NYG,-3.5,3.5,DAL,27,29,N,82550,0,6,67,0,New York,KFRG,KFRG4263813,60,69,46,66,7,14,0,10,720,0,0,CLR,Fair,82,67,67,33,29,51,20,12,0,201,CLR,10,653,65,718,653,718,933,0,0,0,30.16,1021.2,46,CLR,Fair
NYJ2017,26-Nov-17,26-Nov-17,1:00,13,CAR,-6,NYJ,62,O,39.5,2017,Week 12,77562,NYJ,6,-6,CAR,27,35,Y,82550,0,7,53,0,New York,KFRG,KFRG4306513,44,51,54,70,9,25,41,10,373,0,0,CLR,Fair,82,48,42,25,41,39,320,16,0,201,CLR,10,339,34,373,339,373,484,0,0,0,29.92,1013.3,46,CLR,Fair
NYJ2014,26-Oct-14,26-Oct-14,1:00,13,NYJ,-3,BUF,66,O,40.5,2014,Week 8,78160,NYJ,-3,3,NYJ,23,43,Y,82550,0,4,61,0,New York,KFRG,KFRG4193813,57,63,50,72,11,18,34,10,374,0,0,CLR,Fair,82,61,59,35,38,49,320,15,70,60,BKN,10,306,47,352,470,517,672,0,0,0,29.62,1002.9,42,MC,Mostly Cloudy
NYJ2015,27-Dec-15,27-Dec-15,1:00,13,NE,-2.5,NYJ,46,O,45.5,2015,Week 16,78160,NYJ,2.5,-2.5,DAL,26,20,Y,82550,0,5,56,0,New York,KFRG,KFRG4236513,55,62,88,96,11,21,100,6.6,0,0.05,0,MC,Overcast,82,58,54,55,90,56,250,18,100,6,OVC,10,159,32,191,318,350,454,0,0,0,29.85,1010.7,40,MC,Overcast
NYJ2016,27-Nov-16,27-Nov-16,4:25,16,NE,-9.5,NYJ,39,U,48.5,2016,Week 12,78160,NYJ,9.5,-9.5,GB,17,22,N,82550,0,6,48,0,New York,KFRG,KFRG4270116,42,51,65,89,7,16,23,10,367,0,0,CLR,Fair,82,47,43,28,48,39,310,9,10,301,SCT,10,9,1,10,9,10,13,0,0,0,30.07,1018.4,54,CLR,Few High Clouds
NYJ2015,27-Sep-15,27-Sep-15,1:00,13,NYJ,-3,PHI,41,U,47,2015,Week 3,78160,NYJ,-3,3,SEA,17,24,Y,82550,0,5,70,0,New York,KFRG,KFRG4227413,62,71,75,90,7,10,33,10,299,0,0,CLR,Few High Clouds,82,68,68,56,66,61,30,10,100,41,OVC,10,324,65,388,647,712,924,0,0,0,30.4,1029.3,40,MC,Overcast
NYG2014,28-Dec-14,28-Dec-14,1:00,13,NYG,-1,PHI,60,O,52,2014,Week 17,79150,NYG,-1,1,GB,26,34,Y,82550,0,4,51,0,New York,KFRG,KFRG4200113,47,53,74,90,8,14,83,9.8,65,0.06,0,CLR,Mostly Clear,82,52,49,43,72,48,270,9,100,85,OVC,10,160,32,192,319,351,455,0,0,0,29.88,1011.8,40,MC,Overcast
NYJ2014,28-Sep-14,28-Sep-14,1:00,13,NYJ,-1.5,DET,41,U,44,2014,Week 4,78160,NYJ,-1.5,1.5,BAL,17,24,Y,82550,0,4,85,0,New York,KFRG,KFRG4191013,69,78,74,90,5,12,17,9.9,617,0,0,CLR,Fair,82,76,78,62,62,67,210,12,34,301,BKN,10,531,64,595,640,704,915,0,0,0,30.1,1019.4,46,CLR,Fair
NYG2013,29-Dec-13,29-Dec-13,1:00,13,NYG,-3.5,WAS,26,U,44.5,2013,Week 17,80177,NYG,-3.5,3.5,NE,20,6,Y,82550,0,3,42,0,New York,KFRG,KFRG4163713,42,51,83,100,7,18,87,7.9,3,1.13,0,CLR,Fair,82,41,37,40,96,40,90,6,100,38,OVC,5,160,32,192,320,352,458,99,0.08,0,29.83,1010.3,18,RAIN,Light Rain
NYJ2015,29-Nov-15,29-Nov-15,1:00,13,NYJ,-4.5,MIA,58,O,43.5,2015,Week 12,78160,NYJ,-4.5,4.5,MIA,38,20,Y,82550,0,5,48,0,New York,KFRG,KFRG4233713,42,49,58,74,9,14,44,10,285,0,0,CLR,Fair,82,47,43,26,44,38,360,9,45,190,CLR,10,257,33,290,331,364,473,0,0,0,30.21,1023.1,46,CLR,Fair
NYJ2017,29-Oct-17,29-Oct-17,1:00,13,ATL,-6.5,NYJ,45,O,44,2017,Week 8,77562,NYJ,6.5,-6.5,TB,20,25,N,82550,0,7,89,0,New York,KFRG,KFRG4303713,64,68,93,97,16,30,95,3.9,0,2.42,0,RAIN,Moderate Rain,82,64,62,63,96,63,140,18,100,14,OVC,1.8,226,45,272,453,498,648,99,0.11,0,29.62,1002.9,19,RAIN,Moderate Rain
NYG2019,29-Sep-19,29-Sep-19,1:00,13,NYG,-3,WAS,27,U,48,2019,Week 4,74149,NYG,-3,3,WAS,24,3,Y,82550,0,9,27,0,New York,KFRG,KFRG4373713,71,78,65,94,9,20,3,10,681,0,0,CLR,Fair,69,77,78,54,45,63,360,9,0,317,CLR,10,634,63,697,634,697,905,0,0,0,30.23,1023.5,46,CLR,Fair
NYG2017,31-Dec-17,31-Dec-17,1:00,13,WAS,-5,NYG,28,U,41,2017,Week 17,76269,NYG,5,-5,WAS,18,10,Y,82550,0,7,28,0,New York,KFRG,KFRG4310013,15,20,53,78,11,18,17,10,323,0,0,CLR,Fair,82,16,4,-2,45,12,320,10,100,201,OVC,10,162,32,194,323,355,462,0,0,0,30.21,1023.1,40,MC,Overcast
MIA2019,1-Dec-19,1-Dec-19,1:00,13,PHI,-4,MIA,68,O,59,2019,Week 13,65545,MIA,4,-4,PHI,37,31,Y,64767,0,32,61,0,Florida,KFXE,KFXE4380013,73,84,75,93,5,15,12,10,554,0,0,PC,Partly Cloudy,20,82,84,64,55,70,180,9,5,40,FEW,10,580,60,640,595,655,851,0,0,0,29.95,1014.3,45,CLR,Mostly Clear
MIA2016,1-Jan-17,1-Jan-17,1:00,13,NE,-8,MIA,49,O,47,2016,Week 17,66163,MIA,8,-8,WAS,14,35,Y,64767,0,29,45,0,Florida,KFXE,KFXE4273613,76,82,66,74,12,17,53,10,342,0,0,PC,Partly Cloudy,13,81,84,66,61,71,120,17,90,30,BKN,10,326,59,385,592,651,846,0,0,0,30.17,1021.7,44,PC,Partly Cloudy
MIA2014,2-Nov-14,2-Nov-14,1:00,13,MIA,-2.5,LAC,37,U,45,2014,Week 9,70222,MIA,-2.5,2.5,BAL,37,0,Y,75540,0,27,69,0,Florida,KFXE,KFXE4194513,60,71,49,67,8,12,13,10,659,0,0,CLR,Fair,13,68,68,34,28,51,340,9,0,201,CLR,10,690,69,759,690,759,985,0,0,0,30.2,1022.7,46,CLR,Fair
MIA2017,3-Dec-17,3-Dec-17,1:00,13,DEN,-1.5,MIA,44,O,41,2017,Week 13,65092,MIA,1.5,-1.5,DEN,35,9,Y,64767,0,30,27,0,Florida,KFXE,KFXE4307213,72,81,79,100,5,13,13,10,538,0,0,CLR,Fair,13,78,80,62,58,68,70,9,5,37,FEW,10,577,59,636,592,651,846,0,0,0,30.08,1018.7,46,CLR,Fair
MIA2015,3-Jan-16,3-Jan-16,1:00,13,NE,-10,MIA,30,U,46.5,2015,Week 17,62918,MIA,10,-10,CAR,20,10,N,64767,0,28,75,0,Florida,KFXE,KFXE4237213,70,79,85,96,7,14,72,9.4,345,0.67,0,PC,Partly Cloudy,13,78,81,66,67,70,0,0,20,30,SCT,10,536,60,596,596,656,851,0,0,0,29.93,1013.6,44,PC,Partly Cloudy
MIA2019,3-Nov-19,3-Nov-19,1:00,13,MIA,PK,NYJ,44,O,39,2019,Week 9,59229,MIA,PK,PK,BUF,26,18,PK,64767,0,32,86,0,Florida,KFXE,KFXE4377213,77,83,85,97,8,14,84,8.5,48,0.35,0,RAIN,Light Rain,20,82,87,72,72,75,350,10,100,90,OVC,10,342,68,410,685,753,978,0,0,0,29.99,1015.7,40,MC,Overcast
MIA2017,5-Nov-17,5-Nov-17,8:30,20,OAK,-3,MIA,51,O,44.5,2017,Week 9,65139,MIA,3,-3,CAR,24,27,N,64767,0,30,45,0,Florida,KFXE,KFXE4304420,75,85,88,100,6,12,22,9.9,465,0,0,PC,Partly Cloudy,13,75,80,73,94,74,280,3,40,42,SCT,10,0,0,0,0,0,0,0,0,0,30.01,1016.5,44,PC,Partly Cloudy
MIA2015,6-Dec-15,6-Dec-15,1:00,13,MIA,-3.5,BAL,28,U,43,2015,Week 13,64519,MIA,-3.5,3.5,ATL,15,13,N,64767,0,28,78,0,Florida,KFXE,KFXE4234413,77,80,80,91,14,18,69,9.7,147,0.04,0,CLR,Mostly Clear,13,79,83,70,74,73,50,17,100,26,BKN,10,326,59,385,588,647,840,0,0,0,30.15,1021,44,PC,Partly Cloudy
MIA2016,6-Nov-16,6-Nov-16,1:00,13,MIA,-4,NYJ,50,O,45,2016,Week 9,65722,MIA,-4,4,LAR,27,23,N,64767,0,29,79,0,Florida,KFXE,KFXE4268013,75,82,65,84,11,16,53,10,204,0.01,0,PC,Partly Cloudy,13,79,81,64,60,69,70,14,51,35,SCT,10,534,67,601,668,735,955,0,0,0,30.09,1018.9,44,PC,Partly Cloudy
MIA2013,6-Oct-13,6-Oct-13,1:00,13,MIA,-2.5,BAL,49,O,43,2013,Week 5,68342,MIA,-2.5,2.5,NE,23,26,Y,75540,0,26,87,0,Florida,KFXE,KFXE4155313,82,89,69,96,4,10,18,10,546,0.02,0,CLR,Mostly Clear,13,88,94,70,55,76,150,8,20,50,SCT,10,735,82,817,817,899,1167,0,0,0,29.92,1013.2,44,PC,Partly Cloudy
MIA2014,7-Dec-14,7-Dec-14,1:00,13,MIA,-3,BAL,41,U,45,2014,Week 14,70244,MIA,-3,3,SEA,13,28,Y,75540,0,27,77,0,Florida,KFXE,KFXE4198013,69,78,82,93,5,10,9,10,516,0,0,CLR,Fair,13,75,78,66,74,69,320,10,40,26,SCT,10,470,59,529,587,646,838,0,0,0,30.04,1017.2,44,PC,Partly Cloudy
MIA2014,7-Sep-14,7-Sep-14,1:00,13,NE,-4,MIA,53,O,47.5,2014,Week 1,70630,MIA,4,-4,DET,33,20,Y,75540,0,27,89,0,Florida,KFXE,KFXE4188913,84,90,78,97,7,17,54,10,364,0,0,PC,High Clouds,13,88,98,75,66,79,110,12,51,150,SCT,10,849,94,943,938,1032,1340,0,0,0,30,1016.1,52,PC,High Clouds
MIA2017,8-Oct-17,8-Oct-17,1:00,13,MIA,-1,TEN,26,U,41.5,2017,Week 5,65135,MIA,-1,1,TEN,16,10,Y,64767,0,30,65,0,Florida,KFXE,KFXE4301613,83,89,82,94,8,14,28,10,478,0,0,PC,Partly Cloudy,13,88,101,78,73,81,130,14,20,23,SCT,10,726,81,807,807,888,1153,0,0,0,29.95,1014.3,44,PC,Partly Cloudy
MIA2019,8-Sep-19,8-Sep-19,1:03,13,BAL,-7,MIA,69,O,40.5,2019,Week 1,65012,MIA,7,-7,BAL,10,59,Y,64767,0,32,33,0,Florida,KFXE,KFXE4371613,85,92,71,88,7,13,28,10,615,0,0,CLR,Fair,20,91,101,74,57,79,150,10,5,36,FEW,10,912,93,1005,935,1028,1335,0,0,0,30.02,1016.7,45,CLR,Mostly Clear
MIA2016,9-Oct-16,9-Oct-16,1:00,13,MIA,-2.5,TEN,47,O,44,2016,Week 5,64425,MIA,-2.5,2.5,CHI,17,30,Y,64767,0,29,87,0,Florida,KFXE,KFXE4265213,81,88,67,85,9,16,25,10,521,0,0,CLR,Mostly Clear,13,87,91,67,51,74,50,15,5,40,FEW,10,778,80,858,798,878,1139,0,0,0,29.96,1014.5,45,CLR,Mostly Clear
MIA2016,11-Dec-16,11-Dec-16,1:00,13,ARI,-2,MIA,49,O,44,2016,Week 14,65750,MIA,2,-2,BAL,26,23,Y,64767,0,29,75,0,Florida,KFXE,KFXE4271513,74,78,79,94,16,21,89,8.9,48,1.26,0,PC,Partly Cloudy,13,77,80,67,71,70,90,20,100,28,OVC,10,290,58,348,581,639,831,0,0,0,30.17,1021.6,44,PC,Partly Cloudy
MIA2017,11-Dec-17,11-Dec-17,8:30,20,NE,-10.5,MIA,47,U,48,2017,Week 14,65548,MIA,10.5,-10.5,NE,27,20,N,64767,0,30,85,0,Florida,KFXE,KFXE4308020,56,68,53,80,5,9,5,10,608,0,0,CLR,Fair,13,55,54,42,62,49,310,5,0,347,CLR,10,0,0,0,0,0,0,0,0,0,30.18,1022.1,46,CLR,Fair
MIA2014,12-Oct-14,12-Oct-14,1:00,13,GB,-2,MIA,51,O,47,2014,Week 6,70875,MIA,2,-2,PIT,24,27,Y,75540,0,27,88,0,Florida,KFXE,KFXE4192413,82,88,69,82,12,17,28,10,441,0,0,PC,Partly Cloudy,13,86,92,71,61,76,90,12,40,31,SCT,10,630,79,709,787,866,1125,0,0,0,30.03,1017,44,PC,Partly Cloudy
MIA2014,13-Nov-14,13-Nov-14,8:25,20,MIA,-4,BUF,31,U,41,2014,Week 11,71573,MIA,-4,4,TB,22,9,Y,75540,0,27,71,0,Florida,KFXE,KFXE4195620,73,83,74,91,4,12,7,10,559,0,0,CLR,Fair,13,73,77,64,74,67,200,3,5,80,FEW,10,0,0,0,0,0,0,0,0,0,30.01,1016.1,45,CLR,Mostly Clear
MIA2019,13-Oct-19,13-Oct-19,1:00,13,MIA,-1,WAS,33,O,38,2019,Week 6,59808,MIA,-1,1,TB,16,17,N,64767,0,32,77,0,Florida,KFXE,KFXE4375113,80,86,75,90,10,16,67,9.6,105,0.34,0,MC,Mostly Cloudy,20,84,89,71,65,75,120,9,90,48,BKN,10,431,78,509,783,861,1118,0,0,0,30,1016.1,42,MC,Mostly Cloudy
MIA2015,14-Dec-15,14-Dec-15,8:30,20,NYG,-2,MIA,55,O,48,2015,Week 14,65408,MIA,2,-2,WAS,24,31,Y,64767,0,28,75,0,Florida,KFXE,KFXE4235220,77,83,80,88,7,15,28,10,314,0.01,0,CLR,Mostly Clear,13,76,80,70,82,72,130,3,5,181,CLR,10,0,0,0,0,0,0,0,0,0,29.94,1013.8,46,CLR,Fair
MIA2013,15-Dec-13,15-Dec-13,1:00,13,MIA,-2.5,NE,44,U,47,2013,Week 15,71863,MIA,-2.5,2.5,DAL,24,20,Y,75540,0,26,85,0,Florida,KFXE,KFXE4162313,77,86,84,97,7,16,40,10,233,0,0,CLR,Fair,13,84,90,72,67,76,230,14,90,30,BKN,10,320,58,378,581,639,829,0,0,0,29.97,1014.9,44,PC,Partly Cloudy
MIA2019,15-Sep-19,15-Sep-19,1:00,13,NE,-18.5,MIA,43,U,48.5,2019,Week 2,65513,MIA,18.5,-18.5,NE,0,43,Y,64767,0,32,69,0,Florida,KFXE,KFXE4372313,83,93,78,94,8,17,32,10,511,0.06,0,CLR,Fair,20,91,101,74,57,79,270,17,20,35,SCT,10,818,91,909,909,1000,1299,0,0,0,29.9,1012.8,44,PC,Partly Cloudy
MIA2016,16-Oct-16,16-Oct-16,1:00,13,PIT,-7.5,MIA,45,U,49.5,2016,Week 6,65351,MIA,7.5,-7.5,CLE,30,15,Y,64767,0,29,82,0,Florida,KFXE,KFXE4265913,79,85,80,94,12,20,65,9.4,230,0.97,0,PC,Partly Cloudy,13,83,89,72,70,75,80,20,100,22,BKN,10,382,76,458,764,840,1091,0,0,0,29.96,1014.5,44,PC,Partly Cloudy
MIA2013,17-Nov-13,17-Nov-13,4:05,16,LAC,-2.5,MIA,36,U,45,2013,Week 11,60256,MIA,2.5,-2.5,ATL,20,16,Y,75540,0,26,81,0,Florida,KFXE,KFXE4159516,79,84,74,82,9,15,14,10,514,0,0,CLR,Mostly Clear,13,82,86,69,65,73,130,9,0,201,CLR,10,193,19,212,193,212,276,0,0,0,30.02,1016.5,46,CLR,Fair
MIA2019,17-Nov-19,17-Nov-19,1:00,13,MIA,-2.5,BUF,57,O,56,2019,Week 11,64187,MIA,-2.5,2.5,BUF,20,37,Y,64767,0,32,43,0,Florida,KFXE,KFXE4378613,59,62,82,87,8,12,95,10,0,0,0,MC,Overcast,20,60,58,54,80,57,320,12,100,13,OVC,10,316,63,379,632,695,903,0,0,0,29.87,1011.5,40,MC,Overcast
MIA2017,19-Nov-17,19-Nov-17,1:00,13,TB,-1.5,MIA,50,O,44,2017,Week 11,65089,MIA,1.5,-1.5,TB,20,30,Y,64767,0,30,65,0,Florida,KFXE,KFXE4305813,72,81,76,100,4,12,1,10,645,0,0,CLR,Fair,13,80,81,61,52,68,240,9,0,201,CLR,10,626,63,689,626,689,894,0,0,0,29.92,1013.4,46,CLR,Fair
MIA2013,20-Oct-13,20-Oct-13,1:00,13,MIA,-6,BUF,44,P,44,2013,Week 7,60592,MIA,-6,6,SEA,21,23,N,75540,0,26,87,0,Florida,KFXE,KFXE4156713,82,88,81,97,5,12,63,9.6,312,0.26,0,CLR,Mostly Clear,13,86,95,75,70,78,100,10,100,30,BKN,10,374,75,450,749,824,1071,0,0,0,29.93,1013.4,44,PC,Partly Cloudy
MIA2014,21-Dec-14,21-Dec-14,1:00,13,MIA,-4.5,MIN,72,O,42.5,2014,Week 16,66203,MIA,-4.5,4.5,NYJ,37,35,N,75540,0,27,78,0,Florida,KFXE,KFXE4199413,71,81,77,93,5,14,53,10,216,0,0,PC,Partly Cloudy,13,80,82,63,56,69,130,9,90,35,BKN,10,401,58,459,581,639,830,0,0,0,30.07,1018.3,44,PC,Partly Cloudy
MIA2014,21-Sep-14,21-Sep-14,4:25,16,MIA,-5.5,KC,49,O,42.5,2014,Week 3,70313,MIA,-5.5,5.5,PIT,15,34,Y,75540,0,27,84,0,Florida,KFXE,KFXE4190316,78,88,88,100,4,12,56,9.6,312,2.69,0,MC,Mostly Cloudy,13,85,93,75,72,78,110,12,25,110,SCT,10,373,41,414,412,453,588,0,0,0,29.96,1014.8,44,PC,Partly Cloudy
MIA2019,22-Dec-19,22-Dec-19,1:00,13,MIA,-1.5,CIN,73,O,40,2019,Week 16,60968,MIA,-1.5,1.5,CIN,38,35,Y,64767,0,32,54,0,Florida,KFXE,KFXE4382113,74,77,74,89,16,20,78,10,127,0.11,0,MC,Mostly Cloudy,20,75,78,64,69,68,120,10,30,110,BKN,10,511,58,569,581,639,830,99,0,0,30.05,1017.9,43,PC,Partly Cloudy
MIA2015,22-Nov-15,22-Nov-15,1:00,13,DAL,-2,MIA,38,U,45,2015,Week 11,65115,MIA,2,-2,NE,14,24,Y,64767,0,28,75,0,Florida,KFXE,KFXE4233013,72,78,94,100,7,17,47,9.4,286,0.58,0,RAIN,Light Rain,13,70,70,70,100,70,260,13,100,20,SCT,7,93,62,155,617,679,881,99,0.35,0,29.83,1010.2,18,RAIN,Light Rain
MIA2017,22-Oct-17,22-Oct-17,1:00,13,MIA,-3,NYJ,59,O,39.5,2017,Week 7,65025,MIA,-3,3,LAC,31,28,N,64767,0,30,86,0,Florida,KFXE,KFXE4303013,82,87,79,94,14,20,57,9.8,311,0.14,0,PC,Partly Cloudy,13,86,93,73,65,77,110,18,92,47,FEW,10,703,74,777,740,814,1057,0,0,0,30.08,1018.8,52,PC,High Clouds
MIA2013,22-Sep-13,22-Sep-13,4:05,16,MIA,-2.5,ATL,50,O,45.5,2013,Week 3,70660,MIA,-2.5,2.5,PHI,27,23,Y,75540,0,26,89,0,Florida,KFXE,KFXE4153916,83,91,77,94,5,12,35,10,440,0.12,0,PC,Partly Cloudy,13,87,96,74,65,78,160,9,40,35,SCT,10,335,40,375,404,444,578,0,0,0,29.78,1008.3,44,PC,Partly Cloudy
MIA2016,23-Oct-16,23-Oct-16,1:00,13,BUF,-2.5,MIA,53,O,46,2016,Week 7,65658,MIA,2.5,-2.5,LAC,28,25,Y,64767,0,29,80,0,Florida,KFXE,KFXE4266613,72,81,57,78,9,14,30,10,569,0,0,CLR,Fair,13,79,80,57,47,66,100,8,20,48,SCT,10,657,73,730,730,803,1043,0,0,0,30.13,1020.3,44,PC,Partly Cloudy
MIA2013,24-Nov-13,24-Nov-13,1:00,13,CAR,-5,MIA,36,U,40.5,2013,Week 12,60156,MIA,5,-5,BUF,16,20,N,75540,0,26,82,0,Florida,KFXE,KFXE4160213,74,82,82,100,8,17,48,9.4,353,0.31,0,PC,Partly Cloudy,13,81,84,67,62,72,300,9,45,33,SCT,10,474,61,535,612,673,874,0,0,0,30.05,1017.5,45,CLR,Mostly Clear
MIA2015,25-Oct-15,25-Oct-15,1:00,13,MIA,-4.5,HOU,70,O,45.5,2015,Week 7,65251,MIA,-4.5,4.5,KC,44,26,Y,64767,0,28,82,0,Florida,KFXE,KFXE4230213,80,86,67,82,13,20,49,10,358,0.05,0,PC,Partly Cloudy,13,84,88,69,61,74,70,15,40,30,SCT,10,580,73,653,725,798,1036,0,0,0,30.01,1016.4,44,PC,Partly Cloudy
MIA2016,25-Sep-16,25-Sep-16,1:00,13,MIA,-10,CLE,54,O,42.5,2016,Week 3,65176,MIA,-10,10,BAL,30,24,N,64767,0,29,85,0,Florida,KFXE,KFXE4263813,79,86,80,94,6,15,46,10,233,1.18,0,CLR,Fair,13,83,90,75,77,77,110,8,100,150,BKN,10,630,86,716,863,949,1233,0,0,0,30,1016.1,50,PC,High Overcast
MIA2015,27-Dec-15,27-Dec-15,1:00,13,MIA,-2.5,IND,30,U,44,2015,Week 16,65482,MIA,-2.5,2.5,DET,12,18,Y,64767,0,28,81,0,Florida,KFXE,KFXE4236513,79,82,74,82,14,16,51,10,380,0,0,PC,Partly Cloudy,13,82,87,71,69,74,110,16,40,24,SCT,10,468,59,527,585,644,836,0,0,0,30.07,1018.2,44,PC,Partly Cloudy
MIA2016,27-Nov-16,27-Nov-16,1:00,13,MIA,-7,SF,55,O,45,2016,Week 12,65856,MIA,-7,7,KC,31,24,N,64767,0,29,79,0,Florida,KFXE,KFXE4270113,72,81,64,87,9,16,23,9.8,478,0,0,PC,Partly Cloudy,13,79,79,53,41,64,70,14,5,40,FEW,10,587,60,647,602,662,860,0,0,0,30.03,1016.9,45,CLR,Mostly Clear
MIA2015,27-Sep-15,27-Sep-15,4:25,16,MIA,-1,BUF,55,O,43.5,2015,Week 3,64869,MIA,-1,1,CHI,14,41,Y,64767,0,28,80,0,Florida,KFXE,KFXE4227416,82,88,81,97,2,10,59,10,181,0.66,0,PC,Partly Cloudy,13,86,94,74,67,78,330,5,95,30,BKN,10,201,38,239,383,421,547,0,0,0,29.9,1012.4,45,CLR,Mostly Clear
MIA2014,28-Dec-14,28-Dec-14,1:00,13,MIA,-7,NYJ,61,O,41,2014,Week 17,70220,MIA,-7,7,BUF,24,37,Y,75540,0,27,80,0,Florida,KFXE,KFXE4200113,73,82,39,96,4,13,28,10,435,0,0,PC,Partly Cloudy,13,80,80,30,16,55,140,8,20,32,SCT,10,527,59,586,586,645,838,0,0,0,30.12,1020,44,PC,Partly Cloudy
MIA2013,29-Dec-13,29-Dec-13,1:00,13,MIA,-7,NYJ,27,U,41,2013,Week 17,70296,MIA,-7,7,PIT,7,20,Y,75540,0,26,79,0,Florida,KFXE,KFXE4163713,78,83,86,96,9,14,82,10,61,0,0,PC,Partly Cloudy,13,81,87,73,77,76,190,14,100,20,OVC,10,309,59,368,588,647,840,0,0,0,29.98,1015.2,45,CLR,Mostly Clear
MIA2019,29-Sep-19,29-Sep-19,1:00,13,LAC,-14.5,MIA,40,U,44,2019,Week 4,64278,MIA,14.5,-14.5,LAC,10,30,Y,64767,0,32,42,0,Florida,KFXE,KFXE4373713,82,89,67,79,12,20,29,10,494,0,0,PC,Partly Cloudy,20,86,92,71,61,76,60,20,40,47,SCT,10,679,85,764,849,934,1213,0,0,0,30.03,1017.2,44,PC,Partly Cloudy
MIA2017,31-Dec-17,31-Dec-17,4:25,16,BUF,-2.5,MIA,38,U,41.5,2017,Week 17,65571,MIA,2.5,-2.5,PIT,16,22,Y,64767,0,30,27,0,Florida,KFXE,KFXE4310016,61,72,85,100,3,10,7,9.8,564,0,0,CLR,Fair,13,70,70,60,71,64,40,8,20,35,SCT,10,191,21,212,212,233,303,0,0,0,30.1,1019.5,44,PC,Partly Cloudy
GBP2014,2-Oct-14,2-Oct-14,8:25,20,GB,-9.5,MIN,52,O,46.5,2014,Week 5,78054,GB,-9.5,9.5,MIN,42,10,Y,80750,0,57,63,0,Green Bay,KGRB,KGRB4191420,62,67,91,97,4,10,95,5.3,35,0.2,0,MC,Overcast,696,63,63,62,97,62,150,7,100,7,OVC,3,0,0,0,0,0,0,0,0,0,29.64,1003.8,18,RAIN,Light Rain
GBP2017,3-Dec-17,3-Dec-17,1:00,13,GB,-3,TB,46,O,45,2017,Week 13,77684,GB,-3,3,TB,26,20,Y,81441,0,60,65,0,Green Bay,KGRB,KGRB4307213,37,50,76,100,5,12,61,9.9,120,0,0,MC,Overcast,696,47,45,32,56,41,180,5,100,301,OVC,10,130,26,156,259,285,371,0,0,0,30.1,1020,50,PC,High Overcast
GBP2015,3-Jan-16,3-Jan-16,8:30,20,GB,-3,MIN,33,U,44,2015,Week 17,78412,GB,-3,3,MIN,13,20,Y,81435,0,58,68,0,Green Bay,KGRB,KGRB4237220,26,30,71,78,10,15,89,9.7,0,0,0,MC,Overcast,696,23,14,16,74,21,270,8,100,80,OVC,10,0,0,0,0,0,0,0,0,0,30.26,1024.8,40,MC,Overcast
GBP2016,4-Dec-16,4-Dec-16,1:00,13,GB,-7,HOU,34,U,44.5,2016,Week 13,77867,GB,-7,7,HOU,21,13,Y,81435,0,59,31,0,Green Bay,KGRB,KGRB4270813,32,34,91,100,6,10,100,4.9,0,0.32,3.7,SNOW,Light Snow,696,32,26,32,100,32,170,7,100,14,OVC,0.8,128,26,154,256,282,365,99,0.04,0.5,30.01,1016.1,9,SNOW,Light Snow
GBP2013,4-Nov-13,4-Nov-13,8:40,20,GB,-10,CHI,47,U,51,2013,Week 9,78122,GB,-10,10,CHI,20,27,N,80750,0,56,49,0,Green Bay,KGRB,KGRB4158220,48,52,78,89,16,25,81,9.7,137,0,0,CLR,Fair,696,48,45,43,83,46,190,7,100,26,OVC,6,0,0,0,0,0,0,0,0,0,30.1,1019.3,18,RAIN,Light Rain
GBP2016,6-Nov-16,6-Nov-16,4:25,16,GB,-7.5,IND,57,O,52,2016,Week 9,78437,GB,-7.5,7.5,IND,26,31,N,81435,0,59,67,0,Green Bay,KGRB,KGRB4268016,53,69,84,100,3,8,0,7.1,597,0,0,CLR,Fair,696,67,67,53,61,59,200,5,0,201,CLR,10,13,1,14,13,14,19,0,0,0,30.25,1024.3,46,CLR,Fair
GBP2017,6-Nov-17,6-Nov-17,8:30,20,DET,-2.5,GB,47,O,43,2017,Week 9,77575,GB,2.5,-2.5,DET,17,30,Y,81441,0,60,38,0,Green Bay,KGRB,KGRB4304520,34,40,66,78,8,13,55,10,504,0,0,MC,Overcast,696,34,29,25,70,31,290,6,100,100,OVC,10,0,0,0,0,0,0,0,0,0,30.29,1026.6,40,MC,Overcast
GBP2013,6-Oct-13,6-Oct-13,1:00,13,GB,-10,DET,31,U,53.5,2013,Week 5,78200,GB,-10,10,DET,22,9,Y,80750,0,56,61,0,Green Bay,KGRB,KGRB4155313,56,64,74,96,9,15,58,9.8,491,0.02,0,CLR,Fair,696,61,59,40,46,51,250,14,0,201,CLR,10,532,53,585,532,585,760,0,0,0,29.66,1004.5,46,CLR,Fair
GBP2013,8-Dec-13,8-Dec-13,1:00,13,GB,-3.5,ATL,43,U,47,2013,Week 14,77550,GB,-3.5,3.5,ATL,22,21,N,80750,0,56,9,0,Green Bay,KGRB,KGRB4161613,9,14,77,88,8,14,93,4.6,0,0.13,2.2,SNOW,Light Snow,696,10,-3,5,80,9,40,10,100,35,OVC,3,126,25,152,253,278,361,0,0,0,30.4,1029.5,9,SNOW,Light Snow
GBP2014,8-Dec-14,8-Dec-14,8:30,20,GB,-13.5,ATL,80,O,55,2014,Week 14,77512,GB,-13.5,13.5,ATL,43,37,N,80750,0,57,32,0,Green Bay,KGRB,KGRB4198120,33,35,91,97,7,13,100,3.8,0,0.25,2.1,MC,Overcast,696,33,28,32,96,33,310,6,100,6,OVC,5,0,0,0,0,0,0,0,0,0,30.03,1017.9,44,PC,Partly Cloudy
GBP2019,8-Dec-19,8-Dec-19,1:00,13,GB,-9,WAS,35,O,46,2019,Week 14,77296,GB,-9,9,LAR,20,15,N,81441,0,62,43,0,Green Bay,KGRB,KGRB4380713,34,39,77,93,9,21,16,8.6,502,0,0,CLR,Fair,682,37,31,30,75,35,210,9,0,193,CLR,10,252,25,277,252,277,359,0,0,0,29.75,1008.1,46,CLR,Fair
GBP2014,9-Nov-14,9-Nov-14,8:30,20,GB,-9.5,CHI,69,O,54,2014,Week 10,78292,GB,-9.5,9.5,CHI,55,14,Y,80750,0,57,32,0,Green Bay,KGRB,KGRB4195220,34,38,88,97,8,12,87,7.8,67,0.11,0.3,SNOW,Light Snow,696,32,27,29,88,31,330,5,64,301,OVC,10,0,0,0,0,0,0,0,0,0,29.85,1010.7,46,CLR,Fair
GBP2016,9-Oct-16,9-Oct-16,8:30,20,GB,-7,NYG,39,U,50,2016,Week 5,78401,GB,-7,7,NYG,23,16,N,81435,0,59,48,0,Green Bay,KGRB,KGRB4265220,47,58,81,100,6,8,10,10,581,0,0,CLR,Fair,696,47,45,43,86,45,90,5,0,201,CLR,10,0,0,0,0,0,0,0,0,0,30.38,1028.8,46,CLR,Fair
GBP2013,10-Nov-13,10-Nov-13,1:00,13,PHI,-1,GB,40,U,47,2013,Week 10,78011,GB,1,-1,PHI,13,27,Y,80750,0,56,46,0,Green Bay,KGRB,KGRB4158813,42,47,64,74,11,17,66,10,391,0,0,MC,Overcast,696,46,41,29,51,39,250,10,20,43,SCT,10,299,33,332,332,365,474,0,0,0,30.24,1024.2,44,PC,Partly Cloudy
GBP2019,10-Nov-19,10-Nov-19,1:00,13,GB,-5.5,CAR,40,O,56,2019,Week 10,78090,GB,-5.5,5.5,WAS,24,16,Y,81441,0,62,25,0,Green Bay,KGRB,KGRB4377913,31,36,75,89,9,16,99,8.6,0,0.04,1.1,MC,Overcast,682,34,27,21,59,29,20,9,100,36,OVC,10,166,33,199,332,365,474,0,0,0,30.06,1018.6,40,MC,Overcast
GBP2017,10-Sep-17,10-Sep-17,4:25,16,GB,-2.5,SEA,26,U,49.5,2017,Week 1,78381,GB,-2.5,2.5,SEA,17,9,Y,81441,0,60,42,0,Green Bay,KGRB,KGRB4298816,56,71,81,100,6,15,0,9.8,765,0,0,CLR,Fair,696,70,70,52,53,60,160,9,0,400,CLR,10,279,28,307,279,307,399,0,0,0,30.36,1028.4,46,CLR,Fair
GBP2016,11-Dec-16,11-Dec-16,4:25,16,SEA,-3,GB,48,O,47,2016,Week 14,78057,GB,3,-3,SEA,38,10,Y,81435,0,59,27,0,Green Bay,KGRB,KGRB4271516,24,30,90,96,7,13,100,4.3,0,0.28,5.3,SNOW,Light Snow,696,26,26,23,88,25,0,0,100,90,OVC,10,0,0,0,0,0,0,0,0,0,29.83,1010.3,40,MC,Overcast
GBP2015,11-Oct-15,11-Oct-15,1:00,13,GB,-9,LAR,34,U,46,2015,Week 5,78432,GB,-9,9,LAR,24,10,Y,81435,0,58,73,0,Green Bay,KGRB,KGRB4228813,65,80,66,80,11,16,1,10,671,0,0,CLR,Fair,696,75,78,57,54,64,210,12,0,201,CLR,10,499,50,549,499,549,713,0,0,0,29.57,1001.3,46,CLR,Fair
GBP2015,13-Dec-15,13-Dec-15,4:25,16,GB,-6.5,DAL,35,U,42.5,2015,Week 14,78369,GB,-6.5,6.5,DAL,28,7,Y,81435,0,58,52,0,Green Bay,KGRB,KGRB4235116,48,55,98,100,9,17,100,3.7,0,1.6,0,RAIN,Light Rain,696,55,52,54,96,54,170,12,100,47,OVC,6,0,0,0,0,0,0,99,0.01,0,29.63,1003.3,18,RAIN,Light Rain
GBP2019,14-Oct-19,14-Oct-19,1:00,13,GB,-7.5,DET,45,U,48.5,2019,Week 6,76947,GB,-7.5,7.5,DET,23,22,N,81441,0,62,36,0,Green Bay,KGRB,KGRB4375213,41,50,73,89,7,14,13,10,470,0,0,CLR,Fair,682,49,44,32,52,42,230,13,35,28,CLR,10,397,48,445,481,529,687,0,0,0,30,1016.5,46,CLR,Fair
GBP2014,14-Sep-14,14-Sep-14,4:25,16,GB,-7.5,NYJ,55,O,46.5,2014,Week 2,78041,GB,-7.5,7.5,NYJ,31,24,N,80750,0,57,63,0,Green Bay,KGRB,KGRB4189616,56,65,72,93,9,18,62,9.9,498,0,0,MC,Overcast,696,65,64,46,51,55,210,13,4,201,SCT,10,251,26,277,256,282,366,0,0,0,30.09,1019,46,CLR,Fair
GBP2019,15-Dec-19,15-Dec-19,1:00,13,GB,-3,CHI,34,O,49,2019,Week 15,78266,GB,-3,3,CHI,21,13,Y,81441,0,62,54,0,Green Bay,KGRB,KGRB4381413,11,17,72,79,6,13,20,10,486,0,0,CLR,Fair,682,12,1,3,67,10,210,8,0,197,CLR,10,247,25,272,247,272,353,0,0,0,30.1,1020.8,46,CLR,Fair
GBP2015,15-Nov-15,15-Nov-15,1:00,13,GB,-10.5,DET,34,U,50,2015,Week 10,78526,GB,-10.5,10.5,DET,16,18,N,81435,0,58,57,0,Green Bay,KGRB,KGRB4232313,47,59,71,93,6,14,9,10,574,0,0,CLR,Fair,696,57,55,41,55,49,210,9,0,210,CLR,10,311,31,342,311,342,444,0,0,0,30.1,1019.2,46,CLR,Fair
GBP2013,15-Sep-13,15-Sep-13,1:00,13,GB,-7,WAS,58,O,49,2013,Week 2,78020,GB,-7,7,WAS,38,20,Y,80750,0,56,62,0,Green Bay,KGRB,KGRB4153213,56,66,86,97,6,17,86,8.8,15,0.38,0,MC,Overcast,696,62,62,55,78,58,370,3,100,14,OVC,10,333,67,400,666,733,952,0,0,0,30.06,1017.8,44,PC,Partly Cloudy
GBP2019,15-Sep-19,15-Sep-19,1:00,13,GB,-3,MIN,37,U,43,2019,Week 2,78416,GB,-3,3,CIN,21,16,Y,81441,0,62,42,0,Green Bay,KGRB,KGRB4372313,66,76,87,96,4,10,86,8.1,0,0,0,MC,Overcast,682,75,78,65,71,69,170,7,100,22,OVC,10,333,67,400,666,733,952,0,0,0,30,1015.6,40,MC,Overcast
GBP2014,16-Nov-14,16-Nov-14,4:25,16,GB,-5.5,PHI,73,O,55.5,2014,Week 11,78270,GB,-5.5,5.5,PHI,53,20,Y,80750,0,57,27,0,Green Bay,KGRB,KGRB4195916,23,28,80,89,9,14,76,7.2,152,0,0.2,MC,Overcast,696,27,17,21,78,25,220,12,100,22,OVC,5,2,0,2,4,4,6,0,0,0,29.91,1013,35,HAZY,Haze
GBP2016,16-Oct-16,16-Oct-16,4:25,16,GB,-5,DAL,46,U,47,2016,Week 6,78481,GB,-5,5,DAL,16,30,Y,81435,0,59,67,0,Green Bay,KGRB,KGRB4265916,62,70,81,100,7,10,52,8.9,580,0,0,CLR,Fair,696,64,64,56,75,59,50,8,8,301,SCT,10,74,8,82,77,85,109,0,0,0,29.89,1012.2,46,CLR,Fair
GBP2015,18-Oct-15,18-Oct-15,4:25,16,GB,-10.5,LAC,47,U,50.5,2015,Week 6,78434,GB,-10.5,10.5,LAC,27,20,N,81435,0,58,49,0,Green Bay,KGRB,KGRB4229516,40,54,63,88,6,10,0,10,650,0,0,CLR,Fair,696,52,49,23,32,40,210,8,0,201,CLR,10,71,7,78,71,78,101,0,0,0,30.35,1027.9,46,CLR,Fair
GBP2017,19-Nov-17,19-Nov-17,1:00,13,BAL,-2.5,GB,23,U,38.5,2017,Week 11,77945,GB,2.5,-2.5,BAL,0,23,Y,81441,0,60,49,0,Green Bay,KGRB,KGRB4305813,29,32,64,79,13,21,77,10,276,0,0,MC,Overcast,696,31,20,17,56,26,280,16,0,201,CLR,10,296,30,326,296,326,423,0,0,0,29.95,1015.2,46,CLR,Fair
GBP2014,19-Oct-14,19-Oct-14,1:00,13,GB,-6.5,CAR,55,O,49.5,2014,Week 7,78106,GB,-6.5,6.5,CAR,38,17,Y,80750,0,57,53,0,Green Bay,KGRB,KGRB4193113,45,55,81,96,7,18,48,9.6,164,0,0,CLR,Fair,696,53,49,42,66,48,200,13,84,110,FEW,10,441,45,486,449,494,642,0,0,0,29.97,1014.8,45,CLR,Mostly Clear
GBP2013,20-Oct-13,20-Oct-13,4:25,16,GB,-8.5,CLE,44,U,45.5,2013,Week 7,77804,GB,-8.5,8.5,CLE,31,13,Y,80750,0,56,46,0,Green Bay,KGRB,KGRB4156716,40,48,90,100,6,14,71,8,45,0.04,0,MC,Overcast,696,44,40,38,79,41,130,8,100,40,OVC,10,32,6,38,63,69,90,0,0,0,29.73,1006.9,42,MC,Mostly Cloudy
GBP2016,20-Oct-16,20-Oct-16,8:25,20,GB,-7.5,CHI,36,U,46.5,2016,Week 7,78217,GB,-7.5,7.5,CHI,26,10,Y,81435,0,59,47,0,Green Bay,KGRB,KGRB4266320,46,52,70,93,10,16,64,10,263,0,0,MC,Overcast,696,46,40,35,66,41,310,12,100,50,OVC,10,0,0,0,0,0,0,0,0,0,30.24,1024,40,MC,Overcast
GBP2019,20-Oct-19,20-Oct-19,1:00,13,GB,-8.5,OAK,66,O,34,2019,Week 7,78160,GB,-8.5,8.5,TEN,42,24,Y,81441,0,62,54,0,Green Bay,KGRB,KGRB4375813,52,64,80,93,4,12,40,9.1,446,0,0,CLR,Fair,682,62,62,46,56,54,190,3,0,204,CLR,6,444,44,488,444,488,634,0,0,0,29.91,1013,35,HAZY,Haze
GBP2015,20-Sep-15,20-Sep-15,8:30,20,GB,-3,SEA,44,U,49.5,2015,Week 2,78433,GB,-3,3,SEA,27,17,Y,81435,0,58,54,0,Green Bay,KGRB,KGRB4226720,59,71,71,93,5,10,23,9.8,582,0,0,CLR,Fair,696,57,56,50,78,53,160,5,0,201,CLR,10,0,0,0,0,0,0,0,0,0,30.14,1020.7,46,CLR,Fair
GBP2013,22-Dec-13,22-Dec-13,4:25,16,PIT,-1,GB,69,O,44,2013,Week 16,77999,GB,1,-1,PIT,31,38,Y,80750,0,56,23,0,Green Bay,KGRB,KGRB4163016,22,26,87,92,13,21,100,3.6,0,0.37,6,SNOW,Light Snow,696,22,13,18,85,21,200,8,100,16,OVC,2,0,0,0,1,1,1,99,0.02,0.3,29.99,1015.7,9,SNOW,Light Snow
GBP2017,22-Oct-17,22-Oct-17,1:00,13,NO,-4,GB,43,U,45.5,2017,Week 7,78380,GB,4,-4,NO,17,26,Y,81441,0,60,67,0,Green Bay,KGRB,KGRB4303013,55,67,92,100,7,16,97,8.8,0,0.25,0,MC,Overcast,696,52,52,52,100,52,0,0,100,55,OVC,8,216,43,258,431,474,616,99,0.01,0,29.96,1014.9,18,RAIN,Light Rain
GBP2019,22-Sep-19,22-Sep-19,1:00,13,GB,-7,DEN,43,O,41.5,2019,Week 3,78078,GB,-7,7,GB,27,16,Y,81441,0,62,62,0,Green Bay,KGRB,KGRB4373013,69,73,88,94,8,17,85,9.5,69,0.61,0,RAIN,Moderate Rain,682,70,70,66,87,67,230,7,100,49,OVC,10,312,62,374,623,685,889,0,0,0,29.77,1007.8,40,MC,Overcast
GBP2017,23-Dec-17,23-Dec-17,8:30,20,MIN,-9,GB,16,U,41,2017,Week 16,78092,GB,9,-9,MIN,0,16,Y,81441,0,60,60,0,Green Bay,KGRB,KGRB4309220,13,19,69,81,8,14,49,9.8,155,0,0,CLR,Fair,696,6,6,-1,73,5,220,3,0,275,CLR,10,0,0,0,0,0,0,0,0,0,30.2,1024.1,46,CLR,Fair
GBP2016,24-Dec-16,24-Dec-16,1:00,13,GB,-6.5,MIN,63,O,44.5,2016,Week 16,77856,GB,-6.5,6.5,MIN,38,25,Y,81435,0,59,35,0,Green Bay,KGRB,KGRB4272813,34,39,89,100,6,10,85,7.9,175,0,0,MC,Overcast,696,37,30,31,79,35,270,9,9,301,SCT,10,239,25,264,250,275,357,0,0,0,30.21,1023,46,CLR,Fair
GBP2013,24-Nov-13,24-Nov-13,1:00,13,GB,-6,MIN,52,O,44,2013,Week 12,77871,GB,-6,6,MIN,26,26,N,80750,0,56,20,0,Green Bay,KGRB,KGRB4160213,18,25,58,77,12,22,28,10,365,0,0,CLR,Fair,696,20,8,4,50,16,220,12,80,201,BKN,10,168,28,196,280,308,400,0,0,0,30.53,1033.9,46,CLR,Fair
GBP2017,24-Sep-17,24-Sep-17,4:25,16,GB,-7,CIN,51,O,47.5,2017,Week 3,78323,GB,-7,7,CIN,27,24,N,81441,0,60,33,0,Green Bay,KGRB,KGRB4300216,77,90,70,100,6,13,1,9.8,707,0,0,CLR,Fair,696,88,91,65,46,73,210,7,0,201,CLR,10,196,20,216,196,216,279,0,0,0,29.99,1015.1,46,CLR,Fair
GBP2016,25-Sep-16,25-Sep-16,1:00,13,GB,-6.5,DET,61,O,47.5,2016,Week 3,78411,GB,-6.5,6.5,DET,34,27,Y,81435,0,59,72,0,Green Bay,KGRB,KGRB4263813,66,77,91,100,10,17,88,9.3,83,0.16,0,MC,Overcast,696,75,78,67,76,70,160,17,100,110,BKN,10,227,60,287,597,657,853,0,0,0,29.91,1012.8,40,MC,Overcast
GBP2015,26-Nov-15,26-Nov-15,8:30,20,GB,-8,CHI,30,U,45,2015,Week 12,78488,GB,-8,8,CHI,13,17,N,81435,0,58,35,0,Green Bay,KGRB,KGRB4233420,44,50,92,100,9,22,100,6.7,0,0.99,0,RAIN,Light Rain,696,37,26,34,89,36,200,21,100,12,OVC,9,0,0,0,0,0,0,99,0.03,0,30.2,1022.8,18,RAIN,Light Rain
GBP2019,26-Sep-19,26-Sep-19,8:20,20,GB,-3.5,PHI,61,O,46.5,2019,Week 4,77509,GB,-3.5,3.5,PHI,27,34,Y,81441,0,62,30,0,Green Bay,KGRB,KGRB4373420,58,68,64,83,9,16,18,10,700,0,0,CLR,Fair,682,58,57,49,72,53,180,6,5,120,FEW,10,0,0,0,0,0,0,0,0,0,29.85,1011,45,CLR,Mostly Clear
GBP2014,28-Dec-14,28-Dec-14,4:25,16,GB,-8.5,DET,50,O,47,2014,Week 17,78408,GB,-8.5,8.5,DET,30,20,Y,80750,0,57,25,0,Green Bay,KGRB,KGRB4200116,23,28,76,85,9,13,32,9.7,296,0,0,CLR,Fair,696,27,18,19,72,24,330,9,100,25,OVC,9,1,0,1,2,2,3,0,0,0,30.19,1022.4,45,CLR,Mostly Clear
GBP2015,28-Sep-15,28-Sep-15,8:30,20,GB,-5.5,KC,66,O,47.5,2015,Week 3,78214,GB,-5.5,5.5,KC,38,28,Y,81435,0,58,62,0,Green Bay,KGRB,KGRB4227520,69,82,82,97,6,15,52,7.4,431,0.12,0,CLR,Fair,696,64,64,62,93,63,50,5,84,8,BKN,10,0,0,0,0,0,0,99,0.04,0,29.95,1014.2,18,RAIN,Light Rain
GBP2017,28-Sep-17,28-Sep-17,8:25,20,GB,-7.5,CHI,49,O,44.5,2017,Week 4,78362,GB,-7.5,7.5,CHI,35,14,Y,81441,0,60,67,0,Green Bay,KGRB,KGRB4300620,59,72,75,100,8,15,45,10,514,0.03,0,MC,Overcast,696,57,57,55,94,56,220,3,100,100,BKN,10,0,0,0,0,0,0,99,0.02,0,30.03,1017.3,18,RAIN,Light Rain
GBP2014,30-Nov-14,30-Nov-14,4:25,16,GB,-3,NE,47,U,58,2014,Week 13,78431,GB,-3,3,NE,26,21,Y,80750,0,57,23,0,Green Bay,KGRB,KGRB4197316,28,36,79,97,11,20,71,6.6,73,0,0,CLR,Fair,696,25,13,13,60,21,330,14,0,201,CLR,10,0,0,0,0,0,0,0,0,0,30.06,1017.8,46,CLR,Fair
HOU2013,1-Dec-13,1-Dec-13,1:00,13,NE,-7,HOU,65,O,49,2013,Week 13,71769,HOU,7,-7,NE,31,34,N,71054,0,11,67,0,Houston,KHOU,KHOU4160913,61,71,84,100,6,10,79,10,17,0,0,MC,Mostly Cloudy,46,70,70,58,66,63,150,8,100,35,OVC,10,270,54,324,541,595,773,0,0,0,30.14,1020.5,45,CLR,Mostly Clear
HOU2019,1-Dec-19,1-Dec-19,1:00,13,NE,-3,HOU,50,O,47.5,2019,Week 13,72025,HOU,3,-3,NE,28,22,Y,71995,0,17,33,0,Houston,KHOU,KHOU4380013,61,70,33,68,12,17,17,10,535,0,0,CLR,Mostly Clear,118,67,67,29,24,49,330,13,25,200,SCT,10,490,54,544,541,595,774,0,0,0,30.08,1019,44,PC,Partly Cloudy
HOU2015,1-Nov-15,1-Nov-15,1:00,13,HOU,-3.5,TEN,26,U,43,2015,Week 8,71630,HOU,-3.5,3.5,TEN,20,6,Y,71795,0,13,68,0,Houston,KHOU,KHOU4230913,68,71,89,93,5,12,96,8.8,0,1.05,0,CLR,Mostly Clear,46,68,68,65,90,66,130,5,100,6,OVC,9,129,64,193,644,708,921,99,0.03,0,29.93,1013.5,19,RAIN,Moderate Rain
HOU2017,1-Oct-17,1-Oct-17,1:00,13,TEN,-2.5,HOU,71,O,43,2017,Week 4,71804,HOU,2.5,-2.5,TEN,57,14,Y,71795,0,15,37,0,Houston,KHOU,KHOU4300913,81,93,61,79,4,7,12,10,596,0,0,CLR,Mostly Clear,46,89,93,66,47,74,150,3,40,35,SCT,10,673,80,753,801,881,1145,0,0,0,29.93,1013.6,44,PC,Partly Cloudy
HOU2014,2-Nov-14,2-Nov-14,1:00,13,PHI,-2,HOU,52,O,48.5,2014,Week 9,71780,HOU,2,-2,PHI,21,31,Y,71795,0,12,71,0,Houston,KHOU,KHOU4194513,60,71,68,93,8,13,45,10,228,0,0,CLR,Mostly Clear,46,71,71,54,55,61,150,9,90,35,BKN,10,442,64,506,640,704,914,0,0,0,30.31,1026.5,44,PC,Partly Cloudy
HOU2016,2-Oct-16,2-Oct-16,1:00,13,HOU,-4,TEN,47,O,40.5,2016,Week 4,71815,HOU,-4,4,TEN,27,20,Y,71795,0,14,82,0,Houston,KHOU,KHOU4264513,77,87,62,82,6,9,45,10,406,0,0,CLR,Mostly Clear,46,85,85,58,40,68,360,5,10,40,FEW,10,759,79,838,791,870,1130,0,0,0,30.01,1016.3,45,CLR,Mostly Clear
HOU2015,3-Jan-16,3-Jan-16,1:00,13,HOU,-6,JAX,36,U,45,2015,Week 17,71899,HOU,-6,6,JAX,30,6,Y,71795,0,13,44,0,Houston,KHOU,KHOU4237213,51,61,63,86,6,10,52,10,327,0.04,0,CLR,Fair,46,57,56,34,42,46,340,5,20,80,SCT,10,486,54,540,540,594,772,0,0,0,30.24,1024.1,44,PC,Partly Cloudy
HOU2013,3-Nov-13,3-Nov-13,8:30,20,IND,-1.5,HOU,51,O,43,2013,Week 9,71778,HOU,1.5,-1.5,IND,24,27,Y,71054,0,11,60,0,Houston,KHOU,KHOU4158120,59,69,66,80,7,13,7,10,580,0,0,CLR,Mostly Clear,46,60,59,49,67,54,110,9,5,250,FEW,10,0,0,0,0,0,0,0,0,0,30.15,1020.9,45,CLR,Mostly Clear
HOU2017,5-Nov-17,5-Nov-17,1:00,13,HOU,-6,IND,34,U,45,2017,Week 9,71709,HOU,-6,6,IND,14,20,N,71795,0,15,40,0,Houston,KHOU,KHOU4304413,80,90,81,97,9,17,61,9.1,111,0,0,MC,Mostly Cloudy,46,89,95,69,52,75,200,16,100,250,BKN,10,275,63,338,626,689,895,0,0,0,29.95,1014.6,42,MC,Mostly Cloudy
HOU2019,6-Oct-19,6-Oct-19,1:00,13,HOU,-3.5,ATL,85,O,47,2019,Week 5,71787,HOU,-3.5,3.5,HOU,53,32,Y,71995,0,17,84,0,Houston,KHOU,KHOU4374413,83,91,68,88,6,14,25,9.9,464,0,0,PC,Partly Cloudy,118,91,95,66,44,74,130,10,40,250,SCT,10,652,78,730,776,854,1108,0,0,0,29.96,1015,44,PC,Partly Cloudy
HOU2014,7-Sep-14,7-Sep-14,1:00,13,HOU,-3,WAS,23,U,44,2014,Week 1,71770,HOU,-3,3,WAS,17,6,Y,71795,0,12,82,0,Houston,KHOU,KHOU4188913,79,90,84,94,4,14,90,10,48,0.02,0,PC,High Clouds,46,82,88,73,74,76,150,14,100,250,BKN,10,86,91,177,909,1000,1299,0,0,0,30,1016.2,31,TSTM,Thunder
HOU2019,8-Dec-19,8-Dec-19,1:00,13,HOU,-5.5,DEN,62,O,45,2019,Week 14,71769,HOU,-5.5,5.5,IND,24,38,Y,71995,0,17,25,0,Houston,KHOU,KHOU4380713,63,75,81,100,7,15,50,7.2,308,0,0,CLR,Fair,118,72,72,57,61,63,170,12,70,26,BKN,10,234,53,287,531,584,758,0,0,0,30.03,1017.2,42,MC,Mostly Cloudy
HOU2015,8-Oct-15,8-Oct-15,8:25,20,HOU,-5,IND,47,O,41,2015,Week 5,71732,HOU,-5,5,IND,20,27,Y,71795,0,13,76,0,Houston,KHOU,KHOU4228520,78,87,70,91,2,8,85,10,36,0,0,CLR,Mostly Clear,46,77,80,66,69,70,160,3,100,250,OVC,10,0,0,0,0,0,0,0,0,0,30.02,1016.6,50,PC,High Overcast
HOU2017,8-Oct-17,8-Oct-17,8:30,20,KC,-2,HOU,76,O,45,2017,Week 5,71835,HOU,2,-2,KC,34,42,Y,71795,0,15,46,0,Houston,KHOU,KHOU4301620,84,94,71,88,5,13,43,10,228,0,0,CLR,Mostly Clear,46,83,91,76,79,78,170,7,25,70,SCT,10,0,0,0,0,0,0,0,0,0,29.71,1006,45,CLR,Mostly Clear
HOU2014,9-Oct-14,9-Oct-14,8:25,20,IND,-2.5,HOU,61,O,46,2014,Week 6,71787,HOU,2.5,-2.5,IND,28,33,Y,71795,0,12,77,0,Houston,KHOU,KHOU4192120,80,90,79,97,5,13,26,10,460,0,0,CLR,Mostly Clear,46,78,83,73,85,75,150,6,5,30,FEW,10,0,0,0,0,0,0,0,0,0,29.96,1014.5,45,CLR,Mostly Clear
HOU2017,10-Dec-17,10-Dec-17,1:00,13,HOU,-1.5,SF,42,U,45.5,2017,Week 14,71802,HOU,-1.5,1.5,SF,16,26,Y,71795,0,15,84,0,Houston,KHOU,KHOU4307913,49,64,61,93,3,6,17,10,399,0,0,CLR,Mostly Clear,46,61,61,29,30,47,340,5,70,250,BKN,10,417,53,470,528,581,755,0,0,0,30.4,1029.7,52,PC,High Clouds
HOU2017,10-Sep-17,10-Sep-17,1:00,13,HOU,-5.5,JAX,36,U,38,2017,Week 1,71710,HOU,-5.5,5.5,JAX,7,29,Y,71795,0,15,78,0,Houston,KHOU,KHOU4298813,78,88,53,73,12,17,7,10,691,0,0,CLR,Fair,46,87,87,59,39,69,20,14,5,50,FEW,10,876,90,966,898,988,1282,0,0,0,30.04,1017.8,46,CLR,Fair
HOU2016,11-Sep-16,11-Sep-16,1:00,13,HOU,-5.5,CHI,37,U,42.5,2016,Week 1,71933,HOU,-5.5,5.5,CHI,23,14,Y,71795,0,14,87,0,Houston,KHOU,KHOU4262413,82,92,72,96,5,10,24,10,510,0,0,CLR,Mostly Clear,46,90,97,71,54,77,350,6,90,40,BKN,10,490,89,578,890,979,1271,0,0,0,30.07,1018.4,44,PC,Partly Cloudy
HOU2015,13-Dec-15,13-Dec-15,8:30,20,NE,-5,HOU,33,U,46.5,2015,Week 14,71908,HOU,5,-5,NE,6,27,Y,71795,0,13,52,0,Houston,KHOU,KHOU4235120,59,75,91,97,11,28,89,8,0,1.91,0,RAIN,Light Rain,46,52,52,50,93,51,170,3,20,120,SCT,10,0,0,0,0,0,0,0,0,0,29.79,1008.9,44,PC,Partly Cloudy
HOU2013,13-Oct-13,13-Oct-13,1:00,13,HOU,-9,LAR,51,O,43,2013,Week 6,71104,HOU,-9,9,LAR,13,38,Y,71054,0,11,76,0,Houston,KHOU,KHOU4156013,74,77,92,97,6,12,96,8.4,34,0.14,0,CLR,Mostly Clear,46,76,80,72,88,73,60,6,100,10,OVC,10,111,74,185,739,813,1056,99,0.05,0,30.12,1019.9,18,RAIN,Light Rain
HOU2015,13-Sep-15,13-Sep-15,1:00,13,KC,-1,HOU,47,O,40.5,2015,Week 1,71776,HOU,1,-1,KC,20,27,Y,71795,0,13,83,0,Houston,KHOU,KHOU4226013,73,82,55,76,5,13,5,10,673,0,0,CLR,Mostly Clear,46,82,82,55,40,66,130,10,0,201,CLR,10,885,89,974,885,974,1265,0,0,0,30.09,1018.8,46,CLR,Fair
HOU2017,15-Oct-17,15-Oct-17,1:00,13,HOU,-7.5,CLE,50,O,46,2017,Week 6,71815,HOU,-7.5,7.5,CLE,33,17,Y,71795,0,15,40,0,Houston,KHOU,KHOU4302313,80,93,67,88,10,20,68,10,109,0,0,CLR,Mostly Clear,46,92,97,67,44,75,350,10,90,36,BKN,10,503,73,576,729,802,1041,0,0,0,30.06,1018,44,PC,Partly Cloudy
HOU2013,15-Sep-13,15-Sep-13,1:00,13,HOU,-7.5,TEN,54,O,42,2013,Week 2,71718,HOU,-7.5,7.5,TEN,30,24,N,71054,0,11,91,0,Houston,KHOU,KHOU4153213,84,92,72,91,8,15,87,9.2,64,0,0,CLR,Mostly Clear,46,91,100,72,54,78,90,10,100,34,BKN,10,517,88,605,877,965,1253,0,0,0,29.98,1015.2,44,PC,Partly Cloudy
HOU2019,15-Sep-19,15-Sep-19,1:00,13,HOU,-7,JAX,25,U,43,2019,Week 2,71651,HOU,-7,7,JAX,13,12,N,71995,0,17,26,0,Houston,KHOU,KHOU4372313,85,95,62,88,8,17,41,10,519,0,0,PC,Partly Cloudy,118,95,100,66,39,75,100,12,40,250,SCT,10,737,88,825,877,965,1253,0,0,0,29.99,1015.9,44,PC,Partly Cloudy
HOU2016,16-Oct-16,16-Oct-16,8:30,20,HOU,-3,IND,49,O,48,2016,Week 6,71891,HOU,-3,3,IND,26,23,N,71795,0,14,80,0,Houston,KHOU,KHOU4265920,80,91,78,94,7,14,26,10,370,0,0,CLR,Mostly Clear,46,79,84,73,82,75,160,8,5,20,FEW,10,0,0,0,0,0,0,0,0,0,29.96,1014.7,45,CLR,Mostly Clear
HOU2013,17-Nov-13,17-Nov-13,1:00,13,HOU,-10.5,OAK,51,O,41,2013,Week 11,71726,HOU,-10.5,10.5,OAK,23,28,N,71054,0,11,85,0,Houston,KHOU,KHOU4159513,77,85,82,100,8,16,80,8.6,85,0,0,CLR,Mostly Clear,46,85,90,70,61,75,210,16,100,29,BKN,10,98,58,156,579,637,827,0,0,0,29.86,1011.1,45,CLR,Mostly Clear
HOU2016,18-Dec-16,18-Dec-16,1:00,13,HOU,-3.5,JAX,41,P,41,2016,Week 15,71803,HOU,-3.5,3.5,JAX,21,20,N,71795,0,14,37,0,Houston,KHOU,KHOU4272213,40,49,55,86,20,26,87,10,99,0,0,MC,Mostly Cloudy,46,41,33,22,47,34,360,17,100,70,BKN,10,178,52,230,524,576,749,0,0,0,30.35,1027.7,44,PC,Partly Cloudy
HOU2016,18-Sep-16,18-Sep-16,1:00,13,HOU,-1,KC,31,U,42,2016,Week 2,71890,HOU,-1,1,KC,19,12,Y,71795,0,14,89,0,Houston,KHOU,KHOU4263113,85,97,77,97,5,12,33,10,370,0,0,PC,Partly Cloudy,46,91,101,74,57,79,370,3,20,25,SCT,10,773,86,859,859,945,1228,0,0,0,29.96,1015,44,PC,Partly Cloudy
HOU2017,19-Nov-17,19-Nov-17,1:00,13,HOU,-2.5,ARI,52,O,38,2017,Week 11,71680,HOU,-2.5,2.5,ARI,31,21,Y,71795,0,15,79,0,Houston,KHOU,KHOU4305813,56,65,44,61,12,24,41,10,412,0,0,CLR,Mostly Clear,46,64,63,31,29,49,10,13,20,250,SCT,10,539,57,596,573,630,818,0,0,0,30.26,1025.1,54,CLR,Few High Clouds
HOU2014,21-Dec-14,21-Dec-14,1:00,13,BAL,-6.5,HOU,38,U,41.5,2014,Week 16,71771,HOU,6.5,-6.5,BAL,25,13,Y,71795,0,12,58,0,Houston,KHOU,KHOU4199413,54,63,83,97,6,8,85,9.5,60,0,0,MC,Overcast,46,60,60,49,67,54,40,6,70,80,BKN,10,341,52,393,525,577,750,0,0,0,30.03,1017,42,MC,Mostly Cloudy
HOU2019,21-Nov-19,21-Nov-19,1:00,13,HOU,-2,IND,37,U,47.5,2019,Week 12,71727,HOU,-2,2,IND,20,17,Y,71995,0,17,59,0,Houston,KHOU,KHOU4379013,75,79,74,84,13,17,96,10,0,0,0,MC,Mostly Cloudy,118,78,81,66,67,70,160,16,100,250,OVC,10,201,57,258,566,623,809,0,0,0,29.97,1015.3,50,PC,High Overcast
HOU2013,22-Dec-13,22-Dec-13,1:00,13,DEN,-10,HOU,50,U,54,2013,Week 16,71761,HOU,10,-10,DEN,13,37,Y,71054,0,11,59,0,Houston,KHOU,KHOU4163013,54,63,76,96,9,21,62,9.9,110,0.03,0,CLR,Mostly Clear,46,59,57,49,69,54,330,12,100,40,OVC,10,262,53,316,525,578,751,0,0,0,30.05,1017.7,45,CLR,Mostly Clear
HOU2015,22-Nov-15,22-Nov-15,1:00,13,NYJ,-4,HOU,41,O,40,2015,Week 11,71718,HOU,4,-4,NYJ,24,17,Y,71795,0,13,52,0,Houston,KHOU,KHOU4233013,47,56,54,80,8,16,5,10,600,0,0,CLR,Fair,46,52,50,25,35,41,330,6,5,216,CLR,10,549,56,605,563,619,805,0,0,0,30.29,1025.7,46,CLR,Fair
HOU2014,23-Nov-14,23-Nov-14,1:00,13,HOU,-2.5,CIN,35,U,44.5,2014,Week 12,71777,HOU,-2.5,2.5,CIN,13,22,Y,71795,0,12,76,0,Houston,KHOU,KHOU4196613,67,80,75,97,10,17,28,9.9,590,0.31,0,CLR,Fair,46,76,78,56,50,64,220,16,0,201,CLR,10,561,56,617,561,617,801,0,0,0,29.61,1002.6,46,CLR,Fair
HOU2016,24-Dec-16,24-Dec-16,8:25,20,HOU,-3,CIN,22,U,41.5,2016,Week 16,71836,HOU,-3,3,CIN,12,10,N,71795,0,14,72,0,Houston,KHOU,KHOU4272820,72,80,87,100,9,14,83,8.2,139,0,0,MC,Mostly Cloudy,46,69,69,68,96,68,120,8,100,4,BKN,7,0,0,0,0,0,0,0,0,0,30.09,1019,42,MC,Mostly Cloudy
HOU2013,24-Nov-13,24-Nov-13,1:00,13,HOU,-10.5,JAX,19,U,43.5,2013,Week 12,71659,HOU,-10.5,10.5,JAX,6,13,N,71054,0,11,50,0,Houston,KHOU,KHOU4160213,47,50,55,71,15,22,94,10,2,0,0,MC,Mostly Cloudy,46,50,46,31,48,42,360,10,100,60,OVC,10,278,56,334,557,613,796,0,0,0,30.37,1028.3,40,MC,Overcast
HOU2017,25-Dec-17,25-Dec-17,4:30,16,PIT,-9.5,HOU,40,U,45.5,2017,Week 16,71842,HOU,9.5,-9.5,PIT,6,34,Y,71795,0,15,79,0,Houston,KHOU,KHOU4309416,47,52,74,89,11,15,65,10,139,0,0,MC,Overcast,46,51,47,41,69,46,80,13,100,250,BKN,10,72,16,88,164,180,235,0,0,0,30.28,1025.8,42,MC,Mostly Cloudy
HOU2016,27-Nov-16,27-Nov-16,1:00,13,LAC,-2.5,HOU,34,U,46,2016,Week 12,71897,HOU,2.5,-2.5,LAC,13,21,Y,71795,0,14,67,0,Houston,KHOU,KHOU4270113,65,74,77,93,10,16,80,9.5,62,0,0,CLR,Mostly Clear,46,72,72,58,61,64,150,16,100,33,BKN,10,243,55,298,547,602,782,0,0,0,30.02,1016.7,44,PC,Partly Cloudy
HOU2019,27-Oct-19,27-Oct-19,1:00,13,HOU,-7,OAK,51,O,52,2019,Week 8,71893,HOU,-7,7,OAK,27,24,N,71995,0,17,34,0,Houston,KHOU,KHOU4376513,65,77,74,90,6,13,12,10,549,0,0,CLR,Mostly Clear,118,75,77,56,52,64,150,9,40,250,SCT,10,561,67,628,668,735,954,0,0,0,29.96,1015.1,44,PC,Partly Cloudy
HOU2015,27-Sep-15,27-Sep-15,1:00,13,HOU,-6,TB,28,U,41,2015,Week 3,71718,HOU,-6,6,TB,19,9,Y,71795,0,13,75,0,Houston,KHOU,KHOU4227413,74,77,82,90,8,14,100,8.6,0,0.11,0,CLR,Mostly Clear,46,73,77,69,87,71,40,13,100,12,OVC,3,66,82,148,821,903,1173,0,0,0,29.9,1012.5,45,CLR,Mostly Clear
HOU2014,28-Dec-14,28-Dec-14,1:00,13,HOU,-8.5,JAX,40,O,38.5,2014,Week 17,71777,HOU,-8.5,8.5,JAX,23,17,N,71795,0,12,43,0,Houston,KHOU,KHOU4200113,43,48,92,97,10,16,100,8,0,0.58,0,RAIN,Light Rain,46,43,38,41,93,42,330,9,100,7,OVC,8,265,53,318,530,583,758,99,0.02,0,30.16,1021.5,18,RAIN,Light Rain
HOU2014,28-Sep-14,28-Sep-14,1:00,13,HOU,-3,BUF,40,U,44,2014,Week 4,71756,HOU,-3,3,BUF,23,17,Y,71795,0,12,86,0,Houston,KHOU,KHOU4191013,78,86,79,96,6,17,85,9.8,60,0.37,0,MC,Mostly Cloudy,46,86,92,72,63,76,110,5,100,110,BKN,10,208,82,290,816,898,1166,0,0,0,29.93,1013.9,42,MC,Mostly Cloudy
HOU2015,29-Nov-15,29-Nov-15,1:00,13,HOU,-3.5,NO,30,U,51,2015,Week 12,71778,HOU,-3.5,3.5,NO,24,6,Y,71795,0,13,55,0,Houston,KHOU,KHOU4233713,52,55,92,97,8,13,100,4.8,0,0.06,0,MC,Overcast,46,54,52,51,90,53,330,6,100,5,OVC,3,272,55,328,545,600,779,0,0,0,30.1,1019.4,40,MC,Overcast
HOU2013,29-Sep-13,29-Sep-13,1:00,13,SEA,-1.5,HOU,43,O,41.5,2013,Week 4,71756,HOU,1.5,-1.5,SEA,20,23,Y,71054,0,11,82,0,Houston,KHOU,KHOU4154613,79,84,85,90,5,13,96,9.8,3,0.38,0,CLR,Mostly Clear,46,82,89,75,79,77,100,10,100,12,BKN,10,235,81,316,811,892,1159,0,0,0,29.95,1014.2,44,PC,Partly Cloudy
HOU2019,29-Sep-19,29-Sep-19,1:00,13,HOU,-5.5,CAR,26,U,47.5,2019,Week 4,71699,HOU,-5.5,5.5,CAR,10,16,Y,71995,0,17,49,0,Houston,KHOU,KHOU4373713,84,92,72,87,10,16,46,10,311,0,0,PC,Partly Cloudy,118,90,97,71,54,77,120,12,40,250,SCT,10,681,81,762,811,892,1159,0,0,0,30,1016.1,44,PC,Partly Cloudy
HOU2014,30-Nov-14,30-Nov-14,1:00,13,HOU,-7,TEN,66,O,42.5,2014,Week 13,71714,HOU,-7,7,TEN,45,21,Y,71795,0,12,78,0,Houston,KHOU,KHOU4197313,69,79,81,97,8,15,26,10,320,0,0,CLR,Mostly Clear,46,78,80,62,58,68,190,12,40,36,SCT,10,434,54,488,543,597,776,0,0,0,30.09,1019.1,44,PC,Partly Cloudy
HOU2016,30-Oct-16,30-Oct-16,1:00,13,HOU,-1,DET,33,U,46.5,2016,Week 8,71882,HOU,-1,1,DET,20,13,Y,71795,0,14,80,0,Houston,KHOU,KHOU4267313,73,86,75,97,4,8,4,9.7,619,0,0,CLR,Mostly Clear,46,84,86,63,49,70,110,8,10,25,FEW,10,621,65,686,649,714,927,0,0,0,30.14,1020.8,45,CLR,Mostly Clear
IND2013,1-Dec-13,1-Dec-13,1:00,13,IND,-3.5,TEN,36,U,46.5,2013,Week 13,65502,IND,-3.5,3.5,LAR,22,14,Y,67000,0,5,72,1,Indianapolis,KIND,KIND4160913,41,52,64,76,7,12,18,9.8,554,0,0,CLR,Fair,797,50,46,34,54,43,260,9,5,110,FEW,10,378,38,416,385,423,550,0,0,0,30.04,1017.5,54,CLR,Few High Clouds
IND2019,1-Dec-19,1-Dec-19,1:00,13,IND,-7,TEN,48,O,47,2019,Week 13,60361,IND,-7,7,TB,17,31,Y,67000,0,11,49,0,Indianapolis,KIND,KIND4380013,40,49,89,100,13,22,84,8.8,28,0.28,0,RAIN,Light Rain,791,36,25,34,93,35,230,21,100,24,OVC,10,192,38,230,385,423,550,99,0.01,0,29.47,998.3,18,RAIN,Light Rain
IND2016,1-Jan-17,1-Jan-17,1:00,13,IND,-5.5,JAX,44,U,48.5,2016,Week 17,65160,IND,-5.5,5.5,NYG,24,20,N,67000,0,8,24,0,Indianapolis,KIND,KIND4273613,34,45,77,89,6,8,58,9.6,432,0,0,MC,Overcast,797,42,38,32,68,38,140,7,10,200,FEW,10,356,37,393,372,409,531,0,0,0,30.12,1020.5,45,CLR,Mostly Clear
IND2015,3-Jan-16,3-Jan-16,1:00,13,IND,-4,TEN,54,O,39,2015,Week 17,65733,IND,-4,4,CIN,30,24,Y,67000,0,7,38,0,Indianapolis,KIND,KIND4237213,30,34,76,85,11,15,84,9.9,132,0,0,MC,Overcast,797,32,25,23,69,29,270,8,100,29,OVC,10,188,38,226,375,413,536,0,0,0,30.09,1019.5,40,MC,Overcast
IND2015,4-Oct-15,4-Oct-15,1:00,13,IND,-4,JAX,29,U,43.5,2015,Week 4,65609,IND,-4,4,MIA,16,13,N,67000,0,7,72,1,Indianapolis,KIND,KIND4228113,62,76,73,86,11,14,60,10,257,0,0,PC,High Clouds,797,70,70,55,59,61,30,10,90,250,BKN,10,459,67,526,665,732,950,0,0,0,30.07,1018.2,52,PC,High Clouds
IND2014,5-Oct-14,5-Oct-14,1:00,13,IND,-3,BAL,33,U,49.5,2014,Week 5,65258,IND,-3,3,DAL,20,13,Y,67000,0,6,72,1,Indianapolis,KIND,KIND4191713,49,59,62,79,10,22,84,9.9,24,0.13,0,MC,Mostly Cloudy,797,57,54,32,39,46,220,15,100,80,BKN,10,290,66,356,659,725,941,0,0,0,29.78,1008.3,42,MC,Mostly Cloudy
IND2013,6-Oct-13,6-Oct-13,1:00,13,SEA,-3,IND,62,O,43.5,2013,Week 5,66608,IND,3,-3,NYG,34,28,Y,67000,0,5,72,1,Indianapolis,KIND,KIND4155313,57,65,88,100,10,16,83,8.1,6,1.45,0,CLR,Mostly Clear,797,54,52,52,93,53,240,8,100,11,OVC,10,326,65,392,653,718,933,99,0.11,0,29.77,1008.1,17,RAIN,Heavy Rain
IND2015,8-Nov-15,8-Nov-15,4:25,16,DEN,-3.5,IND,51,O,45.5,2015,Week 9,66894,IND,3.5,-3.5,DEN,27,24,N,67000,0,7,72,1,Indianapolis,KIND,KIND4231616,44,55,57,82,5,10,2,10,613,0,0,CLR,Fair,797,54,51,27,35,43,140,9,0,201,CLR,10,155,15,170,155,170,221,0,0,0,30.34,1027.8,46,CLR,Fair
IND2017,8-Oct-17,8-Oct-17,1:00,13,IND,-1.5,SF,49,O,44,2017,Week 5,65612,IND,-1.5,1.5,CAR,26,23,Y,67000,0,9,65,0,Indianapolis,KIND,KIND4301613,63,69,86,100,8,12,71,9,41,0.2,0,CLR,Fair,797,68,68,55,63,60,110,12,100,210,BKN,10,349,64,413,641,705,916,0,0,0,29.84,1010,50,PC,High Overcast
IND2013,8-Sep-13,8-Sep-13,1:00,13,IND,-11,OAK,38,U,45.5,2013,Week 1,65412,IND,-11,11,MIN,21,17,N,67000,0,5,72,1,Indianapolis,KIND,KIND4152513,78,89,68,90,6,13,68,9.5,102,0,0,CLR,Mostly Clear,797,83,84,60,46,69,220,9,100,44,BKN,10,255,81,336,810,891,1157,0,0,0,29.96,1014.7,45,CLR,Mostly Clear
IND2016,9-Oct-16,9-Oct-16,1:00,13,IND,-4,CHI,52,O,47.5,2016,Week 5,66622,IND,-4,4,OAK,29,23,Y,67000,0,8,72,1,Indianapolis,KIND,KIND4265213,58,71,66,83,5,10,10,10,599,0,0,CLR,Fair,797,66,66,46,49,55,0,0,10,250,FEW,10,604,63,667,629,692,899,0,0,0,30.34,1027.2,45,CLR,Mostly Clear
IND2013,10-Nov-13,10-Nov-13,1:00,13,IND,-7.5,LAR,46,O,43.5,2013,Week 10,66004,IND,-7.5,7.5,LAC,8,38,Y,67000,0,5,72,1,Indianapolis,KIND,KIND4158813,42,48,63,78,9,17,15,10,541,0,0,CLR,Mostly Clear,797,46,42,29,51,39,290,9,5,35,FEW,10,448,46,494,459,505,655,0,0,0,30.35,1027.6,45,CLR,Mostly Clear
IND2019,10-Nov-19,10-Nov-19,1:00,13,IND,-9.5,MIA,28,O,41,2019,Week 10,60510,IND,-9.5,9.5,MIA,12,16,N,67000,0,11,46,0,Indianapolis,KIND,KIND4377913,49,61,66,82,8,17,67,10,291,0,0,MC,Overcast,791,57,55,40,53,49,210,10,25,250,SCT,10,423,46,469,459,505,655,0,0,0,29.95,1014.4,54,CLR,Few High Clouds
IND2016,11-Dec-16,11-Dec-16,1:00,13,IND,-6.5,HOU,39,U,47.5,2016,Week 14,65250,IND,-6.5,6.5,GB,17,22,N,67000,0,8,72,1,Indianapolis,KIND,KIND4271513,32,37,75,97,12,15,100,7.9,0,0.15,0,MC,Overcast,797,34,25,23,64,30,160,13,100,35,OVC,10,183,37,220,366,403,523,99,0.01,0,30,1016.7,18,RAIN,Light Rain
IND2016,11-Sep-16,11-Sep-16,4:25,16,IND,-2.5,DET,74,O,51.5,2016,Week 1,65566,IND,-2.5,2.5,LAC,35,39,Y,67000,0,8,72,1,Indianapolis,KIND,KIND4262416,66,76,66,93,4,8,5,10,703,0,0,CLR,Fair,797,76,77,50,40,61,370,3,5,55,FEW,10,448,46,494,460,506,657,0,0,0,30.17,1021.1,46,CLR,Fair
IND2017,12-Nov-17,12-Nov-17,1:00,13,PIT,-11,IND,37,U,47,2017,Week 10,66146,IND,11,-11,BUF,17,20,N,67000,0,9,54,0,Indianapolis,KIND,KIND4305113,38,42,82,97,7,14,96,7.4,0,0.08,0,MC,Overcast,797,41,41,36,82,39,60,3,100,47,OVC,6,225,45,270,450,495,643,99,0.02,0,30.24,1024.6,18,RAIN,Light Rain
IND2014,14-Dec-14,14-Dec-14,1:00,13,IND,-7,HOU,27,U,49,2014,Week 15,65148,IND,-7,7,MIN,17,10,N,67000,0,6,72,1,Indianapolis,KIND,KIND4198713,44,48,89,97,7,9,100,5.6,0,0,0,MC,Overcast,797,46,43,43,89,45,200,6,100,18,OVC,0.5,182,36,218,365,401,521,0,0,0,30.14,1021.1,40,MC,Overcast
IND2017,14-Dec-17,14-Dec-17,8:25,20,DEN,-3,IND,38,U,40.5,2017,Week 15,63411,IND,3,-3,DEN,13,25,Y,67000,0,9,23,0,Indianapolis,KIND,KIND4308320,27,32,58,69,9,21,92,10,76,0,0,MC,Mostly Cloudy,797,25,19,14,63,22,140,5,100,230,OVC,10,0,0,0,0,0,0,0,0,0,30.07,1019.2,50,PC,High Overcast
IND2013,15-Dec-13,15-Dec-13,1:00,13,IND,-6,HOU,28,U,47,2013,Week 15,65470,IND,-6,6,NYG,25,3,Y,67000,0,5,72,1,Indianapolis,KIND,KIND4162313,22,27,79,92,15,23,96,8.9,54,0,0,MC,Overcast,797,19,4,12,74,17,240,17,90,100,BKN,10,200,36,236,364,400,520,0,0,0,30.06,1018.9,42,MC,Mostly Cloudy
IND2013,15-Sep-13,15-Sep-13,1:00,13,IND,-2,MIA,44,O,43.5,2013,Week 2,65406,IND,-2,2,LAR,20,24,Y,67000,0,5,72,1,Indianapolis,KIND,KIND4153213,64,78,56,81,7,14,80,10,0,0,0,CLR,Mostly Clear,797,74,76,47,38,59,180,12,100,140,OVC,10,528,77,605,774,851,1106,0,0,0,30.06,1018.1,45,CLR,Mostly Clear
IND2014,15-Sep-14,15-Sep-14,8:35,20,IND,-3,PHI,57,O,54,2014,Week 2,64871,IND,-3,3,WAS,27,30,N,67000,0,6,72,1,Indianapolis,KIND,KIND4189720,56,65,83,97,5,14,71,7.4,95,0.54,0,CLR,Mostly Clear,797,56,55,55,97,55,360,5,100,30,OVC,4,0,0,0,0,0,0,0,0,0,30.08,1018.6,18,RAIN,Light Rain
IND2014,16-Nov-14,16-Nov-14,8:30,20,IND,-3,NE,62,O,59,2014,Week 11,66751,IND,-3,3,GB,20,42,Y,67000,0,6,72,1,Indianapolis,KIND,KIND4195920,31,35,84,100,4,7,100,5.1,0,0.22,2.5,SNOW,Light Snow,797,30,25,28,93,29,300,5,100,13,VV,0.5,0,0,0,0,0,0,99,0.04,0.5,29.96,1015.3,10,SNOW,Moderate Snow
IND2019,17-Nov-19,17-Nov-19,1:00,13,IND,-6.5,JAX,46,O,47,2019,Week 11,61986,IND,-6.5,6.5,GB,33,13,Y,67000,0,11,70,0,Indianapolis,KIND,KIND4378613,35,45,74,92,4,7,56,9.6,139,0,0,MC,Overcast,791,42,39,28,58,36,140,5,100,200,OVC,10,279,43,322,429,472,613,0,0,0,30,1016.3,40,MC,Overcast
IND2017,17-Sep-17,17-Sep-17,1:00,13,ARI,-7,IND,29,U,44,2017,Week 2,63137,IND,7,-7,KC,13,16,N,67000,0,9,37,0,Indianapolis,KIND,KIND4299513,76,89,70,93,7,12,59,9.9,322,0.16,0,MC,Overcast,797,87,89,63,45,71,200,9,100,80,BKN,10,382,76,458,763,839,1090,0,0,0,30.08,1018,42,MC,Mostly Cloudy
IND2015,18-Oct-15,18-Oct-15,8:30,20,NE,-9,IND,61,O,54,2015,Week 6,66726,IND,9,-9,PHI,27,34,N,67000,0,7,72,1,Indianapolis,KIND,KIND4229520,45,60,50,79,6,13,0,10,662,0,0,CLR,Fair,797,49,49,24,38,39,0,0,0,201,CLR,10,0,0,0,0,0,0,0,0,0,30.4,1029.8,46,CLR,Fair
IND2014,19-Oct-14,19-Oct-14,1:00,13,IND,-3.5,CIN,27,U,50.5,2014,Week 7,66539,IND,-3.5,3.5,CAR,27,0,Y,67000,0,6,72,1,Indianapolis,KIND,KIND4193113,48,56,69,83,7,12,83,10,126,0,0,MC,Overcast,797,52,50,38,59,46,230,7,100,25,OVC,10,388,58,446,575,633,822,0,0,0,30.21,1023.1,45,CLR,Mostly Clear
IND2015,20-Dec-15,20-Dec-15,1:00,13,IND,-2,HOU,26,U,41.5,2015,Week 15,66083,IND,-2,2,PIT,10,16,Y,67000,0,7,72,1,Indianapolis,KIND,KIND4235813,40,50,52,66,12,20,71,10,53,0,0,PC,High Overcast,797,47,40,25,42,38,190,20,100,180,OVC,10,235,36,271,362,398,518,0,0,0,30.23,1024.2,40,MC,Overcast
IND2016,20-Nov-16,20-Nov-16,1:00,13,IND,-3,TEN,41,U,54,2016,Week 11,65048,IND,-3,3,NO,24,17,Y,67000,0,8,72,1,Indianapolis,KIND,KIND4269413,30,37,70,81,10,15,12,10,491,0,0,CLR,Fair,797,37,29,23,57,32,310,13,20,30,SCT,10,373,41,414,414,455,592,0,0,0,30.3,1026.9,44,PC,Partly Cloudy
IND2013,20-Oct-13,20-Oct-13,8:30,20,DEN,-6.5,IND,72,O,56,2013,Week 7,67196,IND,6.5,-6.5,DEN,39,33,N,67000,0,5,72,1,Indianapolis,KIND,KIND4156720,50,63,66,86,11,20,14,10,537,0,0,CLR,Mostly Clear,797,54,50,40,59,47,180,13,5,230,FEW,10,0,0,0,0,0,0,0,0,0,29.94,1013.9,45,CLR,Mostly Clear
IND2019,20-Oct-19,20-Oct-19,1:00,13,IND,-4,HOU,53,O,36,2019,Week 7,59977,IND,-4,4,OAK,30,23,Y,67000,0,11,37,0,Indianapolis,KIND,KIND4375813,61,73,66,89,2,6,41,9.9,454,0,0,MC,Mostly Cloudy,791,70,70,48,46,58,0,0,5,48,FEW,10,556,57,613,570,627,814,0,0,0,29.89,1011.9,45,CLR,Mostly Clear
IND2015,21-Sep-15,21-Sep-15,8:30,20,IND,-6,NYJ,27,U,46,2015,Week 2,65220,IND,-6,6,NYG,7,20,Y,67000,0,7,72,1,Indianapolis,KIND,KIND4226820,64,76,57,86,6,10,2,10,709,0,0,CLR,Fair,797,68,68,47,47,57,60,7,0,201,CLR,10,0,0,0,0,0,0,0,0,0,30.09,1018.8,46,CLR,Fair
IND2019,22-Dec-19,22-Dec-19,1:00,13,IND,-6,CAR,44,O,60,2019,Week 16,61845,IND,-6,6,BAL,38,6,Y,67000,0,11,27,0,Indianapolis,KIND,KIND4382113,37,53,76,93,2,6,9,9.4,474,0,0,CLR,Fair,791,43,39,32,66,38,170,6,20,250,SCT,10,340,36,376,362,398,518,0,0,0,30.29,1026.3,54,CLR,Few High Clouds
IND2017,22-Oct-17,22-Oct-17,1:00,13,JAX,-3,IND,27,U,41.5,2017,Week 7,63104,IND,3,-3,JAX,0,27,Y,67000,0,9,25,0,Indianapolis,KIND,KIND4303013,67,79,65,81,13,23,85,10,39,0,0,MC,Mostly Cloudy,797,78,80,59,52,66,180,17,80,210,BKN,10,413,56,469,558,614,797,0,0,0,30.04,1016.9,42,MC,Mostly Cloudy
IND2019,22-Sep-19,22-Sep-19,1:00,13,IND,-1.5,ATL,51,O,48,2019,Week 3,60295,IND,-1.5,1.5,DEN,27,24,Y,67000,0,11,60,0,Indianapolis,KIND,KIND4373013,77,87,57,93,14,24,62,9.6,273,0.11,0,MC,Mostly Cloudy,791,87,87,59,39,69,210,20,90,250,BKN,10,507,74,581,735,809,1050,0,0,0,30.02,1015.8,52,PC,High Clouds
IND2014,23-Nov-14,23-Nov-14,1:00,13,IND,-13.5,JAX,26,U,49.5,2014,Week 12,64328,IND,-13.5,13.5,MIA,23,3,Y,67000,0,6,72,1,Indianapolis,KIND,KIND4196613,50,55,83,100,12,20,97,6.4,0,1.91,0,RAIN,Light Rain,797,51,48,48,89,49,130,9,100,26,OVC,10,204,41,244,407,448,582,99,0.05,0,29.69,1005.6,18,RAIN,Light Rain
IND2016,24-Nov-16,24-Nov-16,8:30,20,PIT,-8.5,IND,35,U,49.5,2016,Week 12,66583,IND,8.5,-8.5,SEA,7,28,Y,67000,0,8,72,1,Indianapolis,KIND,KIND4269820,42,49,89,97,9,15,100,8.3,0,0.01,0,MC,Overcast,797,39,33,35,86,37,280,9,100,12,OVC,10,0,0,0,0,0,0,0,0,0,30.25,1024.8,40,MC,Overcast
IND2017,24-Sep-17,24-Sep-17,1:00,13,CLE,-1,IND,59,O,42,2017,Week 3,63351,IND,1,-1,CLE,31,28,Y,67000,0,9,79,0,Indianapolis,KIND,KIND4300213,78,92,55,84,6,10,4,10,700,0,0,CLR,Fair,797,88,88,59,38,69,90,6,5,50,FEW,10,706,72,778,724,796,1034,0,0,0,30.08,1017.7,46,CLR,Fair
IND2015,25-Oct-15,25-Oct-15,1:00,13,IND,-5,NO,48,U,53,2015,Week 7,66420,IND,-5,5,NO,21,27,Y,67000,0,7,72,1,Indianapolis,KIND,KIND4230213,53,62,60,83,8,13,66,10,125,0,0,PC,High Clouds,797,59,57,38,46,49,20,10,75,250,BKN,10,414,54,468,541,595,773,0,0,0,30.31,1026.3,52,PC,High Clouds
IND2016,25-Sep-16,25-Sep-16,4:25,16,IND,-1.5,LAC,48,U,51.5,2016,Week 3,64747,IND,-1.5,1.5,NO,26,22,Y,67000,0,8,72,1,Indianapolis,KIND,KIND4263816,74,86,72,85,7,12,25,9.9,600,0.01,0,CLR,Fair,797,85,87,66,54,72,210,10,50,148,BKN,10,281,37,318,375,412,535,0,0,0,30.01,1015.6,42,MC,Mostly Cloudy
IND2017,26-Nov-17,26-Nov-17,1:00,13,TEN,-3,IND,36,U,46.5,2017,Week 12,62207,IND,3,-3,TEN,16,20,Y,67000,0,9,82,0,Indianapolis,KIND,KIND4306513,39,51,62,85,6,12,6,10,516,0,0,CLR,Fair,797,49,46,28,45,40,270,8,20,250,SCT,10,374,40,414,398,438,569,0,0,0,30.22,1023.7,54,CLR,Few High Clouds
IND2019,27-Oct-19,27-Oct-19,1:00,13,IND,-7,DEN,28,O,32,2019,Week 8,61653,IND,-7,7,DEN,15,13,N,67000,0,11,27,0,Indianapolis,KIND,KIND4376513,53,63,72,89,13,32,44,10,442,0,0,CLR,Fair,791,60,58,43,53,51,230,12,35,400,CLR,10,437,53,490,530,583,757,0,0,0,29.98,1015.2,46,CLR,Fair
IND2014,28-Sep-14,28-Sep-14,1:00,13,IND,-7.5,TEN,58,O,46,2014,Week 4,64757,IND,-7.5,7.5,TB,41,17,Y,67000,0,6,72,1,Indianapolis,KIND,KIND4191013,70,83,57,78,2,5,57,10,227,0,0,CLR,Mostly Clear,797,81,81,51,35,64,0,0,90,65,BKN,10,484,70,554,701,771,1001,0,0,0,30.09,1019.1,44,PC,Partly Cloudy
IND2013,29-Dec-13,29-Dec-13,1:00,13,IND,-11,JAX,40,U,45,2013,Week 17,66008,IND,-11,11,NYJ,30,10,Y,67000,0,5,72,1,Indianapolis,KIND,KIND4163713,35,45,75,93,11,22,95,8.2,66,0,0,MC,Overcast,797,45,37,30,57,39,250,16,45,220,SCT,10,299,37,336,367,404,525,0,0,0,29.82,1010.7,44,PC,Partly Cloudy
IND2015,29-Nov-15,29-Nov-15,1:00,13,IND,-3,TB,37,U,46.5,2015,Week 12,65696,IND,-3,3,PIT,25,12,Y,67000,0,7,72,1,Indianapolis,KIND,KIND4233713,39,42,77,89,12,14,97,9.8,0,0,0,PC,High Overcast,797,41,34,31,67,37,70,12,100,240,OVC,10,177,39,216,390,429,557,0,0,0,30.24,1024.4,50,PC,High Overcast
IND2019,29-Sep-19,29-Sep-19,1:00,13,IND,-5.5,OAK,55,O,46.5,2019,Week 4,62259,IND,-5.5,5.5,ATL,24,31,Y,67000,0,11,59,0,Indianapolis,KIND,KIND4373713,74,87,80,88,7,13,67,9.8,5,0.07,0,PC,High Clouds,791,79,83,70,74,73,0,0,100,90,BKN,10,348,69,416,695,764,993,99,0.01,0,30.16,1020.7,18,RAIN,Light Rain
IND2014,30-Nov-14,30-Nov-14,1:00,13,IND,-8,WAS,76,O,49,2014,Week 13,65352,IND,-8,8,SF,49,27,Y,67000,0,6,72,1,Indianapolis,KIND,KIND4197313,57,64,76,92,18,25,94,9,18,0.02,0,MC,Overcast,797,63,60,53,70,57,220,22,100,34,OVC,10,194,39,232,387,426,553,0,0,0,29.85,1010.7,40,MC,Overcast
IND2016,30-Oct-16,30-Oct-16,1:00,13,KC,-3,IND,44,U,50.5,2016,Week 8,65417,IND,3,-3,WAS,14,30,Y,67000,0,8,72,1,Indianapolis,KIND,KIND4267313,61,69,77,84,10,15,65,9.8,190,0,0,MC,Mostly Cloudy,797,65,65,57,76,60,370,5,100,110,BKN,8,130,51,181,508,559,726,0,0,0,30.06,1017.5,40,MC,Overcast
IND2017,31-Dec-17,31-Dec-17,1:00,13,IND,-5.5,HOU,35,U,42,2017,Week 17,60557,IND,-5.5,5.5,ATL,22,13,Y,67000,0,9,30,0,Indianapolis,KIND,KIND4310013,4,11,72,83,8,12,58,8.2,376,0.07,0.5,SNOW,Light Snow,797,11,-1,1,64,9,320,8,20,25,SCT,10,333,37,370,370,407,529,0,0,0,30.49,1034.4,44,PC,Partly Cloudy
ARI2019,1-Dec-19,1-Dec-19,1:00,13,LAR,-8,ARI,41,O,33,2019,Week 13,60944,ARI,8,-8,LAR,7,34,Y,63400,0,13,87,0,Phoenix,KLUF,KLUF4380013,51,66,60,83,4,8,2,10,606,0,0,CLR,Fair,1089,62,62,29,28,47,130,5,0,201,CLR,10,482,48,530,482,530,689,0,0,0,30.1,1019.1,46,CLR,Fair
ARI2017,1-Oct-17,1-Oct-17,4:05,16,ARI,-6.5,SF,33,U,43.5,2017,Week 4,64121,ARI,-6.5,6.5,SF,18,15,N,63400,0,11,39,0,Phoenix,KLUF,KLUF4300916,80,95,23,41,5,10,0,10,710,0,0,CLR,Fair,1086,94,94,33,12,62,250,5,0,201,CLR,10,346,35,381,346,381,494,0,0,0,29.62,1001.9,46,CLR,Fair
ARI2016,2-Oct-16,2-Oct-16,4:25,16,ARI,-9.5,LAR,30,U,43.5,2016,Week 4,64622,ARI,-9.5,9.5,DAL,13,17,N,63400,0,10,72,1,Phoenix,KLUF,KLUF4264516,77,85,54,74,6,12,10,10,568,0.21,0,CLR,Fair,1086,84,86,65,52,71,120,9,20,60,SCT,10,302,34,336,335,369,479,0,0,0,29.84,1009.3,44,PC,Partly Cloudy
ARI2017,3-Dec-17,3-Dec-17,4:25,16,LAR,-7,ARI,48,O,43,2017,Week 13,63986,ARI,7,-7,LAR,16,32,Y,63400,0,11,54,0,Phoenix,KLUF,KLUF4307216,64,79,43,62,4,8,10,10,521,0,0,CLR,Fair,1086,78,78,39,25,58,0,0,28,301,BKN,10,114,13,127,132,145,188,0,0,0,29.84,1009.8,52,PC,High Clouds
ARI2015,3-Jan-15,3-Jan-15,4:25,16,ARI,-6,SEA,42,U,47,2015,Week 17,64646,ARI,-6,6,MIA,6,36,Y,63400,0,9,77,0,Phoenix,KLUF,KLUF4200716,40,53,61,86,2,7,0,10,598,0,0,CLR,Fair,1086,53,53,26,36,42,0,0,0,201,CLR,10,163,16,179,163,179,233,0,0,0,30.2,1023,46,CLR,Fair
ARI2016,4-Dec-16,4-Dec-16,4:25,16,ARI,-2.5,WAS,54,O,48.5,2016,Week 13,64939,ARI,-2.5,2.5,NE,31,23,Y,63400,0,10,72,1,Phoenix,KLUF,KLUF4270816,54,69,35,53,6,10,0,10,602,0,0,CLR,Fair,1086,68,68,18,14,47,220,8,0,201,CLR,10,130,13,143,130,143,186,0,0,0,29.95,1014,46,CLR,Fair
ARI2015,4-Oct-15,4-Oct-15,4:25,16,ARI,-7,LAR,46,O,43.5,2015,Week 4,63146,ARI,-7,7,OAK,22,24,N,63400,0,9,72,1,Phoenix,KLUF,KLUF4228116,82,94,36,51,11,21,11,10,613,0.13,0,CLR,Fair,1086,93,93,48,22,66,200,17,3,201,SCT,10,322,33,355,327,360,467,0,0,0,29.57,999.9,44,PC,Partly Cloudy
ARI2013,6-Oct-13,6-Oct-13,4:05,16,CAR,-3,ARI,28,U,41.5,2013,Week 5,60426,ARI,3,-3,NE,22,6,Y,63400,0,7,72,1,Phoenix,KLUF,KLUF4155316,78,91,12,19,10,23,0,9.7,695,0,0,CLR,Fair,1086,90,90,19,7,57,20,3,0,201,CLR,10,317,32,349,317,349,452,0,0,0,29.98,1014.1,46,CLR,Fair
ARI2014,7-Dec-14,7-Dec-14,4:05,16,KC,-2.5,ARI,31,U,41,2014,Week 14,62387,ARI,2.5,-2.5,SF,17,14,Y,63400,0,8,72,1,Phoenix,KLUF,KLUF4198016,60,75,76,100,4,10,11,9.8,492,0,0,CLR,Fair,1086,75,76,48,39,60,0,0,8,301,SCT,10,125,13,138,130,143,186,0,0,0,30.07,1017.7,54,CLR,Few High Clouds
ARI2013,8-Dec-13,8-Dec-13,4:25,16,ARI,-4.5,LAR,40,U,41,2013,Week 14,60643,ARI,-4.5,4.5,JAX,30,10,Y,63400,0,7,72,1,Phoenix,KLUF,KLUF4161616,50,56,48,70,9,18,36,10,323,0,0,CLR,Fair,1086,55,52,19,24,41,240,13,75,200,BKN,10,97,13,110,132,145,188,0,0,0,30.01,1016.1,50,PC,High Overcast
ARI2019,8-Dec-19,8-Dec-19,1:00,13,PIT,-3.5,ARI,40,O,51,2019,Week 14,63880,ARI,3.5,-3.5,CLE,17,23,Y,63400,0,13,27,0,Phoenix,KLUF,KLUF4380713,58,60,95,100,2,6,67,9.7,280,0.03,0,MC,Overcast,1089,59,59,59,100,59,0,0,10,90,BKN,10,446,47,494,470,517,672,0,0,0,29.99,1015.3,21,RAIN,Light Drizzle
ARI2014,8-Sep-14,8-Sep-14,10:25,22,ARI,-3,LAC,35,U,46,2014,Week 1,61292,ARI,-3,3,KC,18,17,N,63400,0,8,72,1,Phoenix,KLUF,KLUF4189022,80,88,82,100,7,13,66,8.9,252,1.99,0,MC,Mostly Cloudy,1086,80,87,75,86,77,60,6,5,80,BKN,10,0,0,0,0,0,0,0,0,0,29.87,1010.4,45,CLR,Mostly Clear
ARI2019,8-Sep-19,8-Sep-19,4:25,16,DET,-3,ARI,54,O,46,2019,Week 1,60687,ARI,3,-3,DET,27,27,N,63400,0,13,47,0,Phoenix,KLUF,KLUF4371616,92,100,39,57,11,21,1,10,747,0,0,CLR,Fair,1089,100,100,58,25,72,250,13,0,201,CLR,10,473,47,520,473,520,675,0,0,0,29.69,1003.8,46,CLR,Fair
ARI2014,9-Nov-14,9-Nov-14,4:25,16,ARI,-7,LAR,45,O,43.5,2014,Week 10,61363,ARI,-7,7,KC,31,14,Y,63400,0,8,72,1,Phoenix,KLUF,KLUF4195216,68,84,36,53,3,8,0,10,634,0,0,CLR,Fair,1086,84,84,37,19,59,0,0,0,201,CLR,10,170,17,187,170,187,243,0,0,0,29.81,1008.6,46,CLR,Fair
ARI2017,9-Nov-17,9-Nov-17,8:25,20,SEA,-6,ARI,38,U,40.5,2017,Week 10,64639,ARI,6,-6,SEA,16,22,N,63400,0,11,23,0,Phoenix,KLUF,KLUF4304820,70,84,43,60,4,9,9,10.1,618,0,0,CLR,Fair,1086,70,70,47,43,57,0,0,0,201,CLR,11,0,0,0,0,0,0,0,0,0,29.89,1011.5,46,CLR,Fair
ARI2015,10-Dec-15,10-Dec-15,8:25,20,ARI,-10,MIN,43,U,46.5,2015,Week 14,64784,ARI,-10,10,JAX,23,20,N,63400,0,9,72,1,Phoenix,KLUF,KLUF4234820,57,74,48,74,4,6,29,10,534,0,0,CLR,Few High Clouds,1086,58,58,37,46,48,330,3,66,301,OVC,10,0,0,0,0,0,0,0,0,0,29.83,1010,50,PC,High Overcast
ARI2017,10-Dec-17,10-Dec-17,4:05,16,TEN,-3,ARI,19,U,42,2017,Week 14,64153,ARI,3,-3,TEN,12,7,Y,63400,0,11,77,0,Phoenix,KLUF,KLUF4307916,61,79,20,38,7,15,42,10,343,0,0,PC,High Overcast,1086,76,76,8,7,49,70,8,75,301,OVC,10,82,13,95,131,144,187,0,0,0,30.14,1020,50,PC,High Overcast
ARI2013,10-Nov-13,10-Nov-13,4:25,16,ARI,-4,HOU,51,O,42,2013,Week 10,60845,ARI,-4,4,HOU,27,24,N,63400,0,7,72,1,Phoenix,KLUF,KLUF4158816,67,82,36,51,3,8,46,16.2,108,0,0,CLR,Fair,1086,82,82,34,17,57,310,3,90,202,BKN,20,92,17,109,168,185,240,0,0,0,30.02,1014.3,52,PC,High Clouds
ARI2016,11-Sep-16,11-Sep-16,8:30,20,ARI,-8.5,NE,44,P,44,2016,Week 1,64864,ARI,-8.5,8.5,PHI,21,23,N,63400,0,10,72,1,Phoenix,KLUF,KLUF4262420,90,103,26,38,7,13,0,10,750,0,0,CLR,Fair,1086,94,94,49,22,67,230,8,0,201,CLR,10,0,0,0,0,0,0,0,0,0,29.84,1009.1,46,CLR,Fair
ARI2014,12-Oct-14,12-Oct-14,4:25,16,ARI,-5.5,WAS,50,O,46.5,2014,Week 6,61139,ARI,-5.5,5.5,DAL,30,20,Y,63400,0,8,72,1,Phoenix,KLUF,KLUF4192416,78,94,44,74,7,20,0,9.9,687,0,0,CLR,Fair,1086,93,93,44,19,65,210,18,0,201,CLR,10,285,29,314,285,314,408,0,0,0,29.74,1005.9,46,CLR,Fair
ARI2016,13-Nov-16,13-Nov-16,4:25,16,ARI,-14,SF,43,U,47,2016,Week 10,65127,ARI,-14,14,NE,23,20,N,63400,0,10,72,1,Phoenix,KLUF,KLUF4268716,68,84,37,51,5,9,3,9.9,623,0,0,CLR,Fair,1086,84,84,37,19,59,180,5,0,201,CLR,10,158,16,174,158,174,226,0,0,0,30.02,1015.8,46,CLR,Fair
ARI2019,13-Oct-19,13-Oct-19,1:00,13,ATL,-3,ARI,67,O,50,2019,Week 6,60140,ARI,3,-3,ATL,34,33,N,63400,0,13,57,0,Phoenix,KLUF,KLUF4375113,74,90,28,52,5,8,0,13.3,682,0,0,CLR,Fair,1089,87,87,33,15,59,120,3,0,201,CLR,10,694,69,763,694,763,992,0,0,0,29.85,1009.7,46,CLR,Fair
ARI2015,13-Sep-15,13-Sep-15,4:05,16,ARI,-2.5,NO,50,O,48.5,2015,Week 1,62903,ARI,-2.5,2.5,ATL,31,19,Y,63400,0,9,72,1,Phoenix,KLUF,KLUF4226016,91,102,35,78,7,18,59,9.9,419,0.09,0,PC,Partly Cloudy,1086,102,102,55,21,72,310,12,0,201,CLR,10,445,45,490,445,490,636,0,0,0,29.69,1003.8,46,CLR,Fair
ARI2019,15-Dec-19,15-Dec-19,1:00,13,CLE,-3,ARI,62,O,33,2019,Week 15,63345,ARI,3,-3,CLE,38,24,Y,63400,0,13,39,0,Phoenix,KLUF,KLUF4381413,55,68,61,99,7,15,18,14.9,519,0,0,CLR,Fair,1089,64,63,26,24,47,250,12,3,386,CLR,10,457,46,503,464,510,663,0,0,0,29.9,1011.2,47,CLR,Clear
ARI2017,15-Oct-17,15-Oct-17,4:05,16,TB,-2.5,ARI,71,O,47,2017,Week 6,63999,ARI,2.5,-2.5,TB,38,33,Y,63400,0,11,39,0,Phoenix,KLUF,KLUF4302316,78,95,14,33,5,12,0,10,679,0,0,CLR,Fair,1086,94,94,13,5,58,0,0,0,201,CLR,10,271,27,298,271,298,387,0,0,0,30.01,1015.2,46,CLR,Fair
ARI2013,15-Sep-13,15-Sep-13,4:05,16,DET,-2,ARI,46,U,48,2013,Week 2,60034,ARI,2,-2,MIN,25,21,Y,63400,0,7,72,1,Phoenix,KLUF,KLUF4153216,90,102,35,51,5,9,0,10,741,0,0,CLR,Fair,1086,102,102,55,21,72,40,7,0,201,CLR,10,433,43,476,433,476,619,0,0,0,29.69,1002.9,46,CLR,Fair
ARI2014,16-Nov-14,16-Nov-14,4:25,16,DET,-1.5,ARI,20,U,41.5,2014,Week 11,62487,ARI,1.5,-1.5,KC,14,6,Y,63400,0,8,72,1,Phoenix,KLUF,KLUF4195916,62,69,32,81,13,24,2,9.6,618,0,0,CLR,Fair,1086,68,68,-3,6,44,360,17,0,201,CLR,10,154,15,169,154,169,220,0,0,0,30.06,1017.3,46,CLR,Fair
ARI2013,17-Oct-13,17-Oct-13,8:25,20,SEA,-5.5,ARI,56,O,41,2013,Week 7,61200,ARI,5.5,-5.5,OAK,22,34,Y,63400,0,7,72,1,Phoenix,KLUF,KLUF4156420,67,82,28,46,5,12,1,10,669,0,0,CLR,Fair,1086,71,71,31,22,52,210,6,0,201,CLR,10,0,0,0,0,0,0,0,0,0,29.89,1011.5,46,CLR,Fair
ARI2016,17-Oct-16,17-Oct-16,8:30,20,ARI,-7,NYJ,31,U,46,2016,Week 6,64709,ARI,-7,7,HOU,28,3,Y,63400,0,10,72,1,Phoenix,KLUF,KLUF4266020,76,88,34,50,5,10,0,9.9,677,0,0,CLR,Fair,1086,79,79,46,31,60,210,7,0,201,CLR,10,0,0,0,0,0,0,0,0,0,29.79,1007.8,46,CLR,Fair
ARI2016,18-Dec-16,18-Dec-16,4:05,16,ARI,-3,NO,89,O,50,2016,Week 15,65072,ARI,-3,3,IND,41,48,Y,63400,0,10,72,1,Phoenix,KLUF,KLUF4272216,48,62,41,70,3,8,0,7.6,591,0,0,CLR,Fair,1086,62,62,18,18,44,0,0,0,201,CLR,10,136,14,150,136,150,195,0,0,0,30.1,1019.3,46,CLR,Fair
ARI2016,18-Sep-16,18-Sep-16,4:05,16,ARI,-7,TB,47,U,49.5,2016,Week 2,64230,ARI,-7,7,NE,40,7,Y,63400,0,10,72,1,Phoenix,KLUF,KLUF4263116,86,103,16,28,5,9,0,10,736,0,0,CLR,Fair,1086,102,102,24,6,62,370,1,0,201,CLR,10,413,41,454,413,454,589,0,0,0,29.87,1010.1,46,CLR,Fair
ARI2014,21-Dec-14,21-Dec-14,8:30,20,SEA,-9.5,ARI,41,O,36.5,2014,Week 16,63806,ARI,9.5,-9.5,ARI,6,35,Y,63400,0,8,72,1,Phoenix,KLUF,KLUF4199420,52,63,76,100,4,9,35,10,442,0,0,PC,High Clouds,1086,52,49,44,77,48,320,7,61,301,OVC,10,0,0,0,0,0,0,0,0,0,30.05,1017.7,50,PC,High Overcast
ARI2014,21-Sep-14,21-Sep-14,4:05,16,SF,-3,ARI,37,U,41,2014,Week 3,61572,ARI,3,-3,BUF,23,14,Y,63400,0,8,72,1,Phoenix,KLUF,KLUF4190316,87,98,39,60,2,7,8,9.8,624,0,0,CLR,Fair,1086,97,97,54,24,70,0,0,0,201,CLR,10,400,40,440,400,440,572,0,0,0,29.85,1009.3,46,CLR,Fair
ARI2015,22-Nov-15,22-Nov-15,8:30,20,ARI,-4,CIN,65,O,48,2015,Week 11,64745,ARI,-4,4,NYG,34,31,N,63400,0,9,72,1,Phoenix,KLUF,KLUF4233020,63,79,28,49,6,9,0,10,614,0,0,CLR,Fair,1086,60,60,35,39,49,350,6,0,201,CLR,10,0,0,0,0,0,0,0,0,0,29.94,1013.6,46,CLR,Fair
ARI2019,22-Sep-19,22-Sep-19,4:05,16,ARI,-2,CAR,58,O,45,2019,Week 3,60104,ARI,-2,2,CAR,20,38,Y,63400,0,13,71,0,Phoenix,KLUF,KLUF4373016,83,98,19,30,4,10,6,10,726,0,0,CLR,Fair,1089,96,96,44,17,66,0,0,0,201,CLR,10,394,39,433,394,433,563,0,0,0,29.84,1009.2,46,CLR,Fair
ARI2016,23-Oct-16,23-Oct-16,8:30,20,ARI,-2.5,SEA,12,U,43,2016,Week 7,65089,ARI,-2.5,2.5,PHI,6,6,N,63400,0,10,72,1,Phoenix,KLUF,KLUF4266620,79,94,30,47,5,10,13,10,629,0,0,CLR,Fair,1086,82,82,47,30,62,310,6,17,301,SCT,10,0,0,0,0,0,0,0,0,0,29.96,1013.6,54,CLR,Few High Clouds
ARI2017,24-Dec-17,24-Dec-17,4:25,16,ARI,-3,NYG,23,U,39.5,2017,Week 16,63850,ARI,-3,3,NYG,23,0,Y,63400,0,11,67,0,Phoenix,KLUF,KLUF4309316,50,68,36,56,4,7,21,10,529,0,0,CLR,Fair,1086,68,68,20,16,47,190,6,32,301,BKN,10,121,14,135,144,158,206,0,0,0,30.08,1018.5,52,PC,High Clouds
ARI2013,24-Nov-13,24-Nov-13,4:05,16,ARI,-3,IND,51,O,45,2013,Week 12,60882,ARI,-3,3,GB,40,11,Y,63400,0,7,72,1,Phoenix,KLUF,KLUF4160216,54,59,80,98,5,7,70,9.9,145,0.06,0,MC,Overcast,1086,59,59,43,55,51,320,5,70,65,BKN,10,91,14,105,140,154,200,0,0,0,30.11,1019.4,42,MC,Mostly Cloudy
ARI2017,25-Sep-17,25-Sep-17,8:30,20,DAL,-3,ARI,45,U,46.5,2017,Week 3,65102,ARI,3,-3,DAL,17,28,Y,63400,0,11,67,0,Phoenix,KLUF,KLUF4300320,73,88,18,32,2,8,3,10,686,0,0,CLR,Fair,1086,76,76,28,17,53,210,7,2,301,SCT,10,0,0,0,0,0,0,0,0,0,29.71,1005.2,54,CLR,Few High Clouds
ARI2017,26-Nov-17,26-Nov-17,4:25,16,JAX,-6.5,ARI,51,O,38,2017,Week 12,63891,ARI,6.5,-6.5,JAX,27,24,N,63400,0,11,72,0,Phoenix,KLUF,KLUF4306516,65,87,37,57,3,9,0,10,610,0,0,CLR,Fair,1086,86,86,33,15,59,0,0,0,201,CLR,10,137,14,151,137,151,196,0,0,0,29.93,1012.7,46,CLR,Fair
ARI2014,26-Oct-14,26-Oct-14,4:05,16,PHI,-1,ARI,44,U,48,2014,Week 8,61789,ARI,1,-1,BAL,24,20,Y,63400,0,8,72,1,Phoenix,KLUF,KLUF4193816,77,88,47,67,5,13,43,9.9,387,0,0,PC,High Overcast,1086,88,88,52,29,66,220,3,52,301,BKN,10,164,22,186,221,243,316,0,0,0,29.82,1007.3,52,PC,High Clouds
ARI2015,26-Oct-15,26-Oct-15,8:30,20,ARI,-10,BAL,44,U,49.5,2015,Week 7,64722,ARI,-10,10,NO,26,18,N,63400,0,9,72,1,Phoenix,KLUF,KLUF4230320,75,89,45,67,5,8,3,9.8,629,0,0,CLR,Fair,1086,76,78,52,42,62,260,2,0,201,CLR,10,0,0,0,0,0,0,0,0,0,29.86,1010.3,46,CLR,Fair
ARI2015,27-Dec-15,27-Dec-15,4:25,16,ARI,-6,GB,46,U,50.5,2015,Week 16,64878,ARI,-6,6,NE,38,8,Y,63400,0,9,72,1,Phoenix,KLUF,KLUF4236516,47,59,26,48,8,16,2,10,596,0,0,CLR,Fair,1086,58,58,13,16,41,220,6,0,201,CLR,10,149,15,164,149,164,213,0,0,0,30.07,1018.2,46,CLR,Fair
ARI2013,27-Oct-13,27-Oct-13,4:25,16,ARI,-2.5,ATL,40,U,45,2013,Week 8,60671,ARI,-2.5,2.5,DAL,27,13,Y,63400,0,7,72,1,Phoenix,KLUF,KLUF4157416,73,88,29,51,7,12,13,10,611,0,0,CLR,Fair,1086,88,88,33,14,59,240,12,3,301,SCT,10,214,22,236,217,239,310,0,0,0,29.75,1006.4,54,CLR,Few High Clouds
ARI2015,27-Sep-15,27-Sep-15,4:05,16,ARI,-7,SF,54,O,45,2015,Week 3,63663,ARI,-7,7,ARI,47,7,Y,63400,0,9,72,1,Phoenix,KLUF,KLUF4227416,89,102,29,46,4,8,1,10,717,0,0,CLR,Fair,1086,102,102,48,16,69,270,5,0,201,CLR,10,365,37,402,365,402,522,0,0,0,29.74,1005.6,46,CLR,Fair
ARI2013,29-Dec-13,29-Dec-13,4:25,16,ARI,-3,SF,43,O,41,2013,Week 17,63570,ARI,-3,3,ARI,20,23,N,63400,0,7,72,1,Phoenix,KLUF,KLUF4163716,53,69,46,76,5,10,0,9.9,597,0,0,CLR,Fair,1086,69,69,26,20,49,340,6,0,201,SCT,10,153,15,168,153,168,219,0,0,0,30,1015.7,44,PC,Partly Cloudy
ARI2019,29-Sep-19,29-Sep-19,4:05,16,SEA,-5.5,ARI,37,U,49,2019,Week 4,60500,ARI,5.5,-5.5,SEA,10,27,Y,63400,0,13,82,0,Phoenix,KLUF,KLUF4373716,79,88,47,72,9,15,3,10,706,0,0,CLR,Fair,1089,86,86,53,32,66,250,9,0,201,CLR,10,356,36,392,356,392,509,0,0,0,29.69,1004.2,46,CLR,Fair
ARI2019,31-Oct-19,31-Oct-19,1:00,13,SF,-3,ARI,53,O,49.5,2019,Week 9,60986,ARI,3,-3,SF,25,28,N,63400,0,13,59,0,Phoenix,KLUF,KLUF4376913,59,75,11,21,8,15,0,10,642,0,0,CLR,Fair,1089,73,73,-7,4,46,70,8,1,400,CLR,10,595,60,655,598,658,855,0,0,0,30.13,1019.7,46,CLR,Fair
CIN2019,1-Dec-19,1-Dec-19,1:00,13,CIN,-1.5,NYJ,28,O,32,2019,Week 13,39804,CIN,-1.5,1.5,BUF,22,6,Y,65515,0,19,60,0,Cincinnati,KLUK,KLUK4380013,46,60,80,100,11,21,86,9.9,85,0.09,0,MC,Overcast,509,45,38,35,68,41,290,17,100,75,OVC,10,196,39,235,392,431,560,0,0,0,29.49,998.5,40,MC,Overcast
CIN2016,1-Jan-17,1-Jan-17,1:00,13,BAL,-2.5,CIN,37,U,40.5,2016,Week 17,54944,CIN,2.5,-2.5,CLE,27,10,Y,65515,0,16,24,0,Cincinnati,KLUK,KLUK4273613,39,47,91,100,4,8,79,6,75,0,0,MC,Overcast,482,40,35,38,93,39,40,7,100,5,SCT,8,190,38,228,381,419,544,0,0,0,30.17,1021.9,40,MC,Overcast
CIN2014,2-Nov-14,2-Nov-14,1:00,13,CIN,-10,JAX,56,O,43.5,2014,Week 9,60057,CIN,-10,10,LAR,33,23,N,65515,0,14,46,0,Cincinnati,KLUK,KLUK4194513,34,49,71,96,1,6,0,9.9,626,0,0,CLR,Fair,482,44,41,23,43,36,280,5,0,201,CLR,10,504,50,554,504,554,719,0,0,0,30.47,1031.8,46,CLR,Fair
CIN2015,3-Jan-16,3-Jan-16,1:00,13,CIN,-9.5,BAL,40,U,41,2015,Week 17,57254,CIN,-9.5,9.5,WAS,24,16,N,65515,0,15,75,0,Cincinnati,KLUK,KLUK4237213,33,37,74,89,8,13,72,10,161,0,0,MC,Overcast,482,33,27,25,72,30,350,7,100,21,OVC,10,192,38,230,384,422,549,0,0,0,30.09,1019.5,40,MC,Overcast
CIN2016,4-Dec-16,4-Dec-16,1:00,13,CIN,-1.5,PHI,46,O,42,2016,Week 13,55456,CIN,-1.5,1.5,ARI,32,14,Y,65515,0,16,41,0,Cincinnati,KLUK,KLUK4270813,41,46,80,100,5,14,99,8.9,0,0.08,0,MC,Overcast,482,44,41,31,60,39,100,6,100,44,FEW,10,374,38,412,384,422,548,0,0,0,30.04,1017.4,50,PC,High Overcast
CIN2017,4-Dec-17,4-Dec-17,8:30,20,PIT,-4.5,CIN,43,P,43,2017,Week 13,56029,CIN,4.5,-4.5,TEN,20,23,N,65515,0,17,54,0,Cincinnati,KLUK,KLUK4307320,47,65,74,100,6,16,94,7.5,62,0.06,0,MC,Overcast,482,60,58,41,50,51,180,12,100,301,OVC,10,0,0,0,0,0,0,0,0,0,29.94,1014.1,50,PC,High Overcast
CIN2015,4-Oct-15,4-Oct-15,1:00,13,CIN,-3.5,KC,57,O,45,2015,Week 4,57498,CIN,-3.5,3.5,DET,36,21,Y,65515,0,15,73,0,Cincinnati,KLUK,KLUK4228113,63,76,83,100,7,12,35,10,594,0,0,CLR,Fair,482,73,77,60,64,65,60,10,0,201,CLR,10,670,67,737,670,737,957,0,0,0,30.05,1017.5,46,CLR,Fair
CIN2015,5-Nov-15,5-Nov-15,8:25,20,CIN,-13,CLE,41,U,46,2015,Week 9,65816,CIN,-13,13,MIA,31,10,Y,65515,0,15,65,0,Cincinnati,KLUK,KLUK4231320,64,75,84,100,3,12,90,8.8,43,0.01,0,MC,Overcast,482,67,67,58,73,62,190,3,79,201,OVC,10,0,0,0,0,0,0,0,0,0,30.04,1017,40,MC,Overcast
CIN2014,6-Nov-14,6-Nov-14,8:25,20,CIN,-6.5,CLE,27,U,46,2014,Week 10,65871,CIN,-6.5,6.5,LAC,3,24,Y,65515,0,14,43,0,Cincinnati,KLUK,KLUK4194920,48,53,84,97,12,22,91,8.9,0,0.02,0,MC,Overcast,482,44,37,36,73,40,280,14,100,27,OVC,10,0,0,0,0,0,0,0,0,0,30.04,1017.2,40,MC,Overcast
CIN2013,6-Oct-13,6-Oct-13,1:00,13,NE,-1.5,CIN,19,U,45.5,2013,Week 5,64259,CIN,1.5,-1.5,PHI,13,6,Y,65515,0,13,74,0,Cincinnati,KLUK,KLUK4155313,64,74,93,100,7,18,97,7.9,21,1.62,0,RAIN,Light Rain,482,72,72,67,84,69,190,12,70,20,BKN,10,428,66,494,658,724,940,0,0,0,29.78,1008.3,42,MC,Mostly Cloudy
CIN2019,6-Oct-19,6-Oct-19,1:00,13,CIN,-4,ARI,49,O,54,2019,Week 5,46012,CIN,-4,4,CAR,23,26,N,65515,0,19,25,0,Cincinnati,KLUK,KLUK4374413,66,77,84,100,5,13,90,8.6,2,0.48,0,RAIN,Moderate Rain,509,72,72,63,73,66,330,13,100,90,OVC,10,329,66,395,658,724,940,0,0,0,30.11,1019.4,18,RAIN,Light Rain
CIN2014,7-Dec-14,7-Dec-14,1:00,13,CIN,-3,PIT,63,O,47.5,2014,Week 14,65512,CIN,-3,3,DEN,21,42,Y,65515,0,14,42,0,Cincinnati,KLUK,KLUK4198013,35,43,72,85,8,14,51,10,497,0,0,CLR,Fair,482,41,36,28,60,36,40,7,10,301,SCT,10,362,38,400,381,419,544,0,0,0,30.56,1035,46,CLR,Fair
CIN2013,8-Dec-13,8-Dec-13,1:00,13,CIN,-7,IND,70,O,43.5,2013,Week 14,62507,CIN,-7,7,IND,42,28,Y,65515,0,13,28,0,Cincinnati,KLUK,KLUK4161613,26,32,85,100,6,10,98,5.9,0,0.03,0.5,MC,Overcast,482,27,18,22,81,25,40,9,100,15,OVC,10,190,38,228,379,417,542,0,0,0,30.25,1024.8,40,MC,Overcast
CIN2017,8-Oct-17,8-Oct-17,1:00,13,CIN,-3,BUF,36,U,39,2017,Week 5,52367,CIN,-3,3,SEA,20,16,Y,65515,0,17,54,0,Cincinnati,KLUK,KLUK4301613,66,71,98,100,4,9,94,6.6,0,1.52,0,RAIN,Light Rain,482,64,64,64,100,64,110,3,100,39,OVC,6,323,65,388,646,711,923,99,0.08,0,29.89,1011.9,18,RAIN,Light Rain
CIN2017,10-Dec-17,10-Dec-17,1:00,13,CIN,-6,CHI,40,P,40,2017,Week 14,52002,CIN,-6,6,CHI,7,33,Y,65515,0,17,40,0,Cincinnati,KLUK,KLUK4307913,30,38,66,81,9,18,66,10,69,0,0,MC,Overcast,482,34,25,20,56,29,220,13,100,100,OVC,10,188,38,226,376,414,538,0,0,0,30.09,1019.2,40,MC,Overcast
CIN2019,10-Nov-19,10-Nov-19,1:00,13,BAL,-1,CIN,62,O,45,2019,Week 10,45918,CIN,1,-1,BAL,13,49,Y,65515,0,19,28,0,Cincinnati,KLUK,KLUK4377913,49,65,61,93,7,17,16,10,557,0,0,CLR,Fair,509,61,59,40,46,51,180,13,0,345,CLR,10,465,46,511,465,511,664,0,0,0,30,1015.9,46,CLR,Fair
CIN2017,10-Sep-17,10-Sep-17,1:00,13,CIN,-3,BAL,20,U,41,2017,Week 1,55254,CIN,-3,3,LAC,0,20,Y,65515,0,17,81,0,Cincinnati,KLUK,KLUK4298813,59,74,74,100,5,13,18,9.4,758,0,0,CLR,Fair,482,73,76,48,41,59,80,8,0,201,CLR,10,805,80,885,805,885,1150,0,0,0,30.38,1028.8,46,CLR,Fair
CIN2015,11-Oct-15,11-Oct-15,1:00,13,CIN,-3,SEA,51,O,44.5,2015,Week 5,65004,CIN,-3,3,NE,27,24,N,65515,0,15,72,0,Cincinnati,KLUK,KLUK4228813,55,72,81,100,3,12,25,6.6,648,0,0,CLR,Fair,482,69,69,48,47,58,220,7,0,201,CLR,10,628,63,691,628,691,898,0,0,0,29.98,1015.1,46,CLR,Fair
CIN2014,12-Oct-14,12-Oct-14,1:00,13,CIN,-7,CAR,74,O,44,2014,Week 6,57053,CIN,-7,7,DEN,37,37,N,65515,0,14,62,0,Cincinnati,KLUK,KLUK4192413,53,65,86,100,3,8,70,8.1,32,0,0,MC,Overcast,482,62,62,48,60,54,0,0,100,27,OVC,10,311,62,373,622,684,889,0,0,0,30.06,1017.8,40,MC,Overcast
CIN2015,13-Dec-15,13-Dec-15,1:00,13,CIN,-1,PIT,53,O,48.5,2015,Week 14,65564,CIN,-1,1,DET,20,33,Y,65515,0,15,65,0,Cincinnati,KLUK,KLUK4235113,57,64,87,100,2,10,96,8.2,0,0,0,CLR,Fair,482,62,62,55,78,58,170,5,100,143,CLR,10,187,37,224,374,411,534,0,0,0,30,1015.9,46,CLR,Fair
CIN2014,14-Sep-14,14-Sep-14,1:00,13,CIN,-5.5,ATL,34,U,49,2014,Week 2,58574,CIN,-5.5,5.5,PIT,24,10,Y,65515,0,14,68,0,Cincinnati,KLUK,KLUK4189613,56,71,77,100,2,8,20,8.8,651,0,0,CLR,Fair,482,68,68,48,49,57,210,7,5,45,FEW,10,764,78,842,784,862,1120,0,0,0,30.27,1025.2,45,CLR,Mostly Clear
CIN2017,14-Sep-17,14-Sep-17,8:25,20,CIN,-5.5,HOU,22,U,38.5,2017,Week 2,52942,CIN,-5.5,5.5,KC,9,13,N,65515,0,17,75,0,Cincinnati,KLUK,KLUK4299220,65,73,90,100,2,6,96,9.3,51,0,0,MC,Overcast,482,67,67,64,91,65,30,3,100,55,OVC,10,0,0,0,0,0,0,0,0,0,29.99,1015.1,40,MC,Overcast
CIN2019,15-Dec-19,15-Dec-19,1:00,13,NE,-7,CIN,47,O,36,2019,Week 15,57066,CIN,7,-7,MIA,13,34,Y,65515,0,19,34,0,Cincinnati,KLUK,KLUK4381413,35,39,74,100,5,12,89,7.6,165,0.15,1.5,MC,Overcast,509,36,31,25,65,32,160,5,0,57,CLR,10,372,37,409,372,409,531,0,0,0,30.14,1021.3,46,CLR,Fair
CIN2019,15-Sep-19,15-Sep-19,1:00,13,CIN,-1,SF,58,O,46,2019,Week 2,50666,CIN,-1,1,MIA,17,41,Y,65515,0,19,88,0,Cincinnati,KLUK,KLUK4372313,70,87,74,100,2,5,11,8.7,713,0,0,CLR,Fair,509,83,83,57,41,67,250,5,0,174,CLR,10,779,78,857,779,857,1112,0,0,0,30.18,1021.5,46,CLR,Fair
CIN2015,16-Nov-15,16-Nov-15,8:30,20,CIN,-10,HOU,16,U,46.5,2015,Week 10,61381,CIN,-10,10,SEA,6,10,N,65515,0,15,49,0,Cincinnati,KLUK,KLUK4232420,46,58,78,100,2,10,59,8.9,234,0,0,PC,High Overcast,482,49,49,46,90,47,0,0,100,90,OVC,10,0,0,0,0,0,0,0,0,0,30.27,1025.4,18,RAIN,Light Rain
CIN2013,16-Sep-13,16-Sep-13,8:40,20,CIN,-6.5,PIT,30,U,40,2013,Week 2,64585,CIN,-6.5,6.5,CIN,20,10,Y,65515,0,13,62,0,Cincinnati,KLUK,KLUK4153320,63,73,79,97,5,10,66,9.7,176,0.01,0,MC,Overcast,482,61,61,54,78,57,50,3,0,201,CLR,10,0,0,0,0,0,0,0,0,0,30.25,1024.3,46,CLR,Fair
CIN2013,17-Nov-13,17-Nov-13,1:00,13,CIN,-5,CLE,61,O,40,2013,Week 11,63856,CIN,-5,5,CHI,41,20,Y,65515,0,13,64,0,Cincinnati,KLUK,KLUK4159513,60,66,87,100,13,21,80,8.2,0,1.36,0,RAIN,Light Rain,482,61,60,59,93,60,180,9,100,15,OVC,10,218,44,262,436,480,623,0,0,0,29.72,1006.4,40,MC,Overcast
CIN2016,18-Dec-16,18-Dec-16,1:00,13,PIT,-3,CIN,44,U,45,2016,Week 15,62096,CIN,3,-3,DET,20,24,Y,65515,0,16,26,0,Cincinnati,KLUK,KLUK4272213,27,37,82,96,9,15,100,9.6,0,0.28,0,MC,Overcast,482,26,19,19,75,24,280,6,100,20,OVC,10,186,37,222,371,408,529,0,0,0,30.41,1030.3,40,MC,Overcast
CIN2016,20-Nov-16,20-Nov-16,1:00,13,CIN,-2.5,BUF,28,U,48,2016,Week 11,61356,CIN,-2.5,2.5,NE,12,16,Y,65515,0,16,37,0,Cincinnati,KLUK,KLUK4269413,35,41,62,75,10,14,80,10,124,0,0,MC,Overcast,482,39,31,24,55,33,250,13,70,39,BKN,10,274,42,316,421,463,601,0,0,0,30.27,1025.5,42,MC,Mostly Cloudy
CIN2019,20-Oct-19,20-Oct-19,1:00,13,CIN,PK,JAX,44,O,57,2019,Week 7,42784,CIN,PK,PK,JAX,17,27,PK,65515,0,19,61,0,Cincinnati,KLUK,KLUK4375813,61,76,79,96,1,7,45,9.8,441,0,0,CLR,Fair,509,72,72,53,52,61,0,0,0,119,CLR,10,575,58,633,575,633,822,0,0,0,29.89,1012.1,46,CLR,Fair
CIN2015,20-Sep-15,20-Sep-15,1:00,13,CIN,-3.5,LAC,43,U,48,2015,Week 2,57579,CIN,-3.5,3.5,ATL,24,19,Y,65515,0,15,73,0,Cincinnati,KLUK,KLUK4226713,61,74,77,100,4,13,26,10,546,0,0,CLR,Fair,482,72,72,49,44,59,40,12,5,55,FEW,10,732,75,807,751,826,1073,0,0,0,30.13,1020.1,46,CLR,Fair
CIN2014,21-Sep-14,21-Sep-14,1:00,13,CIN,-6.5,TEN,40,U,44.5,2014,Week 3,56743,CIN,-6.5,6.5,LAR,33,7,Y,65515,0,14,79,0,Cincinnati,KLUK,KLUK4190313,71,79,63,87,12,22,25,10,515,0,0,CLR,Fair,482,78,78,45,31,60,280,17,0,201,CLR,10,746,75,821,746,821,1065,0,0,0,29.84,1010.4,46,CLR,Fair
CIN2013,22-Dec-13,22-Dec-13,1:00,13,CIN,-7.5,MIN,56,O,48,2013,Week 16,61555,CIN,-7.5,7.5,NO,42,14,Y,65515,0,13,53,0,Cincinnati,KLUK,KLUK4163013,53,62,86,100,12,18,86,9.6,167,0.36,0,MC,Overcast,482,52,47,45,77,49,230,16,62,26,FEW,10,362,37,399,371,408,530,0,0,0,29.86,1011,42,MC,Mostly Cloudy
CIN2014,22-Dec-14,22-Dec-14,8:30,20,DEN,-3.5,CIN,65,O,47.5,2014,Week 16,66107,CIN,3.5,-3.5,SEA,37,28,Y,65515,0,14,46,0,Cincinnati,KLUK,KLUK4199520,39,52,79,96,3,8,83,8.5,111,0.12,0,MC,Overcast,482,47,45,38,71,43,50,5,65,90,SCT,10,0,0,0,0,0,0,0,0,0,29.8,1009.3,44,PC,Partly Cloudy
CIN2013,22-Sep-13,22-Sep-13,1:00,13,GB,-3,CIN,64,O,50,2013,Week 3,64633,CIN,3,-3,HOU,34,30,Y,65515,0,13,67,0,Cincinnati,KLUK,KLUK4153913,57,69,74,100,3,13,4,9.4,671,0,0,CLR,Fair,482,66,66,46,49,55,330,9,0,201,CLR,10,740,74,814,740,814,1058,0,0,0,30,1015.8,46,CLR,Fair
CIN2016,23-Oct-16,23-Oct-16,1:00,13,CIN,-11.5,CLE,48,O,46.5,2016,Week 7,65047,CIN,-11.5,11.5,NYG,31,17,Y,65515,0,16,66,0,Cincinnati,KLUK,KLUK4266613,58,72,71,100,9,21,17,10,651,0,0,CLR,Fair,482,69,69,50,51,58,210,15,0,201,CLR,10,552,55,607,552,607,789,0,0,0,30.06,1017.8,46,CLR,Fair
CIN2017,24-Dec-17,24-Dec-17,1:00,13,DET,-3,CIN,43,U,43.5,2017,Week 16,47732,CIN,3,-3,BAL,26,17,Y,65515,0,17,77,0,Cincinnati,KLUK,KLUK4309313,33,37,85,100,8,25,80,7.9,124,0.06,1.4,MC,Overcast,482,36,31,28,73,33,130,6,100,27,OVC,10,186,37,223,372,409,531,0,0,0,30.02,1016.8,40,MC,Overcast
CIN2019,24-Nov-19,24-Nov-19,1:00,13,PIT,-3,CIN,26,O,46,2019,Week 12,47423,CIN,3,-3,ARI,10,16,Y,65515,0,19,72,0,Cincinnati,KLUK,KLUK4379313,39,50,82,93,8,15,42,9.2,294,0.02,0,CLR,Fair,509,46,40,35,66,41,210,13,20,27,SCT,10,370,41,411,411,452,587,0,0,0,29.81,1009.6,44,PC,Partly Cloudy
CIN2016,25-Sep-16,25-Sep-16,1:00,13,CIN,-3.5,DEN,46,O,41.5,2016,Week 3,63850,CIN,-3.5,3.5,KC,17,29,Y,65515,0,16,82,0,Cincinnati,KLUK,KLUK4263813,71,86,84,100,1,6,3,8.4,672,0,0,CLR,Fair,482,81,84,67,62,72,230,6,0,201,CLR,10,718,72,790,718,790,1025,0,0,0,30.1,1019.1,46,CLR,Fair
CIN2017,26-Nov-17,26-Nov-17,1:00,13,CIN,-7.5,CLE,46,O,39,2017,Week 12,51710,CIN,-7.5,7.5,CIN,30,16,Y,65515,0,17,56,0,Cincinnati,KLUK,KLUK4306513,37,52,76,96,2,10,4,9.7,584,0,0,CLR,Fair,482,49,46,31,50,41,270,8,0,201,CLR,10,405,41,446,405,446,579,0,0,0,30.23,1023.8,46,CLR,Fair
CIN2014,26-Oct-14,26-Oct-14,1:00,13,BAL,-3,CIN,51,O,44.5,2014,Week 8,55711,CIN,3,-3,DET,27,24,N,65515,0,14,67,0,Cincinnati,KLUK,KLUK4193813,54,68,60,93,2,7,3,9.9,644,0,0,CLR,Fair,482,65,65,31,28,49,240,6,0,201,CLR,10,541,54,595,541,595,773,0,0,0,30,1016,46,CLR,Fair
CIN2013,27-Oct-13,27-Oct-13,4:05,16,CIN,-6,NYJ,58,O,41,2013,Week 8,62576,CIN,-6,6,MIN,49,9,Y,65515,0,13,57,0,Cincinnati,KLUK,KLUK4157416,42,58,79,100,1,5,6,7.7,630,0,0,CLR,Fair,482,57,56,34,42,46,190,5,0,201,CLR,10,188,19,207,188,207,268,0,0,0,30.07,1018.4,46,CLR,Fair
CIN2013,29-Dec-13,29-Dec-13,1:00,13,CIN,-6.5,BAL,51,O,43,2013,Week 17,62406,CIN,-6.5,6.5,SEA,34,17,Y,65515,0,13,59,0,Cincinnati,KLUK,KLUK4163713,49,65,64,100,6,15,100,8.1,0,0.29,0,MC,Overcast,482,58,57,39,50,49,210,6,100,43,OVC,10,188,38,226,376,414,538,0,0,0,29.85,1010.7,40,MC,Overcast
CIN2015,29-Nov-15,29-Nov-15,1:00,13,CIN,-9.5,LAR,38,U,42,2015,Week 12,61022,CIN,-9.5,9.5,ARI,31,7,Y,65515,0,15,45,0,Cincinnati,KLUK,KLUK4233713,42,46,88,100,8,12,77,9.1,245,0.19,0,CLR,Fair,482,45,40,40,83,43,50,9,20,16,SCT,10,357,40,397,397,437,567,0,0,0,30.25,1024.6,44,PC,Partly Cloudy
CIN2017,29-Oct-17,29-Oct-17,1:00,13,CIN,-10.5,IND,47,O,44,2017,Week 8,57901,CIN,-10.5,10.5,IND,24,23,N,65515,0,17,79,0,Cincinnati,KLUK,KLUK4303713,39,41,71,82,7,13,97,10,0,0,0,MC,Overcast,482,40,35,29,65,36,290,8,100,38,OVC,10,262,52,314,525,577,750,0,0,0,29.87,1011.7,40,MC,Overcast
CIN2016,29-Sep-16,29-Sep-16,8:25,20,CIN,-7.5,MIA,29,U,46.5,2016,Week 4,60834,CIN,-7.5,7.5,CIN,22,7,Y,65515,0,16,59,0,Cincinnati,KLUK,KLUK4264220,57,66,93,100,3,9,88,6.8,107,0.07,0,MC,Mostly Cloudy,482,58,58,58,100,58,20,3,95,110,BKN,8,0,0,0,0,0,0,99,0.04,0,30.09,1018.9,18,RAIN,Light Rain
CHI2015,1-Nov-15,1-Nov-15,1:00,13,MIN,-1.5,CHI,43,U,44,2015,Week 8,62311,CHI,1.5,-1.5,ATL,20,23,Y,61500,0,44,61,0,Chicago,KMDW,KMDW4230913,55,65,64,86,11,16,5,9.8,584,0,0,CLR,Mostly Clear,620,63,62,40,43,51,230,13,5,250,FEW,10,411,42,453,417,459,596,0,0,0,29.93,1013.3,45,CLR,Mostly Clear
CHI2016,2-Oct-16,2-Oct-16,1:00,13,DET,-3.5,CHI,31,U,48,2016,Week 4,60841,CHI,3.5,-3.5,NE,17,14,N,61500,0,45,64,0,Chicago,KMDW,KMDW4264513,62,67,81,96,7,10,99,9.1,18,0,0,MC,Overcast,620,67,67,55,66,60,330,9,100,50,BKN,10,295,59,354,590,649,843,0,0,0,30.05,1017.2,42,MC,Mostly Cloudy
CHI2017,3-Dec-17,3-Dec-17,1:00,13,CHI,-2.5,SF,29,U,42,2017,Week 13,61302,CHI,-2.5,2.5,SF,14,15,N,61500,0,46,76,0,Chicago,KMDW,KMDW4307213,47,58,60,89,6,16,49,10,317,0,0,PC,High Clouds,620,56,54,32,40,45,170,9,70,250,BKN,10,239,30,269,303,333,433,0,0,0,30.14,1021,52,PC,High Clouds
CHI2015,3-Jan-16,3-Jan-16,1:00,13,DET,-2.5,CHI,44,U,45,2015,Week 17,61177,CHI,2.5,-2.5,SF,20,24,Y,61500,0,44,44,0,Chicago,KMDW,KMDW4237213,28,31,65,72,12,20,75,10,0,0,0,MC,Overcast,620,31,18,19,61,27,330,20,100,27,OVC,10,154,31,185,308,339,440,0,0,0,30.16,1022.7,40,MC,Overcast
CHI2014,4-Dec-14,4-Dec-14,8:25,20,DAL,-3.5,CHI,69,O,50,2014,Week 14,61558,CHI,3.5,-3.5,DEN,28,41,Y,61500,0,43,34,0,Chicago,KMDW,KMDW4197720,33,37,58,64,8,12,91,9.9,126,0,0,MC,Overcast,620,36,29,23,59,31,150,9,100,42,OVC,10,0,0,0,0,0,0,0,0,0,30.29,1026.9,40,MC,Overcast
CHI2016,4-Dec-16,4-Dec-16,1:00,13,SF,-1,CHI,32,U,44,2016,Week 13,59782,CHI,1,-1,HOU,26,6,Y,61500,0,45,35,0,Chicago,KMDW,KMDW4270813,33,35,80,92,5,12,99,5.7,0,0.45,5.5,MC,Overcast,620,33,27,29,85,31,120,7,100,8,VV,0.8,150,30,180,299,329,427,99,0.06,0.8,29.99,1016.6,9,SNOW,Light Snow
CHI2015,4-Oct-15,4-Oct-15,1:00,13,OAK,-3,CHI,42,U,44.5,2015,Week 4,62409,CHI,3,-3,LAC,22,20,N,61500,0,44,56,0,Chicago,KMDW,KMDW4228113,56,60,78,83,13,18,99,9.9,18,0,0,MC,Overcast,620,58,55,50,75,54,30,14,100,13,OVC,10,292,58,350,584,642,834,0,0,0,30.17,1021.8,40,MC,Overcast
CHI2019,5-Dec-19,5-Dec-19,1:00,13,CHI,-4,DAL,55,O,42,2019,Week 14,61276,CHI,-4,4,DAL,31,24,Y,61500,0,48,60,0,Chicago,KMDW,KMDW4380413,39,46,72,92,6,12,51,10,210,0,0,MC,Mostly Cloudy,617,44,40,28,53,38,200,8,95,250,BKN,10,210,30,240,299,329,428,0,0,0,29.99,1016.3,52,PC,High Clouds
CHI2019,5-Sep-19,5-Sep-19,8:20,20,CHI,-3,GB,13,U,46.5,2019,Week 1,62435,CHI,-3,3,GB,3,10,Y,61500,0,48,45,0,Chicago,KMDW,KMDW4371320,65,74,64,78,5,10,27,10,567,0,0,CLR,Mostly Clear,617,65,65,54,68,59,150,8,20,95,SCT,10,0,0,0,0,0,0,0,0,0,30.04,1016.9,44,PC,Partly Cloudy
CHI2015,6-Dec-15,6-Dec-15,1:00,13,CHI,-6.5,SF,46,O,43,2015,Week 13,62088,CHI,-6.5,6.5,DAL,20,26,N,61500,0,44,46,0,Chicago,KMDW,KMDW4234413,40,48,74,89,5,9,57,9.6,323,0,0,CLR,Mostly Clear,620,48,44,33,56,42,250,8,25,250,SCT,10,275,30,305,298,328,426,0,0,0,30.24,1024.7,54,CLR,Few High Clouds
CHI2013,6-Oct-13,6-Oct-13,1:00,13,NO,-1,CHI,44,U,50.5,2013,Week 5,62361,CHI,1,-1,DAL,18,26,Y,61500,0,42,61,0,Chicago,KMDW,KMDW4155313,55,62,68,90,11,16,77,9.6,162,0.06,0,MC,Mostly Cloudy,620,61,59,43,52,52,240,14,100,250,BKN,10,251,57,308,571,628,815,0,0,0,29.7,1005.4,42,MC,Mostly Cloudy
CHI2014,7-Sep-14,7-Sep-14,1:00,13,CHI,-7,BUF,43,U,47.5,2014,Week 1,62425,CHI,-7,7,PIT,20,23,N,61500,0,43,77,0,Chicago,KMDW,KMDW4188913,70,79,57,81,5,12,4,10,706,0,0,CLR,Fair,620,77,78,50,39,62,120,8,20,65,SCT,10,671,75,746,746,821,1066,0,0,0,30.18,1021.3,44,PC,Partly Cloudy
CHI2013,8-Sep-13,8-Sep-13,1:00,13,CHI,-3,CIN,45,O,41.5,2013,Week 1,62213,CHI,-3,3,CAR,24,21,N,61500,0,42,77,0,Chicago,KMDW,KMDW4152513,74,78,73,82,12,15,71,9.7,113,0,0,MC,Overcast,620,77,80,66,69,70,40,15,100,150,BKN,10,300,74,374,741,815,1059,0,0,0,30.01,1015.3,42,MC,Mostly Cloudy
CHI2013,9-Dec-13,9-Dec-13,8:40,20,CHI,-1.5,DAL,73,O,49,2013,Week 14,62229,CHI,-1.5,1.5,NO,45,28,Y,61500,0,42,8,0,Chicago,KMDW,KMDW4161720,17,26,73,86,14,21,84,7.8,80,0,0,SNOW,Light Snow,620,8,-8,-2,63,6,260,14,100,250,OVC,10,0,0,0,0,0,0,0,0,0,30.23,1025.9,50,PC,High Overcast
CHI2017,9-Oct-17,9-Oct-17,8:30,20,MIN,-3.5,CHI,37,U,41,2017,Week 5,61834,CHI,3.5,-3.5,MIN,17,20,N,61500,0,46,35,0,Chicago,KMDW,KMDW4301720,67,82,65,87,5,14,16,10,545,0,0,CLR,Mostly Clear,620,66,65,62,87,64,30,14,20,9,SCT,10,0,0,0,0,0,0,0,0,0,30.01,1015.8,44,PC,Partly Cloudy
CHI2013,10-Nov-13,10-Nov-13,1:00,13,DET,-1,CHI,40,U,52.5,2013,Week 10,62431,CHI,1,-1,PHI,19,21,Y,61500,0,42,47,0,Chicago,KMDW,KMDW4158813,42,49,58,72,9,20,28,10,574,0,0,CLR,Fair,620,47,45,28,48,39,290,5,5,35,FEW,10,365,37,402,374,411,535,0,0,0,30.31,1026.8,46,CLR,Fair
CHI2019,10-Nov-19,10-Nov-19,1:00,13,CHI,-8,DET,33,O,34,2019,Week 10,61758,CHI,-8,8,NYJ,20,13,N,61500,0,48,79,0,Chicago,KMDW,KMDW4377913,41,44,71,89,9,14,100,9.8,0,0.01,0.2,MC,Overcast,617,42,35,35,76,39,30,12,100,15,OVC,10,187,37,224,374,411,535,0,0,0,30,1016.7,40,MC,Overcast
CHI2013,10-Oct-13,10-Oct-13,8:25,20,CHI,-9,NYG,48,O,47.5,2013,Week 6,62374,CHI,-9,9,ATL,27,21,N,61500,0,42,63,0,Chicago,KMDW,KMDW4155720,63,75,63,87,4,9,21,10,381,0,0,CLR,Fair,620,64,64,52,65,57,100,8,5,300,FEW,10,0,0,0,0,0,0,0,0,0,30.07,1018.1,45,CLR,Mostly Clear
CHI2017,10-Sep-17,10-Sep-17,1:00,13,ATL,-7,CHI,40,U,48,2017,Week 1,61857,CHI,7,-7,ATL,17,23,N,61500,0,46,75,0,Chicago,KMDW,KMDW4298813,63,70,58,70,8,13,1,10,753,0,0,CLR,Fair,620,69,69,48,47,58,110,10,0,201,CLR,10,730,73,803,730,803,1043,0,0,0,30.4,1029.1,46,CLR,Fair
CHI2017,12-Nov-17,12-Nov-17,1:00,13,CHI,-5,GB,39,O,37.5,2017,Week 10,61285,CHI,-5,5,MIN,16,23,Y,61500,0,46,88,0,Chicago,KMDW,KMDW4305113,39,41,83,97,5,8,100,8,0,0.1,0,MC,Overcast,620,40,36,37,89,39,30,5,100,24,OVC,6,183,37,220,366,403,522,99,0.02,0,30.3,1026.9,18,RAIN,Light Rain
CHI2015,13-Dec-15,13-Dec-15,1:00,13,CHI,-4,WAS,45,O,43.5,2015,Week 14,61026,CHI,-4,4,NYJ,21,24,N,61500,0,44,58,0,Chicago,KMDW,KMDW4235113,62,64,84,90,13,18,100,7.7,0,0.78,0,RAIN,Light Rain,620,63,62,55,76,58,180,12,100,90,OVC,10,146,29,175,292,321,417,0,0,0,29.75,1007.2,40,MC,Overcast
CHI2015,13-Sep-15,13-Sep-15,1:00,13,GB,-6.5,CHI,54,O,48.5,2015,Week 1,62442,CHI,6.5,-6.5,OAK,23,31,Y,61500,0,44,68,0,Chicago,KMDW,KMDW4226013,62,71,55,77,8,14,16,10,603,0,0,CLR,Fair,620,70,70,43,38,56,250,10,20,60,SCT,10,642,71,713,713,784,1018,0,0,0,30.02,1016.4,44,PC,Partly Cloudy
CHI2014,15-Dec-14,15-Dec-14,8:30,20,NO,-3.5,CHI,46,U,53.5,2014,Week 15,60996,CHI,3.5,-3.5,CAR,15,31,Y,61500,0,43,42,0,Chicago,KMDW,KMDW4198820,46,48,91,97,11,16,100,2.6,0,0.12,0,MC,Overcast,620,44,40,41,89,43,150,8,100,6,OVC,2,0,0,0,0,0,0,0,0,0,29.73,1007.1,21,RAIN,Light Drizzle
CHI2013,15-Sep-13,15-Sep-13,1:00,13,CHI,-6,MIN,61,O,41,2013,Week 2,62181,CHI,-6,6,TB,31,30,N,61500,0,42,62,0,Chicago,KMDW,KMDW4153213,60,62,71,90,5,9,100,8.7,0,0.24,0,RAIN,Light Rain,620,62,62,53,73,57,0,0,100,50,OVC,10,350,70,420,701,771,1001,99,0.01,0,30,1015.8,18,RAIN,Light Rain
CHI2014,16-Nov-14,16-Nov-14,1:00,13,CHI,-2.5,MIN,34,U,46.5,2014,Week 11,61792,CHI,-2.5,2.5,TB,21,13,Y,61500,0,43,32,0,Chicago,KMDW,KMDW4195913,30,33,72,82,9,16,93,8.4,0,0,0,SNOW,Light Snow,620,32,23,27,82,30,210,12,100,21,OVC,3,174,35,210,349,384,499,0,0,0,30,1017.2,9,SNOW,Light Snow
CHI2016,16-Oct-16,16-Oct-16,1:00,13,CHI,-2.5,JAX,33,U,46,2016,Week 6,61054,CHI,-2.5,2.5,PIT,16,17,N,61500,0,45,67,0,Chicago,KMDW,KMDW4265913,69,72,83,93,8,12,95,8.2,0,0.43,0,MC,Overcast,620,71,71,65,81,67,240,8,100,20,OVC,8,251,50,301,502,552,718,0,0,0,29.89,1011.3,40,MC,Overcast
CHI2013,17-Nov-13,17-Nov-13,1:00,13,CHI,-3,BAL,43,O,40,2013,Week 11,62367,CHI,-3,3,ARI,23,20,N,61500,0,42,68,0,Chicago,KMDW,KMDW4159513,57,69,82,93,21,37,91,9.2,0,0.77,0,MC,Overcast,620,56,51,53,90,54,210,26,100,60,OVC,0.8,173,35,208,346,381,494,99,0.49,0,29.26,990.7,14,SHWR,Heavy Thundershower
CHI2016,18-Dec-16,18-Dec-16,1:00,13,GB,-4.5,CHI,57,O,39.5,2016,Week 15,61137,CHI,4.5,-4.5,DEN,27,30,N,61500,0,45,9,0,Chicago,KMDW,KMDW4272213,8,20,63,77,12,22,62,8.4,456,0,0,SNOW,Light Snow,620,10,-3,-2,58,8,290,9,5,20,FEW,10,284,29,313,291,320,415,0,0,0,30.48,1034.2,46,CLR,Fair
CHI2017,19-Nov-17,19-Nov-17,1:00,13,DET,-3,CHI,51,O,40.5,2017,Week 11,60635,CHI,3,-3,DET,24,27,N,61500,0,46,60,0,Chicago,KMDW,KMDW4305813,33,38,62,73,12,17,45,10,373,0,0,MC,Overcast,620,35,26,20,54,30,280,15,25,250,SCT,10,310,34,344,339,373,485,0,0,0,30.04,1018.2,54,CLR,Few High Clouds
CHI2014,19-Oct-14,19-Oct-14,1:00,13,CHI,-3,MIA,41,U,48,2014,Week 7,62413,CHI,-3,3,HOU,14,27,Y,61500,0,43,55,0,Chicago,KMDW,KMDW4193113,48,57,73,89,9,16,72,10,133,0,0,PC,High Clouds,620,55,51,41,59,48,220,14,75,250,BKN,10,375,49,424,490,539,700,0,0,0,30.11,1019.8,52,PC,High Clouds
CHI2016,19-Sep-16,19-Sep-16,8:35,20,CHI,-3,PHI,43,P,43,2016,Week 2,62268,CHI,-3,3,TEN,14,29,Y,61500,0,45,80,0,Chicago,KMDW,KMDW4263220,77,89,48,76,9,17,32,10,597,0,0,CLR,Fair,620,81,81,51,35,64,200,8,100,150,SCT,10,0,0,0,0,0,0,0,0,0,30.03,1016,44,PC,Partly Cloudy
CHI2019,20-Oct-19,20-Oct-19,1:00,13,CHI,-1,NO,61,O,39,2019,Week 7,62306,CHI,-1,1,DEN,25,36,Y,61500,0,48,88,0,Chicago,KMDW,KMDW4375813,54,60,83,100,7,12,72,7.7,343,0,0,MC,Overcast,617,58,56,49,72,53,80,9,10,250,FEW,10,465,48,513,484,532,692,0,0,0,29.92,1013,45,CLR,Mostly Clear
CHI2015,20-Sep-15,20-Sep-15,1:00,13,ARI,-2,CHI,71,O,46,2015,Week 2,62351,CHI,2,-2,BUF,23,48,Y,61500,0,44,69,0,Chicago,KMDW,KMDW4226713,63,72,64,84,5,9,27,10,416,0,0,CLR,Mostly Clear,620,70,70,47,44,57,110,8,25,250,SCT,10,614,67,681,671,738,959,0,0,0,30.16,1021.1,54,CLR,Few High Clouds
CHI2014,21-Dec-14,21-Dec-14,1:00,13,DET,-10,CHI,34,U,44.5,2014,Week 16,61420,CHI,10,-10,DAL,14,20,N,61500,0,43,36,0,Chicago,KMDW,KMDW4199413,35,38,74,79,10,14,98,9.9,0,0,0,MC,Overcast,620,37,29,28,70,34,170,13,100,27,OVC,10,146,29,175,292,321,417,0,0,0,30.13,1021.3,40,MC,Overcast
CHI2019,22-Dec-19,22-Dec-19,1:00,13,CHI,-1,KC,29,U,51,2019,Week 16,62213,CHI,-1,1,KC,3,26,Y,61500,0,48,70,0,Chicago,KMDW,KMDW4382113,41,53,66,81,10,16,16,10,414,0,0,CLR,Mostly Clear,617,52,47,34,50,44,220,13,5,250,FEW,10,288,29,317,292,321,418,0,0,0,30.19,1022.9,45,CLR,Mostly Clear
CHI2015,22-Nov-15,22-Nov-15,1:00,13,DEN,-2,CHI,32,U,41.5,2015,Week 11,62483,CHI,2,-2,HOU,15,17,N,61500,0,44,29,0,Chicago,KMDW,KMDW4233013,22,29,70,84,8,13,44,10,381,0,0,CLR,Mostly Clear,620,26,16,16,66,23,180,10,25,95,SCT,10,288,33,321,329,362,470,0,0,0,30.18,1023.5,44,PC,Partly Cloudy
CHI2017,22-Oct-17,22-Oct-17,1:00,13,CAR,-3,CHI,20,U,39.5,2017,Week 7,61256,CHI,3,-3,HOU,17,3,Y,61500,0,46,61,0,Chicago,KMDW,KMDW4303013,62,72,80,100,14,21,99,7.8,0,0.56,0,RAIN,Light Rain,620,72,72,61,69,65,190,16,100,27,OVC,10,236,47,283,472,519,675,0,0,0,29.91,1012,40,MC,Overcast
CHI2014,23-Nov-14,23-Nov-14,1:00,13,CHI,-4.5,TB,34,U,46.5,2014,Week 12,61109,CHI,-4.5,4.5,KC,21,13,Y,61500,0,43,53,0,Chicago,KMDW,KMDW4196613,52,54,85,97,10,13,100,8.4,0,0.62,0,RAIN,Light Rain,620,53,49,49,86,51,170,12,100,16,OVC,10,163,33,196,326,359,466,99,0.01,0,29.58,1001.7,18,RAIN,Light Rain
CHI2016,24-Dec-16,24-Dec-16,1:00,13,WAS,-3,CHI,62,O,49,2016,Week 16,57953,CHI,3,-3,KC,21,41,Y,61500,0,45,35,0,Chicago,KMDW,KMDW4272813,36,37,84,100,5,10,100,6.1,0,0,0,MC,Overcast,620,37,37,30,76,34,0,0,100,12,OVC,9,147,29,176,294,323,421,0,0,0,30.24,1025,40,MC,Overcast
CHI2017,24-Dec-17,24-Dec-17,1:00,13,CHI,-5.5,CLE,23,U,36.5,2017,Week 16,58796,CHI,-5.5,5.5,DET,20,3,Y,61500,0,46,62,0,Chicago,KMDW,KMDW4309313,22,25,75,89,10,16,95,5.9,0,0.08,2.7,SNOW,Light Snow,620,23,13,20,88,22,310,9,100,13,OVC,1,147,29,176,294,323,420,99,0.01,0.3,30.05,1019.1,9,SNOW,Light Snow
CHI2019,24-Nov-19,24-Nov-19,1:00,13,CHI,-10,NYG,33,O,56,2019,Week 12,61581,CHI,-10,10,NYG,19,14,N,61500,0,48,88,0,Chicago,KMDW,KMDW4379313,43,50,71,89,10,14,66,10,247,0,0,MC,Mostly Cloudy,617,49,45,35,59,43,220,10,100,250,BKN,10,171,32,203,324,356,463,0,0,0,29.62,1003.8,42,MC,Mostly Cloudy
CHI2017,24-Sep-17,24-Sep-17,1:00,13,PIT,-7,CHI,40,U,43.5,2017,Week 3,61172,CHI,7,-7,PIT,23,17,N,61500,0,46,34,0,Chicago,KMDW,KMDW4300213,82,92,54,74,6,13,4,10,673,0,0,CLR,Fair,620,91,92,60,35,71,170,7,20,70,SCT,10,581,65,646,646,711,923,0,0,0,30.04,1015.8,44,PC,Partly Cloudy
CHI2016,27-Nov-16,27-Nov-16,1:00,13,TEN,-6.5,CHI,48,O,42,2016,Week 12,59494,CHI,6.5,-6.5,DAL,21,27,N,61500,0,45,38,0,Chicago,KMDW,KMDW4270113,40,46,81,89,10,17,76,6.5,4,0.05,0,MC,Overcast,620,40,35,36,86,38,180,8,100,5,OVC,4,156,31,187,312,343,446,0,0,0,29.99,1016.2,40,MC,Overcast
CHI2019,27-Oct-19,27-Oct-19,1:00,13,CHI,-3,LAC,33,O,56,2019,Week 8,61632,CHI,-3,3,SF,16,17,N,61500,0,48,50,0,Chicago,KMDW,KMDW4376513,51,59,74,93,10,18,27,9.7,589,0.03,0,CLR,Fair,617,56,53,36,47,47,230,10,0,291,CLR,10,444,44,488,444,488,634,0,0,0,29.91,1013,46,CLR,Fair
CHI2014,28-Sep-14,28-Sep-14,1:00,13,GB,-2,CHI,55,O,51,2014,Week 4,61736,CHI,2,-2,KC,17,38,Y,61500,0,43,78,0,Chicago,KMDW,KMDW4191013,69,79,70,93,3,9,35,9.3,421,0,0,PC,High Clouds,620,78,79,55,45,64,90,7,75,250,BKN,10,475,62,537,621,683,887,0,0,0,30.12,1019.1,52,PC,High Clouds
CHI2013,29-Dec-13,29-Dec-13,4:25,16,GB,-3,CHI,61,O,51.5,2013,Week 17,62708,CHI,3,-3,CLE,28,33,Y,61500,0,42,26,0,Chicago,KMDW,KMDW4163716,28,39,77,93,13,23,98,8.6,0,0,0,MC,Overcast,620,25,12,20,81,23,320,17,100,12,OVC,7,4,1,6,9,10,13,0,0,0,30,1017.1,40,MC,Overcast
CHI2019,29-Sep-19,29-Sep-19,4:25,16,CHI, PK,MIN,22,U,38.5,2019,Week 4,62131,CHI, PK,PK,HOU,16,6,PK,61500,0,48,34,0,Chicago,KMDW,KMDW4373716,65,69,92,100,9,15,94,7.6,0,0.8,0,RAIN,Light Rain,617,69,69,65,87,67,60,6,100,130,OVC,9,53,18,71,177,195,253,0,0,0,30.11,1019.2,40,MC,Overcast
CHI2016,31-Oct-16,31-Oct-16,8:30,20,MIN,-5.5,CHI,30,U,39.5,2016,Week 8,60422,CHI,5.5,-5.5,MIN,20,10,Y,61500,0,45,57,0,Chicago,KMDW,KMDW4267420,53,62,71,83,9,16,94,10,25,0,0,PC,High Overcast,620,59,56,49,69,54,160,14,90,250,BKN,10,0,0,0,0,0,0,0,0,0,29.89,1012.4,52,PC,High Clouds
KCC2013,1-Dec-13,1-Dec-13,4:25,16,DEN,-5.5,KC,63,O,50,2013,Week 13,77065,KC,5.5,-5.5,HOU,28,35,Y,76416,0,41,55,0,Kansas City,KMKC,KMKC4160916,41,57,72,96,1,6,13,5.6,572,0,0,CLR,Fair,758,56,56,34,44,46,0,0,0,201,CLR,8,55,6,61,55,61,79,0,0,0,29.98,1015.1,46,CLR,Fair
KCC2019,1-Dec-19,1-Dec-19,1:00,13,KC,-13,OAK,49,O,42,2019,Week 13,73548,KC,-13,13,BAL,40,9,Y,76416,0,47,88,0,Kansas City,KMKC,KMKC4380013,35,38,64,76,19,30,98,9.9,0,0,0,MC,Overcast,745,35,25,22,59,30,310,16,100,31,OVC,10,190,38,228,379,417,541,0,0,0,29.86,1011.5,40,MC,Overcast
KCC2014,2-Nov-14,2-Nov-14,1:00,13,KC,-8.5,NYJ,34,U,41.5,2014,Week 9,74127,KC,-8.5,8.5,CAR,24,10,Y,76416,0,42,64,0,Kansas City,KMKC,KMKC4194513,56,66,37,44,17,23,45,10,463,0,0,CLR,Fair,758,64,62,34,33,50,190,23,0,201,CLR,10,488,49,537,488,537,697,0,0,0,30.07,1018.3,46,CLR,Fair
KCC2017,2-Oct-17,2-Oct-17,8:30,20,KC,-7,WAS,49,O,48,2017,Week 4,74587,KC,-7,7,WAS,29,20,Y,76416,0,45,59,0,Kansas City,KMKC,KMKC4301020,78,87,64,84,14,18,28,10,607,0,0,CLR,Fair,758,80,83,66,62,71,150,13,0,201,CLR,10,0,0,0,0,0,0,0,0,0,29.91,1012.9,46,CLR,Fair
KCC2015,3-Jan-16,3-Jan-16,4:25,16,KC,-6.5,OAK,40,U,43.5,2015,Week 17,76114,KC,-6.5,6.5,BUF,23,17,N,76416,0,43,31,0,Kansas City,KMKC,KMKC4237216,30,38,68,85,7,13,19,10,542,0,0,CLR,Fair,758,36,30,22,57,31,350,8,5,161,CLR,10,78,8,86,80,88,114,0,0,0,30.35,1027.6,46,CLR,Fair
KCC2019,3-Nov-19,3-Nov-19,1:00,13,KC,PK,MIN,49,O,54,2019,Week 9,73615,KC,PK,PK,MIN,26,23,PK,76416,0,47,88,0,Kansas City,KMKC,KMKC4377213,51,63,45,57,11,16,3,10,626,0,0,CLR,Fair,745,59,56,30,33,46,210,16,0,201,CLR,10,483,48,531,483,531,690,0,0,0,29.98,1015.3,46,CLR,Fair
KCC2016,6-Nov-16,6-Nov-16,1:00,13,KC,-7,JAX,33,U,43,2016,Week 9,73294,KC,-7,7,PHI,19,14,N,76416,0,44,60,0,Kansas City,KMKC,KMKC4268013,56,67,59,80,5,9,49,10,535,0,0,CLR,Fair,758,65,65,40,40,52,370,7,0,201,CLR,10,463,46,509,463,509,661,0,0,0,30.21,1022.9,46,CLR,Fair
KCC2019,6-Oct-19,6-Oct-19,1:00,13,KC,-4.5,IND,32,U,56,2019,Week 5,73352,KC,-4.5,4.5,JAX,13,19,Y,76416,0,47,53,0,Kansas City,KMKC,KMKC4374413,55,64,82,97,1,6,28,9.9,293,0,0,CLR,Fair,745,60,60,50,70,55,0,0,100,100,OVC,10,96,64,160,643,707,918,0,0,0,30.2,1022.5,40,MC,Overcast
KCC2014,7-Sep-14,7-Sep-14,1:00,13,KC,-3,TEN,36,U,45,2014,Week 1,73569,KC,-3,3,LAC,10,26,Y,76416,0,42,77,0,Kansas City,KMKC,KMKC4188913,68,79,63,90,5,9,0,10,766,0,0,CLR,Fair,758,77,78,54,45,63,80,6,0,201,CLR,10,807,81,888,807,888,1153,0,0,0,30.14,1020.7,46,CLR,Fair
KCC2016,8-Dec-16,8-Dec-16,8:25,20,KC,-3.5,OAK,34,U,46,2016,Week 14,75191,KC,-3.5,3.5,CLE,21,13,Y,76416,0,44,23,0,Kansas City,KMKC,KMKC4271220,21,27,59,68,8,14,0,10,571,0,0,CLR,Fair,758,22,22,10,60,19,270,3,0,201,CLR,10,0,0,0,0,0,0,0,0,0,30.7,1039.5,46,CLR,Fair
KCC2017,10-Dec-17,10-Dec-17,1:00,13,KC,-4.5,OAK,41,U,48.5,2017,Week 14,74461,KC,-4.5,4.5,OAK,26,15,Y,76416,0,45,63,0,Kansas City,KMKC,KMKC4307913,42,58,51,70,6,14,0,10,569,0,0,CLR,Fair,758,55,53,26,33,43,300,9,0,201,CLR,10,364,36,400,364,400,521,0,0,0,30.11,1019.8,46,CLR,Fair
KCC2015,11-Oct-15,11-Oct-15,1:00,13,KC,-9.5,CHI,35,U,44.5,2015,Week 5,75799,KC,-9.5,9.5,NYG,17,18,N,76416,0,43,80,0,Kansas City,KMKC,KMKC4228813,73,86,56,67,11,16,1,10,676,0,0,CLR,Fair,758,81,82,58,46,67,200,12,0,201,CLR,10,613,61,674,613,674,875,0,0,0,29.7,1005.9,46,CLR,Fair
KCC2016,11-Sep-16,11-Sep-16,1:00,13,KC,-6.5,LAC,60,O,46,2016,Week 1,73238,KC,-6.5,6.5,PIT,33,27,N,76416,0,44,73,0,Kansas City,KMKC,KMKC4262413,69,79,61,90,7,15,0,10,755,0,0,CLR,Fair,758,77,78,53,44,63,180,10,0,201,CLR,10,782,78,860,782,860,1117,0,0,0,30.11,1019.8,46,CLR,Fair
KCC2015,13-Dec-15,13-Dec-15,1:00,13,KC,-12,LAC,13,U,41.5,2015,Week 14,72314,KC,-12,12,HOU,10,3,N,76416,0,43,60,0,Kansas City,KMKC,KMKC4235113,60,65,90,97,9,17,100,8.1,0,1.19,0,RAIN,Light Rain,758,61,60,60,97,60,80,7,100,14,OVC,7,181,36,217,362,398,517,99,0.07,0,29.39,995.2,18,RAIN,Light Rain
KCC2013,13-Oct-13,13-Oct-13,1:00,13,KC,-8,OAK,31,U,41,2013,Week 6,76394,KC,-8,8,KC,24,7,Y,76416,0,41,70,0,Kansas City,KMKC,KMKC4156013,57,71,56,90,5,14,3,10,673,0,0,CLR,Fair,758,70,70,35,28,53,80,13,0,201,CLR,10,600,60,660,600,660,858,0,0,0,30.35,1027.9,46,CLR,Fair
KCC2019,13-Oct-19,13-Oct-19,1:00,13,KC,-7,HOU,55,O,60,2019,Week 6,73323,KC,-7,7,HOU,24,31,N,76416,0,47,50,0,Kansas City,KMKC,KMKC4375113,51,64,58,89,3,7,0,10,675,0,0,CLR,Fair,745,61,61,28,29,46,220,6,0,201,CLR,10,601,60,661,601,661,858,0,0,0,29.97,1014.8,46,CLR,Fair
KCC2014,14-Dec-14,14-Dec-14,1:00,13,KC,-11,OAK,44,O,41.5,2014,Week 15,72153,KC,-11,11,CAR,31,13,Y,76416,0,42,60,0,Kansas City,KMKC,KMKC4198713,58,65,77,90,12,15,92,8.1,30,0.64,0,MC,Overcast,758,62,60,52,70,56,170,14,100,38,OVC,10,180,36,216,361,397,516,99,0.01,0,29.89,1012.1,18,RAIN,Light Rain
KCC2019,15-Dec-19,15-Dec-19,1:00,13,KC,-9.5,DEN,26,O,44,2019,Week 15,73257,KC,-9.5,9.5,CAR,23,3,Y,76416,0,47,72,0,Kansas City,KMKC,KMKC4381413,25,26,79,86,8,12,100,5.8,0,0.13,2.7,SHWR,Light Rain,745,25,15,21,86,24,50,9,100,24,OVC,1,180,36,216,361,397,515,99,0,0.1,29.97,1016.2,9,SNOW,Light Snow
KCC2017,15-Oct-17,15-Oct-17,4:25,16,KC,-3.5,PIT,32,U,46,2017,Week 6,76994,KC,-3.5,3.5,PIT,13,19,Y,76416,0,45,57,0,Kansas City,KMKC,KMKC4302316,54,62,65,90,9,16,25,10,592,0,0,CLR,Fair,758,62,60,37,40,50,290,13,0,201,CLR,10,191,19,210,191,210,273,0,0,0,30.32,1026.6,46,CLR,Fair
KCC2013,15-Sep-13,15-Sep-13,1:00,13,KC,-3,DAL,33,U,45.5,2013,Week 2,76952,KC,-3,3,SF,17,16,N,76416,0,41,79,0,Kansas City,KMKC,KMKC4153213,72,86,63,90,10,17,59,8.8,282,0.49,0,CLR,Fair,758,79,81,63,58,69,370,3,5,75,FEW,10,746,77,823,765,842,1093,0,0,0,29.97,1015,45,CLR,Mostly Clear
KCC2017,16-Dec-17,16-Dec-17,8:25,20,KC, PK,LAC,43,U,47,2017,Week 15,75011,KC, PK,PK,LAC,30,13,PK,76416,0,45,35,0,Kansas City,KMKC,KMKC4308520,49,62,41,55,11,17,22,10,566,0,0,CLR,Fair,758,50,47,26,39,40,200,8,100,301,OVC,10,0,0,0,0,0,0,0,0,0,29.95,1014.2,50,PC,High Overcast
KCC2014,16-Nov-14,16-Nov-14,1:00,13,SEA,-1,KC,44,O,43.5,2014,Week 11,76463,KC,1,-1,CLE,24,20,Y,76416,0,42,21,0,Kansas City,KMKC,KMKC4195913,24,32,66,88,7,13,44,8.9,413,0,0,CLR,Fair,758,21,9,10,62,18,280,12,22,301,SCT,10,377,42,419,424,466,606,0,0,0,30.19,1022.5,46,CLR,Fair
KCC2015,17-Sep-15,17-Sep-15,8:25,20,KC,-3,DEN,55,O,42,2015,Week 2,76404,KC,-3,3,SEA,24,31,Y,76416,0,43,80,0,Kansas City,KMKC,KMKC4226420,83,92,64,74,15,22,32,10,450,0,0,CLR,Fair,758,84,89,71,65,75,190,10,71,301,BKN,10,0,0,0,0,0,0,0,0,0,29.78,1008.4,46,CLR,Fair
KCC2017,17-Sep-17,17-Sep-17,1:00,13,KC,-4.5,PHI,47,P,47,2017,Week 2,74971,KC,-4.5,4.5,SF,27,20,Y,76416,0,45,25,0,Kansas City,KMKC,KMKC4299513,70,77,87,97,7,17,88,9.5,144,0.36,0,MC,Overcast,758,70,70,65,84,67,130,7,100,34,OVC,10,377,75,452,754,829,1078,0,0,0,30.15,1020.3,40,MC,Overcast
KCC2016,18-Dec-16,18-Dec-16,1:00,13,KC,-6,TEN,36,U,43.5,2016,Week 15,68084,KC,-6,6,LAR,17,19,N,76416,0,44,2,0,Kansas City,KMKC,KMKC4272213,3,10,64,72,6,14,67,10,360,0,0,CLR,Fair,758,5,5,-5,63,3,0,0,0,201,CLR,10,360,36,396,360,396,514,0,0,0,30.71,1039.8,46,CLR,Fair
KCC2016,20-Nov-16,20-Nov-16,1:00,13,KC,-7,TB,36,U,45,2016,Week 11,72277,KC,-7,7,NYJ,17,19,N,76416,0,44,43,0,Kansas City,KMKC,KMKC4269413,39,52,58,89,6,12,54,10,532,0,0,CLR,Fair,758,49,45,25,39,39,140,9,0,191,CLR,10,406,41,447,406,447,580,0,0,0,30.27,1025,46,CLR,Fair
KCC2013,20-Oct-13,20-Oct-13,4:25,16,KC,-7,HOU,33,U,39,2013,Week 7,74118,KC,-7,7,JAX,17,16,N,76416,0,41,70,0,Kansas City,KMKC,KMKC4156716,58,72,55,75,7,14,28,10,521,0,0,CLR,Fair,758,69,69,41,36,54,210,13,41,166,CLR,10,133,17,150,167,184,238,0,0,0,29.78,1008.4,46,CLR,Fair
KCC2013,22-Dec-13,22-Dec-13,1:00,13,KC,-7.5,IND,30,U,47,2013,Week 16,75396,KC,-7.5,7.5,DEN,7,23,Y,76416,0,41,25,0,Kansas City,KMKC,KMKC4163013,22,26,77,88,8,14,66,5.9,60,0.01,0.1,HAZY,Haze,758,25,16,18,75,23,310,9,100,16,OVC,6,180,36,216,361,397,516,0,0,0,30.14,1020.5,35,HAZY,Haze
KCC2019,22-Sep-19,22-Sep-19,1:00,13,KC,-4.5,BAL,61,O,52,2019,Week 3,73390,KC,-4.5,4.5,ARI,33,28,Y,76416,0,47,35,0,Kansas City,KMKC,KMKC4373013,71,82,82,94,7,15,69,8.6,114,2.5,0,MC,Mostly Cloudy,745,77,81,70,79,72,180,8,100,60,SCT,10,312,73,385,726,799,1037,0,0,0,29.84,1009.7,42,MC,Mostly Cloudy
KCC2016,23-Oct-16,23-Oct-16,1:00,13,KC,-6.5,NO,48,U,51.5,2016,Week 7,76282,KC,-6.5,6.5,DET,27,21,N,76416,0,44,69,0,Kansas City,KMKC,KMKC4266613,65,76,57,87,5,12,1,10,651,0,0,CLR,Fair,758,74,76,49,41,60,370,3,0,201,CLR,10,536,54,590,536,590,766,0,0,0,30.02,1016.7,46,CLR,Fair
KCC2017,24-Dec-17,24-Dec-17,1:00,13,KC,-11,MIA,42,U,43.5,2017,Week 16,65325,KC,-11,11,TB,29,13,Y,76416,0,45,31,0,Kansas City,KMKC,KMKC4309313,23,27,66,85,9,16,64,8.7,200,0,1.1,CLR,Fair,758,25,13,14,63,22,320,13,100,34,SCT,10,181,36,217,362,398,518,0,0,0,30.32,1027.7,40,MC,Overcast
KCC2013,24-Nov-13,24-Nov-13,1:00,13,KC,-3.5,LAC,79,O,43.5,2013,Week 12,75259,KC,-3.5,3.5,ATL,38,41,N,76416,0,41,28,0,Kansas City,KMKC,KMKC4160213,23,30,53,67,6,10,52,10,308,0,0,CLR,Fair,758,28,22,4,35,22,370,5,37,301,BKN,10,324,40,364,397,437,567,0,0,0,30.61,1036.7,46,CLR,Fair
KCC2016,25-Dec-16,25-Dec-16,8:30,20,KC,-3,DEN,43,O,38,2016,Week 16,76671,KC,-3,3,MIA,33,10,Y,76416,0,44,60,0,Kansas City,KMKC,KMKC4272920,53,67,87,100,11,18,91,6.8,18,0.2,0,RAIN,Light Rain,758,53,51,46,77,49,240,8,100,55,OVC,10,0,0,0,0,0,0,99,0.03,0,29.76,1007.9,18,RAIN,Light Rain
KCC2015,25-Oct-15,25-Oct-15,1:00,13,KC,-3.5,PIT,36,U,41.5,2015,Week 7,76365,KC,-3.5,3.5,TB,23,13,Y,76416,0,43,64,0,Kansas City,KMKC,KMKC4230213,53,66,65,96,4,10,0,10,646,0,0,CLR,Fair,758,64,64,39,40,52,80,10,0,201,CLR,10,530,53,583,530,583,757,0,0,0,30.29,1025.8,46,CLR,Fair
KCC2016,25-Sep-16,25-Sep-16,4:25,16,KC,-3,NYJ,27,U,44.5,2016,Week 3,71587,KC,-3,3,KC,24,3,Y,76416,0,44,65,0,Kansas City,KMKC,KMKC4263816,67,71,81,94,6,13,82,9.9,4,0.18,0,PC,High Overcast,758,66,66,55,68,60,300,6,100,120,BKN,10,225,30,255,298,328,425,0,0,0,30.12,1019.3,42,MC,Mostly Cloudy
KCC2017,26-Nov-17,26-Nov-17,1:00,13,KC,-9,BUF,26,U,47,2017,Week 12,74929,KC,-9,9,BUF,10,16,N,76416,0,45,47,0,Kansas City,KMKC,KMKC4306513,51,67,53,86,5,18,33,10,319,0,0,CLR,Fair,758,64,63,32,30,49,210,13,100,301,OVC,10,196,39,234,391,430,559,0,0,0,30.16,1021.4,50,PC,High Overcast
KCC2014,26-Oct-14,26-Oct-14,1:00,13,KC,-7,LAR,41,U,44,2014,Week 8,75972,KC,-7,7,DET,34,7,Y,76416,0,42,85,0,Kansas City,KMKC,KMKC4193813,72,87,58,81,12,22,4,9.9,634,0,0,CLR,Fair,758,85,85,59,42,69,170,15,0,201,CLR,10,525,52,577,525,577,749,0,0,0,29.71,1006,46,CLR,Fair
KCC2015,27-Dec-15,27-Dec-15,1:00,13,KC,-11.5,CLE,30,U,42.5,2015,Week 16,69115,KC,-11.5,11.5,DAL,17,13,N,76416,0,43,34,0,Kansas City,KMKC,KMKC4236513,34,37,80,89,17,21,100,9.4,0,0.04,0,MC,Overcast,758,35,25,28,76,32,200,16,100,21,OVC,10,182,36,218,365,401,521,0,0,0,30.3,1026.2,40,MC,Overcast
KCC2013,27-Oct-13,27-Oct-13,1:00,13,KC,-7,CLE,40,O,39,2013,Week 8,74307,KC,-7,7,BAL,23,17,N,76416,0,41,61,0,Kansas City,KMKC,KMKC4157413,48,64,58,89,4,13,0,9.2,642,0,0,CLR,Fair,758,61,60,30,31,47,200,10,0,201,CLR,10,519,52,571,519,571,742,0,0,0,30.01,1016.4,46,CLR,Fair
KCC2019,27-Oct-19,27-Oct-19,1:00,13,KC,-7,GB,55,O,54.5,2019,Week 8,73558,KC,-7,7,LAR,24,31,N,76416,0,47,85,0,Kansas City,KMKC,KMKC4376513,48,59,73,96,6,15,25,9.5,559,0,0,CLR,Fair,745,56,55,41,57,49,370,6,0,201,CLR,10,519,52,571,519,571,742,0,0,0,29.95,1014.3,46,CLR,Fair
KCC2014,28-Dec-14,28-Dec-14,1:00,13,KC,-3,LAC,26,U,42,2014,Week 17,73952,KC,-3,3,MIA,19,7,Y,76416,0,42,37,0,Kansas City,KMKC,KMKC4200113,31,41,64,89,4,8,25,9.9,501,0,0,CLR,Fair,758,38,33,17,43,31,220,6,0,201,CLR,10,366,37,403,366,403,523,0,0,0,30.2,1022.7,46,CLR,Fair
KCC2015,29-Nov-15,29-Nov-15,1:00,13,KC,-4.5,BUF,52,O,41,2015,Week 12,72493,KC,-4.5,4.5,CAR,30,22,Y,76416,0,43,34,0,Kansas City,KMKC,KMKC4233713,36,37,92,97,8,12,100,7.1,0,0.36,0,RAIN,Light Rain,758,36,30,34,93,35,60,8,100,9,OVC,3,192,38,230,383,421,547,99,0.06,0,30.24,1024,19,RAIN,Moderate Rain
KCC2013,29-Sep-13,29-Sep-13,1:00,13,KC,-3.5,NYG,38,U,44,2013,Week 4,73386,KC,-3.5,3.5,BUF,31,7,Y,76416,0,41,73,0,Kansas City,KMKC,KMKC4154613,63,75,68,100,2,8,12,6.8,650,0,0,CLR,Fair,758,73,76,46,38,58,70,6,0,201,CLR,10,685,68,753,685,753,978,0,0,0,30.02,1016.5,46,CLR,Fair
KCC2014,29-Sep-14,29-Sep-14,8:30,20,NE,-3,KC,55,O,45.5,2014,Week 4,76613,KC,3,-3,NE,41,14,Y,76416,0,42,72,0,Kansas City,KMKC,KMKC4191120,73,86,68,93,2,7,7,8.2,656,0,0,CLR,Fair,758,72,72,60,66,65,70,5,8,216,CLR,10,0,0,0,0,0,0,0,0,0,29.93,1013.4,46,CLR,Fair
KCC2014,30-Nov-14,30-Nov-14,8:30,20,KC, PK,DEN,45,U,49.5,2014,Week 13,76894,KC, PK,PK,CLE,16,29,PK,76416,0,42,25,0,Kansas City,KMKC,KMKC4197320,35,57,64,86,13,17,46,9.2,202,0,0,CLR,Fair,758,26,16,10,51,22,350,10,41,301,BKN,10,0,0,0,0,0,0,0,0,0,30.36,1028,46,CLR,Fair
KCC2017,30-Oct-17,30-Oct-17,8:30,20,KC,-7,DEN,48,O,42,2017,Week 8,76573,KC,-7,7,DEN,29,19,Y,76416,0,45,67,0,Kansas City,KMKC,KMKC4303820,48,53,46,74,13,21,61,10,342,0,0,MC,Overcast,758,41,34,22,47,34,320,13,100,201,OVC,10,0,0,0,0,0,0,0,0,0,30.19,1022.3,40,MC,Overcast
NOS2015,1-Nov-15,1-Nov-15,1:00,13,NO,-3,NYG,101,O,52,2015,Week 8,73019,NO,-3,3,MIA,52,49,N,73208,0,40,72,1,New Orleans,KNEW,KNEW4230913,69,71,90,94,13,17,99,7.1,11,1.55,0,RAIN,Light Rain,7,69,69,67,93,68,100,15,100,75,OVC,2,306,61,367,612,673,874,99,0.11,0,29.87,1010.8,18,RAIN,Light Rain
NOS2017,3-Dec-17,3-Dec-17,4:25,16,NO,-6,CAR,52,O,48,2017,Week 13,73171,NO,-6,6,SF,31,21,Y,73208,0,42,56,0,New Orleans,KNEW,KNEW4307216,63,71,80,100,6,12,51,5.7,455,0,0,CLR,Fair,7,69,69,48,47,58,100,6,0,201,CLR,10,86,9,95,86,95,122,0,0,0,30.12,1019.2,46,CLR,Fair
NOS2016,4-Dec-16,4-Dec-16,1:00,13,NO,-6.5,DET,41,U,53.5,2016,Week 13,73137,NO,-6.5,6.5,NO,13,28,Y,73208,0,41,72,1,New Orleans,KNEW,KNEW4270813,63,68,96,100,9,21,100,4.4,0,0.81,0,MC,Overcast,7,66,66,64,94,65,320,5,100,80,OVC,2,252,50,302,505,555,721,99,0.01,0,29.88,1011.2,18,RAIN,Light Rain
NOS2015,4-Oct-15,4-Oct-15,8:30,20,NO,-3,DAL,46,U,48.5,2015,Week 4,73009,NO,-3,3,JAX,26,20,Y,73208,0,40,72,1,New Orleans,KNEW,KNEW4228120,63,68,73,78,15,24,76,10,87,0,0,MC,Overcast,7,64,62,56,75,59,360,21,6,301,SCT,10,0,0,0,0,0,0,0,0,0,29.92,1012.4,54,CLR,Few High Clouds
NOS2017,5-Nov-17,5-Nov-17,1:00,13,NO,-7,TB,40,U,54.5,2017,Week 9,73121,NO,-7,7,OAK,30,10,Y,73208,0,42,55,0,New Orleans,KNEW,KNEW4304413,74,82,84,96,7,14,26,8.7,440,0,0,CLR,Fair,7,77,81,70,79,72,50,8,100,50,BKN,10,297,59,356,594,653,848,0,0,0,30.04,1016.6,42,MC,Mostly Cloudy
NOS2014,5-Oct-14,5-Oct-14,1:00,13,NO,-11,TB,68,O,48,2014,Week 5,73004,NO,-11,11,DEN,37,31,N,73208,0,39,72,1,New Orleans,KNEW,KNEW4191713,71,79,52,81,8,14,1,10,704,0,0,CLR,Fair,7,77,77,49,37,61,160,8,0,201,CLR,10,749,75,824,749,824,1070,0,0,0,30,1015.9,46,CLR,Fair
NOS2015,6-Dec-15,6-Dec-15,4:25,16,CAR,-6,NO,79,O,50.5,2015,Week 13,73097,NO,6,-6,PIT,38,41,N,73208,0,40,72,1,New Orleans,KNEW,KNEW4234416,59,67,81,93,6,15,60,9.4,83,0,0,CLR,Fair,7,64,64,58,81,60,320,5,95,93,CLR,10,45,9,54,86,95,123,0,0,0,30.28,1024.5,46,CLR,Fair
NOS2019,6-Oct-19,6-Oct-19,1:00,13,NO,-10.5,TB,55,O,53,2019,Week 5,73029,NO,-10.5,10.5,TB,31,24,N,73208,0,44,28,0,New Orleans,KNEW,KNEW4374413,82,89,75,87,11,20,29,10,376,0.14,0,CLR,Fair,10,88,96,73,61,78,90,17,95,50,OVC,10,130,74,204,744,818,1063,0,0,0,30,1015.1,42,MC,Mostly Cloudy
NOS2014,7-Dec-14,7-Dec-14,1:00,13,NO,-9.5,CAR,51,O,50.5,2014,Week 14,73006,NO,-9.5,9.5,ATL,10,41,Y,73208,0,39,72,1,New Orleans,KNEW,KNEW4198013,54,61,71,77,14,21,66,10,18,0,0,MC,Overcast,7,56,54,43,62,49,40,9,70,22,BKN,10,327,50,377,503,553,718,0,0,0,30.25,1024.3,42,MC,Mostly Cloudy
NOS2013,8-Dec-13,8-Dec-13,8:30,20,NO,-3,CAR,44,U,47.5,2013,Week 14,73089,NO,-3,3,OAK,31,13,Y,73208,0,38,72,1,New Orleans,KNEW,KNEW4161620,50,55,94,100,8,10,100,2.6,0,0,0,FOG,Fog,7,54,54,53,97,53,60,3,100,2,VV,0.2,0,0,0,0,0,0,0,0,0,30.04,1017.2,34,FOG,Fog
NOS2019,8-Dec-19,8-Dec-19,1:00,13,NO,-8.5,SF,94,O,46,2019,Week 14,73038,NO,-8.5,8.5,JAX,46,48,N,73208,0,44,73,0,New Orleans,KNEW,KNEW4380713,60,66,78,88,5,9,33,9.8,544,0,0,CLR,Fair,10,64,64,55,73,59,340,8,0,147,CLR,10,502,50,552,502,552,717,0,0,0,30.09,1018,46,CLR,Fair
NOS2015,8-Nov-15,8-Nov-15,1:00,13,NO,-6.5,TEN,62,O,50,2015,Week 9,73075,NO,-6.5,6.5,ARI,28,34,N,73208,0,40,72,1,New Orleans,KNEW,KNEW4231613,64,67,87,94,24,31,100,9.1,0,0.38,0,MC,Overcast,7,64,62,59,83,61,20,20,100,15,OVC,10,290,58,348,581,639,830,0,0,0,30.01,1015.4,40,MC,Overcast
NOS2013,8-Sep-13,8-Sep-13,1:00,13,NO,-3.5,ATL,40,U,55,2013,Week 1,72348,NO,-3.5,3.5,CHI,23,17,Y,73208,0,38,72,1,New Orleans,KNEW,KNEW4152513,84,91,69,85,7,12,7,9.1,656,0,0,CLR,Fair,7,89,96,71,55,76,120,6,5,38,FEW,10,857,88,945,879,967,1255,0,0,0,29.95,1014.2,45,CLR,Mostly Clear
NOS2014,9-Nov-14,9-Nov-14,1:00,13,NO,-5.5,SF,51,O,49.5,2014,Week 10,73129,NO,-5.5,5.5,DAL,24,27,N,73208,0,39,72,1,New Orleans,KNEW,KNEW4195213,61,65,58,72,10,17,11,10,646,0,0,CLR,Fair,7,64,64,47,54,55,310,6,0,201,CLR,10,577,58,635,577,635,825,0,0,0,30.01,1016.1,46,CLR,Fair
NOS2019,9-Sep-19,9-Sep-19,7:10,19,NO,-7,HOU,58,O,52,2019,Week 1,73039,NO,-7,7,NE,30,28,N,73208,0,44,63,0,New Orleans,KNEW,KNEW4371719,88,94,68,83,7,13,17,7.6,572,0,0,CLR,Fair,10,87,96,75,67,78,130,7,0,217,CLR,8,0,0,0,0,0,0,0,0,0,30.06,1017.1,46,CLR,Fair
NOS2013,10-Nov-13,10-Nov-13,8:30,20,NO,-6.5,DAL,66,O,55,2013,Week 10,73018,NO,-6.5,6.5,DEN,49,17,Y,73208,0,38,72,1,New Orleans,KNEW,KNEW4158820,67,74,77,90,8,17,35,10,469,0,0,CLR,Fair,7,66,66,63,90,64,0,0,0,201,CLR,10,0,0,0,0,0,0,0,0,0,30.21,1022.9,46,CLR,Fair
NOS2019,10-Nov-19,10-Nov-19,1:00,13,NO,-7,ATL,35,O,33,2019,Week 10,73283,NO,-7,7,ATL,9,26,Y,73208,0,44,66,0,New Orleans,KNEW,KNEW4377913,60,70,70,87,7,9,1,10,630,0,0,CLR,Fair,10,66,66,55,68,60,30,8,0,400,CLR,10,573,57,630,573,630,819,0,0,0,30.16,1020.6,46,CLR,Fair
NOS2016,11-Sep-16,11-Sep-16,1:00,13,NO,-3,OAK,69,O,50.5,2016,Week 1,73028,NO,-3,3,CAR,34,35,N,73208,0,41,72,1,New Orleans,KNEW,KNEW4262413,82,90,77,88,8,23,58,10,293,0.01,0,CLR,Fair,7,88,96,73,61,78,110,9,97,301,CLR,10,777,86,863,863,949,1233,0,0,0,30.06,1017.1,50,PC,High Overcast
NOS2016,13-Nov-16,13-Nov-16,1:00,13,NO,-3,DEN,48,U,50,2016,Week 10,73138,NO,-3,3,LAR,23,25,N,73208,0,41,72,1,New Orleans,KNEW,KNEW4268713,63,68,62,72,11,17,74,9.2,106,0,0,PC,High Overcast,7,66,66,50,56,57,350,10,64,301,SCT,8,379,56,435,558,614,797,0,0,0,30.13,1020,54,CLR,Few High Clouds
NOS2015,15-Oct-15,15-Oct-15,8:25,20,ATL,-3,NO,52,U,52.5,2015,Week 6,73018,NO,3,-3,LAR,31,21,Y,73208,0,40,72,1,New Orleans,KNEW,KNEW4229220,75,88,57,87,5,12,0,9.9,686,0,0,CLR,Fair,7,73,76,55,53,62,160,6,0,201,CLR,10,0,0,0,0,0,0,0,0,0,30.13,1019.7,46,CLR,Fair
NOS2017,15-Oct-17,15-Oct-17,1:00,13,NO,-5.5,DET,90,O,50.5,2017,Week 6,73117,NO,-5.5,5.5,CAR,52,38,Y,73208,0,42,78,0,New Orleans,KNEW,KNEW4302313,80,85,87,94,6,9,71,9.1,99,1.19,0,CLR,Few High Clouds,7,77,81,72,85,74,140,8,76,110,SCT,10,509,70,579,697,767,995,99,0.02,0,30.03,1016.4,18,RAIN,Light Rain
NOS2019,16-Dec-19,16-Dec-19,1:00,13,NO,-5,IND,41,U,53,2019,Week 15,73053,NO,-5,5,CLE,34,7,Y,73208,0,44,29,0,New Orleans,KNEW,KNEW4381513,71,81,87,96,13,23,59,7,229,0,0,MC,Mostly Cloudy,10,77,81,70,79,72,170,12,100,38,BKN,10,249,50,299,498,548,711,0,0,0,29.95,1013.3,40,MC,Overcast
NOS2014,16-Nov-14,16-Nov-14,1:00,13,NO,-8,CIN,37,U,51.5,2014,Week 11,73073,NO,-8,8,PIT,10,27,Y,73208,0,39,72,1,New Orleans,KNEW,KNEW4195913,69,80,76,87,16,26,60,9.9,193,0,0,CLR,Fair,7,79,81,62,56,68,170,23,70,25,CLR,10,358,55,413,551,606,788,0,0,0,29.92,1012.5,46,CLR,Fair
NOS2016,16-Oct-16,16-Oct-16,1:00,13,CAR,-3,NO,79,O,54,2016,Week 6,73138,NO,3,-3,CLE,41,38,N,73208,0,41,72,1,New Orleans,KNEW,KNEW4265913,79,86,78,89,9,13,10,9.9,548,0,0,CLR,Fair,7,84,90,72,66,76,30,9,5,30,FEW,10,670,69,739,687,756,981,0,0,0,30.03,1016.2,45,CLR,Mostly Clear
NOS2017,17-Dec-17,17-Dec-17,1:00,13,NO,-16,NYJ,50,O,47,2017,Week 15,73018,NO,-16,16,CAR,31,19,N,73208,0,42,64,0,New Orleans,KNEW,KNEW4308613,66,70,95,100,9,21,96,5.2,0,2.26,0,MC,Overcast,7,66,66,66,100,66,0,0,100,37,OVC,1.5,249,50,299,498,548,711,99,0.05,0,30.1,1018.6,19,RAIN,Moderate Rain
NOS2013,17-Nov-13,17-Nov-13,4:25,16,NO,-3,SF,43,U,50,2013,Week 11,73025,NO,-3,3,BAL,23,20,N,73208,0,38,72,1,New Orleans,KNEW,KNEW4159516,74,82,89,100,9,15,91,6.1,87,0.02,0,CLR,Mostly Clear,7,80,84,71,74,74,200,13,100,21,OVC,10,49,10,59,98,108,141,0,0,0,29.89,1012.2,45,CLR,Mostly Clear
NOS2017,17-Sep-17,17-Sep-17,1:00,13,NE,-6,NO,56,O,55.5,2017,Week 2,73168,NO,6,-6,HOU,20,36,Y,73208,0,42,28,0,New Orleans,KNEW,KNEW4299513,82,90,81,93,6,9,10,9.9,594,0,0,CLR,Fair,7,87,98,77,72,80,10,9,5,25,FEW,10,819,84,903,840,924,1199,0,0,0,30.05,1016.9,46,CLR,Fair
NOS2017,19-Nov-17,19-Nov-17,1:00,13,NO,-9,WAS,65,O,53,2017,Week 11,73138,NO,-9,9,WAS,34,31,N,73208,0,42,89,0,New Orleans,KNEW,KNEW4305813,58,64,50,66,22,31,20,10,622,0,0,CLR,Fair,7,62,60,36,38,49,340,16,0,201,CLR,10,541,54,595,541,595,773,0,0,0,30.16,1020.4,46,CLR,Fair
NOS2015,20-Sep-15,20-Sep-15,1:00,13,NO,-9,TB,45,U,47,2015,Week 2,73006,NO,-9,9,PHI,19,26,N,73208,0,40,72,1,New Orleans,KNEW,KNEW4226713,84,92,65,87,6,10,8,9.6,730,0,0,CLR,Fair,7,90,96,69,50,76,340,7,0,201,CLR,10,825,83,908,825,908,1179,0,0,0,29.96,1013.9,46,CLR,Fair
NOS2014,21-Dec-14,21-Dec-14,1:00,13,NO,-6,ATL,44,U,56,2014,Week 16,73164,NO,-6,6,OAK,14,30,Y,73208,0,39,72,1,New Orleans,KNEW,KNEW4199413,56,59,81,90,8,15,93,8.6,75,0,0,MC,Overcast,7,57,57,50,78,53,60,3,100,10,OVC,10,250,50,300,499,549,713,0,0,0,30.03,1017.1,40,MC,Overcast
NOS2015,21-Dec-15,21-Dec-15,8:30,20,NO,-2.5,DET,62,O,52,2015,Week 15,73017,NO,-2.5,2.5,NYJ,27,35,Y,73208,0,40,72,1,New Orleans,KNEW,KNEW4235920,66,73,90,100,9,15,62,8.2,190,1.85,0,CLR,Fair,7,64,64,64,100,64,320,10,100,21,OVC,2,0,0,0,0,0,0,99,1.02,0,29.99,1014.9,19,RAIN,Moderate Rain
NOS2014,21-Sep-14,21-Sep-14,1:00,13,NO,-10,MIN,29,U,49.5,2014,Week 3,73005,NO,-10,10,SF,20,9,Y,73208,0,39,72,1,New Orleans,KNEW,KNEW4190313,81,88,68,82,9,14,0,10,729,0,0,CLR,Fair,7,87,92,69,55,75,200,10,0,201,CLR,10,820,82,902,820,902,1172,0,0,0,29.99,1015.7,46,CLR,Fair
NOS2013,22-Sep-13,22-Sep-13,1:00,13,NO,-7.5,ARI,38,U,48.5,2013,Week 3,73057,NO,-7.5,7.5,GB,31,7,Y,73208,0,38,72,1,New Orleans,KNEW,KNEW4153913,77,82,73,94,17,24,90,9.7,37,0.26,0,RAIN,Moderate Rain,7,80,83,66,62,71,40,9,75,25,BKN,10,510,82,592,816,898,1166,0,0,0,29.77,1008.1,45,CLR,Mostly Clear
NOS2016,24-Dec-16,24-Dec-16,4:25,16,NO,-3,TB,55,O,53,2016,Week 16,73177,NO,-3,3,PIT,31,24,Y,73208,0,41,72,1,New Orleans,KNEW,KNEW4272816,65,78,93,100,8,12,49,3.9,296,0,0,MC,Mostly Cloudy,7,72,72,66,83,68,100,7,100,38,BKN,8,52,10,62,103,113,147,0,0,0,30.17,1021,40,MC,Overcast
NOS2017,24-Dec-17,24-Dec-17,1:00,13,NO,-5.5,ATL,36,U,52,2017,Week 16,73188,NO,-5.5,5.5,NE,23,13,Y,73208,0,42,78,0,New Orleans,KNEW,KNEW4309313,55,62,75,83,12,28,40,9.9,507,0,0,CLR,Fair,7,57,55,49,75,53,330,8,0,201,CLR,10,502,50,552,502,552,717,0,0,0,30.16,1020.5,46,CLR,Fair
NOS2014,24-Nov-14,24-Nov-14,8:30,20,NO,-3,BAL,61,O,50.5,2014,Week 12,73373,NO,-3,3,MIA,27,34,Y,73208,0,39,72,1,New Orleans,KNEW,KNEW4196720,63,69,80,93,13,22,37,7.2,564,0,0,CLR,Fair,7,59,56,51,75,55,340,13,79,301,OVC,10,0,0,0,0,0,0,0,0,0,30,1015.8,46,CLR,Fair
NOS2019,24-Nov-19,24-Nov-19,1:00,13,NO,-9,CAR,65,O,42,2019,Week 12,73068,NO,-9,9,CAR,34,31,N,73208,0,44,65,0,New Orleans,KNEW,KNEW4379313,51,58,67,80,8,20,3,10,614,0,0,CLR,Fair,10,54,52,38,55,46,300,7,0,400,CLR,10,527,53,580,527,580,753,0,0,0,30.03,1016.3,46,CLR,Fair
NOS2014,26-Oct-14,26-Oct-14,8:30,20,NO,-2,GB,67,O,55.5,2014,Week 8,73146,NO,-2,2,PIT,44,23,Y,73208,0,39,72,1,New Orleans,KNEW,KNEW4193820,73,82,69,82,6,9,0,9.8,668,0,0,CLR,Fair,7,73,77,63,71,67,200,8,0,201,CLR,10,0,0,0,0,0,0,0,0,0,30.01,1016.3,46,CLR,Fair
NOS2016,26-Sep-16,26-Sep-16,8:30,20,NO,-3,ATL,77,O,54.5,2016,Week 3,73003,NO,-3,3,HOU,32,45,Y,73208,0,41,72,1,New Orleans,KNEW,KNEW4263920,84,91,68,77,7,15,22,10,584,0,0,CLR,Fair,7,83,88,71,67,75,270,6,87,301,BKN,10,0,0,0,0,0,0,0,0,0,29.98,1014.6,52,PC,High Clouds
NOS2015,27-Dec-15,27-Dec-15,4:05,16,NO,-2.5,JAX,65,O,53.5,2015,Week 16,73064,NO,-2.5,2.5,HOU,38,27,Y,73208,0,40,72,1,New Orleans,KNEW,KNEW4236516,74,78,92,100,18,28,100,9.2,3,0,0,MC,Overcast,7,76,80,71,85,73,160,21,100,25,BKN,9,53,11,64,106,117,152,0,0,0,29.8,1008.4,42,MC,Mostly Cloudy
NOS2016,27-Nov-16,27-Nov-16,1:00,13,NO,-8,LAR,70,O,45,2016,Week 12,73067,NO,-8,8,PIT,49,21,Y,73208,0,41,72,1,New Orleans,KNEW,KNEW4270113,58,67,65,87,9,15,16,9.6,437,0,0,CLR,Fair,7,65,65,47,52,55,50,3,0,201,CLR,10,517,52,569,517,569,739,0,0,0,30.11,1019,46,CLR,Fair
NOS2013,27-Oct-13,27-Oct-13,1:00,13,NO,-10.5,BUF,52,O,48.5,2013,Week 8,72405,NO,-10.5,10.5,DET,35,17,Y,73208,0,38,72,1,New Orleans,KNEW,KNEW4157413,67,75,77,93,5,10,40,10,175,0,0,CLR,Fair,7,74,77,58,57,64,170,9,93,301,OVC,10,340,64,404,636,700,908,0,0,0,30.09,1018.8,46,CLR,Fair
NOS2019,27-Oct-19,27-Oct-19,1:00,13,NO,-14.5,ARI,40,O,56,2019,Week 8,73064,NO,-14.5,14.5,ARI,31,9,Y,73208,0,44,45,0,New Orleans,KNEW,KNEW4376513,63,68,71,81,8,12,40,10,455,0,0,CLR,Fair,10,66,66,53,63,59,360,9,35,75,CLR,10,525,64,589,636,700,908,0,0,0,30.03,1016.2,46,CLR,Fair
NOS2013,29-Dec-13,29-Dec-13,4:25,16,NO,-10.5,TB,59,O,46.5,2013,Week 17,73150,NO,-10.5,10.5,HOU,42,17,Y,73208,0,38,72,1,New Orleans,KNEW,KNEW4163716,52,57,82,97,9,15,47,8.9,419,0,0,CLR,Fair,7,56,53,47,72,51,290,12,40,301,BKN,10,88,11,99,110,121,157,0,0,0,30.04,1017.3,46,CLR,Fair
NOS2017,29-Oct-17,29-Oct-17,1:00,13,NO,-8.5,CHI,32,U,46,2017,Week 8,73192,NO,-8.5,8.5,CHI,20,12,N,73208,0,42,76,0,New Orleans,KNEW,KNEW4303713,55,62,53,66,11,15,0,10,663,0,0,CLR,Fair,7,58,56,38,48,48,300,10,0,201,CLR,10,626,63,689,626,689,894,0,0,0,30.02,1016,46,CLR,Fair
NOS2019,29-Sep-19,29-Sep-19,8:20,20,DAL,-2.5,NO,22,U,47.5,2019,Week 4,73086,NO,2.5,-2.5,DAL,12,10,N,73208,0,44,59,0,New Orleans,KNEW,KNEW4373720,83,89,74,88,10,18,13,10,522,0,0,CLR,Fair,10,82,89,74,77,76,120,8,0,241,CLR,10,0,0,0,0,0,0,0,0,0,30.09,1018.3,46,CLR,Fair
NOS2016,30-Oct-16,30-Oct-16,1:00,13,SEA,-1,NO,45,U,50,2016,Week 8,73188,NO,1,-1,TEN,25,20,Y,73208,0,41,72,1,New Orleans,KNEW,KNEW4267313,75,84,73,96,6,12,27,8.3,610,0,0,CLR,Fair,7,84,84,58,41,68,100,9,0,166,CLR,10,616,62,678,616,678,881,0,0,0,30.13,1019.6,46,CLR,Fair
NOS2013,30-Sep-13,30-Sep-13,8:40,20,NO,-7,MIA,55,O,49,2013,Week 4,73118,NO,-7,7,NO,38,17,Y,73208,0,38,72,1,New Orleans,KNEW,KNEW4154720,79,83,79,87,7,13,85,9.9,28,0.04,0,TSTM,Thunder,7,78,83,72,82,74,120,6,100,50,BKN,10,0,0,0,0,0,0,0,0,0,29.93,1013.7,31,TSTM,Thunder
JAC2019,1-Dec-19,1-Dec-19,1:00,13,JAX,-4.5,TB,39,O,56,2019,Week 13,62633,JAX,-4.5,4.5,OAK,11,28,Y,67814,0,24,57,0,Jacksonville,KNIP,KNIP4380013,73,84,76,97,15,25,78,8.8,75,0,0,MC,Mostly Cloudy,23,82,85,66,58,71,230,25,95,250,BKN,10,356,54,410,536,590,766,0,0,0,29.8,1008.6,52,PC,High Clouds
JAC2017,3-Dec-17,3-Dec-17,1:00,13,JAX,-10,IND,40,U,41,2017,Week 13,61207,JAX,-10,10,BAL,30,10,Y,64428,0,22,45,0,Jacksonville,KNIP,KNIP4307213,64,72,86,100,6,12,56,7.2,177,0,0,MC,Mostly Cloudy,20,71,71,62,73,65,30,8,45,250,SCT,10,434,53,487,532,585,760,0,0,0,30.13,1019.9,44,PC,Partly Cloudy
JAC2019,3-Nov-19,3-Nov-19,1:00,13,JAX,PK,HOU,29,O,55,2019,Week 9,84771,JAX,PK,PK,HOU,3,26,PK,67814,0,24,55,0,Jacksonville,KNIP,KNIP4377213,66,76,61,71,12,18,37,10,446,0,0,CLR,Mostly Clear,23,75,77,55,50,63,60,13,25,250,SCT,10,578,63,641,632,695,903,0,0,0,30.14,1020.1,54,CLR,Few High Clouds
JAC2016,4-Dec-16,4-Dec-16,1:00,13,DEN,-3.5,JAX,30,U,38.5,2016,Week 13,63075,JAX,3.5,-3.5,LAR,10,20,Y,64428,0,21,75,0,Jacksonville,KNIP,KNIP4270813,69,78,74,90,9,17,64,10,111,0,0,PC,High Clouds,20,76,78,59,56,65,180,12,100,250,BKN,10,180,53,233,529,582,755,0,0,0,30.06,1017.5,42,MC,Mostly Cloudy
JAC2013,5-Dec-13,5-Dec-13,8:25,20,HOU,-3,JAX,47,O,43.5,2013,Week 14,60414,JAX,3,-3,GB,27,20,Y,67246,0,18,72,0,Jacksonville,KNIP,KNIP4161320,72,83,75,93,6,10,42,9.4,191,0,0,PC,High Clouds,20,73,77,64,74,67,160,9,75,250,BKN,10,0,0,0,0,0,0,0,0,0,30.14,1020,52,PC,High Clouds
JAC2017,5-Nov-17,5-Nov-17,1:00,13,JAX,-5.5,CIN,30,U,38,2017,Week 9,60720,JAX,-5.5,5.5,DAL,23,7,Y,64428,0,22,79,0,Jacksonville,KNIP,KNIP4304413,72,80,87,100,10,15,81,7.7,159,0,0,MC,Overcast,20,79,83,69,72,72,30,12,95,60,BKN,10,327,62,389,623,685,890,0,0,0,30.08,1018,42,MC,Mostly Cloudy
JAC2014,5-Oct-14,5-Oct-14,1:00,13,PIT,-6,JAX,26,U,47.5,2014,Week 5,66198,JAX,6,-6,MIA,9,17,Y,67297,0,19,73,0,Jacksonville,KNIP,KNIP4191713,68,76,40,61,8,16,1,10,701,0,0,CLR,Fair,20,73,74,35,25,54,50,5,0,201,CLR,10,779,78,857,779,857,1113,0,0,0,30.04,1016.8,46,CLR,Fair
JAC2014,7-Dec-14,7-Dec-14,1:00,13,HOU,-6.5,JAX,40,U,42,2014,Week 14,61070,JAX,6.5,-6.5,NYG,13,27,Y,67297,0,19,58,0,Jacksonville,KNIP,KNIP4198013,62,68,78,87,15,22,100,9.1,0,0.02,0,MC,Overcast,20,62,60,51,67,56,10,18,100,25,OVC,10,263,53,316,526,579,751,0,0,0,30.15,1020.6,40,MC,Overcast
JAC2019,8-Dec-19,8-Dec-19,1:00,13,LAC,-1,JAX,55,O,31,2019,Week 14,57866,JAX,1,-1,WAS,10,45,Y,67814,0,24,77,0,Jacksonville,KNIP,KNIP4380713,63,67,84,90,10,15,80,9.6,0,0,0,MC,Overcast,23,64,63,58,81,60,40,15,100,14,OVC,10,262,52,314,525,577,750,0,0,0,30.23,1023.1,40,MC,Overcast
JAC2013,8-Sep-13,8-Sep-13,1:00,13,KC,-3.5,JAX,30,U,42.5,2013,Week 1,59416,JAX,3.5,-3.5,DET,2,28,Y,67246,0,18,87,0,Jacksonville,KNIP,KNIP4152513,81,89,67,94,7,13,7,9.8,651,0,0,CLR,Fair,20,87,89,64,46,72,30,9,5,50,FEW,10,882,90,972,905,995,1292,0,0,0,29.97,1014.5,46,CLR,Fair
JAC2019,8-Sep-19,8-Sep-19,1:03,13,KC,-3.5,JAX,66,O,49,2019,Week 1,60157,JAX,3.5,-3.5,LAR,26,40,Y,67814,0,24,61,0,Jacksonville,KNIP,KNIP4371613,86,96,60,82,6,12,5,9.9,699,0,0,CLR,Fair,23,94,100,68,43,76,120,7,5,50,FEW,10,882,90,972,905,995,1293,0,0,0,30.01,1015.6,45,CLR,Mostly Clear
JAC2014,9-Nov-14,9-Nov-14,1:00,13,DAL,-7.5,JAX,48,O,45,2014,Week 10,83603,JAX,7.5,-7.5,IND,17,31,Y,67297,0,19,42,0,Jacksonville,KNIP,KNIP4195213,65,71,71,84,9,14,68,10,162,0.08,0,MC,Mostly Cloudy,20,70,70,55,59,61,30,10,100,250,BKN,10,315,61,376,606,667,866,0,0,0,29.92,1012.8,42,MC,Mostly Cloudy
JAC2017,10-Dec-17,10-Dec-17,4:25,16,JAX,-2.5,SEA,54,O,41,2017,Week 14,64431,JAX,-2.5,2.5,SEA,30,24,Y,64428,0,22,58,0,Jacksonville,KNIP,KNIP4307916,44,54,59,79,8,12,0,10,614,0,0,CLR,Fair,20,54,53,27,35,43,270,5,0,201,CLR,10,158,16,174,158,174,226,0,0,0,30.26,1024.1,46,CLR,Fair
JAC2016,11-Dec-16,11-Dec-16,1:00,13,MIN,-3.5,JAX,41,O,38,2016,Week 14,62701,JAX,3.5,-3.5,DEN,16,25,Y,64428,0,21,66,0,Jacksonville,KNIP,KNIP4271513,61,74,78,90,7,15,59,10,392,0,0,MC,Mostly Cloudy,20,70,70,56,61,62,120,5,30,250,SCT,10,463,52,515,520,572,743,0,0,0,30.28,1024.8,54,CLR,Few High Clouds
JAC2016,11-Sep-16,11-Sep-16,1:00,13,GB,-3.5,JAX,50,O,47.5,2016,Week 1,63179,JAX,3.5,-3.5,CHI,23,27,Y,64428,0,21,91,0,Jacksonville,KNIP,KNIP4262413,85,95,70,88,6,15,40,10,445,0,0,CLR,Mostly Clear,20,92,98,69,47,76,140,5,40,250,SCT,10,746,89,835,888,977,1269,0,0,0,30.08,1018.1,44,PC,Partly Cloudy
JAC2017,12-Nov-17,12-Nov-17,1:00,13,JAX,-5,LAC,37,U,40.5,2017,Week 10,60835,JAX,-5,5,BAL,20,17,N,64428,0,22,57,0,Jacksonville,KNIP,KNIP4305113,71,80,80,93,11,14,52,9.8,353,0,0,PC,Partly Cloudy,20,79,81,62,56,68,50,12,45,85,SCT,10,460,59,519,594,653,848,0,0,0,30.21,1022.5,44,PC,Partly Cloudy
JAC2015,13-Dec-15,13-Dec-15,1:00,13,JAX,-1,IND,67,O,46,2015,Week 14,62372,JAX,-1,1,HOU,51,16,Y,66851,0,20,77,0,Jacksonville,KNIP,KNIP4235113,72,82,79,91,7,15,57,8.9,226,0.06,0,CLR,Fair,20,80,82,64,58,70,120,15,100,250,BKN,10,177,52,229,520,572,743,0,0,0,30.1,1018.8,42,MC,Mostly Cloudy
JAC2016,13-Nov-16,13-Nov-16,1:00,13,JAX,-3,HOU,45,O,42,2016,Week 10,62091,JAX,-3,3,PHI,21,24,N,64428,0,21,71,0,Jacksonville,KNIP,KNIP4268713,66,73,77,87,12,17,90,9.9,126,0,0,MC,Overcast,20,72,72,61,69,65,20,13,100,250,BKN,10,346,59,405,586,645,837,0,0,0,30.1,1018.8,52,PC,High Clouds
JAC2019,13-Oct-19,13-Oct-19,1:00,13,NO,-4,JAX,19,O,55,2019,Week 6,64341,JAX,4,-4,NO,6,13,Y,67814,0,24,40,0,Jacksonville,KNIP,KNIP4375113,76,84,70,87,8,14,21,10,442,0,0,CLR,Fair,23,83,85,63,51,70,180,5,20,44,SCT,10,663,74,737,737,811,1053,0,0,0,30.05,1017,44,PC,Partly Cloudy
JAC2015,13-Sep-15,13-Sep-15,1:00,13,CAR,-3,JAX,29,U,41,2015,Week 1,60733,JAX,3,-3,HOU,9,20,Y,66851,0,20,81,0,Jacksonville,KNIP,KNIP4226013,79,86,58,89,7,14,62,10,166,0,0,PC,High Clouds,20,82,82,58,44,67,10,7,75,250,BKN,10,676,88,764,884,972,1263,0,0,0,29.97,1014.5,52,PC,High Clouds
JAC2013,15-Dec-13,15-Dec-13,1:00,13,BUF,-4,JAX,47,O,43.5,2013,Week 15,60085,JAX,4,-4,HOU,20,27,Y,67246,0,18,66,0,Jacksonville,KNIP,KNIP4162313,61,68,80,93,9,24,95,9.4,0,0.14,0,MC,Mostly Cloudy,20,65,65,57,76,60,290,8,100,250,BKN,10,49,52,101,519,571,742,0,0,0,29.98,1014.8,42,MC,Mostly Cloudy
JAC2017,15-Oct-17,15-Oct-17,4:05,16,JAX,-1,LAR,44,O,42,2017,Week 6,56232,JAX,-1,1,NYG,17,27,Y,64428,0,22,85,0,Jacksonville,KNIP,KNIP4302316,81,88,81,94,7,13,53,9.9,130,0,0,MC,Mostly Cloudy,20,86,93,73,65,77,80,10,40,45,SCT,10,230,29,259,287,316,411,0,0,0,30.03,1016.5,44,PC,Partly Cloudy
JAC2017,17-Dec-17,17-Dec-17,1:00,13,JAX,-10.5,HOU,52,O,39,2017,Week 15,64701,JAX,-10.5,10.5,DEN,45,7,Y,64428,0,22,51,0,Jacksonville,KNIP,KNIP4308613,63,78,68,93,4,8,72,9.9,18,0,0,PC,High Clouds,20,76,78,56,50,64,180,6,95,250,BKN,10,361,52,413,519,571,741,0,0,0,30.23,1023.2,52,PC,High Clouds
JAC2013,17-Nov-13,17-Nov-13,1:00,13,ARI,-9,JAX,41,O,40.5,2013,Week 11,59862,JAX,9,-9,PIT,14,27,Y,67246,0,18,79,0,Jacksonville,KNIP,KNIP4159513,73,81,83,93,5,9,94,9.2,24,0.21,0,MC,Mostly Cloudy,20,77,81,70,79,72,170,9,90,60,BKN,10,316,58,374,575,633,822,0,0,0,30.06,1017.5,42,MC,Mostly Cloudy
JAC2017,17-Sep-17,17-Sep-17,1:00,13,TEN,-1.5,JAX,53,O,41.5,2017,Week 2,61709,JAX,1.5,-1.5,BUF,16,37,Y,64428,0,22,58,0,Jacksonville,KNIP,KNIP4299513,81,89,71,90,9,14,9,9.8,616,0,0,CLR,Fair,20,89,93,67,48,74,40,13,40,65,SCT,10,694,87,781,867,954,1238,0,0,0,30.02,1016.1,44,PC,Partly Cloudy
JAC2014,18-Dec-14,18-Dec-14,8:25,20,JAX,-4.5,TEN,34,U,39,2014,Week 16,61202,JAX,-4.5,4.5,CLE,21,13,Y,67297,0,19,54,0,Jacksonville,KNIP,KNIP4199120,56,66,63,77,3,8,69,10,117,0,0,PC,High Clouds,20,60,60,46,60,53,310,5,91,250,BKN,10,0,0,0,0,0,0,0,0,0,30.13,1019.9,52,PC,High Clouds
JAC2015,18-Oct-15,18-Oct-15,1:00,13,JAX,-3,HOU,51,O,43,2015,Week 6,58085,JAX,-3,3,KC,20,31,Y,66851,0,20,70,0,Jacksonville,KNIP,KNIP4229513,70,76,57,68,17,26,60,10,49,0,0,PC,High Clouds,20,73,77,57,57,64,30,25,100,250,BKN,10,242,71,313,711,782,1016,0,0,0,30.25,1024,42,MC,Mostly Cloudy
JAC2015,19-Nov-15,19-Nov-15,8:25,20,JAX,-3,TEN,32,U,41.5,2015,Week 11,60121,JAX,-3,3,TEN,19,13,Y,66851,0,20,71,0,Jacksonville,KNIP,KNIP4232720,76,81,88,91,6,10,99,8.3,0,0.72,0,MC,Overcast,20,75,79,72,89,73,330,10,100,120,OVC,10,0,0,0,0,0,0,0,0,0,30.06,1017.4,40,MC,Overcast
JAC2014,19-Oct-14,19-Oct-14,1:00,13,CLE,-4.5,JAX,30,U,45,2014,Week 7,61341,JAX,4.5,-4.5,ARI,24,6,Y,67297,0,19,74,0,Jacksonville,KNIP,KNIP4193113,72,80,58,73,11,16,44,10,319,0,0,PC,High Clouds,20,79,79,53,41,64,50,12,25,250,SCT,10,646,71,717,706,777,1009,0,0,0,30.06,1017.4,54,CLR,Few High Clouds
JAC2019,19-Sep-19,19-Sep-19,8:20,20,TEN,-1.5,JAX,27,U,38,2019,Week 3,58613,JAX,1.5,-1.5,TEN,20,7,Y,67814,0,24,64,0,Jacksonville,KNIP,KNIP4372720,78,85,65,90,13,20,75,8.8,226,0.55,0,MC,Mostly Cloudy,23,74,78,67,79,69,50,16,100,250,BKN,7,0,0,0,0,0,0,0,0,0,30.12,1019.4,42,MC,Mostly Cloudy
JAC2015,20-Dec-15,20-Dec-15,1:00,13,JAX,-2,ATL,40,U,48,2015,Week 15,64016,JAX,-2,2,TEN,17,23,Y,66851,0,20,68,0,Jacksonville,KNIP,KNIP4235813,60,70,60,84,10,14,32,10,396,0,0,CLR,Fair,20,70,70,50,49,59,90,12,10,250,FEW,10,498,52,550,519,571,741,0,0,0,30.41,1029.1,45,CLR,Mostly Clear
JAC2013,20-Oct-13,20-Oct-13,1:00,13,LAC,-7,JAX,30,U,45,2013,Week 7,59550,JAX,7,-7,CAR,6,24,Y,67246,0,18,77,0,Jacksonville,KNIP,KNIP4156713,74,79,69,88,10,15,96,10,9,0.02,0,MC,Mostly Cloudy,20,78,80,61,56,67,30,8,95,250,BKN,10,487,70,557,701,771,1001,0,0,0,29.99,1015,52,PC,High Clouds
JAC2015,20-Sep-15,20-Sep-15,4:05,16,MIA,-6,JAX,43,O,42,2015,Week 2,65443,JAX,6,-6,DEN,23,20,N,66851,0,20,83,0,Jacksonville,KNIP,KNIP4226716,84,94,63,85,6,10,15,10,588,0,0,CLR,Mostly Clear,20,93,96,64,38,74,100,9,25,250,SCT,10,381,42,423,416,458,594,0,0,0,29.9,1011.9,54,CLR,Few High Clouds
JAC2014,21-Sep-14,21-Sep-14,1:00,13,IND,-6.5,JAX,61,O,45,2014,Week 3,60601,JAX,6.5,-6.5,TEN,17,44,Y,67297,0,19,85,0,Jacksonville,KNIP,KNIP4190313,80,91,58,82,7,14,8,10,655,0,0,CLR,Mostly Clear,20,86,87,61,43,70,0,0,5,250,FEW,10,835,85,920,848,933,1212,0,0,0,30,1015.4,45,CLR,Mostly Clear
JAC2013,22-Dec-13,22-Dec-13,1:00,13,TEN,-4.5,JAX,36,U,44,2013,Week 16,60559,JAX,4.5,-4.5,IND,16,20,N,67246,0,18,82,0,Jacksonville,KNIP,KNIP4163013,75,84,78,93,9,15,70,9.9,38,0,0,MC,Mostly Cloudy,20,78,81,67,69,71,170,10,100,250,BKN,10,177,52,229,520,572,742,0,0,0,30.11,1019,42,MC,Mostly Cloudy
JAC2016,23-Oct-16,23-Oct-16,1:00,13,JAX,-2,OAK,49,O,47.5,2016,Week 7,62614,JAX,-2,2,NYG,16,33,Y,64428,0,21,72,0,Jacksonville,KNIP,KNIP4266613,65,75,50,64,8,14,1,10,665,0,0,CLR,Fair,20,74,76,46,37,59,40,10,0,201,CLR,10,681,68,749,681,749,972,0,0,0,30.24,1023.6,46,CLR,Fair
JAC2016,24-Dec-16,24-Dec-16,1:00,13,TEN,-4.5,JAX,55,O,44,2016,Week 16,59621,JAX,4.5,-4.5,DEN,38,17,Y,64428,0,21,65,0,Jacksonville,KNIP,KNIP4272813,64,78,87,100,4,7,46,5.4,378,0,0,CLR,Fair,20,71,71,61,71,65,10,5,5,25,FEW,8,508,52,560,521,573,744,0,0,0,30.29,1025.2,46,CLR,Fair
JAC2017,24-Sep-17,24-Sep-17,9:30,21,BAL,-3,JAX,51,O,35,2017,Week 3,84592,JAX,3,-3,MIN,44,7,Y,64428,0,22,39,0,Jacksonville,KNIP,KNIP4300221,82,87,72,82,11,18,60,10,105,0,0,MC,Mostly Cloudy,20,79,83,72,79,74,30,10,25,250,SCT,10,0,0,0,0,0,0,0,0,0,29.93,1013.1,54,CLR,Few High Clouds
JAC2016,25-Sep-16,25-Sep-16,1:00,13,BAL,-2,JAX,36,U,45,2016,Week 3,60127,JAX,2,-2,TB,17,19,N,64428,0,21,87,0,Jacksonville,KNIP,KNIP4263813,83,91,70,85,7,15,53,10,265,0,0,PC,High Clouds,20,90,96,70,52,76,60,9,90,250,BKN,10,569,82,651,825,907,1178,0,0,0,30.03,1016.6,52,PC,High Clouds
JAC2014,26-Oct-14,26-Oct-14,1:00,13,MIA,-6.5,JAX,40,U,42,2014,Week 8,65633,JAX,6.5,-6.5,MIN,13,27,Y,67297,0,19,81,0,Jacksonville,KNIP,KNIP4193813,70,83,60,78,4,10,0,9.9,664,0,0,CLR,Fair,20,79,79,54,42,64,100,8,0,201,CLR,10,670,67,737,670,737,958,0,0,0,29.98,1014.8,46,CLR,Fair
JAC2019,27-Oct-19,27-Oct-19,1:00,13,JAX,-4,NYJ,44,O,53,2019,Week 8,57833,JAX,-4,4,PHI,29,15,Y,67814,0,24,51,0,Jacksonville,KNIP,KNIP4376513,79,83,83,91,8,12,78,9.8,8,0.01,0,MC,Mostly Cloudy,23,83,90,74,74,77,220,8,100,250,BKN,10,210,67,277,666,733,951,0,0,0,29.96,1013.9,18,RAIN,Light Rain
JAC2015,29-Nov-15,29-Nov-15,1:00,13,JAX,-5,LAC,56,O,47,2015,Week 12,59477,JAX,-5,5,GB,25,31,Y,66851,0,20,75,0,Jacksonville,KNIP,KNIP4233713,69,78,71,87,5,9,49,9.9,455,0,0,PC,High Clouds,20,77,78,55,47,64,10,9,10,250,FEW,10,518,54,572,540,594,772,0,0,0,30.14,1020.1,45,CLR,Mostly Clear
JAC2013,29-Sep-13,29-Sep-13,1:00,13,IND,-9,JAX,40,U,42.5,2013,Week 4,59695,JAX,9,-9,IND,3,37,Y,67246,0,18,80,0,Jacksonville,KNIP,KNIP4154613,76,83,74,90,12,18,67,10,52,0,0,MC,Mostly Cloudy,20,82,85,67,60,72,40,14,100,250,BKN,10,356,81,437,809,890,1156,0,0,0,30.01,1015.8,42,MC,Mostly Cloudy
JAC2014,30-Nov-14,30-Nov-14,1:00,13,NYG,-3,JAX,49,O,44,2014,Week 13,64687,JAX,3,-3,JAX,25,24,N,67297,0,19,72,0,Jacksonville,KNIP,KNIP4197313,63,76,73,87,3,9,7,9.1,557,0,0,CLR,Fair,20,75,77,56,52,64,120,6,20,36,SCT,10,484,54,538,538,592,769,0,0,0,30.33,1026.5,44,PC,Partly Cloudy
PHI2013,1-Dec-13,1-Dec-13,1:00,13,PHI,-3.5,ARI,45,U,48.5,2013,Week 13,69144,PHI,-3.5,3.5,ARI,24,21,N,69796,0,10,47,0,Philadelphia,KPHL,KPHL4160913,41,48,59,70,4,9,69,10,267,0,0,CLR,Mostly Clear,36,46,44,28,50,39,260,5,25,100,SCT,10,320,35,355,350,385,499,0,0,0,30.14,1020.6,45,CLR,Mostly Clear
PHI2016,1-Jan-17,1-Jan-17,1:00,13,PHI,-6.5,DAL,40,U,44,2016,Week 17,69596,PHI,-6.5,6.5,DAL,27,13,Y,69796,0,13,77,0,Philadelphia,KPHL,KPHL4273613,44,51,49,76,9,18,53,10,385,0,0,CLR,Mostly Clear,36,50,46,28,43,41,270,9,30,45,SCT,10,311,35,346,347,382,495,0,0,0,30.2,1022.6,45,CLR,Mostly Clear
PHI2017,5-Nov-17,5-Nov-17,1:00,13,PHI,-7,DEN,74,O,41,2017,Week 9,69596,PHI,-7,7,DEN,51,23,Y,69796,0,14,65,0,Philadelphia,KPHL,KPHL4304413,59,68,87,93,6,10,100,9.3,0,0.13,0,MC,Overcast,36,65,65,58,78,61,150,3,100,15,OVC,10,220,44,264,441,485,630,0,0,0,30.16,1021.2,40,MC,Overcast
PHI2014,5-Oct-14,5-Oct-14,1:00,13,PHI,-4,LAR,62,O,48,2014,Week 5,69596,PHI,-4,4,LAR,34,28,Y,69796,0,11,60,0,Philadelphia,KPHL,KPHL4191713,53,61,52,71,8,14,16,10,525,0,0,CLR,Mostly Clear,36,60,58,35,39,48,230,12,20,50,SCT,10,556,62,618,618,680,883,0,0,0,29.87,1011.6,44,PC,Partly Cloudy
PHI2014,7-Dec-14,7-Dec-14,4:25,16,SEA,-1.5,PHI,38,U,48,2014,Week 14,69596,PHI,1.5,-1.5,SEA,14,24,Y,69796,0,11,39,0,Philadelphia,KPHL,KPHL4198016,40,48,48,82,18,25,40,10,404,0,0,CLR,Mostly Clear,36,46,39,15,29,35,200,18,5,250,FEW,10,19,2,21,19,21,28,0,0,0,30.48,1032.3,45,CLR,Mostly Clear
PHI2014,7-Sep-14,7-Sep-14,1:00,13,PHI,-10,JAX,51,O,50,2014,Week 1,69596,PHI,-10,10,JAX,34,17,Y,69796,0,11,80,0,Philadelphia,KPHL,KPHL4188913,73,83,60,79,7,15,80,10,272,0,0,CLR,Mostly Clear,36,78,79,55,45,64,40,3,60,50,SCT,10,601,78,679,781,859,1116,0,0,0,30.1,1019.3,44,PC,Partly Cloudy
PHI2013,8-Dec-13,8-Dec-13,1:00,13,PHI,-2.5,DET,54,O,51,2013,Week 14,69144,PHI,-2.5,2.5,DET,34,20,Y,69796,0,10,27,0,Philadelphia,KPHL,KPHL4161613,29,33,72,92,10,16,82,5.9,0,0.57,8.6,MC,Mostly Cloudy,36,27,19,24,89,26,200,8,100,4,VV,0.2,169,34,203,338,372,483,99,0.13,2.2,30.55,1034.7,6,SNOW,Heavy Snow
PHI2017,8-Oct-17,8-Oct-17,1:00,13,PHI,-6.5,ARI,41,U,45,2017,Week 5,69596,PHI,-6.5,6.5,ARI,34,7,Y,69796,0,14,75,0,Philadelphia,KPHL,KPHL4301613,77,81,83,91,10,15,100,9.7,0,0.02,0,CLR,Mostly Clear,36,79,83,72,79,74,240,13,100,40,OVC,10,315,60,375,600,660,857,0,0,0,29.95,1014.1,18,RAIN,Light Rain
PHI2014,10-Nov-14,10-Nov-14,8:30,20,PHI,-7,CAR,66,O,48.5,2014,Week 10,69596,PHI,-7,7,CAR,45,21,Y,69796,0,11,49,0,Philadelphia,KPHL,KPHL4195320,50,63,62,82,2,8,11,10,521,0,0,CLR,Mostly Clear,36,50,50,39,66,45,0,0,5,260,FEW,10,0,0,0,0,0,0,0,0,0,30.18,1021.9,45,CLR,Mostly Clear
PHI2016,11-Dec-16,11-Dec-16,1:00,13,WAS,-2.5,PHI,49,O,48.5,2016,Week 14,69596,PHI,2.5,-2.5,WAS,22,27,Y,69796,0,13,33,0,Philadelphia,KPHL,KPHL4271513,32,35,55,67,5,9,99,9.9,0,0,0,MC,Mostly Cloudy,36,33,26,15,48,27,200,8,100,100,OVC,10,100,33,133,334,367,478,0,0,0,30.49,1032.4,42,MC,Mostly Cloudy
PHI2015,11-Oct-15,11-Oct-15,1:00,13,PHI,-6.5,NO,56,O,49.5,2015,Week 5,69296,PHI,-6.5,6.5,NO,39,17,Y,69796,0,12,67,0,Philadelphia,KPHL,KPHL4228813,59,70,63,86,5,10,17,10,457,0,0,CLR,Fair,36,67,67,43,42,54,190,10,5,250,FEW,10,573,58,631,582,640,831,0,0,0,29.94,1013.9,45,CLR,Mostly Clear
PHI2016,11-Sep-16,11-Sep-16,1:00,13,PHI,-3.5,CLE,39,U,41,2016,Week 1,69596,PHI,-3.5,3.5,CLE,29,10,Y,69796,0,13,83,0,Philadelphia,KPHL,KPHL4262413,80,85,54,82,12,20,91,10,19,0,0,CLR,Mostly Clear,36,81,81,53,38,64,310,10,100,50,BKN,10,502,75,577,755,830,1079,0,0,0,30.03,1016.8,45,CLR,Mostly Clear
PHI2014,12-Oct-14,12-Oct-14,8:30,20,PHI,-1.5,NYG,27,U,51,2014,Week 6,69596,PHI,-1.5,1.5,NYG,27,0,Y,69796,0,11,57,0,Philadelphia,KPHL,KPHL4192420,55,64,67,89,5,10,43,10,379,0,0,CLR,Mostly Clear,36,55,53,47,74,51,160,7,20,130,SCT,10,0,0,0,0,0,0,0,0,0,30.29,1025.9,44,PC,Partly Cloudy
PHI2015,13-Dec-15,13-Dec-15,1:00,13,PHI,-1,BUF,43,U,48.5,2015,Week 14,69596,PHI,-1,1,BUF,23,20,Y,69796,0,12,69,0,Philadelphia,KPHL,KPHL4235113,60,71,77,87,3,8,83,7.9,60,0,0,MC,Mostly Cloudy,36,70,70,55,59,61,200,5,75,200,BKN,9,258,33,291,334,367,478,0,0,0,30.12,1020.1,45,CLR,Mostly Clear
PHI2016,13-Nov-16,13-Nov-16,1:00,13,PHI,-1.5,ATL,39,U,49,2016,Week 10,69596,PHI,-1.5,1.5,ATL,24,15,Y,69796,0,13,54,0,Philadelphia,KPHL,KPHL4268713,47,60,49,70,9,14,11,10,528,0,0,CLR,Mostly Clear,36,57,54,25,29,44,230,13,20,280,SCT,10,377,40,417,401,441,573,0,0,0,30.15,1021.1,54,CLR,Few High Clouds
PHI2014,14-Dec-14,14-Dec-14,8:30,20,PHI,-3.5,DAL,65,O,55,2014,Week 15,69596,PHI,-3.5,3.5,DAL,27,38,Y,69796,0,11,42,0,Philadelphia,KPHL,KPHL4198720,42,47,64,74,9,17,99,9.9,0,0,0,MC,Overcast,36,46,41,32,58,40,340,10,100,31,OVC,10,0,0,0,0,0,0,0,0,0,29.99,1015.6,40,MC,Overcast
PHI2015,15-Nov-15,15-Nov-15,1:00,13,PHI,-6,MIA,39,U,49.5,2015,Week 10,69596,PHI,-6,6,MIA,19,20,N,69796,0,12,59,0,Philadelphia,KPHL,KPHL4232313,50,61,51,76,11,15,16,10,427,0,0,CLR,Mostly Clear,36,60,58,29,31,46,230,13,5,250,FEW,10,391,40,431,397,437,567,0,0,0,30.27,1025,45,CLR,Mostly Clear
PHI2013,15-Sep-13,15-Sep-13,1:00,13,PHI,-7.5,LAC,63,O,52.5,2013,Week 2,69144,PHI,-7.5,7.5,LAC,30,33,N,69796,0,10,72,0,Philadelphia,KPHL,KPHL4153213,63,74,61,77,5,10,51,10,311,0,0,MC,Mostly Cloudy,36,72,72,47,41,58,230,7,75,55,CLR,10,565,74,639,738,812,1054,0,0,0,30.19,1022.2,45,CLR,Mostly Clear
PHI2013,17-Nov-13,17-Nov-13,1:00,13,PHI,-4.5,WAS,40,U,55,2013,Week 11,69144,PHI,-4.5,4.5,WAS,24,16,Y,69796,0,10,67,0,Philadelphia,KPHL,KPHL4159513,60,69,76,84,6,14,96,9,42,0,0,MC,Mostly Cloudy,36,68,68,53,59,60,230,6,100,30,BKN,10,158,39,197,390,429,557,0,0,0,30.1,1019.2,42,MC,Mostly Cloudy
PHI2015,19-Oct-15,19-Oct-15,8:30,20,PHI,-3.5,NYG,34,U,50.5,2015,Week 6,69296,PHI,-3.5,3.5,NYG,27,7,Y,69796,0,12,44,0,Philadelphia,KPHL,KPHL4229620,45,55,56,78,8,14,1,10,650,0,0,CLR,Fair,36,49,45,32,52,42,210,9,0,301,SCT,10,0,0,0,0,0,0,0,0,0,30.37,1028.4,46,CLR,Fair
PHI2013,19-Sep-13,19-Sep-13,8:25,20,PHI,-3.5,KC,42,U,50.5,2013,Week 3,69144,PHI,-3.5,3.5,KC,16,26,Y,69796,0,10,73,0,Philadelphia,KPHL,KPHL4153620,65,76,64,83,4,10,7,10,648,0,0,CLR,Fair,36,67,67,54,63,60,210,10,0,201,CLR,10,0,0,0,0,0,0,0,0,0,30.13,1020.2,46,CLR,Fair
PHI2015,20-Dec-15,20-Dec-15,8:30,20,ARI,-4,PHI,57,O,51.5,2015,Week 15,69596,PHI,4,-4,ARI,17,40,Y,69796,0,12,34,0,Philadelphia,KPHL,KPHL4235820,36,43,48,57,9,15,28,10,343,0,0,CLR,Fair,36,37,33,21,52,31,170,5,20,196,CLR,10,0,0,0,0,0,0,0,0,0,30.5,1032.8,46,CLR,Fair
PHI2013,20-Oct-13,20-Oct-13,1:00,13,PHI,-3,DAL,20,U,55.5,2013,Week 7,69144,PHI,-3,3,DAL,3,17,Y,69796,0,10,62,0,Philadelphia,KPHL,KPHL4156713,55,63,52,77,10,18,1,10,645,0,0,CLR,Fair,36,61,59,33,35,48,280,12,0,201,CLR,10,527,53,580,527,580,753,0,0,0,30,1016,46,CLR,Fair
PHI2015,20-Sep-15,20-Sep-15,4:25,16,PHI,-6.5,DAL,30,U,54,2015,Week 2,69296,PHI,-6.5,6.5,DAL,10,20,Y,69796,0,12,74,0,Philadelphia,KPHL,KPHL4226716,72,80,57,90,12,21,63,10,267,0,0,MC,Mostly Cloudy,36,79,79,49,35,62,340,9,10,50,FEW,10,260,27,287,271,298,387,0,0,0,29.98,1015.4,45,CLR,Mostly Clear
PHI2014,21-Sep-14,21-Sep-14,1:00,13,PHI,-4,WAS,71,O,50,2014,Week 3,69596,PHI,-4,4,WAS,37,34,N,69796,0,11,76,0,Philadelphia,KPHL,KPHL4190313,72,79,79,93,6,14,91,8.6,36,0,0,CLR,Mostly Clear,36,76,79,66,72,69,130,7,100,20,BKN,10,446,70,516,703,773,1005,0,0,0,29.74,1007.1,45,CLR,Mostly Clear
PHI2013,22-Dec-13,22-Dec-13,8:30,20,PHI,-3,CHI,65,O,54,2013,Week 16,69144,PHI,-3,3,CHI,54,11,Y,69796,0,10,62,0,Philadelphia,KPHL,KPHL4163020,64,68,79,84,14,26,99,9.7,0,0.04,0,MC,Mostly Cloudy,36,60,59,55,84,57,200,8,97,120,SCT,10,0,0,0,0,0,0,0,0,0,29.98,1015.1,44,PC,Partly Cloudy
PHI2016,22-Dec-16,22-Dec-16,8:25,20,PHI,-1,NYG,43,O,42.5,2016,Week 16,69596,PHI,-1,1,NYG,24,19,Y,69796,0,13,41,0,Philadelphia,KPHL,KPHL4272620,42,53,54,75,10,22,62,10,278,0,0,CLR,Mostly Clear,36,43,37,25,49,36,290,12,100,55,OVC,10,0,0,0,0,0,0,0,0,0,30.2,1022.7,40,MC,Overcast
PHI2015,22-Nov-15,22-Nov-15,1:00,13,PHI,-6.5,TB,62,O,45.5,2015,Week 11,69596,PHI,-6.5,6.5,TB,17,45,Y,69796,0,12,48,0,Philadelphia,KPHL,KPHL4233013,48,53,52,83,13,16,87,10,6,0,0,CLR,Mostly Clear,36,49,44,23,36,39,340,12,100,90,OVC,10,233,37,270,373,410,533,0,0,0,29.96,1014.6,45,CLR,Mostly Clear
PHI2014,23-Nov-14,23-Nov-14,1:00,13,PHI,-11.5,TEN,67,O,49,2014,Week 12,69596,PHI,-11.5,11.5,TEN,43,24,Y,69796,0,11,53,0,Philadelphia,KPHL,KPHL4196613,48,57,50,78,7,12,92,9.9,61,0,0,CLR,Mostly Clear,36,52,48,25,35,41,210,12,80,100,BKN,10,276,37,313,369,406,528,0,0,0,30.18,1022,45,CLR,Mostly Clear
PHI2016,23-Oct-16,23-Oct-16,1:00,13,MIN,-3,PHI,31,U,39,2016,Week 7,69596,PHI,3,-3,MIN,21,10,Y,69796,0,13,61,0,Philadelphia,KPHL,KPHL4266613,56,66,55,69,14,24,30,10,419,0,0,CLR,Mostly Clear,36,64,62,37,37,51,290,24,70,60,BKN,10,328,50,378,504,554,720,0,0,0,29.91,1012.9,42,MC,Mostly Cloudy
PHI2017,23-Oct-17,23-Oct-17,8:30,20,PHI,-5.5,WAS,58,O,49,2017,Week 7,69596,PHI,-5.5,5.5,WAS,34,24,Y,69796,0,14,82,0,Philadelphia,KPHL,KPHL4303120,69,77,83,100,9,14,100,8.2,0,0,0,MC,Overcast,36,70,70,65,84,67,140,10,100,130,OVC,10,0,0,0,0,0,0,0,0,0,30,1015.7,40,MC,Overcast
PHI2017,24-Sep-17,24-Sep-17,1:00,13,PHI,-5.5,NYG,51,O,42.5,2017,Week 3,69596,PHI,-5.5,5.5,NYG,27,24,N,69796,0,14,27,0,Philadelphia,KPHL,KPHL4300213,80,92,58,79,5,12,3,10,697,0,0,CLR,Fair,36,90,92,63,41,72,90,12,5,250,FEW,10,676,69,745,686,755,979,0,0,0,30.04,1017.3,45,CLR,Mostly Clear
PHI2017,25-Dec-17,25-Dec-17,8:30,20,PHI,-10,OAK,29,U,46.5,2017,Week 16,69596,PHI,-10,10,OAK,19,10,N,69796,0,14,41,0,Philadelphia,KPHL,KPHL4309420,35,40,56,93,19,30,67,9.8,241,0.02,0,PC,Partly Cloudy,36,30,19,7,38,24,270,14,20,150,SCT,10,0,0,0,0,0,0,0,0,0,30.27,1025,44,PC,Partly Cloudy
PHI2016,25-Sep-16,25-Sep-16,4:25,16,PIT,-4,PHI,37,U,46.5,2016,Week 3,69596,PHI,4,-4,PIT,34,3,Y,69796,0,13,71,0,Philadelphia,KPHL,KPHL4263816,64,74,47,70,7,13,13,10,644,0,0,CLR,Few High Clouds,36,72,72,39,30,55,320,7,20,280,SCT,10,223,24,247,237,261,339,0,0,0,30.13,1020.2,54,CLR,Few High Clouds
PHI2015,26-Dec-15,26-Dec-15,8:25,20,PHI,-3.5,WAS,62,O,48.5,2015,Week 16,69596,PHI,-3.5,3.5,WAS,24,38,Y,69796,0,12,50,0,Philadelphia,KPHL,KPHL4236420,55,63,67,90,10,17,100,9.2,0,0,0,MC,Overcast,36,52,50,44,75,48,80,7,100,19,OVC,10,0,0,0,0,0,0,0,0,0,30.39,1029,40,MC,Overcast
PHI2017,26-Nov-17,26-Nov-17,1:00,13,PHI,-13.5,CHI,34,U,43.5,2017,Week 12,69596,PHI,-13.5,13.5,CHI,31,3,Y,69796,0,14,64,0,Philadelphia,KPHL,KPHL4306513,46,53,49,68,11,17,32,10,278,0,0,CLR,Fair,36,50,44,26,39,40,300,17,90,300,BKN,10,264,36,300,362,398,517,0,0,0,29.99,1015.4,52,PC,High Clouds
PHI2013,27-Oct-13,27-Oct-13,1:00,13,PHI,-5.5,NYG,22,U,50,2013,Week 8,69144,PHI,-5.5,5.5,NYG,7,15,Y,69796,0,10,58,0,Philadelphia,KPHL,KPHL4157413,51,59,45,58,10,16,23,10,453,0,0,CLR,Mostly Clear,36,58,55,29,33,45,270,16,25,60,SCT,10,446,49,495,487,536,696,0,0,0,30,1016,45,CLR,Mostly Clear
PHI2016,28-Nov-16,28-Nov-16,8:30,20,PHI,-4,GB,40,U,47.5,2016,Week 12,69596,PHI,-4,4,GB,13,27,Y,69796,0,13,47,0,Philadelphia,KPHL,KPHL4270220,44,53,63,86,6,13,72,9.9,281,0,0,PC,Partly Cloudy,36,48,45,37,66,43,160,6,100,50,OVC,10,0,0,0,0,0,0,0,0,0,30.13,1020.4,44,PC,Partly Cloudy
PHI2017,29-Oct-17,29-Oct-17,1:00,13,PHI,-13,SF,43,U,44.5,2017,Week 8,69596,PHI,-13,13,SF,33,10,Y,69796,0,14,32,0,Philadelphia,KPHL,KPHL4303713,63,67,90,100,9,17,100,7.9,0,1.96,0,RAIN,Light Rain,36,66,66,64,93,65,120,10,100,25,OVC,10,238,48,286,477,525,681,0,0,0,29.49,998.7,18,RAIN,Light Rain
PHI2017,31-Dec-17,31-Dec-17,1:00,13,DAL,-4,PHI,6,U,41,2017,Week 17,69596,PHI,4,-4,DAL,0,6,Y,69796,0,14,55,0,Philadelphia,KPHL,KPHL4310013,15,20,48,55,12,18,39,10,85,0,0,CLR,Fair,36,17,2,-2,43,13,300,16,100,190,OVC,10,224,34,258,344,378,492,0,0,0,30.32,1026.8,40,MC,Overcast
LAC2013,1-Dec-13,1-Dec-13,4:25,16,CIN,-1.5,LAC,27,U,48.5,2013,Week 13,61536,LAC,1.5,-1.5,OAK,10,17,Y,70561,0,46,77,0,San Diego,KSAN,KSAN4160916,64,74,55,72,3,10,39,9.2,229,0,0,MC,Mostly Cloudy,16,69,69,51,53,59,310,9,75,200,BKN,9,30,4,34,39,43,56,0,0,0,30.1,1019.3,45,CLR,Mostly Clear
LAC2016,1-Jan-17,1-Jan-17,4:25,16,KC,-6,LAC,64,O,44.5,2016,Week 17,54915,LAC,6,-6,SEA,27,37,Y,70561,0,49,52,0,San Diego,KSAN,KSAN4273616,55,59,70,86,5,12,83,9.9,149,0,0,CLR,Mostly Clear,16,58,56,42,56,50,200,9,100,33,BKN,10,20,6,26,64,70,92,0,0,0,29.99,1015.5,44,PC,Partly Cloudy
LAC2016,2-Oct-16,2-Oct-16,4:25,16,LAC,-4,NO,69,O,54,2016,Week 4,60641,LAC,-4,4,NO,34,35,N,70561,0,49,73,0,San Diego,KSAN,KSAN4264516,69,73,69,78,6,12,54,10,465,0,0,MC,Mostly Cloudy,16,71,71,58,63,63,220,7,5,19,FEW,10,195,20,215,200,220,285,0,0,0,29.96,1014.4,45,CLR,Mostly Clear
LAC2016,4-Dec-16,4-Dec-16,4:25,16,LAC,-3.5,TB,49,P,49,2016,Week 13,53832,LAC,-3.5,3.5,PIT,21,28,Y,70561,0,49,71,0,San Diego,KSAN,KSAN4270816,58,70,53,96,3,8,22,9.4,583,0,0,CLR,Fair,16,63,63,51,65,56,300,8,5,250,FEW,10,38,4,42,39,43,55,0,0,0,30,1016,45,CLR,Mostly Clear
LAC2015,4-Oct-15,4-Oct-15,4:05,16,LAC,-5,CLE,57,O,44.5,2015,Week 4,63710,LAC,-5,5,SF,30,27,N,70561,0,48,68,0,San Diego,KSAN,KSAN4228116,70,73,71,82,8,13,98,9.6,0,0.14,0,PC,Partly Cloudy,16,70,70,57,64,62,230,12,100,20,BKN,10,97,19,116,194,213,277,0,0,0,29.69,1005.3,44,PC,Partly Cloudy
LAC2014,5-Oct-14,5-Oct-14,4:25,16,LAC,-7,NYJ,31,U,44.5,2014,Week 5,63471,LAC,-7,7,NYG,31,0,Y,70561,0,47,83,0,San Diego,KSAN,KSAN4191716,75,89,48,93,2,8,4,9.1,684,0,0,CLR,Mostly Clear,16,79,79,53,41,64,160,5,5,4,FEW,10,184,19,203,189,208,269,0,0,0,29.87,1011.4,45,CLR,Mostly Clear
LAC2015,6-Dec-15,6-Dec-15,4:05,16,DEN,-6,LAC,20,U,45,2015,Week 13,68631,LAC,6,-6,TB,3,17,Y,70561,0,48,71,0,San Diego,KSAN,KSAN4234416,63,76,40,65,3,12,75,10,59,0,0,PC,Partly Cloudy,16,71,71,43,36,56,320,7,90,200,BKN,10,29,4,33,40,44,57,0,0,0,30.14,1020.6,44,PC,Partly Cloudy
LAC2016,6-Nov-16,6-Nov-16,4:25,16,LAC,-4,TEN,78,O,47.5,2016,Week 9,52281,LAC,-4,4,SEA,43,35,Y,70561,0,49,74,0,San Diego,KSAN,KSAN4268016,65,75,79,93,4,12,56,6.9,318,0,0,CLR,Mostly Clear,16,69,69,60,73,64,300,12,25,5,BKN,10,62,7,69,68,75,97,0,0,0,30.05,1017.6,45,CLR,Mostly Clear
LAC2014,7-Dec-14,7-Dec-14,8:30,20,NE,-4,LAC,37,U,54,2014,Week 14,68815,LAC,4,-4,CLE,14,23,Y,70561,0,47,64,0,San Diego,KSAN,KSAN4198020,65,77,74,97,3,17,79,8.2,133,0,0,CLR,Mostly Clear,16,66,66,55,68,60,0,0,70,250,BKN,10,0,0,0,0,0,0,0,0,0,30.1,1019.3,52,PC,High Clouds
LAC2013,8-Dec-13,8-Dec-13,4:25,16,LAC,-4.5,NYG,51,O,47,2013,Week 14,65132,LAC,-4.5,4.5,NO,37,14,Y,70561,0,46,53,0,San Diego,KSAN,KSAN4161616,54,57,48,59,7,13,78,9.8,28,0,0,MC,Mostly Cloudy,16,56,54,32,40,45,210,7,90,40,BKN,10,26,4,30,40,44,58,0,0,0,30.14,1020.6,44,PC,Partly Cloudy
LAC2015,9-Nov-15,9-Nov-15,8:30,20,LAC,-3.5,CHI,41,U,49.5,2015,Week 9,68033,LAC,-3.5,3.5,ATL,19,22,N,70561,0,48,61,0,San Diego,KSAN,KSAN4231720,64,69,66,93,5,12,63,10,118,0.03,0,CLR,Mostly Clear,16,63,63,48,58,55,300,7,45,35,SCT,10,0,0,0,0,0,0,0,0,0,30.05,1017.6,45,CLR,Mostly Clear
LAC2013,9-Sep-13,9-Sep-13,10:20,22,HOU,-6,LAC,59,O,44.5,2013,Week 1,59522,LAC,6,-6,BAL,28,31,N,70561,0,46,70,0,San Diego,KSAN,KSAN4152622,70,75,75,81,6,12,61,10,395,0,0,CLR,Mostly Clear,16,68,68,60,76,63,250,3,75,16,BKN,10,0,0,0,0,0,0,0,0,0,29.83,1010.2,46,CLR,Fair
LAC2013,10-Nov-13,10-Nov-13,4:25,16,DEN,-7,LAC,48,U,57.5,2013,Week 10,68847,LAC,7,-7,PIT,20,28,Y,70561,0,46,78,0,San Diego,KSAN,KSAN4158816,67,78,40,70,3,8,34,9.8,463,0,0,CLR,Mostly Clear,16,75,75,22,14,51,200,5,5,200,FEW,10,61,6,67,62,68,89,0,0,0,30.04,1017.4,45,CLR,Mostly Clear
LAC2015,12-Oct-15,12-Oct-15,8:30,20,LAC,-4,PIT,44,U,45.5,2015,Week 5,67658,LAC,-4,4,ARI,20,24,N,70561,0,48,76,0,San Diego,KSAN,KSAN4228920,82,94,49,62,3,12,72,9.9,1,0,0,CLR,Mostly Clear,16,81,83,63,54,69,0,0,95,100,BKN,10,0,0,0,0,0,0,0,0,0,29.94,1013.8,45,CLR,Mostly Clear
LAC2016,13-Nov-16,13-Nov-16,4:05,16,LAC,-4.5,MIA,55,O,49,2016,Week 10,55107,LAC,-4.5,4.5,PIT,24,31,Y,70561,0,49,84,0,San Diego,KSAN,KSAN4268716,73,84,36,59,4,13,47,10,349,0,0,CLR,Mostly Clear,16,81,81,44,27,60,320,8,5,250,FEW,10,54,5,59,55,60,78,0,0,0,30.02,1016.5,45,CLR,Mostly Clear
LAC2016,13-Oct-16,13-Oct-16,8:25,20,DEN,-3,LAC,34,U,44.5,2016,Week 6,58904,LAC,3,-3,DEN,21,13,Y,70561,0,49,69,0,San Diego,KSAN,KSAN4265620,67,73,70,78,7,15,40,10,539,0,0,CLR,Mostly Clear,16,66,66,58,75,61,320,5,10,18,FEW,10,0,0,0,0,0,0,0,0,0,30,1015.8,45,CLR,Mostly Clear
LAC2015,13-Sep-15,13-Sep-15,4:05,16,LAC,-3.5,DET,61,O,45.5,2015,Week 1,66093,LAC,-3.5,3.5,DEN,33,28,Y,70561,0,48,82,0,San Diego,KSAN,KSAN4226016,79,85,64,76,5,9,4,10,696,0,0,CLR,Mostly Clear,16,83,85,64,53,71,290,8,5,60,FEW,10,296,30,326,304,334,435,0,0,0,29.78,1008.5,45,CLR,Mostly Clear
LAC2014,14-Dec-14,14-Dec-14,4:05,16,DEN,-4,LAC,32,U,49.5,2014,Week 15,68682,LAC,4,-4,PHI,10,22,Y,70561,0,47,62,0,San Diego,KSAN,KSAN4198716,57,65,66,75,2,10,42,10,333,0,0,CLR,Mostly Clear,16,62,62,48,60,54,290,8,95,15,BKN,10,29,4,33,42,46,60,0,0,0,30.08,1018.5,45,CLR,Mostly Clear
LAC2013,14-Oct-13,14-Oct-13,8:40,20,IND,-1.5,LAC,28,U,51,2013,Week 6,57954,LAC,1.5,-1.5,MIN,19,9,Y,70561,0,46,69,0,San Diego,KSAN,KSAN4156120,64,74,73,84,5,14,2,8.2,671,0,0,CLR,Fair,16,66,66,60,81,62,300,3,5,18,FEW,8,0,0,0,0,0,0,0,0,0,29.95,1014.1,45,CLR,Mostly Clear
LAC2014,14-Sep-14,14-Sep-14,4:05,16,SEA,-5,LAC,51,O,45,2014,Week 2,67916,LAC,5,-5,PIT,30,21,Y,70561,0,47,85,0,San Diego,KSAN,KSAN4189616,78,85,71,88,5,13,16,9.7,540,0,0,CLR,Mostly Clear,16,84,87,67,57,73,300,6,45,50,SCT,10,248,30,278,297,327,424,0,0,0,29.71,1006.1,45,CLR,Mostly Clear
LAC2014,16-Nov-14,16-Nov-14,4:05,16,LAC,-10,OAK,19,U,45.5,2014,Week 11,66720,LAC,-10,10,LAC,13,6,N,70561,0,47,71,0,San Diego,KSAN,KSAN4195916,65,73,57,78,4,16,44,10,340,0,0,CLR,Mostly Clear,16,69,69,51,53,59,330,16,25,35,SCT,10,48,5,53,52,57,75,0,0,0,30.09,1018.9,45,CLR,Mostly Clear
LAC2016,18-Dec-16,18-Dec-16,4:25,16,OAK,-2.5,LAC,35,U,51,2016,Week 15,68352,LAC,2.5,-2.5,NO,16,19,Y,70561,0,49,60,0,San Diego,KSAN,KSAN4272216,52,62,47,68,3,9,4,10,570,0,0,CLR,Mostly Clear,16,61,60,27,27,46,310,8,5,250,FEW,10,45,5,50,46,51,66,0,0,0,30.14,1020.8,45,CLR,Mostly Clear
LAC2016,18-Sep-16,18-Sep-16,4:25,16,LAC,-3,JAX,52,O,47.5,2016,Week 2,52165,LAC,-3,3,CAR,38,14,Y,70561,0,49,78,0,San Diego,KSAN,KSAN4263116,68,76,82,97,4,9,36,6.4,510,0,0,CLR,Fair,16,74,77,63,69,67,300,7,10,200,FEW,10,261,27,288,273,300,390,0,0,0,29.91,1012.7,45,CLR,Mostly Clear
LAC2014,19-Oct-14,19-Oct-14,4:05,16,LAC,-3,KC,43,U,46,2014,Week 7,65260,LAC,-3,3,SEA,20,23,N,70561,0,47,71,0,San Diego,KSAN,KSAN4193116,70,75,69,78,4,14,36,10,452,0,0,PC,Partly Cloudy,16,72,72,60,66,65,310,8,5,20,FEW,10,123,13,136,126,139,180,0,0,0,29.85,1011,45,CLR,Mostly Clear
LAC2015,20-Dec-15,20-Dec-15,4:25,16,LAC,-1,MIA,44,U,47,2015,Week 15,66676,LAC,-1,1,IND,30,14,Y,70561,0,48,60,0,San Diego,KSAN,KSAN4235816,59,63,53,65,6,13,85,10,61,0,0,PC,Partly Cloudy,16,60,60,42,52,51,220,6,90,43,BKN,10,31,5,36,48,53,69,0,0,0,30.15,1021.1,44,PC,Partly Cloudy
LAC2013,22-Dec-13,22-Dec-13,4:25,16,LAC,-10,OAK,39,U,50.5,2013,Week 16,65675,LAC,-10,10,NO,26,13,Y,70561,0,46,69,0,San Diego,KSAN,KSAN4163016,58,67,68,80,3,9,0,9.3,597,0,0,CLR,Fair,16,65,65,51,61,57,300,5,0,143,CLR,10,50,5,55,50,55,72,0,0,0,30.17,1021.7,46,CLR,Fair
LAC2015,22-Nov-15,22-Nov-15,4:05,16,KC,-3,LAC,36,U,45.5,2015,Week 11,65837,LAC,3,-3,KC,3,33,Y,70561,0,48,78,0,San Diego,KSAN,KSAN4233016,70,84,29,45,2,9,1,10,610,0,0,CLR,Fair,16,81,81,35,19,57,300,6,5,200,FEW,10,44,5,49,45,50,65,0,0,0,29.87,1011.5,45,CLR,Mostly Clear
LAC2014,23-Nov-14,23-Nov-14,4:05,16,LAC,-5,LAR,51,O,43.5,2014,Week 12,66040,LAC,-5,5,NYG,27,24,N,70561,0,47,72,0,San Diego,KSAN,KSAN4196616,64,71,65,81,3,10,48,10,240,0,0,PC,High Clouds,16,70,70,52,53,60,320,10,70,250,BKN,10,36,5,41,45,50,64,0,0,0,30.06,1017.9,52,PC,High Clouds
LAC2015,25-Oct-15,25-Oct-15,4:05,16,LAC,-3.5,OAK,66,O,48.5,2015,Week 7,67542,LAC,-3.5,3.5,DAL,29,37,Y,70561,0,48,77,0,San Diego,KSAN,KSAN4230216,72,78,63,87,2,7,75,10,108,0,0,CLR,Mostly Clear,16,75,78,68,79,70,0,0,95,10,BKN,10,69,10,79,105,115,150,0,0,0,29.89,1012.2,45,CLR,Mostly Clear
LAC2014,28-Sep-14,28-Sep-14,4:05,16,LAC,-12,JAX,47,O,44.5,2014,Week 4,56553,LAC,-12,12,OAK,33,14,Y,70561,0,47,72,0,San Diego,KSAN,KSAN4191016,69,74,64,71,7,12,52,10,188,0,0,CLR,Mostly Clear,16,71,71,58,63,63,250,12,100,24,BKN,10,112,22,134,223,245,319,0,0,0,29.91,1012.8,42,MC,Mostly Cloudy
LAC2013,29-Dec-13,29-Dec-13,4:25,16,LAC,-14.5,KC,51,O,46,2013,Week 17,66374,LAC,-14.5,14.5,CIN,27,24,N,70561,0,46,73,0,San Diego,KSAN,KSAN4163716,58,70,52,83,3,10,2,9.2,596,0,0,CLR,Fair,16,66,66,42,42,54,310,10,5,4,FEW,10,58,6,64,59,65,84,0,0,0,30.03,1016.9,45,CLR,Mostly Clear
LAC2013,29-Sep-13,29-Sep-13,4:25,16,DAL,-1.5,LAC,51,O,47,2013,Week 4,68601,LAC,1.5,-1.5,LAC,30,21,Y,70561,0,46,80,0,San Diego,KSAN,KSAN4154616,70,81,50,84,3,14,2,10,712,0,0,CLR,Fair,16,76,77,53,45,63,290,7,0,201,CLR,10,219,22,241,219,241,313,0,0,0,29.98,1015.4,46,CLR,Fair
SFN2013,1-Dec-13,1-Dec-13,4:05,16,SF,-7.5,LAR,36,U,40.5,2013,Week 13,69732,SF,-7.5,7.5,SF,23,13,Y,69732,0,42,66,0,San Jose,KSJC,KSJC4160916,54,67,67,89,2,10,2,9.9,564,0,0,CLR,Fair,62,66,66,41,40,53,330,9,5,180,FEW,10,47,5,52,48,53,68,0,0,0,30.22,1023.5,45,CLR,Mostly Clear
SFN2016,1-Jan-17,1-Jan-17,4:25,16,SEA,-11.5,SF,48,O,44.5,2016,Week 17,70178,SF,11.5,-11.5,CHI,23,25,N,75000,0,2,36,0,San Jose,KSJC,KSJC4273616,47,56,66,82,6,16,84,9.9,132,0,0,CLR,Mostly Clear,62,54,50,34,47,45,300,15,95,30,BKN,10,36,7,43,69,76,99,0,0,0,29.93,1013.4,45,CLR,Mostly Clear
OAK2015,1-Nov-15,1-Nov-15,4:05,16,NYJ,-3,OAK,54,O,44,2015,Week 8,54700,OAK,3,-3,BAL,34,20,Y,56057,0,49,68,0,San Jose,KSJC,KSJC4230916,64,73,76,90,5,14,57,10,447,0,0,CLR,Mostly Clear,62,71,71,58,63,63,300,12,5,28,FEW,10,100,10,110,103,113,147,0,0,0,30.04,1017.3,45,CLR,Mostly Clear
SFN2014,2-Nov-14,2-Nov-14,4:05,16,SF,-10.5,LAR,23,U,44,2014,Week 9,70799,SF,-10.5,10.5,WAS,10,13,N,75000,1,0,64,0,San Jose,KSJC,KSJC4194516,54,65,73,93,5,17,5,10,603,0,0,CLR,Mostly Clear,62,63,62,40,43,51,290,12,5,34,FEW,10,97,10,107,99,109,142,0,0,0,30.12,1019.9,45,CLR,Mostly Clear
SFN2016,2-Oct-16,2-Oct-16,4:25,16,DAL,-1.5,SF,41,U,44,2016,Week 4,70178,SF,1.5,-1.5,NYJ,17,24,Y,75000,0,2,68,0,San Jose,KSJC,KSJC4264516,61,72,60,78,7,17,41,9.9,268,0,0,CLR,Mostly Clear,62,68,68,45,44,56,310,15,45,18,SCT,10,182,24,206,235,259,336,0,0,0,30.03,1016.9,45,CLR,Mostly Clear
OAK2017,3-Dec-17,3-Dec-17,4:25,16,OAK,-9.5,NYG,41,U,42.5,2017,Week 13,54994,OAK,-9.5,9.5,BUF,24,17,N,56057,0,51,55,0,San Jose,KSJC,KSJC4307216,53,59,66,93,8,14,27,9.9,513,0,0,CLR,Fair,62,58,55,37,46,48,300,14,10,50,FEW,10,46,5,51,48,53,69,0,0,0,30.17,1021.5,44,PC,Partly Cloudy
SFN2015,3-Jan-16,3-Jan-16,4:25,16,LAR,-3,SF,35,U,38.5,2015,Week 17,70799,SF,3,-3,SEA,19,16,N,75000,0,1,89,0,San Jose,KSJC,KSJC4237216,49,55,67,80,4,9,91,9.2,20,0,0,CLR,Mostly Clear,62,54,52,40,59,47,260,8,95,55,BKN,10,48,7,55,72,79,103,0,0,0,29.79,1008.8,45,CLR,Mostly Clear
OAK2013,3-Nov-13,3-Nov-13,4:05,16,OAK,-1,PHI,69,O,45.5,2013,Week 9,51751,OAK,-1,1,WAS,20,49,Y,53286,0,47,62,0,San Jose,KSJC,KSJC4158116,54,64,61,90,7,18,44,10,151,0,0,CLR,Mostly Clear,62,61,59,30,31,47,300,13,100,55,OVC,10,60,10,70,96,106,137,0,0,0,29.94,1013.9,45,CLR,Mostly Clear
OAK2019,3-Nov-19,3-Nov-19,1:00,13,OAK,-3,DET,55,O,57,2019,Week 9,53318,OAK,-3,3,DET,31,24,Y,56057,0,53,69,0,San Jose,KSJC,KSJC4377213,59,78,39,56,3,8,1,10,623,0,0,CLR,Fair,79,74,74,30,20,53,320,6,0,201,CLR,10,499,50,549,499,549,714,0,0,0,29.97,1014.9,46,CLR,Fair
OAK2016,4-Dec-16,4-Dec-16,4:05,16,OAK,-3,BUF,62,O,48.5,2016,Week 13,54759,OAK,-3,3,DAL,38,24,Y,56057,0,50,55,0,San Jose,KSJC,KSJC4270816,52,62,74,90,5,13,57,9.9,43,0,0,CLR,Mostly Clear,62,59,58,44,58,51,290,7,95,50,BKN,10,31,5,36,47,52,67,0,0,0,30.12,1020.1,45,CLR,Mostly Clear
SFN2015,4-Oct-15,4-Oct-15,4:25,16,GB,-7.5,SF,20,U,48,2015,Week 4,70799,SF,7.5,-7.5,NO,3,17,Y,75000,0,1,76,0,San Jose,KSJC,KSJC4228116,64,81,62,87,7,18,8,9.9,609,0,0,CLR,Mostly Clear,62,73,76,54,51,62,300,16,25,80,SCT,10,206,23,229,228,251,325,0,0,0,29.6,1002.4,45,CLR,Mostly Clear
SFN2017,5-Nov-17,5-Nov-17,4:05,16,ARI,-2.5,SF,30,U,39,2017,Week 9,70133,SF,2.5,-2.5,ARI,10,20,Y,75000,0,3,70,0,San Jose,KSJC,KSJC4304416,53,62,67,83,5,10,27,10,533,0,0,CLR,Fair,62,60,59,37,42,49,310,8,5,34,FEW,10,88,9,97,90,99,129,0,0,0,30.09,1018.9,44,PC,Partly Cloudy
SFN2014,5-Oct-14,5-Oct-14,4:25,16,SF,-5,KC,39,U,43.5,2014,Week 5,70799,SF,-5,5,TEN,22,17,N,75000,1,0,88,0,San Jose,KSJC,KSJC4191716,72,90,42,59,3,10,3,10,662,0,0,CLR,Mostly Clear,62,88,88,38,17,61,290,10,5,200,FEW,10,219,22,241,223,245,319,0,0,0,29.86,1011.2,45,CLR,Mostly Clear
OAK2015,6-Dec-15,6-Dec-15,4:05,16,KC,-3,OAK,54,O,45.5,2015,Week 13,55010,OAK,3,-3,DET,20,34,Y,56057,0,49,60,0,San Jose,KSJC,KSJC4234416,59,70,63,78,6,15,75,10,15,0,0,CLR,Mostly Clear,62,67,67,53,61,59,160,6,100,16,BKN,10,18,5,23,47,52,67,0,0,0,30.24,1024,45,CLR,Mostly Clear
SFN2016,6-Nov-16,6-Nov-16,4:05,16,NO,-5,SF,64,O,53,2016,Week 9,70178,SF,5,-5,TEN,23,41,Y,75000,0,2,68,0,San Jose,KSJC,KSJC4268016,63,74,77,90,4,8,84,10,43,0,0,CLR,Mostly Clear,62,71,71,56,59,62,310,7,100,24,BKN,10,32,8,40,84,92,120,0,0,0,30.09,1019,45,CLR,Mostly Clear
OAK2016,6-Nov-16,6-Nov-16,8:30,20,OAK,-1,DEN,50,O,44.5,2016,Week 9,54957,OAK,-1,1,BAL,30,20,Y,56057,0,50,67,0,San Jose,KSJC,KSJC4268020,63,74,77,90,4,8,84,10,43,0,0,CLR,Mostly Clear,62,64,64,58,81,60,290,6,95,20,BKN,10,0,0,0,0,0,0,0,0,0,30.12,1020,45,CLR,Mostly Clear
SFN2013,6-Oct-13,6-Oct-13,8:30,20,SF,-4.5,HOU,37,U,43.5,2013,Week 5,69732,SF,-4.5,4.5,CIN,34,3,Y,69732,0,42,76,0,San Jose,KSJC,KSJC4155320,67,83,32,50,4,10,51,10,108,0,0,CLR,Mostly Clear,62,69,69,40,35,54,230,5,18,180,FEW,10,0,0,0,0,0,0,0,0,0,30.01,1016.2,45,CLR,Mostly Clear
OAK2013,6-Oct-13,6-Oct-13,11:35,22,LAC,-5.5,OAK,44,U,47,2013,Week 5,48834,OAK,5.5,-5.5,LAR,27,17,Y,53286,0,47,70,0,San Jose,KSJC,KSJC4155322,67,83,32,50,4,10,51,10,108,0,0,CLR,Mostly Clear,62,67,67,37,33,52,0,0,46,180,SCT,10,0,0,0,0,0,0,0,0,0,30.01,1016.2,44,PC,Partly Cloudy
SFN2016,6-Oct-16,6-Oct-16,8:25,20,ARI,-3.5,SF,54,O,42.5,2016,Week 5,70178,SF,3.5,-3.5,BUF,21,33,Y,75000,0,2,72,0,San Jose,KSJC,KSJC4264920,64,78,56,80,6,17,29,10,300,0,0,CLR,Mostly Clear,62,65,65,47,52,55,320,5,5,80,FEW,10,0,0,0,0,0,0,0,0,0,30.01,1016.1,45,CLR,Mostly Clear
OAK2014,7-Dec-14,7-Dec-14,4:25,16,SF,-8.5,OAK,37,U,40.5,2014,Week 14,55300,OAK,8.5,-8.5,TB,24,13,Y,56057,0,48,61,0,San Jose,KSJC,KSJC4198016,57,65,88,100,2,8,60,9.5,48,0,0,CLR,Mostly Clear,62,62,62,55,78,58,80,5,100,21,BKN,10,29,5,34,47,52,67,0,0,0,30.15,1020.9,45,CLR,Mostly Clear
OAK2019,7-Nov-19,7-Nov-19,1:00,13,LAC,-4,OAK,50,U,50.5,2019,Week 10,51954,OAK,4,-4,JAX,26,24,N,56057,0,53,85,0,San Jose,KSJC,KSJC4377613,56,67,83,97,3,12,69,5.4,216,0,0,HAZY,Mist,79,64,64,51,63,57,320,6,30,110,SCT,4,422,48,470,480,528,686,0,0,0,30.09,1019,35,HAZY,Haze
SFN2019,7-Oct-19,7-Oct-19,1:00,13,SF,-2.5,CLE,34,U,50,2019,Week 5,70585,SF,-2.5,2.5,CLE,31,3,Y,75000,0,5,62,0,San Jose,KSJC,KSJC4374513,71,88,44,62,5,13,26,10,449,0,0,CLR,Fair,79,85,85,47,27,63,330,9,10,80,FEW,10,618,65,683,651,716,929,0,0,0,29.92,1013.1,46,CLR,Fair
SFN2013,8-Dec-13,8-Dec-13,4:25,16,SF,-2.5,SEA,36,U,41.5,2013,Week 14,69732,SF,-2.5,2.5,JAX,19,17,N,69732,0,42,45,0,San Jose,KSJC,KSJC4161616,38,47,59,82,3,12,22,10,426,0,0,CLR,Fair,62,46,41,20,35,36,310,10,11,150,FEW,10,46,5,51,47,52,67,0,0,0,30.22,1023.4,45,CLR,Mostly Clear
OAK2019,8-Dec-19,8-Dec-19,1:00,13,OAK,PK,TEN,63,O,55,2019,Week 14,52760,OAK,PK,PK,HOU,21,42,PK,56057,0,53,39,0,San Jose,KSJC,KSJC4380713,56,62,87,100,5,12,82,9.1,82,0.05,0,MC,Mostly Cloudy,79,61,60,52,72,56,330,9,95,50,SCT,10,204,39,243,388,427,554,0,0,0,30.01,1016.1,42,MC,Mostly Cloudy
SFN2015,8-Nov-15,8-Nov-15,4:05,16,ATL,-8.5,SF,33,U,43.5,2015,Week 9,70799,SF,8.5,-8.5,PHI,17,16,N,75000,0,1,58,0,San Jose,KSJC,KSJC4231616,53,61,81,90,3,12,65,9.7,15,0.04,0,CLR,Mostly Clear,62,58,58,54,87,56,130,3,95,13,BKN,10,43,8,51,82,90,116,0,0,0,29.96,1014.7,45,CLR,Mostly Clear
OAK2017,8-Oct-17,8-Oct-17,4:05,16,OAK,-3,BAL,47,O,40.5,2017,Week 5,54980,OAK,-3,3,TEN,17,30,Y,56057,0,51,70,0,San Jose,KSJC,KSJC4301616,67,85,50,84,5,14,1,9.8,685,0,0,CLR,Fair,62,82,82,37,20,58,300,12,1,301,SCT,9,207,21,228,208,229,297,0,0,0,29.76,1007.8,46,CLR,Fair
SFN2013,8-Sep-13,8-Sep-13,4:25,16,SF,-5.5,GB,62,O,47.5,2013,Week 1,69732,SF,-5.5,5.5,NYG,34,28,Y,69732,0,42,69,0,San Jose,KSJC,KSJC4152516,72,88,63,90,5,12,1,10,753,0,0,CLR,Fair,62,84,84,55,37,66,300,9,0,201,CLR,10,378,38,416,378,416,539,0,0,0,29.76,1007.7,46,CLR,Fair
OAK2014,9-Nov-14,9-Nov-14,4:05,16,DEN,-12.5,OAK,58,O,51,2014,Week 10,54803,OAK,12.5,-12.5,NO,17,41,Y,56057,0,48,69,0,San Jose,KSJC,KSJC4195216,60,75,77,96,2,12,3,9.9,598,0,0,CLR,Mostly Clear,62,68,68,54,61,60,290,12,5,150,FEW,10,78,8,86,79,87,113,0,0,0,29.85,1010.7,45,CLR,Mostly Clear
OAK2016,9-Oct-16,9-Oct-16,4:25,16,OAK,-3.5,LAC,65,O,51,2016,Week 5,54275,OAK,-3.5,3.5,OAK,34,31,N,56057,0,50,78,0,San Jose,KSJC,KSJC4265216,70,86,40,73,5,12,20,10,516,0,0,CLR,Mostly Clear,62,84,84,41,22,60,290,12,30,55,SCT,10,174,20,194,198,218,282,0,0,0,29.91,1012.7,45,CLR,Mostly Clear
OAK2019,9-Sep-19,9-Sep-19,10:15,22,DEN,-3,OAK,40,U,42.5,2019,Week 1,52359,OAK,3,-3,DEN,24,16,Y,56057,0,53,64,0,San Jose,KSJC,KSJC4371722,67,78,65,83,8,18,13,10,660,0,0,CLR,Mostly Clear,79,63,63,53,70,57,280,5,15,40,FEW,10,0,0,0,0,0,0,0,0,0,29.93,1013.3,45,CLR,Mostly Clear
SFN2013,10-Nov-13,10-Nov-13,4:05,16,SF,-6,CAR,19,U,43.5,2013,Week 10,69732,SF,-6,6,CHI,9,10,N,69732,0,42,62,0,San Jose,KSJC,KSJC4158816,53,65,83,100,4,9,36,7.1,394,0,0,CLR,Mostly Clear,62,63,62,49,60,55,300,9,5,200,FEW,9,76,8,84,77,85,110,0,0,0,30.08,1018.5,45,CLR,Mostly Clear
SFN2017,10-Sep-17,10-Sep-17,4:25,16,CAR,-4.5,SF,26,U,45,2017,Week 1,70178,SF,4.5,-4.5,GB,3,23,Y,75000,0,3,70,0,San Jose,KSJC,KSJC4298816,79,95,59,90,5,13,34,9.9,490,0,0,CLR,Fair,62,94,94,58,30,71,290,13,100,160,BKN,10,214,37,251,365,402,522,0,0,0,29.86,1011.1,42,MC,Mostly Cloudy
SFN2016,11-Dec-16,11-Dec-16,4:05,16,SF,-3,NYJ,40,U,43,2016,Week 14,70178,SF,-3,3,SEA,17,23,Y,75000,0,2,53,0,San Jose,KSJC,KSJC4271516,52,55,73,92,4,8,90,10,63,0,0,CLR,Mostly Clear,62,54,54,41,62,48,0,0,100,15,OVC,10,24,5,29,46,51,66,0,0,0,30.15,1021,45,CLR,Mostly Clear
SFN2019,11-Nov-19,11-Nov-19,1:00,13,SF,-1.5,SEA,51,O,49,2019,Week 10,71404,SF,-1.5,1.5,SEA,24,27,Y,75000,0,5,88,0,San Jose,KSJC,KSJC4378013,61,78,62,90,2,7,49,10,89,0,0,MC,Mostly Cloudy,79,75,76,45,34,59,340,5,95,110,BKN,10,292,46,338,463,509,662,0,0,0,30.02,1016.3,42,MC,Mostly Cloudy
OAK2015,11-Oct-15,11-Oct-15,4:25,16,DEN,-5.5,OAK,26,U,45,2015,Week 5,54500,OAK,5.5,-5.5,GB,10,16,Y,56057,0,49,76,0,San Jose,KSJC,KSJC4228816,66,82,74,93,4,13,3,10,673,0,0,CLR,Fair,62,78,80,60,54,67,290,13,1,201,SCT,10,191,19,210,192,211,274,0,0,0,29.92,1013.3,46,CLR,Fair
SFN2017,12-Nov-17,12-Nov-17,4:25,16,NYG,-3,SF,52,O,41.5,2017,Week 10,70133,SF,3,-3,NYG,31,21,Y,75000,0,3,46,0,San Jose,KSJC,KSJC4305116,57,69,73,93,4,10,28,10,471,0,0,CLR,Fair,62,67,67,46,47,56,300,9,10,110,FEW,10,70,7,77,73,80,105,0,0,0,30.09,1018.7,54,CLR,Few High Clouds
OAK2014,12-Oct-14,12-Oct-14,4:05,16,LAC,-7.5,OAK,59,O,44,2014,Week 6,53329,OAK,7.5,-7.5,LAR,28,31,N,56057,0,48,86,0,San Jose,KSJC,KSJC4192416,71,87,49,93,5,14,0,10,679,0,0,CLR,Fair,62,87,87,28,12,58,290,10,0,301,SCT,10,188,19,207,188,207,268,0,0,0,29.87,1011.6,46,CLR,Fair
SFN2016,12-Sep-16,12-Sep-16,10:20,22,LAR,-2.5,SF,28,U,43.5,2016,Week 1,70178,SF,2.5,-2.5,JAX,28,0,Y,75000,0,2,43,0,San Jose,KSJC,KSJC4262522,63,76,63,81,11,20,30,10,706,0,0,CLR,Mostly Clear,62,59,58,45,60,52,170,6,70,16,SCT,10,0,0,0,0,0,0,0,0,0,29.85,1011.2,42,MC,Mostly Cloudy
SFN2013,13-Oct-13,13-Oct-13,4:25,16,SF,-10,ARI,52,O,40.5,2013,Week 6,69732,SF,-10,10,TB,32,20,Y,69732,0,42,67,0,San Jose,KSJC,KSJC4156016,59,73,61,90,5,16,2,10,659,0,0,CLR,Fair,62,71,71,41,34,55,290,15,5,55,FEW,10,177,18,195,182,200,260,0,0,0,29.98,1015.4,45,CLR,Mostly Clear
OAK2015,13-Sep-15,13-Sep-15,4:25,16,CIN,-3,OAK,46,O,43,2015,Week 1,54500,OAK,3,-3,DET,13,33,Y,56057,0,49,75,0,San Jose,KSJC,KSJC4226016,68,81,73,87,3,9,75,10,38,0,0,PC,Partly Cloudy,62,80,81,57,45,66,290,8,90,40,BKN,10,229,35,264,349,384,498,0,0,0,29.72,1006.4,44,PC,Partly Cloudy
OAK2014,14-Sep-14,14-Sep-14,4:25,16,HOU,-3,OAK,44,O,41,2014,Week 2,54063,OAK,3,-3,OAK,14,30,Y,56057,0,48,73,0,San Jose,KSJC,KSJC4189616,68,79,70,93,6,12,20,9.3,576,0,0,CLR,Mostly Clear,62,79,79,49,35,62,310,10,5,200,FEW,10,336,34,370,342,376,489,0,0,0,29.8,1009,45,CLR,Mostly Clear
SFN2014,14-Sep-14,14-Sep-14,8:30,20,SF,-7,CHI,48,O,47.5,2014,Week 2,70799,SF,-7,7,GB,20,28,Y,75000,1,0,73,0,San Jose,KSJC,KSJC4189620,68,79,70,93,6,12,20,9.3,576,0,0,CLR,Mostly Clear,62,68,68,56,66,61,310,8,0,201,CLR,10,0,0,0,0,0,0,0,0,0,29.81,1009.6,46,CLR,Fair
SFN2015,14-Sep-15,14-Sep-15,10:20,22,MIN,-2.5,SF,23,U,42.5,2015,Week 1,70499,SF,2.5,-2.5,CLE,20,3,Y,75000,0,1,64,0,San Jose,KSJC,KSJC4226122,65,74,74,86,11,20,75,10,29,0,0,CLR,Mostly Clear,62,65,64,56,73,60,160,12,25,9,BKN,10,0,0,0,0,0,0,0,0,0,29.79,1008.9,45,CLR,Mostly Clear
OAK2013,15-Dec-13,15-Dec-13,4:05,16,KC,-6.5,OAK,87,O,44.5,2013,Week 15,49571,OAK,6.5,-6.5,OAK,31,56,Y,53286,0,47,64,0,San Jose,KSJC,KSJC4162316,47,62,65,89,1,6,35,9.3,221,0,0,CLR,Mostly Clear,62,58,58,34,41,47,280,3,70,200,BKN,8,37,5,42,49,54,70,0,0,0,30.24,1024.2,42,MC,Mostly Cloudy
OAK2019,15-Dec-19,15-Dec-19,1:00,13,OAK,PK,JAX,36,O,60,2019,Week 15,52788,OAK,PK,PK,JAX,16,20,PK,56057,0,53,28,0,San Jose,KSJC,KSJC4381413,50,57,74,82,5,12,31,10,307,0,0,CLR,Mostly Clear,79,55,53,41,59,48,300,8,25,41,SCT,10,334,38,372,382,420,546,0,0,0,30.22,1023.5,44,PC,Partly Cloudy
SFN2019,15-Dec-19,15-Dec-19,1:00,13,SF,-1.5,ATL,51,O,41,2019,Week 15,70910,SF,-1.5,1.5,ATL,22,29,Y,75000,0,5,24,0,San Jose,KSJC,KSJC4381413,50,57,74,82,5,12,31,10,307,0,0,CLR,Mostly Clear,79,55,53,41,59,48,300,8,25,41,SCT,10,334,38,372,382,420,546,0,0,0,30.22,1023.5,44,PC,Partly Cloudy
OAK2015,15-Nov-15,15-Nov-15,4:05,16,OAK,-3,MIN,44,P,44,2015,Week 10,54700,OAK,-3,3,LAC,14,30,Y,56057,0,49,57,0,San Jose,KSJC,KSJC4232316,53,59,72,100,15,26,58,9.3,205,0.45,0,CLR,Mostly Clear,62,57,53,38,49,48,270,20,95,36,BKN,10,42,7,49,67,74,96,0,0,0,29.93,1013.6,45,CLR,Mostly Clear
OAK2017,15-Oct-17,15-Oct-17,4:25,16,OAK,-3,LAC,33,U,48,2017,Week 6,54685,OAK,-3,3,LAC,16,17,N,56057,0,51,59,0,San Jose,KSJC,KSJC4302316,66,86,35,56,3,10,8,10,573,0,0,CLR,Mostly Clear,62,83,83,41,23,60,310,10,25,100,SCT,10,156,17,173,172,189,245,0,0,0,30.06,1018.1,45,CLR,Mostly Clear
OAK2013,15-Sep-13,15-Sep-13,4:25,16,OAK,-4,JAX,28,U,41,2013,Week 2,49400,OAK,-4,4,BAL,19,9,Y,53286,0,47,76,0,San Jose,KSJC,KSJC4153216,66,78,70,87,8,15,43,10,604,0,0,CLR,Fair,62,75,77,55,50,63,310,15,2,301,SCT,10,333,34,367,336,370,480,0,0,0,29.82,1009.9,46,CLR,Fair
OAK2019,15-Sep-19,15-Sep-19,4:05,16,KC,-7,OAK,38,U,53,2019,Week 2,52748,OAK,7,-7,KC,10,28,Y,56057,0,53,71,0,San Jose,KSJC,KSJC4372316,68,78,73,90,8,18,72,10,145,0,0,MC,Mostly Cloudy,79,76,78,58,54,65,350,15,95,160,BKN,10,212,34,246,336,370,480,0,0,0,29.84,1010.5,42,MC,Mostly Cloudy
OAK2016,16-Oct-16,16-Oct-16,4:05,16,KC,-2,OAK,36,U,47,2016,Week 6,54211,OAK,2,-2,NYJ,10,26,Y,56057,0,50,61,0,San Jose,KSJC,KSJC4265916,64,68,84,93,12,17,95,8.4,12,0.4,0,RAIN,Light Rain,62,65,64,59,81,62,220,17,95,1,BKN,9,85,16,101,162,178,232,99,0.02,0,29.77,1008.2,18,RAIN,Light Rain
SFN2017,17-Dec-17,17-Dec-17,4:25,16,SF,-2.5,TEN,48,O,44.5,2017,Week 15,70133,SF,-2.5,2.5,TEN,25,23,N,75000,0,3,34,0,San Jose,KSJC,KSJC4308616,57,68,26,45,8,16,12,10,531,0,0,CLR,Fair,62,67,67,18,15,47,350,10,10,200,FEW,10,48,5,53,50,55,72,0,0,0,30.01,1016.1,54,CLR,Few High Clouds
OAK2017,17-Dec-17,17-Dec-17,8:30,20,DAL,-3,OAK,37,U,46.5,2017,Week 15,55372,OAK,3,-3,DAL,17,20,N,56057,0,51,64,0,San Jose,KSJC,KSJC4308620,57,68,26,45,8,16,12,10,531,0,0,CLR,Fair,62,57,57,25,29,44,360,3,11,400,CLR,10,0,0,0,0,0,0,0,0,0,30.08,1018.4,46,CLR,Fair
SFN2019,17-Nov-19,17-Nov-19,1:00,13,SF,-8.5,ARI,62,O,34,2019,Week 11,69419,SF,-8.5,8.5,ARI,36,26,Y,75000,0,5,39,0,San Jose,KSJC,KSJC4378613,60,74,66,87,2,7,8,10,538,0,0,CLR,Fair,79,70,70,49,47,58,0,0,10,100,FEW,10,417,44,461,439,483,627,0,0,0,30.05,1017.5,46,CLR,Fair
OAK2019,17-Nov-19,17-Nov-19,1:00,13,OAK,-3.5,CIN,27,O,51,2019,Week 11,51921,OAK,-3.5,3.5,CIN,17,10,Y,56057,0,53,45,0,San Jose,KSJC,KSJC4378613,60,74,66,87,2,7,8,10,538,0,0,CLR,Fair,79,70,70,49,47,58,0,0,10,100,FEW,10,417,44,461,439,483,627,0,0,0,30.05,1017.5,46,CLR,Fair
OAK2017,17-Sep-17,17-Sep-17,4:05,16,OAK,-14,NYJ,65,O,44,2017,Week 2,54729,OAK,-14,14,SEA,45,20,Y,56057,0,51,79,0,San Jose,KSJC,KSJC4299516,67,81,70,87,6,18,20,9.7,594,0,0,CLR,Fair,62,76,78,54,47,63,310,15,0,301,SCT,10,325,33,358,325,358,465,0,0,0,29.93,1013.3,54,CLR,Few High Clouds
SFN2015,18-Oct-15,18-Oct-15,4:25,16,BAL,-2.5,SF,45,O,43.5,2015,Week 6,70799,SF,2.5,-2.5,OAK,25,20,Y,75000,0,1,68,0,San Jose,KSJC,KSJC4229516,64,71,73,93,7,16,82,9.9,116,0,0,CLR,Mostly Clear,62,69,69,51,53,59,270,13,45,40,SCT,10,127,16,143,158,174,226,0,0,0,29.97,1014.8,45,CLR,Mostly Clear
OAK2016,18-Sep-16,18-Sep-16,4:25,16,OAK,-4,ATL,63,O,48,2016,Week 2,54081,OAK,-4,4,CAR,28,35,Y,56057,0,50,83,0,San Jose,KSJC,KSJC4263116,75,93,52,81,4,13,5,10,679,0,0,CLR,Fair,62,92,92,49,23,66,300,13,5,65,FEW,10,308,32,340,316,348,452,0,0,0,29.88,1011.7,46,CLR,Fair
OAK2017,19-Nov-17,19-Nov-17,4:25,16,NE,-7,OAK,41,U,55.5,2017,Week 11,56426,OAK,7,-7,GB,8,33,Y,56057,0,51,25,0,San Jose,KSJC,KSJC4305816,54,65,69,89,2,7,63,10,120,0,0,MC,Mostly Cloudy,62,65,65,43,45,54,310,6,95,180,BKN,10,40,6,46,60,66,85,0,0,0,30.05,1017.6,50,PC,High Overcast
OAK2014,19-Oct-14,19-Oct-14,4:25,16,ARI,-3.5,OAK,37,U,46.5,2014,Week 7,52101,OAK,3.5,-3.5,WAS,13,24,Y,56057,0,48,70,0,San Jose,KSJC,KSJC4193116,64,75,80,100,5,17,31,9,483,0,0,CLR,Mostly Clear,62,70,70,58,66,63,310,16,5,30,FEW,10,149,15,164,153,168,218,0,0,0,29.84,1010.6,45,CLR,Mostly Clear
OAK2017,19-Oct-17,19-Oct-17,8:25,20,KC,-3,OAK,61,O,46.5,2017,Week 7,55090,OAK,3,-3,CHI,31,30,N,56057,0,51,84,0,San Jose,KSJC,KSJC4302720,62,71,74,90,6,20,92,9.6,103,0.2,0,CLR,Mostly Clear,62,65,65,55,70,59,170,7,95,1,BKN,10,0,0,0,0,0,0,0,0,0,29.9,1012.6,45,CLR,Mostly Clear
SFN2014,20-Dec-14,20-Dec-14,8:25,20,SF,-1.5,LAC,73,O,40.5,2014,Week 16,70699,SF,-1.5,1.5,ARI,35,38,Y,75000,1,0,58,0,San Jose,KSJC,KSJC4199320,58,62,85,100,2,7,97,9.4,0,0.06,0,CLR,Mostly Clear,62,59,59,53,81,56,0,0,79,38,BKN,10,0,0,0,0,0,0,0,0,0,30.24,1024,42,MC,Mostly Cloudy
SFN2015,20-Dec-15,20-Dec-15,4:25,16,CIN,-6.5,SF,38,U,41,2015,Week 15,70799,SF,6.5,-6.5,JAX,14,24,Y,75000,0,1,52,0,San Jose,KSJC,KSJC4235816,48,54,78,93,10,15,79,9.9,6,0,0,CLR,Mostly Clear,62,54,50,42,64,48,110,15,100,25,BKN,10,26,5,32,53,58,75,0,0,0,30.17,1021.7,45,CLR,Mostly Clear
OAK2015,20-Dec-15,20-Dec-15,4:05,16,GB,-4,OAK,50,O,47,2015,Week 15,55087,OAK,4,-4,NYJ,20,30,Y,56057,0,49,51,0,San Jose,KSJC,KSJC4235816,48,54,78,93,10,15,79,9.9,6,0,0,CLR,Mostly Clear,62,54,50,42,64,48,110,15,100,25,BKN,10,26,5,32,53,58,75,0,0,0,30.17,1021.7,45,CLR,Mostly Clear
OAK2014,20-Nov-14,20-Nov-14,8:25,20,KC,-7.5,OAK,44,O,42,2014,Week 12,52865,OAK,7.5,-7.5,DEN,24,20,N,56057,0,48,55,0,San Jose,KSJC,KSJC4196320,55,59,94,100,4,10,83,9.2,3,0.12,0,CLR,Mostly Clear,62,55,55,54,96,54,70,3,95,10,BKN,10,0,0,0,0,0,0,0,0,0,30.02,1016.6,45,CLR,Mostly Clear
SFN2016,20-Nov-16,20-Nov-16,4:25,16,NE,-11.5,SF,47,U,51.5,2016,Week 11,70178,SF,11.5,-11.5,HOU,17,30,Y,75000,0,2,61,0,San Jose,KSJC,KSJC4269416,58,64,85,93,6,12,98,9.1,13,0.34,0,CLR,Mostly Clear,62,56,55,53,90,54,350,6,100,1,OVC,5,28,6,34,57,63,81,99,0.01,0,29.9,1012.6,19,RAIN,Moderate Rain
OAK2015,20-Sep-15,20-Sep-15,4:05,16,BAL,-6,OAK,70,O,42,2015,Week 2,53500,OAK,6,-6,MIA,37,33,N,56057,0,49,89,0,San Jose,KSJC,KSJC4226716,76,95,41,64,4,13,8,10,663,0,0,CLR,Mostly Clear,62,93,93,39,15,63,310,12,5,200,FEW,10,303,31,334,308,339,440,0,0,0,29.77,1008.2,45,CLR,Mostly Clear
OAK2014,21-Dec-14,21-Dec-14,4:25,16,BUF,-6.5,OAK,50,O,41.5,2014,Week 16,53436,OAK,6.5,-6.5,CLE,26,24,N,56057,0,48,62,0,San Jose,KSJC,KSJC4199416,59,62,88,93,6,10,96,9.8,9,0,0,CLR,Mostly Clear,62,61,60,58,90,59,320,8,100,8,BKN,10,27,5,32,54,59,78,0,0,0,30.26,1024.7,45,CLR,Mostly Clear
SFN2019,21-Dec-19,21-Dec-19,1:00,13,LAR,-2,SF,65,O,38,2019,Week 16,70103,SF,2,-2,TB,34,31,Y,75000,0,5,56,0,San Jose,KSJC,KSJC4382013,53,60,78,100,7,21,47,8.6,468,0,0,CLR,Mostly Clear,79,58,55,48,70,53,200,13,5,24,FEW,10,239,38,277,383,421,547,0,0,0,29.95,1014.1,45,CLR,Mostly Clear
OAK2016,21-Nov-16,21-Nov-16,8:30,20,OAK,-6.5,HOU,47,O,46,2016,Week 11,56426,OAK,-6.5,6.5,SF,27,20,Y,56057,0,50,28,0,San Jose,KSJC,KSJC4269520,56,63,76,89,5,15,55,9.9,366,0,0,CLR,Mostly Clear,62,56,55,46,70,51,300,6,95,12,BKN,10,0,0,0,0,0,0,0,0,0,30.14,1020.5,45,CLR,Mostly Clear
SFN2017,21-Sep-17,21-Sep-17,8:25,20,LAR,-3,SF,80,O,40.5,2017,Week 3,70178,SF,3,-3,LAR,39,41,N,75000,0,3,42,0,San Jose,KSJC,KSJC4299920,62,72,56,72,10,16,12,10,603,0,0,CLR,Fair,62,60,58,44,56,52,270,12,10,140,FEW,10,0,0,0,0,0,0,0,0,0,29.93,1013.5,45,CLR,Mostly Clear
SFN2015,22-Oct-15,22-Oct-15,8:25,20,SEA,-6.5,SF,23,U,42,2015,Week 7,70799,SF,6.5,-6.5,CHI,3,20,Y,75000,0,1,66,0,San Jose,KSJC,KSJC4229920,64,77,65,87,3,10,10,10,535,0,0,CLR,Mostly Clear,62,66,66,54,65,59,300,8,0,201,CLR,10,0,0,0,0,0,0,0,0,0,29.94,1014,46,CLR,Fair
SFN2017,22-Oct-17,22-Oct-17,4:05,16,DAL,-6.5,SF,50,O,48,2017,Week 7,70133,SF,6.5,-6.5,DAL,10,40,Y,75000,0,3,48,0,San Jose,KSJC,KSJC4303016,62,75,71,92,4,14,1,10,648,0,0,CLR,Fair,62,74,76,51,45,61,290,10,1,301,SCT,10,140,14,154,141,155,201,0,0,0,30.26,1024.5,54,CLR,Few High Clouds
SFN2013,22-Sep-13,22-Sep-13,4:25,16,SF,-10.5,IND,34,U,46,2013,Week 3,69732,SF,-10.5,10.5,SEA,7,27,Y,69732,0,42,66,0,San Jose,KSJC,KSJC4153916,62,72,72,93,7,20,21,10,565,0,0,CLR,Mostly Clear,62,71,71,50,47,59,310,20,1,301,SCT,10,296,30,326,297,327,425,0,0,0,29.96,1014.4,46,CLR,Fair
SFN2019,22-Sep-19,22-Sep-19,4:25,16,SF,-6.5,PIT,44,U,44.5,2019,Week 3,69439,SF,-6.5,6.5,PIT,24,20,N,75000,0,5,32,0,San Jose,KSJC,KSJC4373016,69,83,61,81,5,17,32,10,315,0,0,CLR,Fair,79,78,79,56,47,65,340,13,45,120,SCT,10,239,30,269,297,327,425,0,0,0,29.88,1011.9,44,PC,Partly Cloudy
SFN2013,23-Dec-13,23-Dec-13,8:40,20,SF,-14.5,ATL,58,O,46.5,2013,Week 16,69732,SF,-14.5,14.5,ARI,34,24,N,69732,0,42,60,0,San Jose,KSJC,KSJC4163120,50,63,63,86,2,8,3,9.7,543,0,0,CLR,Fair,62,50,50,39,66,45,140,3,0,201,CLR,8,0,0,0,0,0,0,0,0,0,30.33,1027.2,46,CLR,Fair
SFN2014,23-Nov-14,23-Nov-14,4:25,16,SF,-9.5,WAS,30,U,44,2014,Week 12,70799,SF,-9.5,9.5,BAL,17,13,N,75000,1,0,63,0,San Jose,KSJC,KSJC4196616,54,65,68,93,5,9,25,10,254,0,0,CLR,Fair,62,64,64,35,34,50,290,8,75,80,BKN,10,39,5,44,54,59,78,0,0,0,30.25,1024.3,45,CLR,Mostly Clear
SFN2016,23-Oct-16,23-Oct-16,4:05,16,SF,-1,TB,51,O,45.5,2016,Week 7,70178,SF,-1,1,CIN,17,34,Y,75000,0,2,69,0,San Jose,KSJC,KSJC4266616,61,75,66,83,7,22,52,10,284,0,0,CLR,Mostly Clear,62,67,66,50,55,58,220,14,95,23,BKN,10,83,13,96,132,145,188,0,0,0,29.87,1011.4,45,CLR,Mostly Clear
OAK2015,24-Dec-15,24-Dec-15,8:25,20,OAK,-4,LAC,43,U,45.5,2015,Week 16,54400,OAK,-4,4,NYJ,23,20,N,56057,0,49,46,0,San Jose,KSJC,KSJC4236220,46,53,79,90,8,18,69,9.8,84,0.3,0,CLR,Mostly Clear,62,45,41,38,77,42,260,7,5,12,FEW,10,0,0,0,0,0,0,0,0,0,30.04,1017.4,45,CLR,Mostly Clear
OAK2016,24-Dec-16,24-Dec-16,4:05,16,OAK,-3.5,IND,58,O,52.5,2016,Week 16,54896,OAK,-3.5,3.5,CAR,33,25,Y,56057,0,50,48,0,San Jose,KSJC,KSJC4272816,45,52,74,89,7,15,17,9.9,399,0,0,CLR,Mostly Clear,62,51,46,36,56,44,300,14,45,32,SCT,10,44,6,50,57,63,82,0,0,0,29.89,1012.3,45,CLR,Mostly Clear
SFN2017,24-Dec-17,24-Dec-17,4:05,16,JAX,-4,SF,77,O,43,2017,Week 16,70133,SF,4,-4,DET,44,33,Y,75000,0,3,73,0,San Jose,KSJC,KSJC4309316,50,56,66,77,2,6,86,7.9,23,0,0,MC,Overcast,62,54,54,38,55,46,280,3,100,130,OVC,7,30,6,36,57,63,81,0,0,0,30.19,1022.2,40,MC,Overcast
OAK2013,24-Nov-13,24-Nov-13,4:05,16,TEN,-2.5,OAK,42,P,42,2013,Week 12,46001,OAK,2.5,-2.5,BAL,19,23,Y,53286,0,47,59,0,San Jose,KSJC,KSJC4160216,52,65,65,89,3,9,1,10,583,0,0,CLR,Fair,62,63,62,38,40,51,300,9,5,201,SCT,10,53,5,58,54,59,77,0,0,0,30.17,1021.6,46,CLR,Fair
SFN2019,24-Nov-19,24-Nov-19,1:00,13,SF,PK,GB,45,O,50,2019,Week 12,71500,SF,PK,PK,PIT,37,8,PK,75000,0,5,23,0,San Jose,KSJC,KSJC4379313,55,69,60,77,4,14,14,9.7,420,0,0,CLR,Fair,79,69,69,40,35,54,350,7,95,250,BKN,10,289,42,331,416,458,595,0,0,0,30.12,1019.9,52,PC,High Clouds
SFN2017,26-Nov-17,26-Nov-17,4:05,16,SEA,-6.5,SF,37,U,45,2017,Week 12,70134,SF,6.5,-6.5,ATL,13,24,Y,75000,0,3,71,0,San Jose,KSJC,KSJC4306516,64,69,72,93,7,14,94,9.7,12,0.05,0,PC,High Overcast,62,64,64,59,84,61,170,9,100,70,OVC,10,26,5,30,51,56,74,0,0,0,29.94,1013.6,40,MC,Overcast
OAK2017,26-Nov-17,26-Nov-17,4:25,16,OAK,-4,DEN,35,U,41,2017,Week 12,53930,OAK,-4,4,IND,21,14,Y,56057,0,51,33,0,San Jose,KSJC,KSJC4306516,64,69,72,93,7,14,94,9.7,12,0.05,0,PC,High Overcast,62,64,64,59,84,61,170,9,100,70,OVC,10,26,5,30,51,56,74,0,0,0,29.94,1013.6,40,MC,Overcast
SFN2014,27-Nov-14,27-Nov-14,8:30,20,SF,-1.5,SEA,22,U,40.5,2014,Week 13,70799,SF,-1.5,1.5,HOU,3,19,Y,75000,1,0,58,0,San Jose,KSJC,KSJC4197020,54,69,69,86,1,5,32,9.3,308,0,0,CLR,Mostly Clear,62,52,52,44,75,48,0,0,5,2,FEW,8,0,0,0,0,0,0,0,0,0,30.06,1017.8,45,CLR,Mostly Clear
OAK2016,27-Nov-16,27-Nov-16,4:25,16,OAK,-3.5,CAR,67,O,48.5,2016,Week 12,54909,OAK,-3.5,3.5,NO,35,32,N,56057,0,50,56,0,San Jose,KSJC,KSJC4270116,53,59,72,89,8,16,78,9.7,261,0.3,0,CLR,Mostly Clear,62,57,54,41,55,49,300,12,95,32,BKN,10,32,5,37,50,55,71,0,0,0,30.1,1019.2,45,CLR,Mostly Clear
OAK2013,27-Oct-13,27-Oct-13,4:05,16,PIT,-3,OAK,39,U,40,2013,Week 8,52950,OAK,3,-3,DAL,21,18,N,53286,0,47,59,0,San Jose,KSJC,KSJC4157416,55,63,79,100,8,28,65,8.8,307,0,0,CLR,Mostly Clear,62,60,57,45,58,52,270,16,5,24,FEW,10,118,12,130,121,133,173,0,0,0,29.84,1010.4,45,CLR,Mostly Clear
SFN2019,27-Oct-19,27-Oct-19,1:00,13,SF,-2.5,CAR,64,O,39,2019,Week 8,69083,SF,-2.5,2.5,MIA,51,13,Y,75000,0,5,33,0,San Jose,KSJC,KSJC4376513,62,71,34,93,12,26,4,9.9,630,0,0,CLR,Fair,79,68,67,22,17,48,10,21,5,1,FEW,9,523,54,577,536,590,765,0,0,0,29.87,1011.5,46,CLR,Fair
SFN2014,28-Dec-14,28-Dec-14,4:25,16,SF,-6.5,ARI,37,U,37.5,2014,Week 17,70699,SF,-6.5,6.5,CAR,20,17,N,75000,1,0,56,0,San Jose,KSJC,KSJC4200116,46,57,72,89,2,8,22,10,547,0,0,CLR,Fair,62,56,55,41,57,49,300,6,6,200,FEW,10,61,6,67,62,68,89,0,0,0,30.24,1024.1,45,CLR,Mostly Clear
SFN2014,28-Sep-14,28-Sep-14,4:25,16,SF,-4,PHI,47,U,49.5,2014,Week 4,70799,SF,-4,4,ATL,26,21,Y,75000,1,0,75,0,San Jose,KSJC,KSJC4191016,64,75,74,87,8,17,61,10,208,0,0,CLR,Mostly Clear,62,70,70,58,66,63,290,17,75,40,BKN,10,191,26,217,261,287,373,0,0,0,29.88,1011.9,45,CLR,Mostly Clear
OAK2013,29-Dec-13,29-Dec-13,4:25,16,DEN,-10,OAK,48,U,54,2013,Week 17,51500,OAK,10,-10,DEN,14,34,Y,53286,0,47,71,0,San Jose,KSJC,KSJC4163716,50,67,47,76,2,7,1,10,562,0,0,CLR,Fair,62,66,66,22,19,47,300,3,5,250,FEW,10,64,7,71,65,72,93,0,0,0,30.09,1019.2,45,CLR,Mostly Clear
SFN2015,29-Nov-15,29-Nov-15,4:05,16,ARI,-8.5,SF,32,U,45,2015,Week 12,70799,SF,8.5,-8.5,DEN,13,19,N,75000,0,1,57,0,San Jose,KSJC,KSJC4233716,44,59,59,82,4,7,17,10,504,0,0,CLR,Fair,62,57,56,28,33,44,250,7,45,50,SCT,10,41,5,46,49,54,70,0,0,0,30.14,1020.8,45,CLR,Mostly Clear
OAK2013,29-Sep-13,29-Sep-13,4:25,16,WAS,-3.5,OAK,38,U,45.5,2013,Week 4,53549,OAK,3.5,-3.5,SF,14,24,Y,53286,0,47,77,0,San Jose,KSJC,KSJC4154616,66,77,74,93,6,14,18,10,466,0,0,CLR,Mostly Clear,62,75,77,56,52,64,290,14,5,32,FEW,10,251,26,277,257,283,367,0,0,0,30.05,1017.5,45,CLR,Mostly Clear
MIN2013,1-Dec-13,1-Dec-13,1:00,13,MIN,-1,CHI,43,U,50,2013,Week 13,64134,MIN,-1,1,IND,23,20,Y,64121,0,31,72,1,Minnesota,KSTP,KSTP4160913,28,36,77,89,2,6,41,7.1,252,0,0,CLR,Fair,705,35,30,23,61,31,160,6,20,85,SCT,8,247,27,274,274,301,391,0,0,0,30.15,1020.9,44,PC,Partly Cloudy
MIN2016,1-Dec-16,1-Dec-16,8:25,20,DAL,-3,MIN,32,U,43.5,2016,Week 13,66860,MIN,3,-3,JAX,15,17,N,66655,1,0,72,1,Minnesota,KSTP,KSTP4270520,36,38,83,97,11,15,100,10,0,0,0,MC,Overcast,705,35,28,27,72,32,350,9,100,28,OVC,10,0,0,0,0,0,0,0,0,0,30,1015.8,40,MC,Overcast
MIN2016,1-Jan-17,1-Jan-17,1:00,13,MIN,-6.5,CHI,48,O,44,2016,Week 17,66808,MIN,-6.5,6.5,MIA,38,10,Y,66655,1,0,36,0,Minnesota,KSTP,KSTP4273613,27,32,73,85,6,10,39,10,323,0,0,CLR,Fair,705,31,25,20,64,27,40,6,70,26,BKN,10,174,27,201,267,294,381,0,0,0,30.05,1017.7,42,MC,Mostly Cloudy
MIN2017,1-Oct-17,1-Oct-17,1:00,13,MIN,-2.5,DET,21,U,43,2017,Week 4,66730,MIN,-2.5,2.5,NYJ,7,14,Y,66655,0,1,66,0,Minnesota,KSTP,KSTP4300913,59,63,70,83,12,17,98,9.7,18,0.12,0,RAIN,Light Rain,705,57,54,52,83,54,140,14,100,100,OVC,5,290,58,348,580,638,829,99,0.05,0,29.92,1013.3,18,RAIN,Light Rain
MIN2014,2-Nov-14,2-Nov-14,1:00,13,MIN, PK,WAS,55,O,44,2014,Week 9,52252,MIN, PK,PK,LAC,29,26,PK,50805,1,0,54,0,Minnesota,KSTP,KSTP4194513,46,57,49,64,13,18,21,10,537,0,0,CLR,Fair,705,55,51,27,34,43,160,18,0,201,CLR,10,384,38,422,384,422,549,0,0,0,29.98,1015.3,46,CLR,Fair
MIN2016,3-Oct-16,3-Oct-16,8:30,20,MIN,-4,NYG,34,U,42.5,2016,Week 4,66690,MIN,-4,4,IND,24,10,Y,66655,1,0,72,1,Minnesota,KSTP,KSTP4264620,62,74,74,97,8,15,5,9.7,695,0,0,CLR,Fair,705,64,63,52,65,57,140,12,27,301,SCT,10,0,0,0,0,0,0,0,0,0,29.91,1012.9,46,CLR,Fair
MIN2015,6-Dec-15,6-Dec-15,1:00,13,SEA,-2.5,MIN,45,O,43,2015,Week 13,52430,MIN,2.5,-2.5,ATL,7,38,Y,50805,0,1,36,0,Minnesota,KSTP,KSTP4234413,37,40,88,93,3,7,100,6.9,0,0,0,MC,Overcast,705,39,35,34,82,37,290,5,100,11,OVC,5,132,26,158,265,291,378,0,0,0,30.29,1025.6,35,HAZY,Haze
MIN2016,6-Nov-16,6-Nov-16,1:00,13,MIN,-5.5,DET,38,U,42.5,2016,Week 9,66807,MIN,-5.5,5.5,SF,16,22,Y,66655,1,0,72,1,Minnesota,KSTP,KSTP4268013,55,69,72,97,8,15,0,9.8,595,0,0,CLR,Fair,705,68,68,44,42,55,170,10,0,201,CLR,10,359,36,395,359,395,512,0,0,0,30.19,1022.3,46,CLR,Fair
MIN2014,7-Dec-14,7-Dec-14,1:00,13,MIN,-4,NYJ,54,O,40,2014,Week 14,52152,MIN,-4,4,NYJ,30,24,Y,50805,1,0,34,0,Minnesota,KSTP,KSTP4198013,31,35,80,96,13,20,80,8.2,85,0,0,MC,Overcast,705,34,24,28,79,32,160,14,88,80,FEW,8,252,26,278,263,289,376,0,0,0,30.3,1026.1,45,CLR,Mostly Clear
MIN2013,7-Nov-13,7-Nov-13,8:25,20,WAS,-1.5,MIN,61,O,48.5,2013,Week 10,64011,MIN,1.5,-1.5,SEA,34,27,Y,64121,0,31,72,1,Minnesota,KSTP,KSTP4158520,30,37,84,92,4,9,50,7.4,74,0,0,CLR,Fair,705,28,28,26,92,27,0,0,0,201,CLR,5,0,0,0,0,0,0,0,0,0,30.24,1024.1,46,CLR,Fair
MIN2019,8-Dec-19,8-Dec-19,1:00,13,MIN,-8,DET,27,O,57,2019,Week 14,66776,MIN,-8,8,SEA,20,7,Y,66860,0,3,70,0,Minnesota,KSTP,KSTP4380713,34,42,78,87,6,15,63,9,91,0,0.6,MC,Overcast,719,34,27,28,81,32,320,8,100,12,OVC,6,131,26,157,262,288,374,0,0,0,29.79,1009.6,35,HAZY,Haze
MIN2015,8-Nov-15,8-Nov-15,1:00,13,MIN,-1,LAR,39,U,40,2015,Week 9,52406,MIN,-1,1,WAS,21,18,Y,50805,0,1,57,0,Minnesota,KSTP,KSTP4231613,47,60,57,70,11,17,0,10,590,0,0,CLR,Fair,705,59,56,34,39,47,200,13,0,201,CLR,10,354,35,389,354,389,506,0,0,0,30.15,1020.9,46,CLR,Fair
MIN2019,8-Sep-19,8-Sep-19,1:03,13,MIN,-3.5,ATL,40,U,46.5,2019,Week 1,66714,MIN,-3.5,3.5,DET,28,12,Y,66860,0,3,42,0,Minnesota,KSTP,KSTP4371613,57,61,82,87,7,10,99,9.8,0,0.16,0,RAIN,Moderate Rain,719,58,57,53,84,55,90,6,100,17,OVC,10,361,72,433,722,794,1031,0,0,0,30.15,1020.8,40,MC,Overcast
MIN2016,9-Oct-16,9-Oct-16,1:00,13,MIN,-6,HOU,44,O,38.5,2016,Week 5,66683,MIN,-6,6,BAL,31,13,Y,66655,1,0,72,1,Minnesota,KSTP,KSTP4265213,48,59,73,97,7,14,0,9.9,676,0,0,CLR,Fair,705,56,53,39,53,48,120,12,0,201,CLR,10,521,52,573,521,573,745,0,0,0,30.35,1027.8,46,CLR,Fair
MIN2017,11-Sep-17,11-Sep-17,7:10,19,MIN,-3,NO,48,O,47.5,2017,Week 1,66606,MIN,-3,3,SEA,29,19,Y,66655,0,1,40,0,Minnesota,KSTP,KSTP4298919,68,81,73,100,5,12,8,9.4,643,0,0,CLR,Fair,705,71,71,66,84,68,0,0,0,201,CLR,10,0,0,0,0,0,0,0,0,0,30.07,1017.8,46,CLR,Fair
MIN2014,12-Oct-14,12-Oct-14,1:00,13,MIN,-1.5,DET,20,U,43,2014,Week 6,52213,MIN,-1.5,1.5,JAX,3,17,Y,50805,1,0,61,0,Minnesota,KSTP,KSTP4192413,50,63,69,89,12,22,36,10,529,0,0,CLR,Fair,705,62,59,38,41,50,160,20,22,201,SCT,10,453,51,504,509,560,727,0,0,0,29.81,1009.6,46,CLR,Fair
MIN2013,13-Oct-13,13-Oct-13,1:00,13,MIN,-2.5,CAR,45,P,45,2013,Week 6,63963,MIN,-2.5,2.5,PHI,10,35,Y,64121,0,31,72,1,Minnesota,KSTP,KSTP4156013,48,60,68,96,1,10,0,10,662,0,0,CLR,Fair,705,58,57,33,39,47,320,7,0,201,CLR,10,502,50,552,502,552,717,0,0,0,30.41,1029.8,46,CLR,Fair
MIN2019,13-Oct-19,13-Oct-19,1:00,13,MIN,-2.5,PHI,58,O,32,2019,Week 6,66837,MIN,-2.5,2.5,SF,38,20,Y,66860,0,3,33,0,Minnesota,KSTP,KSTP4375113,38,43,78,89,11,18,77,9.8,6,0.02,0,MC,Overcast,719,41,34,31,67,37,290,13,100,36,OVC,10,251,50,301,502,552,717,0,0,0,29.78,1008.8,40,MC,Overcast
MIN2014,14-Sep-14,14-Sep-14,1:00,13,NE,-3,MIN,37,U,49,2014,Week 2,52350,MIN,3,-3,NO,7,30,Y,50805,1,0,65,0,Minnesota,KSTP,KSTP4189613,56,64,61,80,9,16,54,10,537,0,0,CLR,Fair,705,63,62,39,41,51,260,13,20,55,FEW,10,670,69,739,687,756,981,0,0,0,30.12,1019.9,45,CLR,Mostly Clear
MIN2013,15-Dec-13,15-Dec-13,1:00,13,PHI,-6.5,MIN,78,O,53,2013,Week 15,64087,MIN,6.5,-6.5,DEN,48,30,Y,64121,0,31,72,1,Minnesota,KSTP,KSTP4162313,1,4,60,69,9,15,73,10,331,0,0,MC,Overcast,705,2,-8,-11,54,0,320,5,0,201,CLR,10,256,26,282,256,282,366,0,0,0,30.19,1022.3,46,CLR,Fair
MIN2017,15-Oct-17,15-Oct-17,1:00,13,GB,-3,MIN,33,U,46,2017,Week 6,66848,MIN,3,-3,PHI,23,10,Y,66655,0,1,70,0,Minnesota,KSTP,KSTP4302313,46,52,78,97,9,21,72,9.9,146,0.01,0,MC,Overcast,705,52,48,39,61,46,280,13,90,35,BKN,10,269,49,318,489,538,699,0,0,0,30.2,1022.6,44,PC,Partly Cloudy
MIN2017,17-Dec-17,17-Dec-17,1:00,13,MIN,-13,CIN,41,U,42.5,2017,Week 15,66833,MIN,-13,13,CAR,34,7,Y,66655,0,1,75,0,Minnesota,KSTP,KSTP4308613,25,28,90,100,3,7,90,5.1,0,0,0,MC,Overcast,705,27,21,24,89,26,160,5,100,9,OVC,5,128,26,154,255,281,364,0,0,0,30.06,1018.7,40,MC,Overcast
MIN2019,17-Nov-19,17-Nov-19,1:00,13,MIN,-6,DEN,50,O,60,2019,Week 11,66883,MIN,-6,6,CIN,27,23,N,66860,0,3,78,0,Minnesota,KSTP,KSTP4378613,36,39,81,97,8,16,100,7.7,0,0.1,0.1,MC,Overcast,719,38,29,31,76,35,320,15,100,31,OVC,10,158,32,190,316,348,451,0,0,0,29.88,1012.4,40,MC,Overcast
MIN2016,18-Dec-16,18-Dec-16,1:00,13,MIN,-5,IND,40,U,44,2016,Week 15,66820,MIN,-5,5,CAR,6,34,Y,66655,1,0,72,1,Minnesota,KSTP,KSTP4272213,-12,-6,69,78,8,13,77,9.7,199,0,0,CLR,Fair,705,-8,-23,-20,55,-9,230,7,100,201,OVC,10,128,25,152,255,280,364,0,0,0,30.57,1035.2,46,CLR,Fair
MIN2015,18-Oct-15,18-Oct-15,1:00,13,MIN,-3.5,KC,26,U,43,2015,Week 6,52480,MIN,-3.5,3.5,CLE,16,10,Y,50805,0,1,62,0,Minnesota,KSTP,KSTP4229513,49,63,58,93,10,26,1,10,636,0,0,CLR,Fair,705,62,60,30,30,47,160,15,0,201,CLR,10,471,47,518,471,518,672,0,0,0,30.25,1024.3,46,CLR,Fair
MIN2016,18-Sep-16,18-Sep-16,8:30,20,GB,-2,MIN,31,U,43,2016,Week 2,66813,MIN,2,-2,ATL,17,14,Y,66655,1,0,34,0,Minnesota,KSTP,KSTP4263120,68,82,73,97,8,16,24,9.3,505,0,0,CLR,Fair,705,69,69,60,73,64,150,7,100,201,OVC,10,0,0,0,0,0,0,0,0,0,29.77,1007.9,40,MC,Overcast
MIN2017,19-Nov-17,19-Nov-17,1:00,13,MIN,-1.5,LAR,31,U,46.5,2017,Week 11,66809,MIN,-1.5,1.5,LAR,24,7,Y,66655,0,1,37,0,Minnesota,KSTP,KSTP4305813,27,40,67,89,6,13,21,10,434,0,0,CLR,Fair,705,34,27,17,50,28,190,8,70,120,BKN,10,233,31,264,308,339,440,0,0,0,29.98,1015.9,42,MC,Mostly Cloudy
MIN2015,20-Dec-15,20-Dec-15,1:00,13,MIN,-4,CHI,55,O,44,2015,Week 15,52421,MIN,-4,4,CLE,38,17,Y,50805,0,1,36,0,Minnesota,KSTP,KSTP4235813,34,41,78,88,7,15,98,9.6,27,0,0,CLR,Fair,705,40,40,32,73,37,210,3,85,127,CLR,10,147,26,173,255,281,365,0,0,0,29.72,1006.6,46,CLR,Fair
MIN2016,20-Nov-16,20-Nov-16,1:00,13,MIN,-2,ARI,54,O,40,2016,Week 11,66808,MIN,-2,2,BAL,30,24,Y,66655,1,0,72,1,Minnesota,KSTP,KSTP4269413,26,31,63,78,5,8,56,10,219,0,0,CLR,Fair,705,29,24,15,56,25,50,5,67,168,CLR,10,200,30,230,301,331,430,0,0,0,30.41,1029.7,46,CLR,Fair
MIN2015,20-Sep-15,20-Sep-15,1:00,13,MIN,-2.5,DET,42,U,44,2015,Week 2,52319,MIN,-2.5,2.5,CHI,26,16,Y,50805,0,1,70,0,Minnesota,KSTP,KSTP4226713,59,71,76,92,9,20,38,10,432,0.06,0,CLR,Fair,705,69,69,50,51,58,170,16,21,301,SCT,10,582,65,647,650,715,928,0,0,0,30.04,1017.3,46,CLR,Fair
MIN2015,22-Nov-15,22-Nov-15,4:25,16,MIN, PK,GB,43,U,45,2015,Week 11,52529,MIN, PK,PK,WAS,13,30,PK,50805,0,1,32,0,Minnesota,KSTP,KSTP4233016,26,34,74,85,9,16,67,10,359,0,0,MC,Overcast,705,33,25,20,59,29,170,10,100,80,OVC,10,8,2,10,17,19,24,0,0,0,29.87,1011.6,44,PC,Partly Cloudy
MIN2017,22-Oct-17,22-Oct-17,1:00,13,MIN,-5,BAL,40,O,38,2017,Week 7,66751,MIN,-5,5,BAL,24,16,Y,66655,0,1,68,0,Minnesota,KSTP,KSTP4303013,53,63,63,83,8,14,55,10,463,0,0,CLR,Fair,705,60,58,39,46,50,220,10,0,201,CLR,10,446,45,491,446,491,638,0,0,0,29.98,1015,46,CLR,Fair
MIN2013,22-Sep-13,22-Sep-13,1:00,13,MIN,-7,CLE,58,O,40.5,2013,Week 3,63672,MIN,-7,7,ARI,27,31,N,64121,0,31,72,1,Minnesota,KSTP,KSTP4153913,59,72,71,90,11,17,0,10,729,0,0,CLR,Fair,705,68,68,52,57,59,130,15,0,201,CLR,10,637,64,701,637,701,911,0,0,0,29.92,1013.2,46,CLR,Fair
MIN2019,22-Sep-19,22-Sep-19,1:00,13,MIN,-9,OAK,48,O,43.5,2019,Week 3,66738,MIN,-9,9,OAK,34,14,Y,66860,0,3,46,0,Minnesota,KSTP,KSTP4373013,62,68,75,90,6,15,37,10,251,0,0,CLR,Fair,719,67,67,54,63,60,290,8,90,110,BKN,10,418,64,482,638,702,911,0,0,0,29.85,1010.3,42,MC,Mostly Cloudy
MIN2019,23-Dec-19,23-Dec-19,1:00,13,MIN,-3,GB,33,U,47,2019,Week 16,67157,MIN,-3,3,CHI,10,23,Y,66860,0,3,29,0,Minnesota,KSTP,KSTP4382213,31,38,80,100,4,9,15,7.4,522,0,0.6,CLR,Fair,719,37,31,27,65,33,70,9,0,215,CLR,10,257,26,283,257,283,367,0,0,0,30.07,1019,46,CLR,Fair
MIN2014,23-Nov-14,23-Nov-14,1:00,13,GB,-8,MIN,45,U,49.5,2014,Week 12,52386,MIN,8,-8,CIN,21,24,N,50805,1,0,46,0,Minnesota,KSTP,KSTP4196613,42,47,95,100,8,17,98,4.8,18,0.01,0,MC,Overcast,705,46,46,46,100,46,300,3,100,7,OVC,0.5,148,29,176,295,324,421,0,0,0,29.41,996.1,46,CLR,Fair
MIN2019,24-Oct-19,24-Oct-19,1:00,13,MIN,-7.5,WAS,28,U,43.5,2019,Week 8,66776,MIN,-7.5,7.5,WAS,19,9,Y,66860,0,3,52,0,Minnesota,KSTP,KSTP4376213,37,43,63,82,8,15,35,10,481,0,0,CLR,Fair,719,42,36,24,49,35,300,10,20,46,SCT,10,392,43,434,435,478,621,0,0,0,30.35,1028.1,44,PC,Partly Cloudy
MIN2017,24-Sep-17,24-Sep-17,1:00,13,TB,-1,MIN,51,O,41,2017,Week 3,66390,MIN,1,-1,HOU,34,17,Y,66655,0,1,84,0,Minnesota,KSTP,KSTP4300213,76,89,71,93,9,18,32,9.9,619,0.01,0,CLR,Fair,705,88,90,64,45,72,180,14,5,70,FEW,10,609,62,671,625,687,892,0,0,0,29.9,1011.6,46,CLR,Fair
MIN2015,27-Dec-15,27-Dec-15,8:30,20,MIN,-7,NYG,66,O,44.5,2015,Week 16,52455,MIN,-7,7,ARI,49,17,Y,50805,0,1,12,0,Minnesota,KSTP,KSTP4236520,19,30,73,88,9,17,53,10,403,0,0,CLR,Fair,705,15,2,5,64,13,360,12,70,129,CLR,10,0,0,0,0,0,0,0,0,0,30.56,1034.8,46,CLR,Fair
MIN2013,27-Oct-13,27-Oct-13,8:30,20,GB,-7.5,MIN,75,O,47.5,2013,Week 8,64134,MIN,7.5,-7.5,MIA,31,44,Y,64121,0,31,72,1,Minnesota,KSTP,KSTP4157420,43,57,60,85,8,17,0,9.9,618,0,0,CLR,Fair,705,46,41,32,58,40,360,10,0,201,CLR,10,0,0,0,0,0,0,0,0,0,30.04,1017.4,46,CLR,Fair
MIN2015,27-Sep-15,27-Sep-15,1:00,13,MIN,-2,LAC,45,U,45.5,2015,Week 3,52400,MIN,-2,2,PIT,31,14,Y,50805,0,1,80,0,Minnesota,KSTP,KSTP4227413,69,81,67,90,11,16,13,9.9,713,0,0,CLR,Fair,705,79,80,58,49,66,180,12,0,201,CLR,10,605,61,666,605,666,865,0,0,0,29.88,1011.9,46,CLR,Fair
MIN2014,28-Dec-14,28-Dec-14,1:00,13,MIN,-7,CHI,22,U,47.5,2014,Week 17,52364,MIN,-7,7,CAR,13,9,N,50805,1,0,22,0,Minnesota,KSTP,KSTP4200113,15,24,77,92,3,8,56,9.4,111,0,0,CLR,Fair,705,22,15,15,75,20,370,5,100,33,OVC,10,130,26,156,261,287,373,0,0,0,30.22,1023.3,40,MC,Overcast
MIN2014,28-Sep-14,28-Sep-14,4:25,16,ATL,-6,MIN,69,O,47.5,2014,Week 4,52173,MIN,6,-6,ATL,41,28,Y,50805,1,0,80,0,Minnesota,KSTP,KSTP4191016,68,82,74,96,4,10,7,8.8,650,0,0,CLR,Fair,705,80,80,54,41,64,200,5,0,201,CLR,10,223,22,245,223,245,319,0,0,0,30.03,1016.8,46,CLR,Fair
MIN2013,29-Dec-13,29-Dec-13,1:00,13,DET,-2,MIN,27,U,50,2013,Week 17,64134,MIN,2,-2,NYG,14,13,N,64121,0,31,72,1,Minnesota,KSTP,KSTP4163713,0,21,62,88,14,24,53,10,391,0,0,CLR,Fair,705,-1,-22,-15,51,-2,320,17,20,75,SCT,10,236,26,262,262,288,374,0,0,0,30.35,1027.6,44,PC,Partly Cloudy
MIN2014,30-Nov-14,30-Nov-14,1:00,13,MIN,-2.5,CAR,44,O,41.5,2014,Week 13,52016,MIN,-2.5,2.5,ARI,31,13,Y,50805,1,0,15,0,Minnesota,KSTP,KSTP4197313,13,26,64,84,16,23,38,10,227,0,0,CLR,Fair,705,16,2,2,54,13,320,14,100,100,OVC,10,138,28,166,276,304,395,0,0,0,30.2,1022.8,40,MC,Overcast
MIN2017,31-Dec-17,31-Dec-17,1:00,13,MIN,-13,CHI,33,U,38.5,2017,Week 17,66802,MIN,-13,13,CHI,23,10,N,66655,0,1,56,0,Minnesota,KSTP,KSTP4310013,-10,-5,63,71,10,15,27,10,528,0,0,CLR,Fair,705,-9,-25,-20,58,-10,320,8,0,201,CLR,10,265,26,291,265,291,379,0,0,0,30.77,1044,46,CLR,Fair
TBB2016,1-Jan-17,1-Jan-17,1:00,13,TB,-3.5,CAR,33,U,44.5,2016,Week 17,62037,TB,-3.5,3.5,TB,17,16,N,65618,0,18,71,0,Tampa,KTPF,KTPF4273613,71,84,81,94,3,9,34,9.4,443,0,0,CLR,Fair,7,81,84,68,66,72,190,6,0,201,SCT,10,513,57,570,570,627,814,0,0,0,30.15,1020.9,46,CLR,Fair
TBB2017,1-Oct-17,1-Oct-17,4:05,16,TB,-2.5,NYG,48,O,45.5,2017,Week 4,63916,TB,-2.5,2.5,NO,25,23,N,65618,0,19,26,0,Tampa,KTPF,KTPF4300916,78,91,90,100,9,25,92,9.4,71,0.17,0,MC,Overcast,7,73,78,73,100,73,80,10,100,120,BKN,10,77,38,115,385,423,550,99,0.09,0,29.93,1013.5,18,RAIN,Light Rain
TBB2016,2-Oct-16,2-Oct-16,4:05,16,DEN,-3.5,TB,34,U,43,2016,Week 4,60375,TB,3.5,-3.5,CAR,7,27,Y,65618,0,18,89,0,Tampa,KTPF,KTPF4264516,81,91,80,94,5,16,60,9.4,361,1.13,0,CLR,Few High Clouds,7,91,101,73,56,79,290,5,6,201,CLR,10,364,38,402,375,413,536,0,0,0,29.91,1013.1,44,PC,Partly Cloudy
TBB2016,3-Nov-16,3-Nov-16,8:25,20,ATL,-4.5,TB,71,O,49.5,2016,Week 9,57797,TB,4.5,-4.5,SEA,28,43,Y,65618,0,18,75,0,Tampa,KTPF,KTPF4267720,77,86,73,94,6,10,45,10,385,0,0,CLR,Fair,7,77,80,66,69,70,30,3,20,50,OVC,10,0,0,0,0,0,0,0,0,0,30.12,1019.9,44,PC,Partly Cloudy
TBB2015,4-Oct-15,4-Oct-15,1:00,13,CAR,-3,TB,60,O,40.5,2015,Week 4,57468,TB,3,-3,TEN,23,37,Y,65890,0,17,75,0,Tampa,KTPF,KTPF4228113,72,79,88,94,3,10,41,10,215,0.52,0,CLR,Fair,7,73,78,72,94,72,340,3,0,201,BKN,10,408,81,488,815,896,1164,0,0.3,0,29.71,1006,46,CLR,Fair
TBB2017,5-Oct-17,5-Oct-17,8:25,20,NE,-4,TB,33,U,54.5,2017,Week 5,64476,TB,4,-4,NE,14,19,Y,65618,0,19,52,0,Tampa,KTPF,KTPF4301320,75,81,85,94,14,21,84,10,43,0,0,MC,Overcast,7,75,79,72,89,73,60,10,70,18,OVC,10,0,0,0,0,0,0,0,0,0,29.93,1013.5,42,MC,Mostly Cloudy
TBB2015,6-Dec-15,6-Dec-15,1:00,13,TB, PK,ATL,42,U,46.5,2015,Week 13,58221,TB, PK,PK,MIN,23,19,PK,65890,0,17,78,0,Tampa,KTPF,KTPF4234413,73,82,76,94,12,17,50,10,339,0,0,PC,Partly Cloudy,7,82,85,64,55,71,70,15,20,36,SCT,10,511,57,568,568,625,811,0,0,0,30.22,1023.3,46,CLR,Fair
TBB2014,7-Sep-14,7-Sep-14,4:25,16,TB,-4.5,CAR,34,U,38.5,2014,Week 1,62442,TB,-4.5,4.5,TEN,14,20,Y,65890,0,16,79,0,Tampa,KTPF,KTPF4188916,81,91,87,100,6,13,52,10,268,0,0,PC,High Overcast,7,91,101,75,59,79,300,8,62,188,OVC,10,348,50,398,505,555,721,0,0,0,29.94,1014.2,50,PC,High Overcast
TBB2013,8-Dec-13,8-Dec-13,1:00,13,TB,-3,BUF,33,U,43,2013,Week 14,59194,TB,-3,3,LAC,27,6,Y,65890,0,15,83,0,Tampa,KTPF,KTPF4161613,73,82,77,100,4,10,22,10,500,0,0,CLR,Fair,7,82,85,66,58,72,140,8,20,46,CLR,10,508,57,566,565,622,808,0,0,0,30.16,1021.6,44,PC,Partly Cloudy
TBB2019,8-Dec-19,8-Dec-19,1:00,13,IND,-3,TB,73,O,34,2019,Week 14,50232,TB,3,-3,IND,38,35,N,65618,0,21,70,0,Tampa,KTPF,KTPF4380713,70,81,76,100,7,13,77,9.8,189,0,0,MC,Mostly Cloudy,10,79,81,63,58,69,150,7,90,48,SCT,7,311,57,368,565,622,808,0,0,0,30.14,1020.6,42,MC,Mostly Cloudy
TBB2015,8-Nov-15,8-Nov-15,4:05,16,NYG,-2,TB,50,O,49,2015,Week 9,64351,TB,2,-2,CHI,18,32,Y,65890,0,17,77,0,Tampa,KTPF,KTPF4231616,80,90,83,94,5,12,49,10,354,0.02,0,PC,High Overcast,7,79,85,75,89,76,220,7,93,39,SCT,10,159,23,182,227,250,325,0,0.02,0,29.99,1015.9,50,PC,High Overcast
TBB2019,8-Sep-19,8-Sep-19,4:25,16,TB,-1,SF,48,U,51,2019,Week 1,55976,TB,-1,1,SF,17,31,Y,65618,0,21,55,0,Tampa,KTPF,KTPF4371616,84,91,73,100,3,9,96,10,54,0,0,MC,Overcast,10,91,101,73,56,79,220,7,100,100,OVC,10,250,50,300,500,550,714,0,0,0,29.99,1015.9,40,MC,Overcast
TBB2014,9-Nov-14,9-Nov-14,1:00,13,ATL,-3,TB,44,U,47,2014,Week 10,57751,TB,3,-3,TB,17,27,Y,65890,0,16,66,0,Tampa,KTPF,KTPF4195213,63,70,85,94,4,9,68,9.4,201,0.15,0,MC,Overcast,7,68,68,59,73,63,40,9,20,120,BKN,10,599,64,663,644,708,920,0,0,0,29.91,1013.2,46,CLR,Fair
TBB2017,10-Dec-17,10-Dec-17,1:00,13,TB, PK,DET,45,U,48,2017,Week 14,60372,TB, PK,PK,DET,21,24,PK,65618,0,19,75,0,Tampa,KTPF,KTPF4307913,48,57,62,87,6,12,0,10,625,0,0,CLR,Fair,7,54,51,36,51,45,330,7,0,201,CLR,10,563,56,619,563,619,804,0,0,0,30.3,1026,46,CLR,Fair
TBB2019,10-Nov-19,10-Nov-19,1:00,13,TB,-4.5,ARI,57,O,39,2019,Week 10,40038,TB,-4.5,4.5,ARI,30,27,N,65618,0,21,33,0,Tampa,KTPF,KTPF4377913,68,81,76,100,10,15,75,10,273,0,0,MC,Overcast,10,79,80,59,51,67,80,7,70,110,BKN,10,483,64,547,640,704,915,0,0,0,30.14,1020.6,42,MC,Mostly Cloudy
TBB2016,11-Dec-16,11-Dec-16,4:25,16,TB,-2,NO,27,U,52,2016,Week 14,62140,TB,-2,2,IND,16,11,Y,65618,0,18,75,0,Tampa,KTPF,KTPF4271516,69,81,81,94,10,14,59,9.9,145,0.05,0,MC,Overcast,7,79,82,68,70,72,80,9,100,50,BKN,10,95,19,114,190,209,271,0,0,0,30.16,1021.3,40,MC,Overcast
TBB2013,11-Nov-13,11-Nov-13,8:40,20,MIA,-2.5,TB,41,O,40,2013,Week 10,64448,TB,2.5,-2.5,CLE,22,19,Y,65890,0,15,73,0,Tampa,KTPF,KTPF4158920,71,82,75,94,7,12,10,10,579,0,0,CLR,Few High Clouds,7,73,77,63,69,67,0,0,10,301,CLR,10,0,0,0,0,0,0,0,0,0,30.1,1019.6,54,CLR,Few High Clouds
TBB2015,11-Oct-15,11-Oct-15,1:00,13,TB,-1,JAX,69,O,41.5,2015,Week 5,58490,TB,-1,1,CAR,38,31,Y,65890,0,17,83,0,Tampa,KTPF,KTPF4228813,79,88,75,100,3,10,4,9.9,677,0,0,CLR,Fair,7,88,90,64,46,72,310,6,0,201,SCT,10,624,78,702,780,858,1115,0,0,0,29.89,1012.5,46,CLR,Fair
TBB2017,12-Nov-17,12-Nov-17,1:00,13,TB,-1,NYJ,25,U,44.5,2017,Week 10,57911,TB,-1,1,NYG,15,10,Y,65618,0,19,51,0,Tampa,KTPF,KTPF4305113,71,79,94,100,11,17,4,9.4,635,0.01,0,CLR,Fair,7,73,78,73,100,73,90,12,0,201,CLR,7,632,63,695,632,695,903,0,0,0,30.14,1020.3,46,CLR,Fair
TBB2014,12-Oct-14,12-Oct-14,1:00,13,BAL,-3.5,TB,65,O,44.5,2014,Week 6,60041,TB,3.5,-3.5,NE,17,48,Y,65890,0,16,87,0,Tampa,KTPF,KTPF4192413,80,90,77,100,8,15,1,10,682,0,0,CLR,Fair,7,90,98,73,57,78,170,9,5,142,FEW,10,757,78,835,776,854,1108,0,0,0,30.04,1017.5,45,CLR,Mostly Clear
TBB2015,13-Dec-15,13-Dec-15,1:00,13,TB,-6,NO,41,U,51.5,2015,Week 14,62138,TB,-6,6,KC,17,24,Y,65890,0,17,80,0,Tampa,KTPF,KTPF4235113,76,86,81,100,8,16,53,9.8,254,0.01,0,PC,Partly Cloudy,7,86,89,66,52,73,140,16,20,42,SCT,10,504,56,560,560,616,801,0,0,0,30.02,1016.5,44,PC,Partly Cloudy
TBB2016,13-Nov-16,13-Nov-16,1:00,13,CHI,-2.5,TB,46,O,45,2016,Week 10,62898,TB,2.5,-2.5,JAX,36,10,Y,65618,0,18,77,0,Tampa,KTPF,KTPF4268713,70,82,78,100,5,10,45,8.2,540,0,0,CLR,Fair,7,82,85,64,55,71,200,5,0,201,CLR,10,625,62,687,625,687,893,0,0,0,30.08,1018.9,46,CLR,Fair
TBB2013,13-Oct-13,13-Oct-13,1:00,13,PHI,-3,TB,51,O,45,2013,Week 6,62505,TB,3,-3,LAC,20,31,Y,65890,0,15,84,0,Tampa,KTPF,KTPF4156013,75,86,61,83,4,9,26,10,504,0,0,CLR,Fair,7,84,84,55,37,67,40,8,70,60,SCT,10,500,77,578,770,847,1100,0,0,0,30.05,1018.2,42,MC,Mostly Cloudy
TBB2019,13-Oct-19,13-Oct-19,1:00,13,CAR,-2.5,TB,63,O,50,2019,Week 6,60087,TB,2.5,-2.5,CAR,26,37,Y,65618,0,21,66,0,Tampa,KTPF,KTPF4375113,79,88,73,100,4,8,97,10,24,0,0,MC,Overcast,10,86,90,68,55,74,210,5,90,120,OVC,10,504,77,581,770,847,1100,0,0,0,30.03,1016.9,42,MC,Mostly Cloudy
TBB2015,13-Sep-15,13-Sep-15,4:25,16,TB,-3,TEN,56,O,40.5,2015,Week 1,63945,TB,-3,3,CAR,14,42,Y,65890,0,17,81,0,Tampa,KTPF,KTPF4226016,81,88,82,100,5,8,61,10,242,0.89,0,PC,High Overcast,7,88,96,73,62,78,50,6,20,31,SCT,10,428,47,474,475,522,678,0,0,0,29.94,1014.2,44,PC,Partly Cloudy
TBB2014,14-Sep-14,14-Sep-14,4:05,16,TB,-4.5,LAR,36,U,37.5,2014,Week 2,59923,TB,-4.5,4.5,DET,17,19,N,65890,0,16,78,0,Tampa,KTPF,KTPF4189616,80,92,90,100,7,15,8,9.6,650,0.17,0,CLR,Fair,7,75,81,75,100,75,370,7,100,16,BKN,0.2,236,47,282,471,518,673,0,0,0,30.13,1019.6,14,SHWR,Heavy Thundershower
TBB2013,15-Dec-13,15-Dec-13,1:00,13,SF,-5,TB,47,O,41,2013,Week 15,64142,TB,5,-5,SF,14,33,Y,65890,0,15,70,0,Tampa,KTPF,KTPF4162313,67,72,82,94,6,15,87,9,0,0.04,0,MC,Overcast,7,70,70,57,64,62,0,0,100,32,OVC,10,280,56,336,560,616,800,0,0,0,30,1016.2,40,MC,Overcast
TBB2015,15-Nov-15,15-Nov-15,1:00,13,DAL,-1,TB,16,U,43.5,2015,Week 10,64113,TB,1,-1,JAX,10,6,Y,65890,0,17,77,0,Tampa,KTPF,KTPF4232313,73,81,72,88,12,17,60,10,294,0,0,PC,High Overcast,7,81,83,64,58,70,80,13,20,65,BKN,10,560,62,622,622,684,888,0,0,0,30.22,1023.3,44,PC,Partly Cloudy
TBB2013,15-Sep-13,15-Sep-13,4:05,16,NO,-3.5,TB,30,U,48.5,2013,Week 2,60870,TB,3.5,-3.5,PIT,14,16,N,65890,0,15,93,0,Tampa,KTPF,KTPF4153216,79,91,78,94,8,29,53,9.5,307,0.1,0,CLR,Few High Clouds,7,73,77,70,89,71,130,29,100,80,BKN,4,233,47,280,466,513,666,0,0,0,30.06,1017.9,18,RAIN,Light Rain
TBB2013,17-Nov-13,17-Nov-13,1:00,13,TB,-2,ATL,69,O,43.5,2013,Week 11,55360,TB,-2,2,HOU,41,28,Y,65890,0,15,79,0,Tampa,KTPF,KTPF4159513,74,82,78,88,3,12,82,10,155,0,0,MC,Overcast,7,81,84,68,66,72,0,0,100,75,OVC,10,307,61,368,614,675,878,0,0,0,30.04,1017.6,40,MC,Overcast
TBB2019,17-Nov-19,17-Nov-19,1:00,13,NO,-4,TB,51,O,58,2019,Week 11,54333,TB,4,-4,NO,17,34,Y,65618,0,21,23,0,Tampa,KTPF,KTPF4378613,53,55,93,100,4,8,100,10,0,0,0,MC,Overcast,10,55,55,50,82,53,0,0,100,13,OVC,10,307,61,368,614,675,878,0,0,0,29.94,1013.8,40,MC,Overcast
TBB2017,17-Sep-17,17-Sep-17,1:00,13,TB,-7,CHI,36,U,44,2017,Week 2,56640,TB,-7,7,OAK,29,7,Y,65618,0,19,60,0,Tampa,KTPF,KTPF4299513,84,91,75,94,6,9,91,9.9,39,0,0,MC,Overcast,7,90,97,72,55,77,50,8,100,100,OVC,10,227,89,316,892,981,1275,0,0,0,30,1016.2,40,MC,Overcast
TBB2017,18-Dec-17,18-Dec-17,8:30,20,ATL,-6.5,TB,45,U,48.5,2017,Week 15,62382,TB,6.5,-6.5,GB,21,24,N,65618,0,19,71,0,Tampa,KTPF,KTPF4308720,69,79,88,100,1,6,4,8.4,562,0,0,CLR,Fair,7,72,72,66,83,68,0,0,0,201,CLR,10,0,0,0,0,0,0,0,0,0,30.25,1024.7,46,CLR,Fair
TBB2014,21-Dec-14,21-Dec-14,1:00,13,GB,-11.5,TB,23,U,49,2014,Week 16,64247,TB,11.5,-11.5,CHI,3,20,Y,65890,0,16,76,0,Tampa,KTPF,KTPF4199413,70,79,82,94,4,9,82,9.6,166,0.06,0,MC,Overcast,7,79,81,64,61,69,0,0,73,120,SCT,10,520,56,576,559,615,799,0,0,0,30.04,1018.9,50,PC,High Overcast
TBB2019,21-Dec-19,21-Dec-19,1:00,13,HOU,-2,TB,43,O,51,2019,Week 16,49036,TB,2,-2,HOU,20,23,Y,65618,0,21,49,0,Tampa,KTPF,KTPF4382013,68,73,80,94,11,17,83,9.9,96,0.4,0,RAIN,Moderate Rain,10,73,77,63,69,67,110,16,100,33,OVC,10,280,56,336,559,615,799,0,0,0,30.17,1021.6,40,MC,Overcast
TBB2019,22-Sep-19,22-Sep-19,4:05,16,TB,-5.5,NYG,63,O,48,2019,Week 3,55070,TB,-5.5,5.5,NYG,31,32,N,65618,0,21,50,0,Tampa,KTPF,KTPF4373016,80,90,70,100,10,18,97,10,30,0,0,MC,Overcast,10,88,91,66,49,73,80,13,100,100,OVC,10,65,43,108,433,476,618,0,0,0,30.02,1016.5,40,MC,Overcast
TBB2013,24-Oct-13,24-Oct-13,8:25,20,CAR,-7,TB,44,O,39.5,2013,Week 8,59073,TB,7,-7,MIA,13,31,Y,65890,0,15,70,0,Tampa,KTPF,KTPF4157120,65,70,56,77,10,14,80,10,113,0,0,PC,High Overcast,7,64,64,54,68,58,60,8,88,301,CLR,10,0,0,0,0,0,0,0,0,0,30.15,1021.3,50,PC,High Overcast
TBB2016,25-Sep-16,25-Sep-16,4:05,16,TB,-3.5,LAR,69,O,40.5,2016,Week 3,55009,TB,-3.5,3.5,NYJ,32,37,Y,65618,0,18,89,0,Tampa,KTPF,KTPF4263816,83,91,77,89,4,13,31,10,585,0.02,0,CLR,Fair,7,91,101,73,56,79,250,6,0,201,CLR,10,412,41,453,412,453,588,0,0,0,29.95,1014.5,46,CLR,Fair
TBB2014,26-Oct-14,26-Oct-14,1:00,13,TB,-1.5,MIN,32,U,43,2014,Week 8,56577,TB,-1.5,1.5,JAX,13,19,Y,65890,0,16,78,0,Tampa,KTPF,KTPF4193813,67,82,73,99,5,9,0,9.9,673,0,0,CLR,Fair,7,81,81,56,43,66,250,6,0,152,CLR,10,706,71,777,706,777,1009,0,0,0,30,1016.2,46,CLR,Fair
TBB2015,27-Dec-15,27-Dec-15,1:00,13,TB,-3,CHI,47,O,44,2015,Week 16,63734,TB,-3,3,NYJ,21,26,Y,65890,0,17,83,0,Tampa,KTPF,KTPF4236513,79,86,77,94,9,15,45,10,383,0,0,CLR,Fair,7,86,89,66,52,73,130,15,35,137,CLR,10,464,56,520,563,619,805,0,0,0,30.04,1017.2,46,CLR,Fair
TBB2016,27-Nov-16,27-Nov-16,4:05,16,SEA,-5.5,TB,19,U,46,2016,Week 12,63674,TB,5.5,-5.5,OAK,14,5,Y,65618,0,18,78,0,Tampa,KTPF,KTPF4270116,69,81,65,82,9,14,20,10,489,0,0,CLR,Fair,7,79,80,59,51,67,60,9,60,70,CLR,10,134,19,153,191,210,273,0,0,0,30.04,1017.2,44,PC,Partly Cloudy
TBB2014,28-Dec-14,28-Dec-14,1:00,13,NO,-6,TB,43,U,46.5,2014,Week 17,59952,TB,6,-6,WAS,20,23,N,65890,0,16,77,0,Tampa,KTPF,KTPF4200113,72,81,86,100,2,12,21,7.9,546,0,0,CLR,Fair,7,79,82,69,72,72,200,8,9,165,CLR,10,539,56,595,564,620,806,0,0,0,30.13,1020.6,54,CLR,Few High Clouds
TBB2017,29-Oct-17,29-Oct-17,1:00,13,TB,-1,CAR,20,U,46,2017,Week 8,58545,TB,-1,1,LAR,3,17,Y,65618,0,19,78,0,Tampa,KTPF,KTPF4303713,62,68,76,100,7,15,37,9,410,0.03,0,CLR,Fair,7,64,63,50,60,56,330,13,20,37,CLR,10,623,69,692,692,761,989,0,0,0,29.83,1010.8,44,PC,Partly Cloudy
TBB2013,29-Sep-13,29-Sep-13,1:00,13,TB,-2.5,ARI,23,U,40.5,2013,Week 4,44956,TB,-2.5,2.5,TB,10,13,Y,65890,0,15,84,0,Tampa,KTPF,KTPF4154613,78,88,70,94,7,10,19,10,691,0,0,CLR,Fair,7,86,89,66,52,73,30,3,0,201,SCT,10,755,84,839,839,923,1199,0,0,0,29.96,1014.8,46,CLR,Fair
TBB2014,30-Nov-14,30-Nov-14,1:00,13,CIN,-6,TB,27,U,43.5,2014,Week 13,56340,TB,6,-6,BUF,13,14,N,65890,0,16,76,0,Tampa,KTPF,KTPF4197313,67,81,71,88,7,10,9,10,522,0,0,CLR,Fair,7,77,79,59,54,66,100,10,20,41,SCT,10,520,58,578,578,636,826,0,0,0,30.28,1025.7,44,PC,Partly Cloudy
TBB2016,30-Oct-16,30-Oct-16,1:00,13,TB, PK,OAK,54,O,48,2016,Week 8,61068,TB, PK,PK,ATL,24,30,PK,65618,0,18,84,0,Tampa,KTPF,KTPF4267313,79,90,69,88,9,13,17,10,615,0,0,CLR,Fair,7,88,91,66,49,73,80,12,0,201,CLR,10,683,68,751,683,751,976,0,0,0,30.06,1017.9,46,CLR,Fair
TBB2017,31-Dec-17,31-Dec-17,4:25,16,NO,-6,TB,55,O,49,2017,Week 17,55376,TB,6,-6,ARI,31,24,Y,65618,0,19,47,0,Tampa,KTPF,KTPF4310016,59,68,77,100,1,6,16,9.8,600,0,0,CLR,Fair,7,68,68,52,56,59,0,0,0,201,CLR,10,220,22,242,220,242,314,0,0,0,30.1,1019.3,46,CLR,Fair